<?xml version='1.0' encoding='UTF-8' standalone='yes' ?>
<gpx xmlns="http://www.topografix.com/GPX/1/1" xmlns:geotracker="http://ilyabogdanovich.com/gpx/extensions/geotracker" xmlns:xsi="http://www.w3.org/2001/XMLSchema-instance" xsi:schemaLocation="http://www.topografix.com/GPX/1/1 http://www.topografix.com/GPX/1/1/gpx.xsd" version="1.1" creator="Recorded in Geo Tracker for Android from Ilya Bogdanovich">
  <metadata>
    <name>c_0720_06</name>
    <author>
      <name>Recorded in Geo Tracker for Android from Ilya Bogdanovich</name>
      <link href="https://play.google.com/store/apps/details?id=com.ilyabogdanovich.geotracker" />
    </author>
    <link href="https://play.google.com/store/apps/details?id=com.ilyabogdanovich.geotracker" />
    <time>2025-07-20T12:33:52Z</time>
  </metadata>
  <trk>
    <name>c_0720_06</name>
    <src>Recorded in Geo Tracker for Android from Ilya Bogdanovich</src>
    <link href="https://play.google.com/store/apps/details?id=com.ilyabogdanovich.geotracker" />
    <extensions>
      <geotracker:meta>
        <geotracker:length>4853.94</geotracker:length>
        <geotracker:duration>643595</geotracker:duration>
        <geotracker:creationtime>2025-07-20T12:33:52Z</geotracker:creationtime>
        <geotracker:activity>0</geotracker:activity>
      </geotracker:meta>
    </extensions>
    <trkseg>
      <trkpt lat="46.293575" lon="18.52687">
        <ele>204.3</ele>
        <time>2025-07-20T12:33:58Z</time>
      </trkpt>
      <trkpt lat="46.29360833" lon="18.52690833">
        <ele>184.8</ele>
        <time>2025-07-20T12:36:16Z</time>
      </trkpt>
      <trkpt lat="46.29362" lon="18.52703833">
        <ele>177.8</ele>
        <time>2025-07-20T12:36:31Z</time>
      </trkpt>
      <trkpt lat="46.293525" lon="18.52705333">
        <ele>174.8</ele>
        <time>2025-07-20T12:36:36Z</time>
      </trkpt>
      <trkpt lat="46.29343167" lon="18.52700667">
        <ele>173.5</ele>
        <time>2025-07-20T12:36:38Z</time>
      </trkpt>
      <trkpt lat="46.293335" lon="18.52695167">
        <ele>171.8</ele>
        <time>2025-07-20T12:36:40Z</time>
      </trkpt>
      <trkpt lat="46.29319167" lon="18.526875">
        <ele>170</ele>
        <time>2025-07-20T12:36:42Z</time>
      </trkpt>
      <trkpt lat="46.29310167" lon="18.52682">
        <ele>168.9</ele>
        <time>2025-07-20T12:36:43Z</time>
      </trkpt>
      <trkpt lat="46.29295333" lon="18.52673">
        <ele>167.9</ele>
        <time>2025-07-20T12:36:45Z</time>
      </trkpt>
      <trkpt lat="46.29278167" lon="18.526625">
        <ele>166.9</ele>
        <time>2025-07-20T12:36:47Z</time>
      </trkpt>
      <trkpt lat="46.29269" lon="18.52657">
        <ele>167.3</ele>
        <time>2025-07-20T12:36:48Z</time>
      </trkpt>
      <trkpt lat="46.29259167" lon="18.52651333">
        <ele>168.1</ele>
        <time>2025-07-20T12:36:49Z</time>
      </trkpt>
      <trkpt lat="46.29250167" lon="18.52645333">
        <ele>167.8</ele>
        <time>2025-07-20T12:36:50Z</time>
      </trkpt>
      <trkpt lat="46.2924" lon="18.52639667">
        <ele>167.7</ele>
        <time>2025-07-20T12:36:51Z</time>
      </trkpt>
      <trkpt lat="46.2923" lon="18.52634">
        <ele>167.9</ele>
        <time>2025-07-20T12:36:52Z</time>
      </trkpt>
      <trkpt lat="46.29219667" lon="18.52628167">
        <ele>167.9</ele>
        <time>2025-07-20T12:36:53Z</time>
      </trkpt>
      <trkpt lat="46.29209667" lon="18.52622">
        <ele>167.7</ele>
        <time>2025-07-20T12:36:54Z</time>
      </trkpt>
      <trkpt lat="46.29199333" lon="18.52616167">
        <ele>168</ele>
        <time>2025-07-20T12:36:55Z</time>
      </trkpt>
      <trkpt lat="46.29189333" lon="18.5261">
        <ele>168.1</ele>
        <time>2025-07-20T12:36:56Z</time>
      </trkpt>
      <trkpt lat="46.29179333" lon="18.526035">
        <ele>168.2</ele>
        <time>2025-07-20T12:36:57Z</time>
      </trkpt>
      <trkpt lat="46.29168833" lon="18.525965">
        <ele>168.4</ele>
        <time>2025-07-20T12:36:58Z</time>
      </trkpt>
      <trkpt lat="46.29158667" lon="18.52589667">
        <ele>168.5</ele>
        <time>2025-07-20T12:36:59Z</time>
      </trkpt>
      <trkpt lat="46.29148167" lon="18.52583167">
        <ele>168.8</ele>
        <time>2025-07-20T12:37:00Z</time>
      </trkpt>
      <trkpt lat="46.29137333" lon="18.52576333">
        <ele>169.2</ele>
        <time>2025-07-20T12:37:01Z</time>
      </trkpt>
      <trkpt lat="46.29126667" lon="18.52569667">
        <ele>169.9</ele>
        <time>2025-07-20T12:37:02Z</time>
      </trkpt>
      <trkpt lat="46.29115667" lon="18.52562167">
        <ele>170.3</ele>
        <time>2025-07-20T12:37:03Z</time>
      </trkpt>
      <trkpt lat="46.29104667" lon="18.52555833">
        <ele>171.4</ele>
        <time>2025-07-20T12:37:04Z</time>
      </trkpt>
      <trkpt lat="46.29093667" lon="18.52548667">
        <ele>172.4</ele>
        <time>2025-07-20T12:37:05Z</time>
      </trkpt>
      <trkpt lat="46.29082667" lon="18.52541667">
        <ele>173.4</ele>
        <time>2025-07-20T12:37:06Z</time>
      </trkpt>
      <trkpt lat="46.29071833" lon="18.52535167">
        <ele>174.3</ele>
        <time>2025-07-20T12:37:07Z</time>
      </trkpt>
      <trkpt lat="46.29060833" lon="18.52528167">
        <ele>175</ele>
        <time>2025-07-20T12:37:08Z</time>
      </trkpt>
      <trkpt lat="46.290505" lon="18.52522333">
        <ele>176.2</ele>
        <time>2025-07-20T12:37:09Z</time>
      </trkpt>
      <trkpt lat="46.290405" lon="18.52516167">
        <ele>177.1</ele>
        <time>2025-07-20T12:37:10Z</time>
      </trkpt>
      <trkpt lat="46.29030167" lon="18.52509333">
        <ele>178.1</ele>
        <time>2025-07-20T12:37:11Z</time>
      </trkpt>
      <trkpt lat="46.29020333" lon="18.525025">
        <ele>179.4</ele>
        <time>2025-07-20T12:37:12Z</time>
      </trkpt>
      <trkpt lat="46.29010667" lon="18.52496167">
        <ele>180.8</ele>
        <time>2025-07-20T12:37:13Z</time>
      </trkpt>
      <trkpt lat="46.29001333" lon="18.524895">
        <ele>181.2</ele>
        <time>2025-07-20T12:37:14Z</time>
      </trkpt>
      <trkpt lat="46.28992" lon="18.524825">
        <ele>181.4</ele>
        <time>2025-07-20T12:37:15Z</time>
      </trkpt>
      <trkpt lat="46.28982333" lon="18.52475333">
        <ele>181.2</ele>
        <time>2025-07-20T12:37:16Z</time>
      </trkpt>
      <trkpt lat="46.28973" lon="18.524675">
        <ele>180.9</ele>
        <time>2025-07-20T12:37:17Z</time>
      </trkpt>
      <trkpt lat="46.28963" lon="18.52460333">
        <ele>180.8</ele>
        <time>2025-07-20T12:37:18Z</time>
      </trkpt>
      <trkpt lat="46.28952667" lon="18.52453167">
        <ele>181</ele>
        <time>2025-07-20T12:37:19Z</time>
      </trkpt>
      <trkpt lat="46.28943" lon="18.52445667">
        <ele>181.3</ele>
        <time>2025-07-20T12:37:20Z</time>
      </trkpt>
      <trkpt lat="46.28932833" lon="18.52438167">
        <ele>182</ele>
        <time>2025-07-20T12:37:21Z</time>
      </trkpt>
      <trkpt lat="46.28922" lon="18.52430833">
        <ele>183.1</ele>
        <time>2025-07-20T12:37:22Z</time>
      </trkpt>
      <trkpt lat="46.289115" lon="18.52422333">
        <ele>184.1</ele>
        <time>2025-07-20T12:37:23Z</time>
      </trkpt>
      <trkpt lat="46.28901333" lon="18.52413667">
        <ele>184.5</ele>
        <time>2025-07-20T12:37:24Z</time>
      </trkpt>
      <trkpt lat="46.2889" lon="18.52404667">
        <ele>184.8</ele>
        <time>2025-07-20T12:37:25Z</time>
      </trkpt>
      <trkpt lat="46.28877833" lon="18.52396">
        <ele>185.9</ele>
        <time>2025-07-20T12:37:26Z</time>
      </trkpt>
      <trkpt lat="46.28866667" lon="18.52387667">
        <ele>186.4</ele>
        <time>2025-07-20T12:37:27Z</time>
      </trkpt>
      <trkpt lat="46.288555" lon="18.523795">
        <ele>186.1</ele>
        <time>2025-07-20T12:37:28Z</time>
      </trkpt>
      <trkpt lat="46.288445" lon="18.52372">
        <ele>186.4</ele>
        <time>2025-07-20T12:37:29Z</time>
      </trkpt>
      <trkpt lat="46.28834167" lon="18.52364833">
        <ele>187</ele>
        <time>2025-07-20T12:37:30Z</time>
      </trkpt>
      <trkpt lat="46.288245" lon="18.52357667">
        <ele>187.6</ele>
        <time>2025-07-20T12:37:31Z</time>
      </trkpt>
      <trkpt lat="46.28815" lon="18.52350333">
        <ele>187.9</ele>
        <time>2025-07-20T12:37:32Z</time>
      </trkpt>
      <trkpt lat="46.28806167" lon="18.52343">
        <ele>188.4</ele>
        <time>2025-07-20T12:37:33Z</time>
      </trkpt>
      <trkpt lat="46.28797" lon="18.52336167">
        <ele>189</ele>
        <time>2025-07-20T12:37:34Z</time>
      </trkpt>
      <trkpt lat="46.287875" lon="18.523295">
        <ele>189.7</ele>
        <time>2025-07-20T12:37:35Z</time>
      </trkpt>
      <trkpt lat="46.28778333" lon="18.52322667">
        <ele>189.8</ele>
        <time>2025-07-20T12:37:36Z</time>
      </trkpt>
      <trkpt lat="46.28769667" lon="18.52316167">
        <ele>190</ele>
        <time>2025-07-20T12:37:37Z</time>
      </trkpt>
      <trkpt lat="46.28761333" lon="18.5231">
        <ele>190.5</ele>
        <time>2025-07-20T12:37:38Z</time>
      </trkpt>
      <trkpt lat="46.28753" lon="18.52304">
        <ele>191</ele>
        <time>2025-07-20T12:37:39Z</time>
      </trkpt>
      <trkpt lat="46.28744833" lon="18.52298333">
        <ele>191.5</ele>
        <time>2025-07-20T12:37:40Z</time>
      </trkpt>
      <trkpt lat="46.28728833" lon="18.52286167">
        <ele>191.1</ele>
        <time>2025-07-20T12:37:42Z</time>
      </trkpt>
      <trkpt lat="46.287135" lon="18.52274667">
        <ele>191.4</ele>
        <time>2025-07-20T12:37:44Z</time>
      </trkpt>
      <trkpt lat="46.28705333" lon="18.52268333">
        <ele>191.6</ele>
        <time>2025-07-20T12:37:45Z</time>
      </trkpt>
      <trkpt lat="46.28697" lon="18.52262167">
        <ele>191.8</ele>
        <time>2025-07-20T12:37:46Z</time>
      </trkpt>
      <trkpt lat="46.286885" lon="18.522555">
        <ele>192.2</ele>
        <time>2025-07-20T12:37:47Z</time>
      </trkpt>
      <trkpt lat="46.2868" lon="18.52249">
        <ele>192.7</ele>
        <time>2025-07-20T12:37:48Z</time>
      </trkpt>
      <trkpt lat="46.28671833" lon="18.522425">
        <ele>193.1</ele>
        <time>2025-07-20T12:37:49Z</time>
      </trkpt>
      <trkpt lat="46.28663333" lon="18.52236667">
        <ele>192.9</ele>
        <time>2025-07-20T12:37:50Z</time>
      </trkpt>
      <trkpt lat="46.28655167" lon="18.522305">
        <ele>193</ele>
        <time>2025-07-20T12:37:51Z</time>
      </trkpt>
      <trkpt lat="46.28646833" lon="18.522245">
        <ele>193.3</ele>
        <time>2025-07-20T12:37:52Z</time>
      </trkpt>
      <trkpt lat="46.28638667" lon="18.52218167">
        <ele>193.1</ele>
        <time>2025-07-20T12:37:53Z</time>
      </trkpt>
      <trkpt lat="46.286305" lon="18.52211167">
        <ele>193.1</ele>
        <time>2025-07-20T12:37:54Z</time>
      </trkpt>
      <trkpt lat="46.28622833" lon="18.52204333">
        <ele>193.1</ele>
        <time>2025-07-20T12:37:55Z</time>
      </trkpt>
      <trkpt lat="46.28609167" lon="18.52191">
        <ele>193.1</ele>
        <time>2025-07-20T12:37:57Z</time>
      </trkpt>
      <trkpt lat="46.28598667" lon="18.521795">
        <ele>193.3</ele>
        <time>2025-07-20T12:37:59Z</time>
      </trkpt>
      <trkpt lat="46.28588333" lon="18.52170167">
        <ele>193</ele>
        <time>2025-07-20T12:38:02Z</time>
      </trkpt>
      <trkpt lat="46.28578167" lon="18.521755">
        <ele>194.6</ele>
        <time>2025-07-20T12:38:06Z</time>
      </trkpt>
      <trkpt lat="46.28585" lon="18.52188833">
        <ele>191.7</ele>
        <time>2025-07-20T12:38:10Z</time>
      </trkpt>
      <trkpt lat="46.285935" lon="18.521935">
        <ele>190.2</ele>
        <time>2025-07-20T12:38:13Z</time>
      </trkpt>
      <trkpt lat="46.286005" lon="18.52203833">
        <ele>190.1</ele>
        <time>2025-07-20T12:38:17Z</time>
      </trkpt>
      <trkpt lat="46.28613667" lon="18.52204167">
        <ele>191.6</ele>
        <time>2025-07-20T12:38:55Z</time>
      </trkpt>
      <trkpt lat="46.28610333" lon="18.521915">
        <ele>192.1</ele>
        <time>2025-07-20T12:38:58Z</time>
      </trkpt>
      <trkpt lat="46.28593" lon="18.52172333">
        <ele>192.7</ele>
        <time>2025-07-20T12:39:02Z</time>
      </trkpt>
      <trkpt lat="46.28580333" lon="18.52158333">
        <ele>191.8</ele>
        <time>2025-07-20T12:39:04Z</time>
      </trkpt>
      <trkpt lat="46.28567167" lon="18.52142333">
        <ele>192.1</ele>
        <time>2025-07-20T12:39:06Z</time>
      </trkpt>
      <trkpt lat="46.28552833" lon="18.52125333">
        <ele>193.7</ele>
        <time>2025-07-20T12:39:08Z</time>
      </trkpt>
      <trkpt lat="46.285455" lon="18.521165">
        <ele>193.4</ele>
        <time>2025-07-20T12:39:09Z</time>
      </trkpt>
      <trkpt lat="46.28537333" lon="18.52106833">
        <ele>194.1</ele>
        <time>2025-07-20T12:39:10Z</time>
      </trkpt>
      <trkpt lat="46.28528833" lon="18.52096333">
        <ele>194.8</ele>
        <time>2025-07-20T12:39:11Z</time>
      </trkpt>
      <trkpt lat="46.285205" lon="18.52086833">
        <ele>195.5</ele>
        <time>2025-07-20T12:39:12Z</time>
      </trkpt>
      <trkpt lat="46.28510833" lon="18.52076">
        <ele>196.6</ele>
        <time>2025-07-20T12:39:13Z</time>
      </trkpt>
      <trkpt lat="46.28501667" lon="18.52065">
        <ele>197.1</ele>
        <time>2025-07-20T12:39:14Z</time>
      </trkpt>
      <trkpt lat="46.28492833" lon="18.52053833">
        <ele>197.7</ele>
        <time>2025-07-20T12:39:15Z</time>
      </trkpt>
      <trkpt lat="46.28483833" lon="18.520435">
        <ele>197.5</ele>
        <time>2025-07-20T12:39:16Z</time>
      </trkpt>
      <trkpt lat="46.28475" lon="18.52033">
        <ele>197.5</ele>
        <time>2025-07-20T12:39:17Z</time>
      </trkpt>
      <trkpt lat="46.28466167" lon="18.52022333">
        <ele>197.9</ele>
        <time>2025-07-20T12:39:18Z</time>
      </trkpt>
      <trkpt lat="46.28457333" lon="18.52011">
        <ele>199</ele>
        <time>2025-07-20T12:39:19Z</time>
      </trkpt>
      <trkpt lat="46.284485" lon="18.52000333">
        <ele>199.9</ele>
        <time>2025-07-20T12:39:20Z</time>
      </trkpt>
      <trkpt lat="46.28439833" lon="18.51990333">
        <ele>200.4</ele>
        <time>2025-07-20T12:39:21Z</time>
      </trkpt>
      <trkpt lat="46.28431833" lon="18.51980833">
        <ele>200.6</ele>
        <time>2025-07-20T12:39:22Z</time>
      </trkpt>
      <trkpt lat="46.284235" lon="18.51971333">
        <ele>200.9</ele>
        <time>2025-07-20T12:39:23Z</time>
      </trkpt>
      <trkpt lat="46.284155" lon="18.51961833">
        <ele>200.9</ele>
        <time>2025-07-20T12:39:24Z</time>
      </trkpt>
      <trkpt lat="46.28407833" lon="18.51953333">
        <ele>201.5</ele>
        <time>2025-07-20T12:39:25Z</time>
      </trkpt>
      <trkpt lat="46.28393333" lon="18.51938833">
        <ele>202.3</ele>
        <time>2025-07-20T12:39:27Z</time>
      </trkpt>
      <trkpt lat="46.283795" lon="18.51928167">
        <ele>202.9</ele>
        <time>2025-07-20T12:39:29Z</time>
      </trkpt>
      <trkpt lat="46.28369833" lon="18.51920333">
        <ele>202.1</ele>
        <time>2025-07-20T12:39:31Z</time>
      </trkpt>
      <trkpt lat="46.28366667" lon="18.519075">
        <ele>201.4</ele>
        <time>2025-07-20T12:39:34Z</time>
      </trkpt>
      <trkpt lat="46.28372167" lon="18.518965">
        <ele>200.6</ele>
        <time>2025-07-20T12:39:39Z</time>
      </trkpt>
      <trkpt lat="46.283855" lon="18.51892333">
        <ele>199.9</ele>
        <time>2025-07-20T12:39:42Z</time>
      </trkpt>
      <trkpt lat="46.28399" lon="18.51889167">
        <ele>199.7</ele>
        <time>2025-07-20T12:39:44Z</time>
      </trkpt>
      <trkpt lat="46.28408167" lon="18.51886667">
        <ele>199.6</ele>
        <time>2025-07-20T12:39:45Z</time>
      </trkpt>
      <trkpt lat="46.28418167" lon="18.51883167">
        <ele>199.6</ele>
        <time>2025-07-20T12:39:46Z</time>
      </trkpt>
      <trkpt lat="46.28428" lon="18.518795">
        <ele>199.9</ele>
        <time>2025-07-20T12:39:47Z</time>
      </trkpt>
      <trkpt lat="46.28438333" lon="18.518755">
        <ele>200.3</ele>
        <time>2025-07-20T12:39:48Z</time>
      </trkpt>
      <trkpt lat="46.28449" lon="18.51870167">
        <ele>200.7</ele>
        <time>2025-07-20T12:39:49Z</time>
      </trkpt>
      <trkpt lat="46.2846" lon="18.51863667">
        <ele>200.6</ele>
        <time>2025-07-20T12:39:50Z</time>
      </trkpt>
      <trkpt lat="46.28471333" lon="18.51856167">
        <ele>200.6</ele>
        <time>2025-07-20T12:39:51Z</time>
      </trkpt>
      <trkpt lat="46.28483333" lon="18.51847333">
        <ele>201</ele>
        <time>2025-07-20T12:39:52Z</time>
      </trkpt>
      <trkpt lat="46.28496" lon="18.518375">
        <ele>201.2</ele>
        <time>2025-07-20T12:39:53Z</time>
      </trkpt>
      <trkpt lat="46.28508333" lon="18.51825833">
        <ele>200.7</ele>
        <time>2025-07-20T12:39:54Z</time>
      </trkpt>
      <trkpt lat="46.28521" lon="18.51812167">
        <ele>199.9</ele>
        <time>2025-07-20T12:39:55Z</time>
      </trkpt>
      <trkpt lat="46.28533" lon="18.517975">
        <ele>199.6</ele>
        <time>2025-07-20T12:39:56Z</time>
      </trkpt>
      <trkpt lat="46.28544833" lon="18.51781">
        <ele>200</ele>
        <time>2025-07-20T12:39:57Z</time>
      </trkpt>
      <trkpt lat="46.28556833" lon="18.51764">
        <ele>200.7</ele>
        <time>2025-07-20T12:39:58Z</time>
      </trkpt>
      <trkpt lat="46.28568333" lon="18.51744167">
        <ele>201.5</ele>
        <time>2025-07-20T12:39:59Z</time>
      </trkpt>
      <trkpt lat="46.28578833" lon="18.51723">
        <ele>202</ele>
        <time>2025-07-20T12:40:00Z</time>
      </trkpt>
      <trkpt lat="46.28589167" lon="18.51700167">
        <ele>201.5</ele>
        <time>2025-07-20T12:40:01Z</time>
      </trkpt>
      <trkpt lat="46.28598833" lon="18.51676667">
        <ele>201.8</ele>
        <time>2025-07-20T12:40:02Z</time>
      </trkpt>
      <trkpt lat="46.28607667" lon="18.516515">
        <ele>201.8</ele>
        <time>2025-07-20T12:40:03Z</time>
      </trkpt>
      <trkpt lat="46.286165" lon="18.51625667">
        <ele>202.4</ele>
        <time>2025-07-20T12:40:04Z</time>
      </trkpt>
      <trkpt lat="46.28625333" lon="18.51599667">
        <ele>203.1</ele>
        <time>2025-07-20T12:40:05Z</time>
      </trkpt>
      <trkpt lat="46.28634167" lon="18.51575167">
        <ele>202.9</ele>
        <time>2025-07-20T12:40:06Z</time>
      </trkpt>
      <trkpt lat="46.28643167" lon="18.51550667">
        <ele>203.3</ele>
        <time>2025-07-20T12:40:07Z</time>
      </trkpt>
      <trkpt lat="46.28652667" lon="18.515265">
        <ele>203.4</ele>
        <time>2025-07-20T12:40:08Z</time>
      </trkpt>
      <trkpt lat="46.28663167" lon="18.51502833">
        <ele>202.7</ele>
        <time>2025-07-20T12:40:09Z</time>
      </trkpt>
      <trkpt lat="46.28689833" lon="18.51459833">
        <ele>200.1</ele>
        <time>2025-07-20T12:40:11Z</time>
      </trkpt>
      <trkpt lat="46.28704667" lon="18.51439333">
        <ele>198.6</ele>
        <time>2025-07-20T12:40:12Z</time>
      </trkpt>
      <trkpt lat="46.28722" lon="18.51420667">
        <ele>198.3</ele>
        <time>2025-07-20T12:40:13Z</time>
      </trkpt>
      <trkpt lat="46.2874" lon="18.514045">
        <ele>198.4</ele>
        <time>2025-07-20T12:40:14Z</time>
      </trkpt>
      <trkpt lat="46.28759" lon="18.51388833">
        <ele>198.4</ele>
        <time>2025-07-20T12:40:15Z</time>
      </trkpt>
      <trkpt lat="46.28779" lon="18.51373833">
        <ele>198.9</ele>
        <time>2025-07-20T12:40:16Z</time>
      </trkpt>
      <trkpt lat="46.28799667" lon="18.513645">
        <ele>198.9</ele>
        <time>2025-07-20T12:40:17Z</time>
      </trkpt>
      <trkpt lat="46.28820833" lon="18.51354">
        <ele>198.5</ele>
        <time>2025-07-20T12:40:18Z</time>
      </trkpt>
      <trkpt lat="46.288425" lon="18.51344333">
        <ele>198.1</ele>
        <time>2025-07-20T12:40:19Z</time>
      </trkpt>
      <trkpt lat="46.28864" lon="18.51336667">
        <ele>197.5</ele>
        <time>2025-07-20T12:40:20Z</time>
      </trkpt>
      <trkpt lat="46.28885667" lon="18.51327667">
        <ele>197.1</ele>
        <time>2025-07-20T12:40:21Z</time>
      </trkpt>
      <trkpt lat="46.28907333" lon="18.51318333">
        <ele>196.4</ele>
        <time>2025-07-20T12:40:22Z</time>
      </trkpt>
      <trkpt lat="46.28929667" lon="18.51307833">
        <ele>196.2</ele>
        <time>2025-07-20T12:40:23Z</time>
      </trkpt>
      <trkpt lat="46.28951167" lon="18.51298333">
        <ele>196.4</ele>
        <time>2025-07-20T12:40:24Z</time>
      </trkpt>
      <trkpt lat="46.28973" lon="18.512895">
        <ele>196.2</ele>
        <time>2025-07-20T12:40:25Z</time>
      </trkpt>
      <trkpt lat="46.289945" lon="18.51281167">
        <ele>195.9</ele>
        <time>2025-07-20T12:40:26Z</time>
      </trkpt>
      <trkpt lat="46.29016667" lon="18.51272167">
        <ele>196</ele>
        <time>2025-07-20T12:40:27Z</time>
      </trkpt>
      <trkpt lat="46.290385" lon="18.51262167">
        <ele>196.1</ele>
        <time>2025-07-20T12:40:28Z</time>
      </trkpt>
      <trkpt lat="46.29060167" lon="18.51254667">
        <ele>196.9</ele>
        <time>2025-07-20T12:40:29Z</time>
      </trkpt>
      <trkpt lat="46.29081667" lon="18.51245833">
        <ele>196.6</ele>
        <time>2025-07-20T12:40:30Z</time>
      </trkpt>
      <trkpt lat="46.29103333" lon="18.51236667">
        <ele>196.7</ele>
        <time>2025-07-20T12:40:31Z</time>
      </trkpt>
      <trkpt lat="46.29123833" lon="18.51229333">
        <ele>197.2</ele>
        <time>2025-07-20T12:40:32Z</time>
      </trkpt>
      <trkpt lat="46.29144667" lon="18.51221167">
        <ele>196.9</ele>
        <time>2025-07-20T12:40:33Z</time>
      </trkpt>
      <trkpt lat="46.29165667" lon="18.51213167">
        <ele>196.8</ele>
        <time>2025-07-20T12:40:34Z</time>
      </trkpt>
      <trkpt lat="46.29187" lon="18.51203833">
        <ele>196.7</ele>
        <time>2025-07-20T12:40:35Z</time>
      </trkpt>
      <trkpt lat="46.29208667" lon="18.511945">
        <ele>196.3</ele>
        <time>2025-07-20T12:40:36Z</time>
      </trkpt>
      <trkpt lat="46.292295" lon="18.511865">
        <ele>196.9</ele>
        <time>2025-07-20T12:40:37Z</time>
      </trkpt>
      <trkpt lat="46.29251" lon="18.51178833">
        <ele>197</ele>
        <time>2025-07-20T12:40:38Z</time>
      </trkpt>
      <trkpt lat="46.29272667" lon="18.51170833">
        <ele>197.2</ele>
        <time>2025-07-20T12:40:39Z</time>
      </trkpt>
      <trkpt lat="46.29294167" lon="18.51162">
        <ele>197.7</ele>
        <time>2025-07-20T12:40:40Z</time>
      </trkpt>
      <trkpt lat="46.29315167" lon="18.51153667">
        <ele>198.1</ele>
        <time>2025-07-20T12:40:41Z</time>
      </trkpt>
      <trkpt lat="46.293365" lon="18.51145">
        <ele>197.7</ele>
        <time>2025-07-20T12:40:42Z</time>
      </trkpt>
      <trkpt lat="46.293575" lon="18.511365">
        <ele>197.3</ele>
        <time>2025-07-20T12:40:43Z</time>
      </trkpt>
      <trkpt lat="46.29378333" lon="18.51129">
        <ele>196.5</ele>
        <time>2025-07-20T12:40:44Z</time>
      </trkpt>
      <trkpt lat="46.29398833" lon="18.51121333">
        <ele>195.8</ele>
        <time>2025-07-20T12:40:45Z</time>
      </trkpt>
      <trkpt lat="46.294195" lon="18.51113167">
        <ele>195.9</ele>
        <time>2025-07-20T12:40:46Z</time>
      </trkpt>
      <trkpt lat="46.29459667" lon="18.51097167">
        <ele>195.1</ele>
        <time>2025-07-20T12:40:48Z</time>
      </trkpt>
      <trkpt lat="46.29479833" lon="18.51088667">
        <ele>194.7</ele>
        <time>2025-07-20T12:40:49Z</time>
      </trkpt>
      <trkpt lat="46.295" lon="18.510805">
        <ele>194.4</ele>
        <time>2025-07-20T12:40:50Z</time>
      </trkpt>
      <trkpt lat="46.29520167" lon="18.51073">
        <ele>194.8</ele>
        <time>2025-07-20T12:40:51Z</time>
      </trkpt>
      <trkpt lat="46.295405" lon="18.51065333">
        <ele>195.2</ele>
        <time>2025-07-20T12:40:52Z</time>
      </trkpt>
      <trkpt lat="46.29560333" lon="18.51056333">
        <ele>194.8</ele>
        <time>2025-07-20T12:40:53Z</time>
      </trkpt>
      <trkpt lat="46.29579333" lon="18.51049">
        <ele>194.5</ele>
        <time>2025-07-20T12:40:54Z</time>
      </trkpt>
      <trkpt lat="46.29598667" lon="18.51040167">
        <ele>194.1</ele>
        <time>2025-07-20T12:40:55Z</time>
      </trkpt>
      <trkpt lat="46.29617833" lon="18.510305">
        <ele>192.9</ele>
        <time>2025-07-20T12:40:56Z</time>
      </trkpt>
      <trkpt lat="46.29637" lon="18.51020167">
        <ele>191.7</ele>
        <time>2025-07-20T12:40:57Z</time>
      </trkpt>
      <trkpt lat="46.29656167" lon="18.51008333">
        <ele>189.9</ele>
        <time>2025-07-20T12:40:58Z</time>
      </trkpt>
      <trkpt lat="46.29674333" lon="18.50995667">
        <ele>188.3</ele>
        <time>2025-07-20T12:40:59Z</time>
      </trkpt>
      <trkpt lat="46.29692833" lon="18.50980833">
        <ele>187.2</ele>
        <time>2025-07-20T12:41:00Z</time>
      </trkpt>
      <trkpt lat="46.2971" lon="18.50964667">
        <ele>187.1</ele>
        <time>2025-07-20T12:41:01Z</time>
      </trkpt>
      <trkpt lat="46.29727333" lon="18.50948167">
        <ele>187.5</ele>
        <time>2025-07-20T12:41:02Z</time>
      </trkpt>
      <trkpt lat="46.29742833" lon="18.50931167">
        <ele>188.4</ele>
        <time>2025-07-20T12:41:03Z</time>
      </trkpt>
      <trkpt lat="46.29758167" lon="18.509145">
        <ele>188.7</ele>
        <time>2025-07-20T12:41:04Z</time>
      </trkpt>
      <trkpt lat="46.29773167" lon="18.50896833">
        <ele>189.2</ele>
        <time>2025-07-20T12:41:05Z</time>
      </trkpt>
      <trkpt lat="46.29786833" lon="18.508785">
        <ele>190.9</ele>
        <time>2025-07-20T12:41:06Z</time>
      </trkpt>
      <trkpt lat="46.29800667" lon="18.50859167">
        <ele>192.3</ele>
        <time>2025-07-20T12:41:07Z</time>
      </trkpt>
      <trkpt lat="46.29813167" lon="18.5084">
        <ele>193.2</ele>
        <time>2025-07-20T12:41:08Z</time>
      </trkpt>
      <trkpt lat="46.29825167" lon="18.50819">
        <ele>194.6</ele>
        <time>2025-07-20T12:41:09Z</time>
      </trkpt>
      <trkpt lat="46.29836833" lon="18.50798">
        <ele>195.3</ele>
        <time>2025-07-20T12:41:10Z</time>
      </trkpt>
      <trkpt lat="46.29847167" lon="18.50776833">
        <ele>196.6</ele>
        <time>2025-07-20T12:41:11Z</time>
      </trkpt>
      <trkpt lat="46.29856833" lon="18.507555">
        <ele>198</ele>
        <time>2025-07-20T12:41:12Z</time>
      </trkpt>
      <trkpt lat="46.29864667" lon="18.507335">
        <ele>199.4</ele>
        <time>2025-07-20T12:41:13Z</time>
      </trkpt>
      <trkpt lat="46.29873" lon="18.507125">
        <ele>199.9</ele>
        <time>2025-07-20T12:41:14Z</time>
      </trkpt>
      <trkpt lat="46.298805" lon="18.50691667">
        <ele>199.7</ele>
        <time>2025-07-20T12:41:15Z</time>
      </trkpt>
      <trkpt lat="46.29885667" lon="18.50673167">
        <ele>198.2</ele>
        <time>2025-07-20T12:41:16Z</time>
      </trkpt>
      <trkpt lat="46.29890667" lon="18.506555">
        <ele>198.2</ele>
        <time>2025-07-20T12:41:17Z</time>
      </trkpt>
      <trkpt lat="46.29893333" lon="18.50642167">
        <ele>197.9</ele>
        <time>2025-07-20T12:41:18Z</time>
      </trkpt>
      <trkpt lat="46.298985" lon="18.50627">
        <ele>198.3</ele>
        <time>2025-07-20T12:41:20Z</time>
      </trkpt>
      <trkpt lat="46.2991" lon="18.50629">
        <ele>197.3</ele>
        <time>2025-07-20T12:41:23Z</time>
      </trkpt>
      <trkpt lat="46.29918" lon="18.50645333">
        <ele>196.4</ele>
        <time>2025-07-20T12:41:25Z</time>
      </trkpt>
      <trkpt lat="46.29918833" lon="18.506585">
        <ele>195.5</ele>
        <time>2025-07-20T12:41:26Z</time>
      </trkpt>
      <trkpt lat="46.29918833" lon="18.50673667">
        <ele>195.2</ele>
        <time>2025-07-20T12:41:27Z</time>
      </trkpt>
      <trkpt lat="46.29918" lon="18.50689833">
        <ele>194.2</ele>
        <time>2025-07-20T12:41:28Z</time>
      </trkpt>
      <trkpt lat="46.299175" lon="18.50707167">
        <ele>193.1</ele>
        <time>2025-07-20T12:41:29Z</time>
      </trkpt>
      <trkpt lat="46.29917167" lon="18.50725833">
        <ele>191.7</ele>
        <time>2025-07-20T12:41:30Z</time>
      </trkpt>
      <trkpt lat="46.29916667" lon="18.50744667">
        <ele>192.3</ele>
        <time>2025-07-20T12:41:31Z</time>
      </trkpt>
      <trkpt lat="46.29916167" lon="18.50763">
        <ele>191.6</ele>
        <time>2025-07-20T12:41:32Z</time>
      </trkpt>
      <trkpt lat="46.29916167" lon="18.50781833">
        <ele>190.5</ele>
        <time>2025-07-20T12:41:33Z</time>
      </trkpt>
      <trkpt lat="46.299155" lon="18.50800167">
        <ele>189.6</ele>
        <time>2025-07-20T12:41:34Z</time>
      </trkpt>
      <trkpt lat="46.29915167" lon="18.50819167">
        <ele>188.9</ele>
        <time>2025-07-20T12:41:35Z</time>
      </trkpt>
      <trkpt lat="46.29915" lon="18.50838">
        <ele>188.6</ele>
        <time>2025-07-20T12:41:36Z</time>
      </trkpt>
      <trkpt lat="46.299145" lon="18.508565">
        <ele>187.9</ele>
        <time>2025-07-20T12:41:37Z</time>
      </trkpt>
      <trkpt lat="46.29913333" lon="18.50876333">
        <ele>188.8</ele>
        <time>2025-07-20T12:41:38Z</time>
      </trkpt>
      <trkpt lat="46.29912167" lon="18.50896">
        <ele>188.4</ele>
        <time>2025-07-20T12:41:39Z</time>
      </trkpt>
      <trkpt lat="46.29911333" lon="18.50913667">
        <ele>187.7</ele>
        <time>2025-07-20T12:41:40Z</time>
      </trkpt>
      <trkpt lat="46.29910833" lon="18.50932333">
        <ele>187</ele>
        <time>2025-07-20T12:41:41Z</time>
      </trkpt>
      <trkpt lat="46.29910167" lon="18.50950667">
        <ele>186.1</ele>
        <time>2025-07-20T12:41:42Z</time>
      </trkpt>
      <trkpt lat="46.29909167" lon="18.50970667">
        <ele>185.9</ele>
        <time>2025-07-20T12:41:43Z</time>
      </trkpt>
      <trkpt lat="46.29908333" lon="18.50990833">
        <ele>184.7</ele>
        <time>2025-07-20T12:41:44Z</time>
      </trkpt>
      <trkpt lat="46.299065" lon="18.51012667">
        <ele>184.2</ele>
        <time>2025-07-20T12:41:45Z</time>
      </trkpt>
      <trkpt lat="46.29906167" lon="18.51033333">
        <ele>182.7</ele>
        <time>2025-07-20T12:41:46Z</time>
      </trkpt>
      <trkpt lat="46.29905333" lon="18.51053167">
        <ele>182.2</ele>
        <time>2025-07-20T12:41:47Z</time>
      </trkpt>
      <trkpt lat="46.29904" lon="18.51072667">
        <ele>181.2</ele>
        <time>2025-07-20T12:41:48Z</time>
      </trkpt>
      <trkpt lat="46.29903667" lon="18.51091333">
        <ele>178.8</ele>
        <time>2025-07-20T12:41:49Z</time>
      </trkpt>
      <trkpt lat="46.29902833" lon="18.51111167">
        <ele>178.4</ele>
        <time>2025-07-20T12:41:50Z</time>
      </trkpt>
      <trkpt lat="46.299015" lon="18.51132">
        <ele>178.7</ele>
        <time>2025-07-20T12:41:51Z</time>
      </trkpt>
      <trkpt lat="46.299" lon="18.51152833">
        <ele>179.1</ele>
        <time>2025-07-20T12:41:52Z</time>
      </trkpt>
      <trkpt lat="46.29898833" lon="18.51173">
        <ele>179.2</ele>
        <time>2025-07-20T12:41:53Z</time>
      </trkpt>
      <trkpt lat="46.298975" lon="18.51193333">
        <ele>179.7</ele>
        <time>2025-07-20T12:41:54Z</time>
      </trkpt>
      <trkpt lat="46.29896" lon="18.512135">
        <ele>180.1</ele>
        <time>2025-07-20T12:41:55Z</time>
      </trkpt>
      <trkpt lat="46.29894833" lon="18.51233167">
        <ele>180.2</ele>
        <time>2025-07-20T12:41:56Z</time>
      </trkpt>
      <trkpt lat="46.29893667" lon="18.51252167">
        <ele>180.7</ele>
        <time>2025-07-20T12:41:57Z</time>
      </trkpt>
      <trkpt lat="46.298925" lon="18.5127">
        <ele>180.9</ele>
        <time>2025-07-20T12:41:58Z</time>
      </trkpt>
      <trkpt lat="46.29891333" lon="18.51287">
        <ele>181.5</ele>
        <time>2025-07-20T12:41:59Z</time>
      </trkpt>
      <trkpt lat="46.2989" lon="18.513045">
        <ele>182.3</ele>
        <time>2025-07-20T12:42:00Z</time>
      </trkpt>
      <trkpt lat="46.298885" lon="18.51322167">
        <ele>183.8</ele>
        <time>2025-07-20T12:42:01Z</time>
      </trkpt>
      <trkpt lat="46.29886833" lon="18.513395">
        <ele>185.3</ele>
        <time>2025-07-20T12:42:02Z</time>
      </trkpt>
      <trkpt lat="46.29885667" lon="18.51357">
        <ele>186.2</ele>
        <time>2025-07-20T12:42:03Z</time>
      </trkpt>
      <trkpt lat="46.29884833" lon="18.51374167">
        <ele>187</ele>
        <time>2025-07-20T12:42:04Z</time>
      </trkpt>
      <trkpt lat="46.298845" lon="18.513905">
        <ele>187.2</ele>
        <time>2025-07-20T12:42:05Z</time>
      </trkpt>
      <trkpt lat="46.29884" lon="18.51406833">
        <ele>187.7</ele>
        <time>2025-07-20T12:42:06Z</time>
      </trkpt>
      <trkpt lat="46.29883333" lon="18.51421833">
        <ele>187.9</ele>
        <time>2025-07-20T12:42:07Z</time>
      </trkpt>
      <trkpt lat="46.29882333" lon="18.51438167">
        <ele>187.7</ele>
        <time>2025-07-20T12:42:08Z</time>
      </trkpt>
      <trkpt lat="46.29882167" lon="18.51452333">
        <ele>186.5</ele>
        <time>2025-07-20T12:42:09Z</time>
      </trkpt>
      <trkpt lat="46.29881667" lon="18.51467167">
        <ele>185.6</ele>
        <time>2025-07-20T12:42:10Z</time>
      </trkpt>
      <trkpt lat="46.29880667" lon="18.51483333">
        <ele>185.2</ele>
        <time>2025-07-20T12:42:11Z</time>
      </trkpt>
      <trkpt lat="46.298795" lon="18.51498833">
        <ele>184.7</ele>
        <time>2025-07-20T12:42:12Z</time>
      </trkpt>
      <trkpt lat="46.29878333" lon="18.51514167">
        <ele>183.9</ele>
        <time>2025-07-20T12:42:13Z</time>
      </trkpt>
      <trkpt lat="46.29876833" lon="18.515295">
        <ele>183.4</ele>
        <time>2025-07-20T12:42:14Z</time>
      </trkpt>
      <trkpt lat="46.29875333" lon="18.51545">
        <ele>183.1</ele>
        <time>2025-07-20T12:42:15Z</time>
      </trkpt>
      <trkpt lat="46.29873833" lon="18.5156">
        <ele>182.7</ele>
        <time>2025-07-20T12:42:16Z</time>
      </trkpt>
      <trkpt lat="46.298725" lon="18.51576667">
        <ele>183.1</ele>
        <time>2025-07-20T12:42:17Z</time>
      </trkpt>
      <trkpt lat="46.29871" lon="18.51594">
        <ele>183.7</ele>
        <time>2025-07-20T12:42:18Z</time>
      </trkpt>
      <trkpt lat="46.29869333" lon="18.51610833">
        <ele>184</ele>
        <time>2025-07-20T12:42:19Z</time>
      </trkpt>
      <trkpt lat="46.29868167" lon="18.51627667">
        <ele>184.7</ele>
        <time>2025-07-20T12:42:20Z</time>
      </trkpt>
      <trkpt lat="46.29866667" lon="18.51644667">
        <ele>185.4</ele>
        <time>2025-07-20T12:42:21Z</time>
      </trkpt>
      <trkpt lat="46.29865333" lon="18.51662167">
        <ele>186.4</ele>
        <time>2025-07-20T12:42:22Z</time>
      </trkpt>
      <trkpt lat="46.29863667" lon="18.51679333">
        <ele>186.7</ele>
        <time>2025-07-20T12:42:23Z</time>
      </trkpt>
      <trkpt lat="46.29862667" lon="18.51696">
        <ele>187.7</ele>
        <time>2025-07-20T12:42:24Z</time>
      </trkpt>
      <trkpt lat="46.29862" lon="18.51712833">
        <ele>188.8</ele>
        <time>2025-07-20T12:42:25Z</time>
      </trkpt>
      <trkpt lat="46.29861" lon="18.5173">
        <ele>190.4</ele>
        <time>2025-07-20T12:42:26Z</time>
      </trkpt>
      <trkpt lat="46.29859667" lon="18.51747333">
        <ele>191.3</ele>
        <time>2025-07-20T12:42:27Z</time>
      </trkpt>
      <trkpt lat="46.29858167" lon="18.51764667">
        <ele>192.8</ele>
        <time>2025-07-20T12:42:28Z</time>
      </trkpt>
      <trkpt lat="46.29856833" lon="18.51782333">
        <ele>193.3</ele>
        <time>2025-07-20T12:42:29Z</time>
      </trkpt>
      <trkpt lat="46.29856" lon="18.51799">
        <ele>193.8</ele>
        <time>2025-07-20T12:42:30Z</time>
      </trkpt>
      <trkpt lat="46.29854667" lon="18.518155">
        <ele>193.6</ele>
        <time>2025-07-20T12:42:31Z</time>
      </trkpt>
      <trkpt lat="46.29854" lon="18.518325">
        <ele>194.3</ele>
        <time>2025-07-20T12:42:32Z</time>
      </trkpt>
      <trkpt lat="46.29852833" lon="18.51849167">
        <ele>194.7</ele>
        <time>2025-07-20T12:42:33Z</time>
      </trkpt>
      <trkpt lat="46.29851667" lon="18.51865167">
        <ele>193.9</ele>
        <time>2025-07-20T12:42:34Z</time>
      </trkpt>
      <trkpt lat="46.29851" lon="18.51881">
        <ele>194</ele>
        <time>2025-07-20T12:42:35Z</time>
      </trkpt>
      <trkpt lat="46.29850167" lon="18.51896833">
        <ele>193.4</ele>
        <time>2025-07-20T12:42:36Z</time>
      </trkpt>
      <trkpt lat="46.29849167" lon="18.51912833">
        <ele>192.6</ele>
        <time>2025-07-20T12:42:37Z</time>
      </trkpt>
      <trkpt lat="46.29847833" lon="18.5193">
        <ele>192.1</ele>
        <time>2025-07-20T12:42:38Z</time>
      </trkpt>
      <trkpt lat="46.29846667" lon="18.51945833">
        <ele>191.8</ele>
        <time>2025-07-20T12:42:39Z</time>
      </trkpt>
      <trkpt lat="46.29845333" lon="18.51962833">
        <ele>191.4</ele>
        <time>2025-07-20T12:42:40Z</time>
      </trkpt>
      <trkpt lat="46.298445" lon="18.51979333">
        <ele>191.3</ele>
        <time>2025-07-20T12:42:41Z</time>
      </trkpt>
      <trkpt lat="46.29843667" lon="18.51995667">
        <ele>191.1</ele>
        <time>2025-07-20T12:42:42Z</time>
      </trkpt>
      <trkpt lat="46.29842333" lon="18.52011833">
        <ele>190.1</ele>
        <time>2025-07-20T12:42:43Z</time>
      </trkpt>
      <trkpt lat="46.29840667" lon="18.52027333">
        <ele>189.9</ele>
        <time>2025-07-20T12:42:44Z</time>
      </trkpt>
      <trkpt lat="46.2984" lon="18.52042667">
        <ele>190.6</ele>
        <time>2025-07-20T12:42:45Z</time>
      </trkpt>
      <trkpt lat="46.2984" lon="18.52057833">
        <ele>190.7</ele>
        <time>2025-07-20T12:42:46Z</time>
      </trkpt>
      <trkpt lat="46.29838833" lon="18.520725">
        <ele>191.6</ele>
        <time>2025-07-20T12:42:47Z</time>
      </trkpt>
      <trkpt lat="46.29837667" lon="18.52097">
        <ele>188.8</ele>
        <time>2025-07-20T12:42:49Z</time>
      </trkpt>
      <trkpt lat="46.29837333" lon="18.52117667">
        <ele>188.6</ele>
        <time>2025-07-20T12:42:51Z</time>
      </trkpt>
      <trkpt lat="46.29836" lon="18.521375">
        <ele>188.2</ele>
        <time>2025-07-20T12:42:53Z</time>
      </trkpt>
      <trkpt lat="46.29835167" lon="18.52156">
        <ele>186.8</ele>
        <time>2025-07-20T12:42:55Z</time>
      </trkpt>
      <trkpt lat="46.298345" lon="18.52172667">
        <ele>185.1</ele>
        <time>2025-07-20T12:42:58Z</time>
      </trkpt>
      <trkpt lat="46.29834" lon="18.52188167">
        <ele>185.7</ele>
        <time>2025-07-20T12:43:03Z</time>
      </trkpt>
      <trkpt lat="46.29833" lon="18.522015">
        <ele>185.3</ele>
        <time>2025-07-20T12:43:05Z</time>
      </trkpt>
      <trkpt lat="46.29832167" lon="18.522165">
        <ele>185</ele>
        <time>2025-07-20T12:43:07Z</time>
      </trkpt>
      <trkpt lat="46.29831667" lon="18.52235">
        <ele>184</ele>
        <time>2025-07-20T12:43:09Z</time>
      </trkpt>
      <trkpt lat="46.298295" lon="18.52259667">
        <ele>182.1</ele>
        <time>2025-07-20T12:43:11Z</time>
      </trkpt>
      <trkpt lat="46.29827833" lon="18.52273667">
        <ele>181.3</ele>
        <time>2025-07-20T12:43:12Z</time>
      </trkpt>
      <trkpt lat="46.298255" lon="18.52297833">
        <ele>179.7</ele>
        <time>2025-07-20T12:43:14Z</time>
      </trkpt>
      <trkpt lat="46.298245" lon="18.52313667">
        <ele>180.3</ele>
        <time>2025-07-20T12:43:16Z</time>
      </trkpt>
      <trkpt lat="46.29831333" lon="18.52323667">
        <ele>179.5</ele>
        <time>2025-07-20T12:43:19Z</time>
      </trkpt>
      <trkpt lat="46.29844833" lon="18.52330833">
        <ele>182.9</ele>
        <time>2025-07-20T12:44:06Z</time>
      </trkpt>
      <trkpt lat="46.29855333" lon="18.52336833">
        <ele>183.1</ele>
        <time>2025-07-20T12:44:09Z</time>
      </trkpt>
      <trkpt lat="46.29866167" lon="18.52345">
        <ele>184.1</ele>
        <time>2025-07-20T12:44:12Z</time>
      </trkpt>
      <trkpt lat="46.29866667" lon="18.523585">
        <ele>185.2</ele>
        <time>2025-07-20T12:44:16Z</time>
      </trkpt>
      <trkpt lat="46.29864" lon="18.52371833">
        <ele>184.5</ele>
        <time>2025-07-20T12:44:20Z</time>
      </trkpt>
    </trkseg>
  </trk>
</gpx>