<?xml version='1.0' encoding='UTF-8' standalone='yes' ?>
<gpx xmlns="http://www.topografix.com/GPX/1/1" xmlns:geotracker="http://ilyabogdanovich.com/gpx/extensions/geotracker" xmlns:xsi="http://www.w3.org/2001/XMLSchema-instance" xsi:schemaLocation="http://www.topografix.com/GPX/1/1 http://www.topografix.com/GPX/1/1/gpx.xsd" version="1.1" creator="Recorded in Geo Tracker for Android from Ilya Bogdanovich">
  <metadata>
    <name>c_0720_11</name>
    <author>
      <name>Recorded in Geo Tracker for Android from Ilya Bogdanovich</name>
      <link href="https://play.google.com/store/apps/details?id=com.ilyabogdanovich.geotracker" />
    </author>
    <link href="https://play.google.com/store/apps/details?id=com.ilyabogdanovich.geotracker" />
    <time>2025-07-20T15:23:19Z</time>
  </metadata>
  <trk>
    <name>c_0720_11</name>
    <src>Recorded in Geo Tracker for Android from Ilya Bogdanovich</src>
    <link href="https://play.google.com/store/apps/details?id=com.ilyabogdanovich.geotracker" />
    <extensions>
      <geotracker:meta>
        <geotracker:length>636.48</geotracker:length>
        <geotracker:duration>839802</geotracker:duration>
        <geotracker:creationtime>2025-07-20T15:23:19Z</geotracker:creationtime>
        <geotracker:activity>0</geotracker:activity>
      </geotracker:meta>
    </extensions>
    <trkseg>
      <trkpt lat="46.29916" lon="18.53017167">
        <ele>166.4</ele>
        <time>2025-07-20T15:23:25Z</time>
      </trkpt>
      <trkpt lat="46.29918167" lon="18.53015167">
        <ele>166</ele>
        <time>2025-07-20T15:27:07Z</time>
      </trkpt>
      <trkpt lat="46.29918167" lon="18.53015167">
        <ele>166</ele>
        <time>2025-07-20T15:29:08Z</time>
      </trkpt>
      <trkpt lat="46.29919" lon="18.53019">
        <ele>165</ele>
        <time>2025-07-20T15:31:09Z</time>
      </trkpt>
      <trkpt lat="46.29916667" lon="18.530185">
        <ele>169</ele>
        <time>2025-07-20T15:33:10Z</time>
      </trkpt>
      <trkpt lat="46.29916667" lon="18.53018">
        <ele>165.5</ele>
        <time>2025-07-20T15:35:11Z</time>
      </trkpt>
      <trkpt lat="46.29909" lon="18.53007">
        <ele>166.5</ele>
        <time>2025-07-20T15:35:32Z</time>
      </trkpt>
      <trkpt lat="46.29898167" lon="18.53003833">
        <ele>166.6</ele>
        <time>2025-07-20T15:35:35Z</time>
      </trkpt>
      <trkpt lat="46.29884833" lon="18.52997833">
        <ele>166.1</ele>
        <time>2025-07-20T15:35:38Z</time>
      </trkpt>
      <trkpt lat="46.298765" lon="18.529925">
        <ele>164</ele>
        <time>2025-07-20T15:35:40Z</time>
      </trkpt>
      <trkpt lat="46.298675" lon="18.52986833">
        <ele>163.2</ele>
        <time>2025-07-20T15:35:42Z</time>
      </trkpt>
      <trkpt lat="46.298585" lon="18.52984167">
        <ele>162.7</ele>
        <time>2025-07-20T15:35:44Z</time>
      </trkpt>
      <trkpt lat="46.29849" lon="18.52979833">
        <ele>161.9</ele>
        <time>2025-07-20T15:35:46Z</time>
      </trkpt>
      <trkpt lat="46.29839167" lon="18.52975167">
        <ele>161</ele>
        <time>2025-07-20T15:35:48Z</time>
      </trkpt>
      <trkpt lat="46.298285" lon="18.529695">
        <ele>160.7</ele>
        <time>2025-07-20T15:35:50Z</time>
      </trkpt>
      <trkpt lat="46.29816667" lon="18.52961333">
        <ele>159.8</ele>
        <time>2025-07-20T15:35:52Z</time>
      </trkpt>
      <trkpt lat="46.29801667" lon="18.52953167">
        <ele>158.7</ele>
        <time>2025-07-20T15:35:54Z</time>
      </trkpt>
      <trkpt lat="46.297865" lon="18.52944667">
        <ele>157.9</ele>
        <time>2025-07-20T15:35:56Z</time>
      </trkpt>
      <trkpt lat="46.29778" lon="18.52938833">
        <ele>158.1</ele>
        <time>2025-07-20T15:35:57Z</time>
      </trkpt>
      <trkpt lat="46.29768833" lon="18.52933833">
        <ele>159.1</ele>
        <time>2025-07-20T15:35:58Z</time>
      </trkpt>
      <trkpt lat="46.29760167" lon="18.52927667">
        <ele>158.9</ele>
        <time>2025-07-20T15:35:59Z</time>
      </trkpt>
      <trkpt lat="46.29751" lon="18.52922167">
        <ele>159.2</ele>
        <time>2025-07-20T15:36:00Z</time>
      </trkpt>
      <trkpt lat="46.29742" lon="18.52916333">
        <ele>158.7</ele>
        <time>2025-07-20T15:36:01Z</time>
      </trkpt>
      <trkpt lat="46.29732667" lon="18.52911667">
        <ele>158.6</ele>
        <time>2025-07-20T15:36:02Z</time>
      </trkpt>
      <trkpt lat="46.29723667" lon="18.52907">
        <ele>158.6</ele>
        <time>2025-07-20T15:36:03Z</time>
      </trkpt>
      <trkpt lat="46.29714" lon="18.529025">
        <ele>159</ele>
        <time>2025-07-20T15:36:04Z</time>
      </trkpt>
      <trkpt lat="46.29697833" lon="18.52893333">
        <ele>158.4</ele>
        <time>2025-07-20T15:36:06Z</time>
      </trkpt>
      <trkpt lat="46.29689" lon="18.52889167">
        <ele>158.6</ele>
        <time>2025-07-20T15:36:07Z</time>
      </trkpt>
      <trkpt lat="46.29679833" lon="18.52885333">
        <ele>159</ele>
        <time>2025-07-20T15:36:08Z</time>
      </trkpt>
      <trkpt lat="46.2967" lon="18.52880833">
        <ele>158.8</ele>
        <time>2025-07-20T15:36:09Z</time>
      </trkpt>
      <trkpt lat="46.296605" lon="18.52876">
        <ele>158.4</ele>
        <time>2025-07-20T15:36:10Z</time>
      </trkpt>
      <trkpt lat="46.29650833" lon="18.52871">
        <ele>158.1</ele>
        <time>2025-07-20T15:36:11Z</time>
      </trkpt>
      <trkpt lat="46.29640333" lon="18.52866">
        <ele>158.6</ele>
        <time>2025-07-20T15:36:12Z</time>
      </trkpt>
      <trkpt lat="46.29630167" lon="18.52860833">
        <ele>159.4</ele>
        <time>2025-07-20T15:36:13Z</time>
      </trkpt>
      <trkpt lat="46.2962" lon="18.52856">
        <ele>160.1</ele>
        <time>2025-07-20T15:36:14Z</time>
      </trkpt>
      <trkpt lat="46.29610167" lon="18.52850833">
        <ele>160.7</ele>
        <time>2025-07-20T15:36:15Z</time>
      </trkpt>
      <trkpt lat="46.296005" lon="18.52846">
        <ele>161.7</ele>
        <time>2025-07-20T15:36:16Z</time>
      </trkpt>
      <trkpt lat="46.29591667" lon="18.52842">
        <ele>162.5</ele>
        <time>2025-07-20T15:36:17Z</time>
      </trkpt>
      <trkpt lat="46.295765" lon="18.52834667">
        <ele>164.6</ele>
        <time>2025-07-20T15:36:19Z</time>
      </trkpt>
      <trkpt lat="46.29565667" lon="18.52829667">
        <ele>166.4</ele>
        <time>2025-07-20T15:36:21Z</time>
      </trkpt>
      <trkpt lat="46.29555167" lon="18.528245">
        <ele>168</ele>
        <time>2025-07-20T15:36:23Z</time>
      </trkpt>
      <trkpt lat="46.295425" lon="18.528175">
        <ele>169.8</ele>
        <time>2025-07-20T15:36:25Z</time>
      </trkpt>
      <trkpt lat="46.29529667" lon="18.52812333">
        <ele>171.1</ele>
        <time>2025-07-20T15:36:27Z</time>
      </trkpt>
      <trkpt lat="46.29521333" lon="18.528055">
        <ele>171.4</ele>
        <time>2025-07-20T15:36:29Z</time>
      </trkpt>
      <trkpt lat="46.295165" lon="18.52790667">
        <ele>172.1</ele>
        <time>2025-07-20T15:36:32Z</time>
      </trkpt>
      <trkpt lat="46.29519" lon="18.52773167">
        <ele>172.8</ele>
        <time>2025-07-20T15:36:34Z</time>
      </trkpt>
      <trkpt lat="46.29521667" lon="18.52754167">
        <ele>174</ele>
        <time>2025-07-20T15:36:36Z</time>
      </trkpt>
      <trkpt lat="46.29524" lon="18.52736167">
        <ele>174.8</ele>
        <time>2025-07-20T15:36:38Z</time>
      </trkpt>
      <trkpt lat="46.29525667" lon="18.52717333">
        <ele>175.4</ele>
        <time>2025-07-20T15:36:40Z</time>
      </trkpt>
      <trkpt lat="46.29525333" lon="18.52702333">
        <ele>176.2</ele>
        <time>2025-07-20T15:36:42Z</time>
      </trkpt>
      <trkpt lat="46.295275" lon="18.52689167">
        <ele>176.8</ele>
        <time>2025-07-20T15:36:44Z</time>
      </trkpt>
      <trkpt lat="46.295345" lon="18.52677333">
        <ele>174.7</ele>
        <time>2025-07-20T15:36:47Z</time>
      </trkpt>
      <trkpt lat="46.29548" lon="18.52676333">
        <ele>174</ele>
        <time>2025-07-20T15:36:50Z</time>
      </trkpt>
      <trkpt lat="46.29561" lon="18.52677667">
        <ele>175</ele>
        <time>2025-07-20T15:36:53Z</time>
      </trkpt>
      <trkpt lat="46.29572667" lon="18.52679667">
        <ele>174.5</ele>
        <time>2025-07-20T15:36:56Z</time>
      </trkpt>
      <trkpt lat="46.29581667" lon="18.52679667">
        <ele>173.6</ele>
        <time>2025-07-20T15:36:59Z</time>
      </trkpt>
    </trkseg>
  </trk>
</gpx>