<?xml version='1.0' encoding='UTF-8' standalone='yes' ?>
<gpx xmlns="http://www.topografix.com/GPX/1/1" xmlns:geotracker="http://ilyabogdanovich.com/gpx/extensions/geotracker" xmlns:xsi="http://www.w3.org/2001/XMLSchema-instance" xsi:schemaLocation="http://www.topografix.com/GPX/1/1 http://www.topografix.com/GPX/1/1/gpx.xsd" version="1.1" creator="Aufgezeichnet mit Geo Tracker für Android von Ilya Bogdanovich">
  <metadata>
    <name>c_0723_01</name>
    <author>
      <name>Aufgezeichnet mit Geo Tracker für Android von Ilya Bogdanovich</name>
      <link href="https://play.google.com/store/apps/details?id=com.ilyabogdanovich.geotracker" />
    </author>
    <link href="https://play.google.com/store/apps/details?id=com.ilyabogdanovich.geotracker" />
    <time>2025-07-23T06:32:15Z</time>
  </metadata>
  <trk>
    <name>c_0723_01</name>
    <src>Aufgezeichnet mit Geo Tracker für Android von Ilya Bogdanovich</src>
    <link href="https://play.google.com/store/apps/details?id=com.ilyabogdanovich.geotracker" />
    <extensions>
      <geotracker:meta>
        <geotracker:length>2873.18</geotracker:length>
        <geotracker:duration>394237</geotracker:duration>
        <geotracker:creationtime>2025-07-23T06:32:15Z</geotracker:creationtime>
        <geotracker:activity>0</geotracker:activity>
      </geotracker:meta>
    </extensions>
    <trkseg>
      <trkpt lat="45.95154097" lon="17.44571608">
        <ele>147</ele>
        <time>2025-07-23T06:32:32Z</time>
      </trkpt>
      <trkpt lat="45.95150677" lon="17.44542254">
        <ele>147</ele>
        <time>2025-07-23T06:33:17Z</time>
      </trkpt>
      <trkpt lat="45.95151859" lon="17.44527971">
        <ele>146</ele>
        <time>2025-07-23T06:33:20Z</time>
      </trkpt>
      <trkpt lat="45.9515144" lon="17.44512171">
        <ele>144</ele>
        <time>2025-07-23T06:33:22Z</time>
      </trkpt>
      <trkpt lat="45.95151092" lon="17.44493589">
        <ele>143</ele>
        <time>2025-07-23T06:33:24Z</time>
      </trkpt>
      <trkpt lat="45.95149718" lon="17.44473564">
        <ele>143</ele>
        <time>2025-07-23T06:33:26Z</time>
      </trkpt>
      <trkpt lat="45.95148553" lon="17.44451788">
        <ele>143</ele>
        <time>2025-07-23T06:33:28Z</time>
      </trkpt>
      <trkpt lat="45.95148364" lon="17.44429149">
        <ele>143</ele>
        <time>2025-07-23T06:33:30Z</time>
      </trkpt>
      <trkpt lat="45.95148947" lon="17.44406794">
        <ele>143</ele>
        <time>2025-07-23T06:33:32Z</time>
      </trkpt>
      <trkpt lat="45.95149387" lon="17.44383643">
        <ele>144</ele>
        <time>2025-07-23T06:33:34Z</time>
      </trkpt>
      <trkpt lat="45.9514986" lon="17.44359646">
        <ele>145</ele>
        <time>2025-07-23T06:33:36Z</time>
      </trkpt>
      <trkpt lat="45.95150426" lon="17.44336713">
        <ele>146</ele>
        <time>2025-07-23T06:33:38Z</time>
      </trkpt>
      <trkpt lat="45.95150527" lon="17.4431347">
        <ele>146</ele>
        <time>2025-07-23T06:33:40Z</time>
      </trkpt>
      <trkpt lat="45.9514973" lon="17.4428959">
        <ele>146</ele>
        <time>2025-07-23T06:33:42Z</time>
      </trkpt>
      <trkpt lat="45.95149718" lon="17.44265811">
        <ele>146</ele>
        <time>2025-07-23T06:33:44Z</time>
      </trkpt>
      <trkpt lat="45.95149215" lon="17.44241319">
        <ele>146</ele>
        <time>2025-07-23T06:33:46Z</time>
      </trkpt>
      <trkpt lat="45.95149022" lon="17.44224722">
        <ele>146</ele>
        <time>2025-07-23T06:33:48Z</time>
      </trkpt>
      <trkpt lat="45.95158892" lon="17.44212192">
        <ele>146</ele>
        <time>2025-07-23T06:33:51Z</time>
      </trkpt>
      <trkpt lat="45.95172072" lon="17.44215553">
        <ele>145</ele>
        <time>2025-07-23T06:33:53Z</time>
      </trkpt>
      <trkpt lat="45.95186959" lon="17.44220607">
        <ele>143</ele>
        <time>2025-07-23T06:33:55Z</time>
      </trkpt>
      <trkpt lat="45.95200688" lon="17.44223901">
        <ele>141</ele>
        <time>2025-07-23T06:33:57Z</time>
      </trkpt>
      <trkpt lat="45.95214925" lon="17.44228176">
        <ele>139</ele>
        <time>2025-07-23T06:33:59Z</time>
      </trkpt>
      <trkpt lat="45.95227942" lon="17.44231378">
        <ele>140</ele>
        <time>2025-07-23T06:34:01Z</time>
      </trkpt>
      <trkpt lat="45.95236571" lon="17.44235208">
        <ele>138</ele>
        <time>2025-07-23T06:34:03Z</time>
      </trkpt>
      <trkpt lat="45.95251063" lon="17.44238586">
        <ele>138</ele>
        <time>2025-07-23T06:34:07Z</time>
      </trkpt>
      <trkpt lat="45.95260296" lon="17.44240531">
        <ele>138</ele>
        <time>2025-07-23T06:34:09Z</time>
      </trkpt>
      <trkpt lat="45.95272802" lon="17.44246205">
        <ele>138</ele>
        <time>2025-07-23T06:34:12Z</time>
      </trkpt>
      <trkpt lat="45.9528374" lon="17.44250421">
        <ele>137</ele>
        <time>2025-07-23T06:34:14Z</time>
      </trkpt>
      <trkpt lat="45.95294016" lon="17.44252626">
        <ele>137</ele>
        <time>2025-07-23T06:34:16Z</time>
      </trkpt>
      <trkpt lat="45.95303819" lon="17.44258636">
        <ele>137</ele>
        <time>2025-07-23T06:34:18Z</time>
      </trkpt>
      <trkpt lat="45.95310034" lon="17.44273849">
        <ele>138</ele>
        <time>2025-07-23T06:34:23Z</time>
      </trkpt>
      <trkpt lat="45.95308953" lon="17.44289347">
        <ele>138</ele>
        <time>2025-07-23T06:34:25Z</time>
      </trkpt>
      <trkpt lat="45.95306585" lon="17.44308148">
        <ele>138</ele>
        <time>2025-07-23T06:34:27Z</time>
      </trkpt>
      <trkpt lat="45.95303056" lon="17.44329999">
        <ele>138</ele>
        <time>2025-07-23T06:34:29Z</time>
      </trkpt>
      <trkpt lat="45.95301036" lon="17.44354441">
        <ele>139</ele>
        <time>2025-07-23T06:34:31Z</time>
      </trkpt>
      <trkpt lat="45.95298455" lon="17.44378296">
        <ele>140</ele>
        <time>2025-07-23T06:34:33Z</time>
      </trkpt>
      <trkpt lat="45.95294477" lon="17.44400776">
        <ele>141</ele>
        <time>2025-07-23T06:34:35Z</time>
      </trkpt>
      <trkpt lat="45.9528988" lon="17.44423843">
        <ele>141</ele>
        <time>2025-07-23T06:34:37Z</time>
      </trkpt>
      <trkpt lat="45.95286217" lon="17.44446097">
        <ele>141</ele>
        <time>2025-07-23T06:34:39Z</time>
      </trkpt>
      <trkpt lat="45.95282441" lon="17.4446872">
        <ele>141</ele>
        <time>2025-07-23T06:34:41Z</time>
      </trkpt>
      <trkpt lat="45.95277756" lon="17.44491443">
        <ele>141</ele>
        <time>2025-07-23T06:34:43Z</time>
      </trkpt>
      <trkpt lat="45.95274168" lon="17.44513085">
        <ele>141</ele>
        <time>2025-07-23T06:34:45Z</time>
      </trkpt>
      <trkpt lat="45.95269851" lon="17.44536982">
        <ele>140</ele>
        <time>2025-07-23T06:34:47Z</time>
      </trkpt>
      <trkpt lat="45.95267735" lon="17.4455015">
        <ele>140</ele>
        <time>2025-07-23T06:34:48Z</time>
      </trkpt>
      <trkpt lat="45.9526525" lon="17.44563175">
        <ele>140</ele>
        <time>2025-07-23T06:34:49Z</time>
      </trkpt>
      <trkpt lat="45.9526074" lon="17.44587709">
        <ele>139</ele>
        <time>2025-07-23T06:34:51Z</time>
      </trkpt>
      <trkpt lat="45.95258737" lon="17.44612562">
        <ele>139</ele>
        <time>2025-07-23T06:34:53Z</time>
      </trkpt>
      <trkpt lat="45.95256088" lon="17.44633676">
        <ele>138</ele>
        <time>2025-07-23T06:34:55Z</time>
      </trkpt>
      <trkpt lat="45.9525126" lon="17.44652661">
        <ele>139</ele>
        <time>2025-07-23T06:34:57Z</time>
      </trkpt>
      <trkpt lat="45.95247141" lon="17.44672911">
        <ele>139</ele>
        <time>2025-07-23T06:34:59Z</time>
      </trkpt>
      <trkpt lat="45.95246596" lon="17.44694352">
        <ele>140</ele>
        <time>2025-07-23T06:35:01Z</time>
      </trkpt>
      <trkpt lat="45.9525393" lon="17.44711359">
        <ele>140</ele>
        <time>2025-07-23T06:35:03Z</time>
      </trkpt>
      <trkpt lat="45.95267295" lon="17.44721786">
        <ele>140</ele>
        <time>2025-07-23T06:35:05Z</time>
      </trkpt>
      <trkpt lat="45.95283065" lon="17.44729196">
        <ele>142</ele>
        <time>2025-07-23T06:35:07Z</time>
      </trkpt>
      <trkpt lat="45.95291795" lon="17.44733663">
        <ele>142</ele>
        <time>2025-07-23T06:35:08Z</time>
      </trkpt>
      <trkpt lat="45.95308228" lon="17.44743193">
        <ele>143</ele>
        <time>2025-07-23T06:35:10Z</time>
      </trkpt>
      <trkpt lat="45.95316639" lon="17.4474839">
        <ele>143</ele>
        <time>2025-07-23T06:35:11Z</time>
      </trkpt>
      <trkpt lat="45.95325323" lon="17.44754442">
        <ele>143</ele>
        <time>2025-07-23T06:35:12Z</time>
      </trkpt>
      <trkpt lat="45.95334811" lon="17.44759505">
        <ele>144</ele>
        <time>2025-07-23T06:35:13Z</time>
      </trkpt>
      <trkpt lat="45.95343826" lon="17.44765791">
        <ele>144</ele>
        <time>2025-07-23T06:35:14Z</time>
      </trkpt>
      <trkpt lat="45.95353465" lon="17.4477165">
        <ele>144</ele>
        <time>2025-07-23T06:35:15Z</time>
      </trkpt>
      <trkpt lat="45.95363255" lon="17.44777744">
        <ele>144</ele>
        <time>2025-07-23T06:35:16Z</time>
      </trkpt>
      <trkpt lat="45.95373448" lon="17.44784676">
        <ele>144</ele>
        <time>2025-07-23T06:35:17Z</time>
      </trkpt>
      <trkpt lat="45.95383904" lon="17.44791842">
        <ele>144</ele>
        <time>2025-07-23T06:35:18Z</time>
      </trkpt>
      <trkpt lat="45.95394645" lon="17.44798858">
        <ele>143</ele>
        <time>2025-07-23T06:35:19Z</time>
      </trkpt>
      <trkpt lat="45.95405311" lon="17.44806175">
        <ele>143</ele>
        <time>2025-07-23T06:35:20Z</time>
      </trkpt>
      <trkpt lat="45.9541542" lon="17.44813778">
        <ele>142</ele>
        <time>2025-07-23T06:35:21Z</time>
      </trkpt>
      <trkpt lat="45.95425793" lon="17.44821698">
        <ele>142</ele>
        <time>2025-07-23T06:35:22Z</time>
      </trkpt>
      <trkpt lat="45.95436245" lon="17.44829963">
        <ele>142</ele>
        <time>2025-07-23T06:35:23Z</time>
      </trkpt>
      <trkpt lat="45.95446852" lon="17.44837104">
        <ele>141</ele>
        <time>2025-07-23T06:35:24Z</time>
      </trkpt>
      <trkpt lat="45.95457451" lon="17.44844346">
        <ele>141</ele>
        <time>2025-07-23T06:35:25Z</time>
      </trkpt>
      <trkpt lat="45.95468021" lon="17.44851999">
        <ele>141</ele>
        <time>2025-07-23T06:35:26Z</time>
      </trkpt>
      <trkpt lat="45.95478029" lon="17.44860356">
        <ele>142</ele>
        <time>2025-07-23T06:35:27Z</time>
      </trkpt>
      <trkpt lat="45.95488317" lon="17.44868545">
        <ele>141</ele>
        <time>2025-07-23T06:35:28Z</time>
      </trkpt>
      <trkpt lat="45.95499163" lon="17.44876457">
        <ele>141</ele>
        <time>2025-07-23T06:35:29Z</time>
      </trkpt>
      <trkpt lat="45.95509628" lon="17.44883901">
        <ele>141</ele>
        <time>2025-07-23T06:35:30Z</time>
      </trkpt>
      <trkpt lat="45.95519921" lon="17.44891469">
        <ele>140</ele>
        <time>2025-07-23T06:35:31Z</time>
      </trkpt>
      <trkpt lat="45.95529799" lon="17.44898326">
        <ele>140</ele>
        <time>2025-07-23T06:35:32Z</time>
      </trkpt>
      <trkpt lat="45.95539175" lon="17.44906624">
        <ele>140</ele>
        <time>2025-07-23T06:35:33Z</time>
      </trkpt>
      <trkpt lat="45.95548411" lon="17.44915618">
        <ele>140</ele>
        <time>2025-07-23T06:35:34Z</time>
      </trkpt>
      <trkpt lat="45.95557983" lon="17.44925089">
        <ele>140</ele>
        <time>2025-07-23T06:35:35Z</time>
      </trkpt>
      <trkpt lat="45.95567178" lon="17.44935106">
        <ele>139</ele>
        <time>2025-07-23T06:35:36Z</time>
      </trkpt>
      <trkpt lat="45.95575858" lon="17.44946773">
        <ele>139</ele>
        <time>2025-07-23T06:35:37Z</time>
      </trkpt>
      <trkpt lat="45.9558424" lon="17.44958458">
        <ele>139</ele>
        <time>2025-07-23T06:35:38Z</time>
      </trkpt>
      <trkpt lat="45.95592768" lon="17.44970402">
        <ele>139</ele>
        <time>2025-07-23T06:35:39Z</time>
      </trkpt>
      <trkpt lat="45.95600635" lon="17.44980628">
        <ele>139</ele>
        <time>2025-07-23T06:35:40Z</time>
      </trkpt>
      <trkpt lat="45.95608728" lon="17.44990636">
        <ele>138</ele>
        <time>2025-07-23T06:35:41Z</time>
      </trkpt>
      <trkpt lat="45.95617176" lon="17.45001549">
        <ele>138</ele>
        <time>2025-07-23T06:35:42Z</time>
      </trkpt>
      <trkpt lat="45.95625529" lon="17.4501211">
        <ele>138</ele>
        <time>2025-07-23T06:35:43Z</time>
      </trkpt>
      <trkpt lat="45.95633534" lon="17.45021892">
        <ele>138</ele>
        <time>2025-07-23T06:35:44Z</time>
      </trkpt>
      <trkpt lat="45.95650909" lon="17.45041204">
        <ele>138</ele>
        <time>2025-07-23T06:35:46Z</time>
      </trkpt>
      <trkpt lat="45.95659765" lon="17.45050365">
        <ele>138</ele>
        <time>2025-07-23T06:35:47Z</time>
      </trkpt>
      <trkpt lat="45.95668532" lon="17.45059744">
        <ele>138</ele>
        <time>2025-07-23T06:35:48Z</time>
      </trkpt>
      <trkpt lat="45.95676562" lon="17.45070104">
        <ele>138</ele>
        <time>2025-07-23T06:35:49Z</time>
      </trkpt>
      <trkpt lat="45.95684127" lon="17.45081219">
        <ele>138</ele>
        <time>2025-07-23T06:35:50Z</time>
      </trkpt>
      <trkpt lat="45.95692002" lon="17.45092283">
        <ele>139</ele>
        <time>2025-07-23T06:35:51Z</time>
      </trkpt>
      <trkpt lat="45.95701142" lon="17.45103724">
        <ele>139</ele>
        <time>2025-07-23T06:35:52Z</time>
      </trkpt>
      <trkpt lat="45.95710543" lon="17.45115057">
        <ele>140</ele>
        <time>2025-07-23T06:35:53Z</time>
      </trkpt>
      <trkpt lat="45.95720115" lon="17.45126464">
        <ele>140</ele>
        <time>2025-07-23T06:35:54Z</time>
      </trkpt>
      <trkpt lat="45.9572918" lon="17.45137017">
        <ele>141</ele>
        <time>2025-07-23T06:35:55Z</time>
      </trkpt>
      <trkpt lat="45.95738245" lon="17.45147687">
        <ele>141</ele>
        <time>2025-07-23T06:35:56Z</time>
      </trkpt>
      <trkpt lat="45.95746974" lon="17.45158366">
        <ele>141</ele>
        <time>2025-07-23T06:35:57Z</time>
      </trkpt>
      <trkpt lat="45.95756119" lon="17.45168131">
        <ele>141</ele>
        <time>2025-07-23T06:35:58Z</time>
      </trkpt>
      <trkpt lat="45.95764304" lon="17.45178717">
        <ele>140</ele>
        <time>2025-07-23T06:35:59Z</time>
      </trkpt>
      <trkpt lat="45.9577217" lon="17.45189278">
        <ele>140</ele>
        <time>2025-07-23T06:36:00Z</time>
      </trkpt>
      <trkpt lat="45.95788364" lon="17.45211205">
        <ele>140</ele>
        <time>2025-07-23T06:36:02Z</time>
      </trkpt>
      <trkpt lat="45.95796109" lon="17.45222094">
        <ele>140</ele>
        <time>2025-07-23T06:36:03Z</time>
      </trkpt>
      <trkpt lat="45.95803741" lon="17.45233325">
        <ele>140</ele>
        <time>2025-07-23T06:36:04Z</time>
      </trkpt>
      <trkpt lat="45.95810945" lon="17.45244574">
        <ele>139</ele>
        <time>2025-07-23T06:36:05Z</time>
      </trkpt>
      <trkpt lat="45.95817462" lon="17.45256552">
        <ele>139</ele>
        <time>2025-07-23T06:36:06Z</time>
      </trkpt>
      <trkpt lat="45.95823908" lon="17.45269175">
        <ele>140</ele>
        <time>2025-07-23T06:36:07Z</time>
      </trkpt>
      <trkpt lat="45.95830693" lon="17.45282351">
        <ele>139</ele>
        <time>2025-07-23T06:36:08Z</time>
      </trkpt>
      <trkpt lat="45.95837826" lon="17.45295544">
        <ele>140</ele>
        <time>2025-07-23T06:36:09Z</time>
      </trkpt>
      <trkpt lat="45.95844452" lon="17.45308385">
        <ele>139</ele>
        <time>2025-07-23T06:36:10Z</time>
      </trkpt>
      <trkpt lat="45.95850365" lon="17.45321151">
        <ele>139</ele>
        <time>2025-07-23T06:36:11Z</time>
      </trkpt>
      <trkpt lat="45.95859665" lon="17.45348308">
        <ele>138</ele>
        <time>2025-07-23T06:36:13Z</time>
      </trkpt>
      <trkpt lat="45.95864225" lon="17.45361434">
        <ele>138</ele>
        <time>2025-07-23T06:36:14Z</time>
      </trkpt>
      <trkpt lat="45.95870218" lon="17.4538839">
        <ele>138</ele>
        <time>2025-07-23T06:36:16Z</time>
      </trkpt>
      <trkpt lat="45.95872913" lon="17.45402992">
        <ele>138</ele>
        <time>2025-07-23T06:36:17Z</time>
      </trkpt>
      <trkpt lat="45.95876378" lon="17.45430023">
        <ele>137</ele>
        <time>2025-07-23T06:36:19Z</time>
      </trkpt>
      <trkpt lat="45.95877623" lon="17.45444365">
        <ele>137</ele>
        <time>2025-07-23T06:36:20Z</time>
      </trkpt>
      <trkpt lat="45.95878968" lon="17.45459125">
        <ele>136</ele>
        <time>2025-07-23T06:36:21Z</time>
      </trkpt>
      <trkpt lat="45.9588018" lon="17.45474355">
        <ele>136</ele>
        <time>2025-07-23T06:36:22Z</time>
      </trkpt>
      <trkpt lat="45.95880884" lon="17.45488948">
        <ele>136</ele>
        <time>2025-07-23T06:36:23Z</time>
      </trkpt>
      <trkpt lat="45.9588181" lon="17.45503692">
        <ele>136</ele>
        <time>2025-07-23T06:36:24Z</time>
      </trkpt>
      <trkpt lat="45.95883398" lon="17.45517883">
        <ele>136</ele>
        <time>2025-07-23T06:36:25Z</time>
      </trkpt>
      <trkpt lat="45.95884681" lon="17.45532484">
        <ele>136</ele>
        <time>2025-07-23T06:36:26Z</time>
      </trkpt>
      <trkpt lat="45.95886156" lon="17.45546616">
        <ele>137</ele>
        <time>2025-07-23T06:36:27Z</time>
      </trkpt>
      <trkpt lat="45.95886935" lon="17.45560915">
        <ele>137</ele>
        <time>2025-07-23T06:36:28Z</time>
      </trkpt>
      <trkpt lat="45.95887644" lon="17.4557477">
        <ele>137</ele>
        <time>2025-07-23T06:36:29Z</time>
      </trkpt>
      <trkpt lat="45.95888779" lon="17.45589003">
        <ele>137</ele>
        <time>2025-07-23T06:36:30Z</time>
      </trkpt>
      <trkpt lat="45.95890435" lon="17.45602347">
        <ele>136</ele>
        <time>2025-07-23T06:36:31Z</time>
      </trkpt>
      <trkpt lat="45.95891411" lon="17.4561689">
        <ele>136</ele>
        <time>2025-07-23T06:36:32Z</time>
      </trkpt>
      <trkpt lat="45.958923" lon="17.45631147">
        <ele>136</ele>
        <time>2025-07-23T06:36:33Z</time>
      </trkpt>
      <trkpt lat="45.95893096" lon="17.45644751">
        <ele>136</ele>
        <time>2025-07-23T06:36:34Z</time>
      </trkpt>
      <trkpt lat="45.95893" lon="17.45671196">
        <ele>135</ele>
        <time>2025-07-23T06:36:36Z</time>
      </trkpt>
      <trkpt lat="45.95893327" lon="17.45684565">
        <ele>135</ele>
        <time>2025-07-23T06:36:37Z</time>
      </trkpt>
      <trkpt lat="45.95894081" lon="17.4569899">
        <ele>135</ele>
        <time>2025-07-23T06:36:38Z</time>
      </trkpt>
      <trkpt lat="45.95895355" lon="17.45711764">
        <ele>135</ele>
        <time>2025-07-23T06:36:39Z</time>
      </trkpt>
      <trkpt lat="45.95896508" lon="17.45724832">
        <ele>135</ele>
        <time>2025-07-23T06:36:40Z</time>
      </trkpt>
      <trkpt lat="45.9589849" lon="17.4575157">
        <ele>135</ele>
        <time>2025-07-23T06:36:42Z</time>
      </trkpt>
      <trkpt lat="45.95899458" lon="17.45765626">
        <ele>135</ele>
        <time>2025-07-23T06:36:43Z</time>
      </trkpt>
      <trkpt lat="45.9589994" lon="17.45779473">
        <ele>135</ele>
        <time>2025-07-23T06:36:44Z</time>
      </trkpt>
      <trkpt lat="45.95900217" lon="17.45793597">
        <ele>135</ele>
        <time>2025-07-23T06:36:45Z</time>
      </trkpt>
      <trkpt lat="45.95900803" lon="17.45808198">
        <ele>136</ele>
        <time>2025-07-23T06:36:46Z</time>
      </trkpt>
      <trkpt lat="45.95900749" lon="17.45822632">
        <ele>136</ele>
        <time>2025-07-23T06:36:47Z</time>
      </trkpt>
      <trkpt lat="45.95901139" lon="17.458359">
        <ele>136</ele>
        <time>2025-07-23T06:36:48Z</time>
      </trkpt>
      <trkpt lat="45.95901214" lon="17.45848959">
        <ele>136</ele>
        <time>2025-07-23T06:36:49Z</time>
      </trkpt>
      <trkpt lat="45.95901662" lon="17.45862194">
        <ele>135</ele>
        <time>2025-07-23T06:36:50Z</time>
      </trkpt>
      <trkpt lat="45.95902337" lon="17.45875262">
        <ele>135</ele>
        <time>2025-07-23T06:36:51Z</time>
      </trkpt>
      <trkpt lat="45.9590341" lon="17.45888958">
        <ele>135</ele>
        <time>2025-07-23T06:36:52Z</time>
      </trkpt>
      <trkpt lat="45.95903062" lon="17.45902344">
        <ele>135</ele>
        <time>2025-07-23T06:36:53Z</time>
      </trkpt>
      <trkpt lat="45.95902719" lon="17.45927867">
        <ele>135</ele>
        <time>2025-07-23T06:36:55Z</time>
      </trkpt>
      <trkpt lat="45.95902098" lon="17.45950221">
        <ele>137</ele>
        <time>2025-07-23T06:36:57Z</time>
      </trkpt>
      <trkpt lat="45.95902995" lon="17.45971754">
        <ele>137</ele>
        <time>2025-07-23T06:36:59Z</time>
      </trkpt>
      <trkpt lat="45.95904592" lon="17.45992617">
        <ele>138</ele>
        <time>2025-07-23T06:37:01Z</time>
      </trkpt>
      <trkpt lat="45.95905045" lon="17.46013957">
        <ele>138</ele>
        <time>2025-07-23T06:37:03Z</time>
      </trkpt>
      <trkpt lat="45.95905338" lon="17.46035147">
        <ele>140</ele>
        <time>2025-07-23T06:37:05Z</time>
      </trkpt>
      <trkpt lat="45.95905715" lon="17.46055942">
        <ele>141</ele>
        <time>2025-07-23T06:37:07Z</time>
      </trkpt>
      <trkpt lat="45.95906247" lon="17.46077484">
        <ele>143</ele>
        <time>2025-07-23T06:37:09Z</time>
      </trkpt>
      <trkpt lat="45.95907861" lon="17.4610045">
        <ele>143</ele>
        <time>2025-07-23T06:37:11Z</time>
      </trkpt>
      <trkpt lat="45.9590929" lon="17.46126107">
        <ele>143</ele>
        <time>2025-07-23T06:37:13Z</time>
      </trkpt>
      <trkpt lat="45.95910015" lon="17.46139627">
        <ele>143</ele>
        <time>2025-07-23T06:37:14Z</time>
      </trkpt>
      <trkpt lat="45.95910694" lon="17.46154069">
        <ele>143</ele>
        <time>2025-07-23T06:37:15Z</time>
      </trkpt>
      <trkpt lat="45.95911318" lon="17.46169768">
        <ele>143</ele>
        <time>2025-07-23T06:37:16Z</time>
      </trkpt>
      <trkpt lat="45.95912467" lon="17.46185409">
        <ele>145</ele>
        <time>2025-07-23T06:37:17Z</time>
      </trkpt>
      <trkpt lat="45.95913456" lon="17.46200446">
        <ele>145</ele>
        <time>2025-07-23T06:37:18Z</time>
      </trkpt>
      <trkpt lat="45.95914328" lon="17.4621514">
        <ele>145</ele>
        <time>2025-07-23T06:37:19Z</time>
      </trkpt>
      <trkpt lat="45.95915015" lon="17.46229732">
        <ele>145</ele>
        <time>2025-07-23T06:37:20Z</time>
      </trkpt>
      <trkpt lat="45.95915497" lon="17.46244225">
        <ele>144</ele>
        <time>2025-07-23T06:37:21Z</time>
      </trkpt>
      <trkpt lat="45.95916322" lon="17.46259497">
        <ele>144</ele>
        <time>2025-07-23T06:37:22Z</time>
      </trkpt>
      <trkpt lat="45.95915991" lon="17.46274031">
        <ele>144</ele>
        <time>2025-07-23T06:37:23Z</time>
      </trkpt>
      <trkpt lat="45.95915782" lon="17.46288733">
        <ele>143</ele>
        <time>2025-07-23T06:37:24Z</time>
      </trkpt>
      <trkpt lat="45.95916301" lon="17.46303468">
        <ele>143</ele>
        <time>2025-07-23T06:37:25Z</time>
      </trkpt>
      <trkpt lat="45.95917689" lon="17.46318505">
        <ele>143</ele>
        <time>2025-07-23T06:37:26Z</time>
      </trkpt>
      <trkpt lat="45.95918472" lon="17.46334456">
        <ele>143</ele>
        <time>2025-07-23T06:37:27Z</time>
      </trkpt>
      <trkpt lat="45.95919378" lon="17.46349845">
        <ele>143</ele>
        <time>2025-07-23T06:37:28Z</time>
      </trkpt>
      <trkpt lat="45.95919935" lon="17.46365821">
        <ele>143</ele>
        <time>2025-07-23T06:37:29Z</time>
      </trkpt>
      <trkpt lat="45.95920543" lon="17.46381294">
        <ele>142</ele>
        <time>2025-07-23T06:37:30Z</time>
      </trkpt>
      <trkpt lat="45.95920597" lon="17.46395761">
        <ele>142</ele>
        <time>2025-07-23T06:37:31Z</time>
      </trkpt>
      <trkpt lat="45.95921201" lon="17.46410161">
        <ele>143</ele>
        <time>2025-07-23T06:37:32Z</time>
      </trkpt>
      <trkpt lat="45.95921976" lon="17.46424268">
        <ele>143</ele>
        <time>2025-07-23T06:37:33Z</time>
      </trkpt>
      <trkpt lat="45.95922651" lon="17.46438718">
        <ele>142</ele>
        <time>2025-07-23T06:37:34Z</time>
      </trkpt>
      <trkpt lat="45.95922424" lon="17.46452322">
        <ele>143</ele>
        <time>2025-07-23T06:37:35Z</time>
      </trkpt>
      <trkpt lat="45.95921934" lon="17.46477049">
        <ele>143</ele>
        <time>2025-07-23T06:37:37Z</time>
      </trkpt>
      <trkpt lat="45.9592232" lon="17.46498037">
        <ele>143</ele>
        <time>2025-07-23T06:37:39Z</time>
      </trkpt>
      <trkpt lat="45.95923346" lon="17.46519537">
        <ele>143</ele>
        <time>2025-07-23T06:37:41Z</time>
      </trkpt>
      <trkpt lat="45.95924914" lon="17.46545303">
        <ele>143</ele>
        <time>2025-07-23T06:37:43Z</time>
      </trkpt>
      <trkpt lat="45.95925299" lon="17.46560348">
        <ele>142</ele>
        <time>2025-07-23T06:37:44Z</time>
      </trkpt>
      <trkpt lat="45.95926008" lon="17.46575243">
        <ele>142</ele>
        <time>2025-07-23T06:37:45Z</time>
      </trkpt>
      <trkpt lat="45.95926716" lon="17.4659085">
        <ele>142</ele>
        <time>2025-07-23T06:37:46Z</time>
      </trkpt>
      <trkpt lat="45.95927931" lon="17.46606859">
        <ele>142</ele>
        <time>2025-07-23T06:37:47Z</time>
      </trkpt>
      <trkpt lat="45.95928262" lon="17.46622793">
        <ele>142</ele>
        <time>2025-07-23T06:37:48Z</time>
      </trkpt>
      <trkpt lat="45.95928334" lon="17.4663737">
        <ele>143</ele>
        <time>2025-07-23T06:37:49Z</time>
      </trkpt>
      <trkpt lat="45.95927424" lon="17.46650831">
        <ele>143</ele>
        <time>2025-07-23T06:37:50Z</time>
      </trkpt>
      <trkpt lat="45.95924231" lon="17.4666933">
        <ele>144</ele>
        <time>2025-07-23T06:37:52Z</time>
      </trkpt>
      <trkpt lat="45.95922596" lon="17.46684945">
        <ele>144</ele>
        <time>2025-07-23T06:37:54Z</time>
      </trkpt>
      <trkpt lat="45.95933187" lon="17.46691072">
        <ele>145</ele>
        <time>2025-07-23T06:37:57Z</time>
      </trkpt>
      <trkpt lat="45.95933245" lon="17.46675516">
        <ele>147</ele>
        <time>2025-07-23T06:37:59Z</time>
      </trkpt>
      <trkpt lat="45.95931988" lon="17.46654619">
        <ele>147</ele>
        <time>2025-07-23T06:38:01Z</time>
      </trkpt>
      <trkpt lat="45.95932273" lon="17.46641217">
        <ele>148</ele>
        <time>2025-07-23T06:38:02Z</time>
      </trkpt>
      <trkpt lat="45.95930823" lon="17.4661499">
        <ele>148</ele>
        <time>2025-07-23T06:38:04Z</time>
      </trkpt>
      <trkpt lat="45.95930102" lon="17.46602073">
        <ele>148</ele>
        <time>2025-07-23T06:38:05Z</time>
      </trkpt>
      <trkpt lat="45.95927584" lon="17.46578361">
        <ele>149</ele>
        <time>2025-07-23T06:38:07Z</time>
      </trkpt>
      <trkpt lat="45.95925911" lon="17.46555788">
        <ele>150</ele>
        <time>2025-07-23T06:38:09Z</time>
      </trkpt>
      <trkpt lat="45.95924931" lon="17.46533082">
        <ele>150</ele>
        <time>2025-07-23T06:38:11Z</time>
      </trkpt>
      <trkpt lat="45.95925404" lon="17.46511239">
        <ele>151</ele>
        <time>2025-07-23T06:38:13Z</time>
      </trkpt>
      <trkpt lat="45.95925798" lon="17.46491985">
        <ele>151</ele>
        <time>2025-07-23T06:38:15Z</time>
      </trkpt>
    </trkseg>
  </trk>
</gpx>