<?xml version='1.0' encoding='UTF-8' standalone='yes' ?>
<gpx xmlns="http://www.topografix.com/GPX/1/1" xmlns:geotracker="http://ilyabogdanovich.com/gpx/extensions/geotracker" xmlns:xsi="http://www.w3.org/2001/XMLSchema-instance" xsi:schemaLocation="http://www.topografix.com/GPX/1/1 http://www.topografix.com/GPX/1/1/gpx.xsd" version="1.1" creator="Recorded in Geo Tracker for Android from Ilya Bogdanovich">
  <metadata>
    <name>c_0730_02</name>
    <author>
      <name>Recorded in Geo Tracker for Android from Ilya Bogdanovich</name>
      <link href="https://play.google.com/store/apps/details?id=com.ilyabogdanovich.geotracker" />
    </author>
    <link href="https://play.google.com/store/apps/details?id=com.ilyabogdanovich.geotracker" />
    <time>2025-07-30T11:16:49Z</time>
  </metadata>
  <trk>
    <name>c_0730_02</name>
    <src>Recorded in Geo Tracker for Android from Ilya Bogdanovich</src>
    <link href="https://play.google.com/store/apps/details?id=com.ilyabogdanovich.geotracker" />
    <extensions>
      <geotracker:meta>
        <geotracker:length>2684.58</geotracker:length>
        <geotracker:duration>511529</geotracker:duration>
        <geotracker:creationtime>2025-07-30T11:16:49Z</geotracker:creationtime>
        <geotracker:activity>0</geotracker:activity>
      </geotracker:meta>
    </extensions>
    <trkseg>
      <trkpt lat="47.233275" lon="17.11033667">
        <ele>228.3</ele>
        <time>2025-07-30T11:16:55Z</time>
      </trkpt>
      <trkpt lat="47.23331167" lon="17.11019833">
        <ele>227.7</ele>
        <time>2025-07-30T11:17:07Z</time>
      </trkpt>
      <trkpt lat="47.23334833" lon="17.11007667">
        <ele>226.1</ele>
        <time>2025-07-30T11:17:20Z</time>
      </trkpt>
      <trkpt lat="47.23340167" lon="17.10995">
        <ele>220.5</ele>
        <time>2025-07-30T11:17:48Z</time>
      </trkpt>
      <trkpt lat="47.23348833" lon="17.10988667">
        <ele>220.1</ele>
        <time>2025-07-30T11:17:52Z</time>
      </trkpt>
      <trkpt lat="47.23356333" lon="17.10981167">
        <ele>220.2</ele>
        <time>2025-07-30T11:17:55Z</time>
      </trkpt>
      <trkpt lat="47.233645" lon="17.109725">
        <ele>219</ele>
        <time>2025-07-30T11:17:59Z</time>
      </trkpt>
      <trkpt lat="47.233725" lon="17.10964667">
        <ele>217.8</ele>
        <time>2025-07-30T11:18:02Z</time>
      </trkpt>
      <trkpt lat="47.23382333" lon="17.10956">
        <ele>215.7</ele>
        <time>2025-07-30T11:18:05Z</time>
      </trkpt>
      <trkpt lat="47.23393" lon="17.10947333">
        <ele>213.5</ele>
        <time>2025-07-30T11:18:08Z</time>
      </trkpt>
      <trkpt lat="47.23400833" lon="17.10939667">
        <ele>211.7</ele>
        <time>2025-07-30T11:18:11Z</time>
      </trkpt>
      <trkpt lat="47.234095" lon="17.10931333">
        <ele>214.2</ele>
        <time>2025-07-30T11:19:07Z</time>
      </trkpt>
      <trkpt lat="47.23418167" lon="17.10923">
        <ele>213</ele>
        <time>2025-07-30T11:19:11Z</time>
      </trkpt>
      <trkpt lat="47.23426333" lon="17.10915333">
        <ele>212.1</ele>
        <time>2025-07-30T11:19:14Z</time>
      </trkpt>
      <trkpt lat="47.23436333" lon="17.10909667">
        <ele>211.6</ele>
        <time>2025-07-30T11:19:17Z</time>
      </trkpt>
      <trkpt lat="47.234455" lon="17.10907167">
        <ele>210.9</ele>
        <time>2025-07-30T11:19:20Z</time>
      </trkpt>
      <trkpt lat="47.23455333" lon="17.10905167">
        <ele>210.1</ele>
        <time>2025-07-30T11:19:23Z</time>
      </trkpt>
      <trkpt lat="47.23465167" lon="17.10902167">
        <ele>209.7</ele>
        <time>2025-07-30T11:19:26Z</time>
      </trkpt>
      <trkpt lat="47.23476667" lon="17.10897167">
        <ele>207.8</ele>
        <time>2025-07-30T11:19:29Z</time>
      </trkpt>
      <trkpt lat="47.23488667" lon="17.10893833">
        <ele>206.5</ele>
        <time>2025-07-30T11:19:33Z</time>
      </trkpt>
      <trkpt lat="47.234985" lon="17.10891167">
        <ele>205.6</ele>
        <time>2025-07-30T11:19:36Z</time>
      </trkpt>
      <trkpt lat="47.2351" lon="17.10891667">
        <ele>204.6</ele>
        <time>2025-07-30T11:19:39Z</time>
      </trkpt>
      <trkpt lat="47.23523667" lon="17.10894333">
        <ele>203.4</ele>
        <time>2025-07-30T11:19:42Z</time>
      </trkpt>
      <trkpt lat="47.235335" lon="17.10895167">
        <ele>202.8</ele>
        <time>2025-07-30T11:19:44Z</time>
      </trkpt>
      <trkpt lat="47.235435" lon="17.10896167">
        <ele>201.6</ele>
        <time>2025-07-30T11:19:46Z</time>
      </trkpt>
      <trkpt lat="47.23553333" lon="17.108975">
        <ele>201.1</ele>
        <time>2025-07-30T11:19:48Z</time>
      </trkpt>
      <trkpt lat="47.23563333" lon="17.10899333">
        <ele>200.7</ele>
        <time>2025-07-30T11:19:50Z</time>
      </trkpt>
      <trkpt lat="47.23572333" lon="17.10901667">
        <ele>200.4</ele>
        <time>2025-07-30T11:19:52Z</time>
      </trkpt>
      <trkpt lat="47.23582833" lon="17.10904667">
        <ele>199.9</ele>
        <time>2025-07-30T11:19:54Z</time>
      </trkpt>
      <trkpt lat="47.235945" lon="17.10908333">
        <ele>196.9</ele>
        <time>2025-07-30T11:19:56Z</time>
      </trkpt>
      <trkpt lat="47.236055" lon="17.10912">
        <ele>196.2</ele>
        <time>2025-07-30T11:19:58Z</time>
      </trkpt>
      <trkpt lat="47.23615833" lon="17.10914833">
        <ele>195.1</ele>
        <time>2025-07-30T11:20:00Z</time>
      </trkpt>
      <trkpt lat="47.23626833" lon="17.10917167">
        <ele>196.4</ele>
        <time>2025-07-30T11:20:02Z</time>
      </trkpt>
      <trkpt lat="47.23638" lon="17.10921833">
        <ele>197</ele>
        <time>2025-07-30T11:20:04Z</time>
      </trkpt>
      <trkpt lat="47.23647667" lon="17.10926167">
        <ele>197.3</ele>
        <time>2025-07-30T11:20:06Z</time>
      </trkpt>
      <trkpt lat="47.23657667" lon="17.10930667">
        <ele>197.9</ele>
        <time>2025-07-30T11:20:08Z</time>
      </trkpt>
      <trkpt lat="47.23668" lon="17.109345">
        <ele>199</ele>
        <time>2025-07-30T11:20:10Z</time>
      </trkpt>
      <trkpt lat="47.23678167" lon="17.10940167">
        <ele>198.7</ele>
        <time>2025-07-30T11:20:12Z</time>
      </trkpt>
      <trkpt lat="47.23687667" lon="17.10945833">
        <ele>197.5</ele>
        <time>2025-07-30T11:20:14Z</time>
      </trkpt>
      <trkpt lat="47.236985" lon="17.10951333">
        <ele>196.6</ele>
        <time>2025-07-30T11:20:16Z</time>
      </trkpt>
      <trkpt lat="47.2371" lon="17.10957333">
        <ele>196.3</ele>
        <time>2025-07-30T11:20:18Z</time>
      </trkpt>
      <trkpt lat="47.23719667" lon="17.10963833">
        <ele>196</ele>
        <time>2025-07-30T11:20:20Z</time>
      </trkpt>
      <trkpt lat="47.23728333" lon="17.10970833">
        <ele>196.4</ele>
        <time>2025-07-30T11:20:22Z</time>
      </trkpt>
      <trkpt lat="47.237365" lon="17.10979667">
        <ele>197.8</ele>
        <time>2025-07-30T11:20:24Z</time>
      </trkpt>
      <trkpt lat="47.23744333" lon="17.10987333">
        <ele>199</ele>
        <time>2025-07-30T11:20:26Z</time>
      </trkpt>
      <trkpt lat="47.23752167" lon="17.10994667">
        <ele>199.3</ele>
        <time>2025-07-30T11:20:28Z</time>
      </trkpt>
      <trkpt lat="47.237595" lon="17.110045">
        <ele>199.3</ele>
        <time>2025-07-30T11:20:30Z</time>
      </trkpt>
      <trkpt lat="47.23766333" lon="17.11013167">
        <ele>199.8</ele>
        <time>2025-07-30T11:20:32Z</time>
      </trkpt>
      <trkpt lat="47.23771667" lon="17.11026167">
        <ele>200</ele>
        <time>2025-07-30T11:20:34Z</time>
      </trkpt>
      <trkpt lat="47.23777833" lon="17.11037833">
        <ele>200.2</ele>
        <time>2025-07-30T11:20:36Z</time>
      </trkpt>
      <trkpt lat="47.237855" lon="17.1105">
        <ele>200.6</ele>
        <time>2025-07-30T11:20:38Z</time>
      </trkpt>
      <trkpt lat="47.23792667" lon="17.11060667">
        <ele>200.8</ele>
        <time>2025-07-30T11:20:40Z</time>
      </trkpt>
      <trkpt lat="47.237995" lon="17.11070333">
        <ele>201.2</ele>
        <time>2025-07-30T11:20:43Z</time>
      </trkpt>
      <trkpt lat="47.238065" lon="17.11079833">
        <ele>199.7</ele>
        <time>2025-07-30T11:20:47Z</time>
      </trkpt>
      <trkpt lat="47.23817833" lon="17.11078333">
        <ele>198.9</ele>
        <time>2025-07-30T11:20:51Z</time>
      </trkpt>
      <trkpt lat="47.23830333" lon="17.11072167">
        <ele>197.8</ele>
        <time>2025-07-30T11:20:54Z</time>
      </trkpt>
      <trkpt lat="47.23839167" lon="17.110675">
        <ele>197.7</ele>
        <time>2025-07-30T11:20:56Z</time>
      </trkpt>
      <trkpt lat="47.238505" lon="17.11061667">
        <ele>197.1</ele>
        <time>2025-07-30T11:20:58Z</time>
      </trkpt>
      <trkpt lat="47.238635" lon="17.11056167">
        <ele>196.7</ele>
        <time>2025-07-30T11:21:00Z</time>
      </trkpt>
      <trkpt lat="47.23876833" lon="17.11049833">
        <ele>196.4</ele>
        <time>2025-07-30T11:21:02Z</time>
      </trkpt>
      <trkpt lat="47.23889333" lon="17.11042333">
        <ele>195.2</ele>
        <time>2025-07-30T11:21:04Z</time>
      </trkpt>
      <trkpt lat="47.23901333" lon="17.11034667">
        <ele>193.7</ele>
        <time>2025-07-30T11:21:06Z</time>
      </trkpt>
      <trkpt lat="47.23912167" lon="17.110285">
        <ele>193.3</ele>
        <time>2025-07-30T11:21:08Z</time>
      </trkpt>
      <trkpt lat="47.23920833" lon="17.11023833">
        <ele>191.9</ele>
        <time>2025-07-30T11:21:10Z</time>
      </trkpt>
      <trkpt lat="47.23930167" lon="17.1102">
        <ele>191.1</ele>
        <time>2025-07-30T11:21:14Z</time>
      </trkpt>
      <trkpt lat="47.23938" lon="17.110275">
        <ele>191.8</ele>
        <time>2025-07-30T11:21:19Z</time>
      </trkpt>
      <trkpt lat="47.23943833" lon="17.11044167">
        <ele>194.1</ele>
        <time>2025-07-30T11:21:22Z</time>
      </trkpt>
      <trkpt lat="47.23947333" lon="17.11060167">
        <ele>194.8</ele>
        <time>2025-07-30T11:21:24Z</time>
      </trkpt>
      <trkpt lat="47.23951833" lon="17.11079167">
        <ele>195.1</ele>
        <time>2025-07-30T11:21:26Z</time>
      </trkpt>
      <trkpt lat="47.23958667" lon="17.11102667">
        <ele>193.8</ele>
        <time>2025-07-30T11:21:28Z</time>
      </trkpt>
      <trkpt lat="47.23962333" lon="17.111165">
        <ele>193.8</ele>
        <time>2025-07-30T11:21:29Z</time>
      </trkpt>
      <trkpt lat="47.23966" lon="17.11131167">
        <ele>193.1</ele>
        <time>2025-07-30T11:21:30Z</time>
      </trkpt>
      <trkpt lat="47.239695" lon="17.11146">
        <ele>193.2</ele>
        <time>2025-07-30T11:21:31Z</time>
      </trkpt>
      <trkpt lat="47.23973333" lon="17.11160833">
        <ele>193.5</ele>
        <time>2025-07-30T11:21:32Z</time>
      </trkpt>
      <trkpt lat="47.23976667" lon="17.111765">
        <ele>193.4</ele>
        <time>2025-07-30T11:21:33Z</time>
      </trkpt>
      <trkpt lat="47.23980333" lon="17.11194167">
        <ele>193.8</ele>
        <time>2025-07-30T11:21:34Z</time>
      </trkpt>
      <trkpt lat="47.23985" lon="17.11211667">
        <ele>194</ele>
        <time>2025-07-30T11:21:35Z</time>
      </trkpt>
      <trkpt lat="47.23989333" lon="17.11228833">
        <ele>193.6</ele>
        <time>2025-07-30T11:21:36Z</time>
      </trkpt>
      <trkpt lat="47.23994167" lon="17.11247667">
        <ele>194.2</ele>
        <time>2025-07-30T11:21:37Z</time>
      </trkpt>
      <trkpt lat="47.23998833" lon="17.11265333">
        <ele>195.1</ele>
        <time>2025-07-30T11:21:38Z</time>
      </trkpt>
      <trkpt lat="47.24002333" lon="17.112835">
        <ele>194.5</ele>
        <time>2025-07-30T11:21:39Z</time>
      </trkpt>
      <trkpt lat="47.24006333" lon="17.11301333">
        <ele>194.2</ele>
        <time>2025-07-30T11:21:40Z</time>
      </trkpt>
      <trkpt lat="47.24010667" lon="17.11321">
        <ele>193.5</ele>
        <time>2025-07-30T11:21:41Z</time>
      </trkpt>
      <trkpt lat="47.24015333" lon="17.1134">
        <ele>192.8</ele>
        <time>2025-07-30T11:21:42Z</time>
      </trkpt>
      <trkpt lat="47.24019667" lon="17.11360333">
        <ele>192.4</ele>
        <time>2025-07-30T11:21:43Z</time>
      </trkpt>
      <trkpt lat="47.24024667" lon="17.11379667">
        <ele>192.7</ele>
        <time>2025-07-30T11:21:44Z</time>
      </trkpt>
      <trkpt lat="47.240295" lon="17.113995">
        <ele>193.1</ele>
        <time>2025-07-30T11:21:45Z</time>
      </trkpt>
      <trkpt lat="47.24034667" lon="17.11419833">
        <ele>193.5</ele>
        <time>2025-07-30T11:21:46Z</time>
      </trkpt>
      <trkpt lat="47.24039667" lon="17.11439">
        <ele>192.9</ele>
        <time>2025-07-30T11:21:47Z</time>
      </trkpt>
      <trkpt lat="47.24044667" lon="17.11457667">
        <ele>191.8</ele>
        <time>2025-07-30T11:21:48Z</time>
      </trkpt>
      <trkpt lat="47.24048667" lon="17.11475167">
        <ele>191.1</ele>
        <time>2025-07-30T11:21:49Z</time>
      </trkpt>
      <trkpt lat="47.24052167" lon="17.11492167">
        <ele>190.7</ele>
        <time>2025-07-30T11:21:50Z</time>
      </trkpt>
      <trkpt lat="47.24053667" lon="17.11508333">
        <ele>190.1</ele>
        <time>2025-07-30T11:21:51Z</time>
      </trkpt>
      <trkpt lat="47.24053" lon="17.115265">
        <ele>189.3</ele>
        <time>2025-07-30T11:21:52Z</time>
      </trkpt>
      <trkpt lat="47.24050833" lon="17.11544167">
        <ele>189.4</ele>
        <time>2025-07-30T11:21:53Z</time>
      </trkpt>
      <trkpt lat="47.24047167" lon="17.11562167">
        <ele>189.6</ele>
        <time>2025-07-30T11:21:54Z</time>
      </trkpt>
      <trkpt lat="47.24043" lon="17.11580833">
        <ele>190.1</ele>
        <time>2025-07-30T11:21:55Z</time>
      </trkpt>
      <trkpt lat="47.24038667" lon="17.11598667">
        <ele>189.6</ele>
        <time>2025-07-30T11:21:56Z</time>
      </trkpt>
      <trkpt lat="47.24034167" lon="17.11618167">
        <ele>189.4</ele>
        <time>2025-07-30T11:21:57Z</time>
      </trkpt>
      <trkpt lat="47.240305" lon="17.116365">
        <ele>189.3</ele>
        <time>2025-07-30T11:21:58Z</time>
      </trkpt>
      <trkpt lat="47.240265" lon="17.11656167">
        <ele>189.1</ele>
        <time>2025-07-30T11:21:59Z</time>
      </trkpt>
      <trkpt lat="47.240225" lon="17.11675">
        <ele>189.3</ele>
        <time>2025-07-30T11:22:00Z</time>
      </trkpt>
      <trkpt lat="47.24019167" lon="17.11692833">
        <ele>189.7</ele>
        <time>2025-07-30T11:22:01Z</time>
      </trkpt>
      <trkpt lat="47.24017167" lon="17.11711167">
        <ele>189.8</ele>
        <time>2025-07-30T11:22:02Z</time>
      </trkpt>
      <trkpt lat="47.240155" lon="17.11728667">
        <ele>189.6</ele>
        <time>2025-07-30T11:22:03Z</time>
      </trkpt>
      <trkpt lat="47.240125" lon="17.11746667">
        <ele>188.4</ele>
        <time>2025-07-30T11:22:04Z</time>
      </trkpt>
      <trkpt lat="47.24008167" lon="17.11764667">
        <ele>188.3</ele>
        <time>2025-07-30T11:22:05Z</time>
      </trkpt>
      <trkpt lat="47.24004" lon="17.117825">
        <ele>187.6</ele>
        <time>2025-07-30T11:22:06Z</time>
      </trkpt>
      <trkpt lat="47.24000667" lon="17.118">
        <ele>187.1</ele>
        <time>2025-07-30T11:22:07Z</time>
      </trkpt>
      <trkpt lat="47.23997833" lon="17.118175">
        <ele>186.6</ele>
        <time>2025-07-30T11:22:08Z</time>
      </trkpt>
      <trkpt lat="47.23995667" lon="17.11834833">
        <ele>186.7</ele>
        <time>2025-07-30T11:22:09Z</time>
      </trkpt>
      <trkpt lat="47.23992833" lon="17.11853">
        <ele>186</ele>
        <time>2025-07-30T11:22:10Z</time>
      </trkpt>
      <trkpt lat="47.239895" lon="17.11871">
        <ele>185.7</ele>
        <time>2025-07-30T11:22:11Z</time>
      </trkpt>
      <trkpt lat="47.239865" lon="17.11888833">
        <ele>185.6</ele>
        <time>2025-07-30T11:22:12Z</time>
      </trkpt>
      <trkpt lat="47.23983667" lon="17.11906">
        <ele>184.7</ele>
        <time>2025-07-30T11:22:13Z</time>
      </trkpt>
      <trkpt lat="47.23981167" lon="17.11923333">
        <ele>183.6</ele>
        <time>2025-07-30T11:22:14Z</time>
      </trkpt>
      <trkpt lat="47.239785" lon="17.11941167">
        <ele>182.9</ele>
        <time>2025-07-30T11:22:15Z</time>
      </trkpt>
      <trkpt lat="47.23974833" lon="17.119595">
        <ele>182.4</ele>
        <time>2025-07-30T11:22:16Z</time>
      </trkpt>
      <trkpt lat="47.23971667" lon="17.11977833">
        <ele>181.8</ele>
        <time>2025-07-30T11:22:17Z</time>
      </trkpt>
      <trkpt lat="47.23969167" lon="17.11996667">
        <ele>181.2</ele>
        <time>2025-07-30T11:22:18Z</time>
      </trkpt>
      <trkpt lat="47.23966167" lon="17.12014833">
        <ele>181.5</ele>
        <time>2025-07-30T11:22:19Z</time>
      </trkpt>
      <trkpt lat="47.239645" lon="17.12031667">
        <ele>182.1</ele>
        <time>2025-07-30T11:22:20Z</time>
      </trkpt>
      <trkpt lat="47.23962167" lon="17.12046833">
        <ele>181.9</ele>
        <time>2025-07-30T11:22:21Z</time>
      </trkpt>
      <trkpt lat="47.23959333" lon="17.12060333">
        <ele>181.2</ele>
        <time>2025-07-30T11:22:22Z</time>
      </trkpt>
      <trkpt lat="47.23956" lon="17.12073667">
        <ele>180.7</ele>
        <time>2025-07-30T11:22:23Z</time>
      </trkpt>
      <trkpt lat="47.23952833" lon="17.12087333">
        <ele>180.1</ele>
        <time>2025-07-30T11:22:24Z</time>
      </trkpt>
      <trkpt lat="47.23949667" lon="17.12101833">
        <ele>179.9</ele>
        <time>2025-07-30T11:22:25Z</time>
      </trkpt>
      <trkpt lat="47.239465" lon="17.121175">
        <ele>180.5</ele>
        <time>2025-07-30T11:22:26Z</time>
      </trkpt>
      <trkpt lat="47.23944333" lon="17.12132833">
        <ele>180.5</ele>
        <time>2025-07-30T11:22:27Z</time>
      </trkpt>
      <trkpt lat="47.239425" lon="17.12147833">
        <ele>180.7</ele>
        <time>2025-07-30T11:22:28Z</time>
      </trkpt>
      <trkpt lat="47.23941" lon="17.12163167">
        <ele>180.1</ele>
        <time>2025-07-30T11:22:29Z</time>
      </trkpt>
      <trkpt lat="47.23940167" lon="17.12179833">
        <ele>179.9</ele>
        <time>2025-07-30T11:22:30Z</time>
      </trkpt>
      <trkpt lat="47.239395" lon="17.12196167">
        <ele>180.1</ele>
        <time>2025-07-30T11:22:31Z</time>
      </trkpt>
      <trkpt lat="47.23938333" lon="17.12213833">
        <ele>180.4</ele>
        <time>2025-07-30T11:22:32Z</time>
      </trkpt>
      <trkpt lat="47.23935833" lon="17.12231667">
        <ele>181</ele>
        <time>2025-07-30T11:22:33Z</time>
      </trkpt>
      <trkpt lat="47.23933667" lon="17.12250167">
        <ele>180.9</ele>
        <time>2025-07-30T11:22:34Z</time>
      </trkpt>
      <trkpt lat="47.23930833" lon="17.122685">
        <ele>180.7</ele>
        <time>2025-07-30T11:22:35Z</time>
      </trkpt>
      <trkpt lat="47.23928333" lon="17.12285">
        <ele>180.7</ele>
        <time>2025-07-30T11:22:36Z</time>
      </trkpt>
      <trkpt lat="47.23925667" lon="17.123">
        <ele>180.7</ele>
        <time>2025-07-30T11:22:37Z</time>
      </trkpt>
      <trkpt lat="47.23922" lon="17.12314167">
        <ele>180.5</ele>
        <time>2025-07-30T11:22:38Z</time>
      </trkpt>
      <trkpt lat="47.23917667" lon="17.123285">
        <ele>180.7</ele>
        <time>2025-07-30T11:22:39Z</time>
      </trkpt>
      <trkpt lat="47.23913" lon="17.12341667">
        <ele>180.7</ele>
        <time>2025-07-30T11:22:40Z</time>
      </trkpt>
      <trkpt lat="47.23907333" lon="17.123545">
        <ele>180.4</ele>
        <time>2025-07-30T11:22:41Z</time>
      </trkpt>
      <trkpt lat="47.239015" lon="17.12366167">
        <ele>179.4</ele>
        <time>2025-07-30T11:22:42Z</time>
      </trkpt>
      <trkpt lat="47.23889667" lon="17.12384333">
        <ele>179.4</ele>
        <time>2025-07-30T11:22:44Z</time>
      </trkpt>
      <trkpt lat="47.23875667" lon="17.12395167">
        <ele>179.1</ele>
        <time>2025-07-30T11:22:46Z</time>
      </trkpt>
      <trkpt lat="47.23863167" lon="17.12396167">
        <ele>180.2</ele>
        <time>2025-07-30T11:22:48Z</time>
      </trkpt>
      <trkpt lat="47.23847167" lon="17.12395">
        <ele>179.8</ele>
        <time>2025-07-30T11:22:50Z</time>
      </trkpt>
      <trkpt lat="47.23837" lon="17.12396">
        <ele>179.2</ele>
        <time>2025-07-30T11:22:51Z</time>
      </trkpt>
      <trkpt lat="47.238275" lon="17.12398667">
        <ele>178.1</ele>
        <time>2025-07-30T11:22:52Z</time>
      </trkpt>
      <trkpt lat="47.238175" lon="17.12404333">
        <ele>177.8</ele>
        <time>2025-07-30T11:22:53Z</time>
      </trkpt>
      <trkpt lat="47.238075" lon="17.12411333">
        <ele>177.1</ele>
        <time>2025-07-30T11:22:54Z</time>
      </trkpt>
      <trkpt lat="47.23798167" lon="17.12418833">
        <ele>176.6</ele>
        <time>2025-07-30T11:22:55Z</time>
      </trkpt>
      <trkpt lat="47.23788167" lon="17.124265">
        <ele>176.4</ele>
        <time>2025-07-30T11:22:56Z</time>
      </trkpt>
      <trkpt lat="47.23778833" lon="17.124325">
        <ele>176.4</ele>
        <time>2025-07-30T11:22:57Z</time>
      </trkpt>
      <trkpt lat="47.23769" lon="17.12438667">
        <ele>176.5</ele>
        <time>2025-07-30T11:22:58Z</time>
      </trkpt>
      <trkpt lat="47.23758833" lon="17.124435">
        <ele>177</ele>
        <time>2025-07-30T11:22:59Z</time>
      </trkpt>
      <trkpt lat="47.23749" lon="17.12448">
        <ele>178.2</ele>
        <time>2025-07-30T11:23:00Z</time>
      </trkpt>
      <trkpt lat="47.23738167" lon="17.12453">
        <ele>179.3</ele>
        <time>2025-07-30T11:23:01Z</time>
      </trkpt>
      <trkpt lat="47.23727167" lon="17.12457833">
        <ele>179.7</ele>
        <time>2025-07-30T11:23:02Z</time>
      </trkpt>
      <trkpt lat="47.23716167" lon="17.12462833">
        <ele>180.1</ele>
        <time>2025-07-30T11:23:03Z</time>
      </trkpt>
      <trkpt lat="47.23705167" lon="17.12469167">
        <ele>180.1</ele>
        <time>2025-07-30T11:23:04Z</time>
      </trkpt>
      <trkpt lat="47.23694667" lon="17.12475833">
        <ele>179.9</ele>
        <time>2025-07-30T11:23:05Z</time>
      </trkpt>
      <trkpt lat="47.23684333" lon="17.12483167">
        <ele>179.2</ele>
        <time>2025-07-30T11:23:06Z</time>
      </trkpt>
      <trkpt lat="47.23673833" lon="17.12491333">
        <ele>179</ele>
        <time>2025-07-30T11:23:07Z</time>
      </trkpt>
      <trkpt lat="47.23664167" lon="17.12499833">
        <ele>179</ele>
        <time>2025-07-30T11:23:08Z</time>
      </trkpt>
      <trkpt lat="47.23654333" lon="17.1251">
        <ele>179.7</ele>
        <time>2025-07-30T11:23:09Z</time>
      </trkpt>
      <trkpt lat="47.23644333" lon="17.1252">
        <ele>179.7</ele>
        <time>2025-07-30T11:23:10Z</time>
      </trkpt>
      <trkpt lat="47.23634167" lon="17.12528833">
        <ele>180</ele>
        <time>2025-07-30T11:23:11Z</time>
      </trkpt>
      <trkpt lat="47.23624333" lon="17.12538167">
        <ele>180</ele>
        <time>2025-07-30T11:23:12Z</time>
      </trkpt>
      <trkpt lat="47.23615833" lon="17.12548167">
        <ele>180</ele>
        <time>2025-07-30T11:23:13Z</time>
      </trkpt>
      <trkpt lat="47.23608" lon="17.12560833">
        <ele>179.6</ele>
        <time>2025-07-30T11:23:14Z</time>
      </trkpt>
      <trkpt lat="47.23600833" lon="17.12575">
        <ele>179.9</ele>
        <time>2025-07-30T11:23:15Z</time>
      </trkpt>
      <trkpt lat="47.23594" lon="17.12589667">
        <ele>179.8</ele>
        <time>2025-07-30T11:23:16Z</time>
      </trkpt>
      <trkpt lat="47.23586833" lon="17.12604333">
        <ele>179.6</ele>
        <time>2025-07-30T11:23:17Z</time>
      </trkpt>
      <trkpt lat="47.23580333" lon="17.126175">
        <ele>180.8</ele>
        <time>2025-07-30T11:23:18Z</time>
      </trkpt>
      <trkpt lat="47.23572333" lon="17.12630333">
        <ele>180.8</ele>
        <time>2025-07-30T11:23:19Z</time>
      </trkpt>
      <trkpt lat="47.23564" lon="17.12643">
        <ele>180.7</ele>
        <time>2025-07-30T11:23:20Z</time>
      </trkpt>
      <trkpt lat="47.23555333" lon="17.126545">
        <ele>180.4</ele>
        <time>2025-07-30T11:23:21Z</time>
      </trkpt>
      <trkpt lat="47.23546667" lon="17.12665833">
        <ele>181.2</ele>
        <time>2025-07-30T11:23:22Z</time>
      </trkpt>
      <trkpt lat="47.23537833" lon="17.12676333">
        <ele>181.1</ele>
        <time>2025-07-30T11:23:23Z</time>
      </trkpt>
      <trkpt lat="47.23529333" lon="17.126865">
        <ele>180.4</ele>
        <time>2025-07-30T11:23:24Z</time>
      </trkpt>
      <trkpt lat="47.235205" lon="17.12695167">
        <ele>179.9</ele>
        <time>2025-07-30T11:23:25Z</time>
      </trkpt>
      <trkpt lat="47.23511" lon="17.12702">
        <ele>180.4</ele>
        <time>2025-07-30T11:23:26Z</time>
      </trkpt>
      <trkpt lat="47.23500667" lon="17.12707833">
        <ele>180.5</ele>
        <time>2025-07-30T11:23:27Z</time>
      </trkpt>
      <trkpt lat="47.234895" lon="17.12712333">
        <ele>180.7</ele>
        <time>2025-07-30T11:23:28Z</time>
      </trkpt>
      <trkpt lat="47.23478667" lon="17.12716333">
        <ele>181.6</ele>
        <time>2025-07-30T11:23:29Z</time>
      </trkpt>
      <trkpt lat="47.23467167" lon="17.12720333">
        <ele>182.5</ele>
        <time>2025-07-30T11:23:30Z</time>
      </trkpt>
      <trkpt lat="47.234555" lon="17.12723833">
        <ele>182.9</ele>
        <time>2025-07-30T11:23:31Z</time>
      </trkpt>
      <trkpt lat="47.23444333" lon="17.127255">
        <ele>182.4</ele>
        <time>2025-07-30T11:23:32Z</time>
      </trkpt>
      <trkpt lat="47.23433167" lon="17.12726167">
        <ele>181.8</ele>
        <time>2025-07-30T11:23:33Z</time>
      </trkpt>
      <trkpt lat="47.23421333" lon="17.12726833">
        <ele>182.4</ele>
        <time>2025-07-30T11:23:34Z</time>
      </trkpt>
      <trkpt lat="47.23410167" lon="17.12727333">
        <ele>182.9</ele>
        <time>2025-07-30T11:23:35Z</time>
      </trkpt>
      <trkpt lat="47.23398833" lon="17.12727667">
        <ele>182.8</ele>
        <time>2025-07-30T11:23:36Z</time>
      </trkpt>
      <trkpt lat="47.23387333" lon="17.12726667">
        <ele>182.5</ele>
        <time>2025-07-30T11:23:37Z</time>
      </trkpt>
      <trkpt lat="47.23376667" lon="17.12727833">
        <ele>182.6</ele>
        <time>2025-07-30T11:23:38Z</time>
      </trkpt>
      <trkpt lat="47.23367167" lon="17.12728833">
        <ele>182.3</ele>
        <time>2025-07-30T11:23:39Z</time>
      </trkpt>
      <trkpt lat="47.23353167" lon="17.12729333">
        <ele>182.1</ele>
        <time>2025-07-30T11:23:41Z</time>
      </trkpt>
      <trkpt lat="47.23343833" lon="17.12732167">
        <ele>181</ele>
        <time>2025-07-30T11:23:43Z</time>
      </trkpt>
      <trkpt lat="47.23339667" lon="17.127505">
        <ele>179.8</ele>
        <time>2025-07-30T11:23:46Z</time>
      </trkpt>
      <trkpt lat="47.233415" lon="17.12768667">
        <ele>179.5</ele>
        <time>2025-07-30T11:23:48Z</time>
      </trkpt>
      <trkpt lat="47.23344667" lon="17.12789">
        <ele>179.5</ele>
        <time>2025-07-30T11:23:50Z</time>
      </trkpt>
      <trkpt lat="47.23347333" lon="17.12811">
        <ele>180</ele>
        <time>2025-07-30T11:23:52Z</time>
      </trkpt>
      <trkpt lat="47.23350333" lon="17.12828333">
        <ele>179.2</ele>
        <time>2025-07-30T11:23:54Z</time>
      </trkpt>
      <trkpt lat="47.23350667" lon="17.12845833">
        <ele>179.3</ele>
        <time>2025-07-30T11:23:57Z</time>
      </trkpt>
      <trkpt lat="47.23341333" lon="17.12856167">
        <ele>180.9</ele>
        <time>2025-07-30T11:24:00Z</time>
      </trkpt>
      <trkpt lat="47.23331667" lon="17.128585">
        <ele>182.1</ele>
        <time>2025-07-30T11:24:02Z</time>
      </trkpt>
      <trkpt lat="47.23321333" lon="17.12860333">
        <ele>183</ele>
        <time>2025-07-30T11:24:04Z</time>
      </trkpt>
      <trkpt lat="47.23312833" lon="17.12851667">
        <ele>183.8</ele>
        <time>2025-07-30T11:24:07Z</time>
      </trkpt>
      <trkpt lat="47.2331" lon="17.12838833">
        <ele>182.6</ele>
        <time>2025-07-30T11:24:12Z</time>
      </trkpt>
    </trkseg>
  </trk>
</gpx>