<?xml version='1.0' encoding='UTF-8' standalone='yes' ?>
<gpx xmlns="http://www.topografix.com/GPX/1/1" xmlns:geotracker="http://ilyabogdanovich.com/gpx/extensions/geotracker" xmlns:xsi="http://www.w3.org/2001/XMLSchema-instance" xsi:schemaLocation="http://www.topografix.com/GPX/1/1 http://www.topografix.com/GPX/1/1/gpx.xsd" version="1.1" creator="Recorded in Geo Tracker for Android from Ilya Bogdanovich">
  <metadata>
    <name>c_0730_01</name>
    <author>
      <name>Recorded in Geo Tracker for Android from Ilya Bogdanovich</name>
      <link href="https://play.google.com/store/apps/details?id=com.ilyabogdanovich.geotracker" />
    </author>
    <link href="https://play.google.com/store/apps/details?id=com.ilyabogdanovich.geotracker" />
    <time>2025-07-30T09:16:27Z</time>
  </metadata>
  <trk>
    <name>c_0730_01</name>
    <src>Recorded in Geo Tracker for Android from Ilya Bogdanovich</src>
    <link href="https://play.google.com/store/apps/details?id=com.ilyabogdanovich.geotracker" />
    <extensions>
      <geotracker:meta>
        <geotracker:length>5461.52</geotracker:length>
        <geotracker:duration>674626</geotracker:duration>
        <geotracker:creationtime>2025-07-30T09:16:27Z</geotracker:creationtime>
        <geotracker:activity>0</geotracker:activity>
      </geotracker:meta>
    </extensions>
    <trkseg>
      <trkpt lat="47.26086833" lon="17.151225">
        <ele>181.4</ele>
        <time>2025-07-30T09:16:33Z</time>
      </trkpt>
      <trkpt lat="47.26065" lon="17.151185">
        <ele>180.6</ele>
        <time>2025-07-30T09:17:35Z</time>
      </trkpt>
      <trkpt lat="47.26055667" lon="17.15122667">
        <ele>179.2</ele>
        <time>2025-07-30T09:17:39Z</time>
      </trkpt>
      <trkpt lat="47.26045667" lon="17.15121833">
        <ele>177.7</ele>
        <time>2025-07-30T09:17:42Z</time>
      </trkpt>
      <trkpt lat="47.26032333" lon="17.15117833">
        <ele>177.2</ele>
        <time>2025-07-30T09:17:45Z</time>
      </trkpt>
      <trkpt lat="47.26021" lon="17.15113833">
        <ele>176.8</ele>
        <time>2025-07-30T09:17:47Z</time>
      </trkpt>
      <trkpt lat="47.26009167" lon="17.15106333">
        <ele>175.6</ele>
        <time>2025-07-30T09:17:49Z</time>
      </trkpt>
      <trkpt lat="47.25996" lon="17.15102333">
        <ele>174.7</ele>
        <time>2025-07-30T09:17:51Z</time>
      </trkpt>
      <trkpt lat="47.259845" lon="17.15099333">
        <ele>174.4</ele>
        <time>2025-07-30T09:17:53Z</time>
      </trkpt>
      <trkpt lat="47.25974667" lon="17.15095167">
        <ele>174.1</ele>
        <time>2025-07-30T09:17:55Z</time>
      </trkpt>
      <trkpt lat="47.259635" lon="17.15087667">
        <ele>174.6</ele>
        <time>2025-07-30T09:17:58Z</time>
      </trkpt>
      <trkpt lat="47.25954833" lon="17.15083833">
        <ele>174.3</ele>
        <time>2025-07-30T09:18:00Z</time>
      </trkpt>
      <trkpt lat="47.25942833" lon="17.15077833">
        <ele>172.6</ele>
        <time>2025-07-30T09:18:03Z</time>
      </trkpt>
      <trkpt lat="47.25931167" lon="17.15074167">
        <ele>170.7</ele>
        <time>2025-07-30T09:18:06Z</time>
      </trkpt>
      <trkpt lat="47.25919167" lon="17.15070333">
        <ele>169.5</ele>
        <time>2025-07-30T09:18:09Z</time>
      </trkpt>
      <trkpt lat="47.259095" lon="17.15066667">
        <ele>169</ele>
        <time>2025-07-30T09:18:11Z</time>
      </trkpt>
      <trkpt lat="47.25897333" lon="17.15062">
        <ele>170</ele>
        <time>2025-07-30T09:18:13Z</time>
      </trkpt>
      <trkpt lat="47.25884833" lon="17.15058333">
        <ele>170.3</ele>
        <time>2025-07-30T09:18:15Z</time>
      </trkpt>
      <trkpt lat="47.25869333" lon="17.15054667">
        <ele>171.3</ele>
        <time>2025-07-30T09:18:17Z</time>
      </trkpt>
      <trkpt lat="47.25852833" lon="17.150495">
        <ele>172.4</ele>
        <time>2025-07-30T09:18:19Z</time>
      </trkpt>
      <trkpt lat="47.25838667" lon="17.15042667">
        <ele>174.5</ele>
        <time>2025-07-30T09:18:21Z</time>
      </trkpt>
      <trkpt lat="47.25826" lon="17.150385">
        <ele>175.2</ele>
        <time>2025-07-30T09:18:23Z</time>
      </trkpt>
      <trkpt lat="47.25815167" lon="17.15038167">
        <ele>175.6</ele>
        <time>2025-07-30T09:18:25Z</time>
      </trkpt>
      <trkpt lat="47.25805333" lon="17.15029667">
        <ele>176.9</ele>
        <time>2025-07-30T09:18:29Z</time>
      </trkpt>
      <trkpt lat="47.25805667" lon="17.150135">
        <ele>176.7</ele>
        <time>2025-07-30T09:18:32Z</time>
      </trkpt>
      <trkpt lat="47.25809833" lon="17.14997333">
        <ele>175.7</ele>
        <time>2025-07-30T09:18:35Z</time>
      </trkpt>
      <trkpt lat="47.25812833" lon="17.14982667">
        <ele>175.2</ele>
        <time>2025-07-30T09:18:37Z</time>
      </trkpt>
      <trkpt lat="47.258175" lon="17.149655">
        <ele>174.2</ele>
        <time>2025-07-30T09:18:39Z</time>
      </trkpt>
      <trkpt lat="47.25823" lon="17.14949">
        <ele>173</ele>
        <time>2025-07-30T09:18:41Z</time>
      </trkpt>
      <trkpt lat="47.25827667" lon="17.14928167">
        <ele>172.3</ele>
        <time>2025-07-30T09:18:43Z</time>
      </trkpt>
      <trkpt lat="47.25834" lon="17.14908833">
        <ele>172.6</ele>
        <time>2025-07-30T09:18:45Z</time>
      </trkpt>
      <trkpt lat="47.25841" lon="17.14887167">
        <ele>173.6</ele>
        <time>2025-07-30T09:18:47Z</time>
      </trkpt>
      <trkpt lat="47.258475" lon="17.14864167">
        <ele>173.9</ele>
        <time>2025-07-30T09:18:49Z</time>
      </trkpt>
      <trkpt lat="47.25850667" lon="17.14850667">
        <ele>172.7</ele>
        <time>2025-07-30T09:18:50Z</time>
      </trkpt>
      <trkpt lat="47.25854333" lon="17.14838167">
        <ele>172.2</ele>
        <time>2025-07-30T09:18:51Z</time>
      </trkpt>
      <trkpt lat="47.25857667" lon="17.14825667">
        <ele>172.1</ele>
        <time>2025-07-30T09:18:52Z</time>
      </trkpt>
      <trkpt lat="47.25861333" lon="17.14812">
        <ele>172.5</ele>
        <time>2025-07-30T09:18:53Z</time>
      </trkpt>
      <trkpt lat="47.258655" lon="17.14798167">
        <ele>172.3</ele>
        <time>2025-07-30T09:18:54Z</time>
      </trkpt>
      <trkpt lat="47.25869" lon="17.147845">
        <ele>172.6</ele>
        <time>2025-07-30T09:18:55Z</time>
      </trkpt>
      <trkpt lat="47.25872833" lon="17.14770833">
        <ele>173.3</ele>
        <time>2025-07-30T09:18:56Z</time>
      </trkpt>
      <trkpt lat="47.25876333" lon="17.14756833">
        <ele>173.9</ele>
        <time>2025-07-30T09:18:57Z</time>
      </trkpt>
      <trkpt lat="47.25880667" lon="17.14743167">
        <ele>174.5</ele>
        <time>2025-07-30T09:18:58Z</time>
      </trkpt>
      <trkpt lat="47.258845" lon="17.14728667">
        <ele>174.6</ele>
        <time>2025-07-30T09:18:59Z</time>
      </trkpt>
      <trkpt lat="47.25889" lon="17.14716">
        <ele>175.2</ele>
        <time>2025-07-30T09:19:00Z</time>
      </trkpt>
      <trkpt lat="47.25893" lon="17.14702667">
        <ele>175</ele>
        <time>2025-07-30T09:19:01Z</time>
      </trkpt>
      <trkpt lat="47.25896667" lon="17.14689333">
        <ele>174.9</ele>
        <time>2025-07-30T09:19:02Z</time>
      </trkpt>
      <trkpt lat="47.25901167" lon="17.14675833">
        <ele>175.6</ele>
        <time>2025-07-30T09:19:03Z</time>
      </trkpt>
      <trkpt lat="47.25905667" lon="17.14662167">
        <ele>176</ele>
        <time>2025-07-30T09:19:04Z</time>
      </trkpt>
      <trkpt lat="47.259095" lon="17.14648167">
        <ele>176.4</ele>
        <time>2025-07-30T09:19:05Z</time>
      </trkpt>
      <trkpt lat="47.259125" lon="17.14633167">
        <ele>176.7</ele>
        <time>2025-07-30T09:19:06Z</time>
      </trkpt>
      <trkpt lat="47.25915333" lon="17.14618667">
        <ele>177.2</ele>
        <time>2025-07-30T09:19:07Z</time>
      </trkpt>
      <trkpt lat="47.259175" lon="17.14604333">
        <ele>176.8</ele>
        <time>2025-07-30T09:19:08Z</time>
      </trkpt>
      <trkpt lat="47.25921667" lon="17.14589667">
        <ele>176.2</ele>
        <time>2025-07-30T09:19:09Z</time>
      </trkpt>
      <trkpt lat="47.25926167" lon="17.145745">
        <ele>176.2</ele>
        <time>2025-07-30T09:19:10Z</time>
      </trkpt>
      <trkpt lat="47.25931333" lon="17.1456">
        <ele>176.4</ele>
        <time>2025-07-30T09:19:11Z</time>
      </trkpt>
      <trkpt lat="47.25934667" lon="17.14543167">
        <ele>175.2</ele>
        <time>2025-07-30T09:19:12Z</time>
      </trkpt>
      <trkpt lat="47.25938167" lon="17.14527333">
        <ele>174.4</ele>
        <time>2025-07-30T09:19:13Z</time>
      </trkpt>
      <trkpt lat="47.25941833" lon="17.14512667">
        <ele>174.7</ele>
        <time>2025-07-30T09:19:14Z</time>
      </trkpt>
      <trkpt lat="47.259455" lon="17.14499">
        <ele>174.6</ele>
        <time>2025-07-30T09:19:15Z</time>
      </trkpt>
      <trkpt lat="47.259485" lon="17.14485833">
        <ele>174.2</ele>
        <time>2025-07-30T09:19:16Z</time>
      </trkpt>
      <trkpt lat="47.25951333" lon="17.144725">
        <ele>173.9</ele>
        <time>2025-07-30T09:19:17Z</time>
      </trkpt>
      <trkpt lat="47.25953667" lon="17.14458667">
        <ele>173.8</ele>
        <time>2025-07-30T09:19:18Z</time>
      </trkpt>
      <trkpt lat="47.25957667" lon="17.14434833">
        <ele>176.6</ele>
        <time>2025-07-30T09:19:20Z</time>
      </trkpt>
      <trkpt lat="47.25963333" lon="17.14411333">
        <ele>178.4</ele>
        <time>2025-07-30T09:19:22Z</time>
      </trkpt>
      <trkpt lat="47.259665" lon="17.14398833">
        <ele>179.7</ele>
        <time>2025-07-30T09:19:23Z</time>
      </trkpt>
      <trkpt lat="47.25968167" lon="17.14372667">
        <ele>180.4</ele>
        <time>2025-07-30T09:19:25Z</time>
      </trkpt>
      <trkpt lat="47.259675" lon="17.14359">
        <ele>180.9</ele>
        <time>2025-07-30T09:19:26Z</time>
      </trkpt>
      <trkpt lat="47.25965667" lon="17.14344167">
        <ele>181.9</ele>
        <time>2025-07-30T09:19:27Z</time>
      </trkpt>
      <trkpt lat="47.25963" lon="17.14329833">
        <ele>181.5</ele>
        <time>2025-07-30T09:19:28Z</time>
      </trkpt>
      <trkpt lat="47.25961" lon="17.143145">
        <ele>180.8</ele>
        <time>2025-07-30T09:19:29Z</time>
      </trkpt>
      <trkpt lat="47.25959667" lon="17.14299833">
        <ele>180.7</ele>
        <time>2025-07-30T09:19:30Z</time>
      </trkpt>
      <trkpt lat="47.25958167" lon="17.14285167">
        <ele>180.5</ele>
        <time>2025-07-30T09:19:31Z</time>
      </trkpt>
      <trkpt lat="47.25956667" lon="17.14271667">
        <ele>180.2</ele>
        <time>2025-07-30T09:19:32Z</time>
      </trkpt>
      <trkpt lat="47.259555" lon="17.14256167">
        <ele>179.9</ele>
        <time>2025-07-30T09:19:33Z</time>
      </trkpt>
      <trkpt lat="47.25955167" lon="17.14232">
        <ele>179.6</ele>
        <time>2025-07-30T09:19:35Z</time>
      </trkpt>
      <trkpt lat="47.25956167" lon="17.14214">
        <ele>174.8</ele>
        <time>2025-07-30T09:19:37Z</time>
      </trkpt>
      <trkpt lat="47.25953833" lon="17.14200833">
        <ele>171.2</ele>
        <time>2025-07-30T09:19:40Z</time>
      </trkpt>
      <trkpt lat="47.25942667" lon="17.14202">
        <ele>170.8</ele>
        <time>2025-07-30T09:19:43Z</time>
      </trkpt>
      <trkpt lat="47.259315" lon="17.14205833">
        <ele>171.1</ele>
        <time>2025-07-30T09:19:45Z</time>
      </trkpt>
      <trkpt lat="47.25919167" lon="17.14209">
        <ele>170</ele>
        <time>2025-07-30T09:19:47Z</time>
      </trkpt>
      <trkpt lat="47.25903167" lon="17.14213167">
        <ele>169.4</ele>
        <time>2025-07-30T09:19:49Z</time>
      </trkpt>
      <trkpt lat="47.25893667" lon="17.14214833">
        <ele>169.5</ele>
        <time>2025-07-30T09:19:50Z</time>
      </trkpt>
      <trkpt lat="47.25884167" lon="17.14215833">
        <ele>169.8</ele>
        <time>2025-07-30T09:19:51Z</time>
      </trkpt>
      <trkpt lat="47.25873833" lon="17.142165">
        <ele>170.2</ele>
        <time>2025-07-30T09:19:52Z</time>
      </trkpt>
      <trkpt lat="47.25862833" lon="17.142165">
        <ele>170.5</ele>
        <time>2025-07-30T09:19:53Z</time>
      </trkpt>
      <trkpt lat="47.25852" lon="17.14218">
        <ele>170.9</ele>
        <time>2025-07-30T09:19:54Z</time>
      </trkpt>
      <trkpt lat="47.258415" lon="17.14219167">
        <ele>171.3</ele>
        <time>2025-07-30T09:19:55Z</time>
      </trkpt>
      <trkpt lat="47.25830667" lon="17.14220333">
        <ele>172</ele>
        <time>2025-07-30T09:19:56Z</time>
      </trkpt>
      <trkpt lat="47.2582" lon="17.14221833">
        <ele>172.4</ele>
        <time>2025-07-30T09:19:57Z</time>
      </trkpt>
      <trkpt lat="47.25808833" lon="17.14224">
        <ele>172.6</ele>
        <time>2025-07-30T09:19:58Z</time>
      </trkpt>
      <trkpt lat="47.257975" lon="17.142245">
        <ele>172.8</ele>
        <time>2025-07-30T09:19:59Z</time>
      </trkpt>
      <trkpt lat="47.25787167" lon="17.14225">
        <ele>173.5</ele>
        <time>2025-07-30T09:20:00Z</time>
      </trkpt>
      <trkpt lat="47.25776333" lon="17.14226833">
        <ele>174.2</ele>
        <time>2025-07-30T09:20:01Z</time>
      </trkpt>
      <trkpt lat="47.25765333" lon="17.14228">
        <ele>175.1</ele>
        <time>2025-07-30T09:20:02Z</time>
      </trkpt>
      <trkpt lat="47.25754833" lon="17.14229167">
        <ele>175.9</ele>
        <time>2025-07-30T09:20:03Z</time>
      </trkpt>
      <trkpt lat="47.257445" lon="17.14230667">
        <ele>176.6</ele>
        <time>2025-07-30T09:20:04Z</time>
      </trkpt>
      <trkpt lat="47.25734667" lon="17.142315">
        <ele>177.2</ele>
        <time>2025-07-30T09:20:05Z</time>
      </trkpt>
      <trkpt lat="47.25724667" lon="17.14233">
        <ele>177.4</ele>
        <time>2025-07-30T09:20:06Z</time>
      </trkpt>
      <trkpt lat="47.257135" lon="17.14235667">
        <ele>177.8</ele>
        <time>2025-07-30T09:20:07Z</time>
      </trkpt>
      <trkpt lat="47.25702" lon="17.14237667">
        <ele>178.3</ele>
        <time>2025-07-30T09:20:08Z</time>
      </trkpt>
      <trkpt lat="47.25690833" lon="17.14238333">
        <ele>178.6</ele>
        <time>2025-07-30T09:20:09Z</time>
      </trkpt>
      <trkpt lat="47.25680167" lon="17.142385">
        <ele>178.7</ele>
        <time>2025-07-30T09:20:10Z</time>
      </trkpt>
      <trkpt lat="47.256695" lon="17.14238833">
        <ele>179.4</ele>
        <time>2025-07-30T09:20:11Z</time>
      </trkpt>
      <trkpt lat="47.2566" lon="17.14238667">
        <ele>178.3</ele>
        <time>2025-07-30T09:20:12Z</time>
      </trkpt>
      <trkpt lat="47.25650167" lon="17.1424">
        <ele>177.3</ele>
        <time>2025-07-30T09:20:13Z</time>
      </trkpt>
      <trkpt lat="47.2564" lon="17.14242">
        <ele>176.7</ele>
        <time>2025-07-30T09:20:14Z</time>
      </trkpt>
      <trkpt lat="47.256295" lon="17.14244">
        <ele>176.3</ele>
        <time>2025-07-30T09:20:15Z</time>
      </trkpt>
      <trkpt lat="47.25619" lon="17.142455">
        <ele>175.5</ele>
        <time>2025-07-30T09:20:16Z</time>
      </trkpt>
      <trkpt lat="47.25608167" lon="17.14247167">
        <ele>174.5</ele>
        <time>2025-07-30T09:20:17Z</time>
      </trkpt>
      <trkpt lat="47.25596833" lon="17.14247833">
        <ele>174.4</ele>
        <time>2025-07-30T09:20:18Z</time>
      </trkpt>
      <trkpt lat="47.255855" lon="17.142485">
        <ele>174.5</ele>
        <time>2025-07-30T09:20:19Z</time>
      </trkpt>
      <trkpt lat="47.25574" lon="17.14249">
        <ele>174.3</ele>
        <time>2025-07-30T09:20:20Z</time>
      </trkpt>
      <trkpt lat="47.25563833" lon="17.14250833">
        <ele>172.6</ele>
        <time>2025-07-30T09:20:21Z</time>
      </trkpt>
      <trkpt lat="47.25552" lon="17.142525">
        <ele>172.4</ele>
        <time>2025-07-30T09:20:22Z</time>
      </trkpt>
      <trkpt lat="47.255395" lon="17.14253667">
        <ele>172.1</ele>
        <time>2025-07-30T09:20:23Z</time>
      </trkpt>
      <trkpt lat="47.25526333" lon="17.14254833">
        <ele>173.4</ele>
        <time>2025-07-30T09:20:24Z</time>
      </trkpt>
      <trkpt lat="47.25513167" lon="17.14254833">
        <ele>173.7</ele>
        <time>2025-07-30T09:20:25Z</time>
      </trkpt>
      <trkpt lat="47.25499333" lon="17.142555">
        <ele>174.9</ele>
        <time>2025-07-30T09:20:26Z</time>
      </trkpt>
      <trkpt lat="47.25485833" lon="17.14256333">
        <ele>175.8</ele>
        <time>2025-07-30T09:20:27Z</time>
      </trkpt>
      <trkpt lat="47.25473167" lon="17.14258833">
        <ele>176.9</ele>
        <time>2025-07-30T09:20:28Z</time>
      </trkpt>
      <trkpt lat="47.25462333" lon="17.14260667">
        <ele>176.7</ele>
        <time>2025-07-30T09:20:29Z</time>
      </trkpt>
      <trkpt lat="47.25452833" lon="17.142615">
        <ele>176.2</ele>
        <time>2025-07-30T09:20:30Z</time>
      </trkpt>
      <trkpt lat="47.25438" lon="17.14264667">
        <ele>174.6</ele>
        <time>2025-07-30T09:20:32Z</time>
      </trkpt>
      <trkpt lat="47.25425" lon="17.14259167">
        <ele>174.4</ele>
        <time>2025-07-30T09:20:34Z</time>
      </trkpt>
      <trkpt lat="47.25412167" lon="17.14244">
        <ele>174</ele>
        <time>2025-07-30T09:20:36Z</time>
      </trkpt>
      <trkpt lat="47.25403" lon="17.14222333">
        <ele>173.3</ele>
        <time>2025-07-30T09:20:38Z</time>
      </trkpt>
      <trkpt lat="47.25394" lon="17.14200833">
        <ele>173.3</ele>
        <time>2025-07-30T09:20:40Z</time>
      </trkpt>
      <trkpt lat="47.253845" lon="17.14178667">
        <ele>173.2</ele>
        <time>2025-07-30T09:20:42Z</time>
      </trkpt>
      <trkpt lat="47.253785" lon="17.141655">
        <ele>172.8</ele>
        <time>2025-07-30T09:20:43Z</time>
      </trkpt>
      <trkpt lat="47.25372333" lon="17.141515">
        <ele>172.8</ele>
        <time>2025-07-30T09:20:44Z</time>
      </trkpt>
      <trkpt lat="47.25365833" lon="17.14137667">
        <ele>172.5</ele>
        <time>2025-07-30T09:20:45Z</time>
      </trkpt>
      <trkpt lat="47.25359833" lon="17.14124667">
        <ele>172.1</ele>
        <time>2025-07-30T09:20:46Z</time>
      </trkpt>
      <trkpt lat="47.25353667" lon="17.141105">
        <ele>171.7</ele>
        <time>2025-07-30T09:20:47Z</time>
      </trkpt>
      <trkpt lat="47.25347167" lon="17.14096">
        <ele>171.2</ele>
        <time>2025-07-30T09:20:48Z</time>
      </trkpt>
      <trkpt lat="47.25340833" lon="17.14081">
        <ele>170.9</ele>
        <time>2025-07-30T09:20:49Z</time>
      </trkpt>
      <trkpt lat="47.253355" lon="17.140655">
        <ele>170.3</ele>
        <time>2025-07-30T09:20:50Z</time>
      </trkpt>
      <trkpt lat="47.25330333" lon="17.14049">
        <ele>170.7</ele>
        <time>2025-07-30T09:20:51Z</time>
      </trkpt>
      <trkpt lat="47.25324833" lon="17.140335">
        <ele>170.3</ele>
        <time>2025-07-30T09:20:52Z</time>
      </trkpt>
      <trkpt lat="47.253195" lon="17.14017167">
        <ele>170.4</ele>
        <time>2025-07-30T09:20:53Z</time>
      </trkpt>
      <trkpt lat="47.25314833" lon="17.13999833">
        <ele>171.7</ele>
        <time>2025-07-30T09:20:54Z</time>
      </trkpt>
      <trkpt lat="47.253095" lon="17.13982167">
        <ele>172.6</ele>
        <time>2025-07-30T09:20:55Z</time>
      </trkpt>
      <trkpt lat="47.25304333" lon="17.13965">
        <ele>173.5</ele>
        <time>2025-07-30T09:20:56Z</time>
      </trkpt>
      <trkpt lat="47.25299333" lon="17.13949333">
        <ele>173.2</ele>
        <time>2025-07-30T09:20:57Z</time>
      </trkpt>
      <trkpt lat="47.25293833" lon="17.13933667">
        <ele>173.1</ele>
        <time>2025-07-30T09:20:58Z</time>
      </trkpt>
      <trkpt lat="47.25288167" lon="17.13919333">
        <ele>175.3</ele>
        <time>2025-07-30T09:20:59Z</time>
      </trkpt>
      <trkpt lat="47.252825" lon="17.13903167">
        <ele>175</ele>
        <time>2025-07-30T09:21:00Z</time>
      </trkpt>
      <trkpt lat="47.25278667" lon="17.13887">
        <ele>174.3</ele>
        <time>2025-07-30T09:21:01Z</time>
      </trkpt>
      <trkpt lat="47.25276833" lon="17.138725">
        <ele>171.7</ele>
        <time>2025-07-30T09:21:02Z</time>
      </trkpt>
      <trkpt lat="47.252735" lon="17.13856333">
        <ele>170.2</ele>
        <time>2025-07-30T09:21:03Z</time>
      </trkpt>
      <trkpt lat="47.25268833" lon="17.13839333">
        <ele>171.9</ele>
        <time>2025-07-30T09:21:04Z</time>
      </trkpt>
      <trkpt lat="47.25264" lon="17.13821167">
        <ele>173.8</ele>
        <time>2025-07-30T09:21:05Z</time>
      </trkpt>
      <trkpt lat="47.25258667" lon="17.13803667">
        <ele>173.4</ele>
        <time>2025-07-30T09:21:06Z</time>
      </trkpt>
      <trkpt lat="47.252525" lon="17.137845">
        <ele>171.8</ele>
        <time>2025-07-30T09:21:07Z</time>
      </trkpt>
      <trkpt lat="47.25247" lon="17.13765667">
        <ele>171.4</ele>
        <time>2025-07-30T09:21:08Z</time>
      </trkpt>
      <trkpt lat="47.25240667" lon="17.13746333">
        <ele>171.3</ele>
        <time>2025-07-30T09:21:09Z</time>
      </trkpt>
      <trkpt lat="47.25235333" lon="17.13726667">
        <ele>171.9</ele>
        <time>2025-07-30T09:21:10Z</time>
      </trkpt>
      <trkpt lat="47.25230167" lon="17.13705667">
        <ele>172.8</ele>
        <time>2025-07-30T09:21:11Z</time>
      </trkpt>
      <trkpt lat="47.25225167" lon="17.13685333">
        <ele>173.8</ele>
        <time>2025-07-30T09:21:12Z</time>
      </trkpt>
      <trkpt lat="47.25219667" lon="17.13664333">
        <ele>173.3</ele>
        <time>2025-07-30T09:21:13Z</time>
      </trkpt>
      <trkpt lat="47.25214167" lon="17.136415">
        <ele>171.6</ele>
        <time>2025-07-30T09:21:14Z</time>
      </trkpt>
      <trkpt lat="47.25205667" lon="17.136205">
        <ele>176</ele>
        <time>2025-07-30T09:21:15Z</time>
      </trkpt>
      <trkpt lat="47.25200333" lon="17.13600667">
        <ele>175.9</ele>
        <time>2025-07-30T09:21:16Z</time>
      </trkpt>
      <trkpt lat="47.25193667" lon="17.135805">
        <ele>174.4</ele>
        <time>2025-07-30T09:21:17Z</time>
      </trkpt>
      <trkpt lat="47.25187" lon="17.13559167">
        <ele>173</ele>
        <time>2025-07-30T09:21:18Z</time>
      </trkpt>
      <trkpt lat="47.25178833" lon="17.13538167">
        <ele>172.6</ele>
        <time>2025-07-30T09:21:19Z</time>
      </trkpt>
      <trkpt lat="47.251715" lon="17.13517">
        <ele>173.7</ele>
        <time>2025-07-30T09:21:20Z</time>
      </trkpt>
      <trkpt lat="47.251645" lon="17.13494833">
        <ele>173.8</ele>
        <time>2025-07-30T09:21:21Z</time>
      </trkpt>
      <trkpt lat="47.25157833" lon="17.13472833">
        <ele>170.6</ele>
        <time>2025-07-30T09:21:22Z</time>
      </trkpt>
      <trkpt lat="47.25151333" lon="17.13449833">
        <ele>169.2</ele>
        <time>2025-07-30T09:21:23Z</time>
      </trkpt>
      <trkpt lat="47.251445" lon="17.13426833">
        <ele>169.1</ele>
        <time>2025-07-30T09:21:24Z</time>
      </trkpt>
      <trkpt lat="47.25137667" lon="17.13403833">
        <ele>169</ele>
        <time>2025-07-30T09:21:25Z</time>
      </trkpt>
      <trkpt lat="47.25131333" lon="17.13380667">
        <ele>168.8</ele>
        <time>2025-07-30T09:21:26Z</time>
      </trkpt>
      <trkpt lat="47.25125" lon="17.13358667">
        <ele>172.9</ele>
        <time>2025-07-30T09:21:27Z</time>
      </trkpt>
      <trkpt lat="47.25118" lon="17.133365">
        <ele>174.5</ele>
        <time>2025-07-30T09:21:28Z</time>
      </trkpt>
      <trkpt lat="47.25110167" lon="17.13313667">
        <ele>175.6</ele>
        <time>2025-07-30T09:21:29Z</time>
      </trkpt>
      <trkpt lat="47.25103167" lon="17.13289667">
        <ele>177</ele>
        <time>2025-07-30T09:21:30Z</time>
      </trkpt>
      <trkpt lat="47.25096333" lon="17.13266333">
        <ele>178.1</ele>
        <time>2025-07-30T09:21:31Z</time>
      </trkpt>
      <trkpt lat="47.25088667" lon="17.13243167">
        <ele>178</ele>
        <time>2025-07-30T09:21:32Z</time>
      </trkpt>
      <trkpt lat="47.25080667" lon="17.13220167">
        <ele>178</ele>
        <time>2025-07-30T09:21:33Z</time>
      </trkpt>
      <trkpt lat="47.25073333" lon="17.13198">
        <ele>179.1</ele>
        <time>2025-07-30T09:21:34Z</time>
      </trkpt>
      <trkpt lat="47.25065333" lon="17.131745">
        <ele>180.4</ele>
        <time>2025-07-30T09:21:35Z</time>
      </trkpt>
      <trkpt lat="47.25056" lon="17.13153333">
        <ele>182.7</ele>
        <time>2025-07-30T09:21:36Z</time>
      </trkpt>
      <trkpt lat="47.25049667" lon="17.13127833">
        <ele>181.3</ele>
        <time>2025-07-30T09:21:37Z</time>
      </trkpt>
      <trkpt lat="47.250435" lon="17.131025">
        <ele>176.5</ele>
        <time>2025-07-30T09:21:38Z</time>
      </trkpt>
      <trkpt lat="47.25037833" lon="17.13079333">
        <ele>176.4</ele>
        <time>2025-07-30T09:21:39Z</time>
      </trkpt>
      <trkpt lat="47.25032" lon="17.13057">
        <ele>176.4</ele>
        <time>2025-07-30T09:21:40Z</time>
      </trkpt>
      <trkpt lat="47.25026667" lon="17.13035167">
        <ele>176.9</ele>
        <time>2025-07-30T09:21:41Z</time>
      </trkpt>
      <trkpt lat="47.25020167" lon="17.13014833">
        <ele>176.8</ele>
        <time>2025-07-30T09:21:42Z</time>
      </trkpt>
      <trkpt lat="47.25012667" lon="17.129925">
        <ele>175</ele>
        <time>2025-07-30T09:21:43Z</time>
      </trkpt>
      <trkpt lat="47.25006167" lon="17.12971333">
        <ele>175.3</ele>
        <time>2025-07-30T09:21:44Z</time>
      </trkpt>
      <trkpt lat="47.24999333" lon="17.12952">
        <ele>175.5</ele>
        <time>2025-07-30T09:21:45Z</time>
      </trkpt>
      <trkpt lat="47.24989667" lon="17.12934167">
        <ele>174.9</ele>
        <time>2025-07-30T09:21:46Z</time>
      </trkpt>
      <trkpt lat="47.24978333" lon="17.12919333">
        <ele>173.8</ele>
        <time>2025-07-30T09:21:47Z</time>
      </trkpt>
      <trkpt lat="47.249685" lon="17.12904333">
        <ele>173.3</ele>
        <time>2025-07-30T09:21:48Z</time>
      </trkpt>
      <trkpt lat="47.24958167" lon="17.12889833">
        <ele>172.6</ele>
        <time>2025-07-30T09:21:49Z</time>
      </trkpt>
      <trkpt lat="47.24946333" lon="17.128755">
        <ele>173</ele>
        <time>2025-07-30T09:21:50Z</time>
      </trkpt>
      <trkpt lat="47.24934167" lon="17.12860833">
        <ele>172.9</ele>
        <time>2025-07-30T09:21:51Z</time>
      </trkpt>
      <trkpt lat="47.24921833" lon="17.12847">
        <ele>173.2</ele>
        <time>2025-07-30T09:21:52Z</time>
      </trkpt>
      <trkpt lat="47.249095" lon="17.12831833">
        <ele>173.8</ele>
        <time>2025-07-30T09:21:53Z</time>
      </trkpt>
      <trkpt lat="47.24897" lon="17.12816167">
        <ele>174.6</ele>
        <time>2025-07-30T09:21:54Z</time>
      </trkpt>
      <trkpt lat="47.24884167" lon="17.12800833">
        <ele>174.9</ele>
        <time>2025-07-30T09:21:55Z</time>
      </trkpt>
      <trkpt lat="47.24871167" lon="17.12786">
        <ele>175.4</ele>
        <time>2025-07-30T09:21:56Z</time>
      </trkpt>
      <trkpt lat="47.24857667" lon="17.12771333">
        <ele>177</ele>
        <time>2025-07-30T09:21:57Z</time>
      </trkpt>
      <trkpt lat="47.24844167" lon="17.127565">
        <ele>178.4</ele>
        <time>2025-07-30T09:21:58Z</time>
      </trkpt>
      <trkpt lat="47.24829667" lon="17.12742333">
        <ele>184.9</ele>
        <time>2025-07-30T09:21:59Z</time>
      </trkpt>
      <trkpt lat="47.24816667" lon="17.127265">
        <ele>185.3</ele>
        <time>2025-07-30T09:22:00Z</time>
      </trkpt>
      <trkpt lat="47.24803333" lon="17.127115">
        <ele>183.2</ele>
        <time>2025-07-30T09:22:01Z</time>
      </trkpt>
      <trkpt lat="47.24791167" lon="17.12695667">
        <ele>182.7</ele>
        <time>2025-07-30T09:22:02Z</time>
      </trkpt>
      <trkpt lat="47.24778333" lon="17.12680167">
        <ele>182.8</ele>
        <time>2025-07-30T09:22:03Z</time>
      </trkpt>
      <trkpt lat="47.24763833" lon="17.12664">
        <ele>185</ele>
        <time>2025-07-30T09:22:04Z</time>
      </trkpt>
      <trkpt lat="47.247505" lon="17.12649333">
        <ele>184.6</ele>
        <time>2025-07-30T09:22:05Z</time>
      </trkpt>
      <trkpt lat="47.24737833" lon="17.126325">
        <ele>184.8</ele>
        <time>2025-07-30T09:22:06Z</time>
      </trkpt>
      <trkpt lat="47.24725333" lon="17.12616333">
        <ele>183</ele>
        <time>2025-07-30T09:22:07Z</time>
      </trkpt>
      <trkpt lat="47.24712" lon="17.12601667">
        <ele>183.1</ele>
        <time>2025-07-30T09:22:08Z</time>
      </trkpt>
      <trkpt lat="47.24699667" lon="17.12585333">
        <ele>183</ele>
        <time>2025-07-30T09:22:09Z</time>
      </trkpt>
      <trkpt lat="47.24687333" lon="17.125675">
        <ele>183.3</ele>
        <time>2025-07-30T09:22:10Z</time>
      </trkpt>
      <trkpt lat="47.24674167" lon="17.12550667">
        <ele>183.2</ele>
        <time>2025-07-30T09:22:11Z</time>
      </trkpt>
      <trkpt lat="47.24661167" lon="17.12532833">
        <ele>183.5</ele>
        <time>2025-07-30T09:22:12Z</time>
      </trkpt>
      <trkpt lat="47.24649" lon="17.12516833">
        <ele>178.2</ele>
        <time>2025-07-30T09:22:13Z</time>
      </trkpt>
      <trkpt lat="47.24638" lon="17.12500333">
        <ele>175.4</ele>
        <time>2025-07-30T09:22:14Z</time>
      </trkpt>
      <trkpt lat="47.24626" lon="17.12483333">
        <ele>173.2</ele>
        <time>2025-07-30T09:22:15Z</time>
      </trkpt>
      <trkpt lat="47.24613167" lon="17.12465667">
        <ele>172.9</ele>
        <time>2025-07-30T09:22:16Z</time>
      </trkpt>
      <trkpt lat="47.245995" lon="17.12450167">
        <ele>172.5</ele>
        <time>2025-07-30T09:22:17Z</time>
      </trkpt>
      <trkpt lat="47.24586" lon="17.124335">
        <ele>172.2</ele>
        <time>2025-07-30T09:22:18Z</time>
      </trkpt>
      <trkpt lat="47.24573333" lon="17.12416833">
        <ele>169</ele>
        <time>2025-07-30T09:22:19Z</time>
      </trkpt>
      <trkpt lat="47.24559167" lon="17.12401833">
        <ele>172.2</ele>
        <time>2025-07-30T09:22:20Z</time>
      </trkpt>
      <trkpt lat="47.245455" lon="17.12384667">
        <ele>173</ele>
        <time>2025-07-30T09:22:21Z</time>
      </trkpt>
      <trkpt lat="47.24531667" lon="17.123685">
        <ele>172.6</ele>
        <time>2025-07-30T09:22:22Z</time>
      </trkpt>
      <trkpt lat="47.24518167" lon="17.12351833">
        <ele>172.7</ele>
        <time>2025-07-30T09:22:23Z</time>
      </trkpt>
      <trkpt lat="47.24504833" lon="17.12335">
        <ele>172.8</ele>
        <time>2025-07-30T09:22:24Z</time>
      </trkpt>
      <trkpt lat="47.24491667" lon="17.12319167">
        <ele>172.7</ele>
        <time>2025-07-30T09:22:25Z</time>
      </trkpt>
      <trkpt lat="47.24478667" lon="17.12303833">
        <ele>173.1</ele>
        <time>2025-07-30T09:22:26Z</time>
      </trkpt>
      <trkpt lat="47.24465" lon="17.12287833">
        <ele>173.6</ele>
        <time>2025-07-30T09:22:27Z</time>
      </trkpt>
      <trkpt lat="47.24451667" lon="17.12270667">
        <ele>173.9</ele>
        <time>2025-07-30T09:22:28Z</time>
      </trkpt>
      <trkpt lat="47.24438" lon="17.12253167">
        <ele>173.9</ele>
        <time>2025-07-30T09:22:29Z</time>
      </trkpt>
      <trkpt lat="47.24424167" lon="17.12236167">
        <ele>173.6</ele>
        <time>2025-07-30T09:22:30Z</time>
      </trkpt>
      <trkpt lat="47.24410167" lon="17.12219">
        <ele>173.9</ele>
        <time>2025-07-30T09:22:31Z</time>
      </trkpt>
      <trkpt lat="47.24396" lon="17.12202333">
        <ele>174</ele>
        <time>2025-07-30T09:22:32Z</time>
      </trkpt>
      <trkpt lat="47.24382" lon="17.12185333">
        <ele>174</ele>
        <time>2025-07-30T09:22:33Z</time>
      </trkpt>
      <trkpt lat="47.24368333" lon="17.12167667">
        <ele>173.9</ele>
        <time>2025-07-30T09:22:34Z</time>
      </trkpt>
      <trkpt lat="47.24353833" lon="17.12149">
        <ele>174.6</ele>
        <time>2025-07-30T09:22:35Z</time>
      </trkpt>
      <trkpt lat="47.24338833" lon="17.12130167">
        <ele>175.3</ele>
        <time>2025-07-30T09:22:36Z</time>
      </trkpt>
      <trkpt lat="47.24323667" lon="17.12112667">
        <ele>176.1</ele>
        <time>2025-07-30T09:22:37Z</time>
      </trkpt>
      <trkpt lat="47.24308833" lon="17.12096333">
        <ele>177.3</ele>
        <time>2025-07-30T09:22:38Z</time>
      </trkpt>
      <trkpt lat="47.24294667" lon="17.12077833">
        <ele>176.9</ele>
        <time>2025-07-30T09:22:39Z</time>
      </trkpt>
      <trkpt lat="47.2428" lon="17.120585">
        <ele>176.8</ele>
        <time>2025-07-30T09:22:40Z</time>
      </trkpt>
      <trkpt lat="47.24265333" lon="17.12040667">
        <ele>176.5</ele>
        <time>2025-07-30T09:22:41Z</time>
      </trkpt>
      <trkpt lat="47.24251333" lon="17.12022833">
        <ele>177.7</ele>
        <time>2025-07-30T09:22:42Z</time>
      </trkpt>
      <trkpt lat="47.24235" lon="17.120045">
        <ele>180.5</ele>
        <time>2025-07-30T09:22:43Z</time>
      </trkpt>
      <trkpt lat="47.24219333" lon="17.11987">
        <ele>182.2</ele>
        <time>2025-07-30T09:22:44Z</time>
      </trkpt>
      <trkpt lat="47.24204333" lon="17.11969667">
        <ele>184.1</ele>
        <time>2025-07-30T09:22:45Z</time>
      </trkpt>
      <trkpt lat="47.24189667" lon="17.119525">
        <ele>184.4</ele>
        <time>2025-07-30T09:22:46Z</time>
      </trkpt>
      <trkpt lat="47.241755" lon="17.11934167">
        <ele>183.8</ele>
        <time>2025-07-30T09:22:47Z</time>
      </trkpt>
      <trkpt lat="47.241615" lon="17.11918">
        <ele>183.2</ele>
        <time>2025-07-30T09:22:48Z</time>
      </trkpt>
      <trkpt lat="47.241475" lon="17.119015">
        <ele>182.7</ele>
        <time>2025-07-30T09:22:49Z</time>
      </trkpt>
      <trkpt lat="47.24133667" lon="17.11884333">
        <ele>183.2</ele>
        <time>2025-07-30T09:22:50Z</time>
      </trkpt>
      <trkpt lat="47.24119667" lon="17.11866667">
        <ele>183.7</ele>
        <time>2025-07-30T09:22:51Z</time>
      </trkpt>
      <trkpt lat="47.24106" lon="17.1185">
        <ele>184.3</ele>
        <time>2025-07-30T09:22:52Z</time>
      </trkpt>
      <trkpt lat="47.24093333" lon="17.11833333">
        <ele>184.6</ele>
        <time>2025-07-30T09:22:53Z</time>
      </trkpt>
      <trkpt lat="47.24080167" lon="17.118195">
        <ele>183.7</ele>
        <time>2025-07-30T09:22:54Z</time>
      </trkpt>
      <trkpt lat="47.24067333" lon="17.11805333">
        <ele>184.6</ele>
        <time>2025-07-30T09:22:55Z</time>
      </trkpt>
      <trkpt lat="47.24056333" lon="17.11793167">
        <ele>185.4</ele>
        <time>2025-07-30T09:22:56Z</time>
      </trkpt>
      <trkpt lat="47.24047833" lon="17.11779667">
        <ele>188.3</ele>
        <time>2025-07-30T09:22:57Z</time>
      </trkpt>
      <trkpt lat="47.24039" lon="17.117675">
        <ele>189.9</ele>
        <time>2025-07-30T09:22:58Z</time>
      </trkpt>
      <trkpt lat="47.24030833" lon="17.11757">
        <ele>191</ele>
        <time>2025-07-30T09:22:59Z</time>
      </trkpt>
      <trkpt lat="47.24024" lon="17.11746333">
        <ele>191.2</ele>
        <time>2025-07-30T09:23:00Z</time>
      </trkpt>
      <trkpt lat="47.24018667" lon="17.11734833">
        <ele>191.4</ele>
        <time>2025-07-30T09:23:01Z</time>
      </trkpt>
      <trkpt lat="47.24016" lon="17.11721">
        <ele>192.2</ele>
        <time>2025-07-30T09:23:02Z</time>
      </trkpt>
      <trkpt lat="47.24014167" lon="17.11706833">
        <ele>192.2</ele>
        <time>2025-07-30T09:23:03Z</time>
      </trkpt>
      <trkpt lat="47.240155" lon="17.11691333">
        <ele>191.4</ele>
        <time>2025-07-30T09:23:04Z</time>
      </trkpt>
      <trkpt lat="47.24019333" lon="17.11676">
        <ele>190.5</ele>
        <time>2025-07-30T09:23:05Z</time>
      </trkpt>
      <trkpt lat="47.24023667" lon="17.11659667">
        <ele>189.7</ele>
        <time>2025-07-30T09:23:06Z</time>
      </trkpt>
      <trkpt lat="47.24027167" lon="17.11644">
        <ele>189.5</ele>
        <time>2025-07-30T09:23:07Z</time>
      </trkpt>
      <trkpt lat="47.24030167" lon="17.11627333">
        <ele>189</ele>
        <time>2025-07-30T09:23:08Z</time>
      </trkpt>
      <trkpt lat="47.240345" lon="17.11611333">
        <ele>188.5</ele>
        <time>2025-07-30T09:23:09Z</time>
      </trkpt>
      <trkpt lat="47.24038" lon="17.115955">
        <ele>188.1</ele>
        <time>2025-07-30T09:23:10Z</time>
      </trkpt>
      <trkpt lat="47.24041667" lon="17.115795">
        <ele>187.9</ele>
        <time>2025-07-30T09:23:11Z</time>
      </trkpt>
      <trkpt lat="47.240455" lon="17.11564833">
        <ele>187.7</ele>
        <time>2025-07-30T09:23:12Z</time>
      </trkpt>
      <trkpt lat="47.24048833" lon="17.11550167">
        <ele>187.9</ele>
        <time>2025-07-30T09:23:13Z</time>
      </trkpt>
      <trkpt lat="47.24051833" lon="17.11536833">
        <ele>187.2</ele>
        <time>2025-07-30T09:23:14Z</time>
      </trkpt>
      <trkpt lat="47.24055833" lon="17.1151">
        <ele>187.2</ele>
        <time>2025-07-30T09:23:16Z</time>
      </trkpt>
      <trkpt lat="47.24055667" lon="17.114955">
        <ele>186.9</ele>
        <time>2025-07-30T09:23:17Z</time>
      </trkpt>
      <trkpt lat="47.24053667" lon="17.11479833">
        <ele>188.7</ele>
        <time>2025-07-30T09:23:18Z</time>
      </trkpt>
      <trkpt lat="47.24049667" lon="17.11463">
        <ele>189.7</ele>
        <time>2025-07-30T09:23:19Z</time>
      </trkpt>
      <trkpt lat="47.24045167" lon="17.11446167">
        <ele>191.1</ele>
        <time>2025-07-30T09:23:20Z</time>
      </trkpt>
      <trkpt lat="47.24041167" lon="17.11429667">
        <ele>192</ele>
        <time>2025-07-30T09:23:21Z</time>
      </trkpt>
      <trkpt lat="47.24037" lon="17.11413167">
        <ele>192.6</ele>
        <time>2025-07-30T09:23:22Z</time>
      </trkpt>
      <trkpt lat="47.240325" lon="17.11395833">
        <ele>193.3</ele>
        <time>2025-07-30T09:23:23Z</time>
      </trkpt>
      <trkpt lat="47.24028167" lon="17.113785">
        <ele>195.3</ele>
        <time>2025-07-30T09:23:24Z</time>
      </trkpt>
      <trkpt lat="47.24023333" lon="17.11360333">
        <ele>196.1</ele>
        <time>2025-07-30T09:23:25Z</time>
      </trkpt>
      <trkpt lat="47.24019" lon="17.11342">
        <ele>196.9</ele>
        <time>2025-07-30T09:23:26Z</time>
      </trkpt>
      <trkpt lat="47.24014167" lon="17.11322167">
        <ele>197.1</ele>
        <time>2025-07-30T09:23:27Z</time>
      </trkpt>
      <trkpt lat="47.24009167" lon="17.11302">
        <ele>197.2</ele>
        <time>2025-07-30T09:23:28Z</time>
      </trkpt>
      <trkpt lat="47.24004" lon="17.11280333">
        <ele>196.7</ele>
        <time>2025-07-30T09:23:29Z</time>
      </trkpt>
      <trkpt lat="47.23998833" lon="17.11259833">
        <ele>197.8</ele>
        <time>2025-07-30T09:23:30Z</time>
      </trkpt>
      <trkpt lat="47.23993667" lon="17.11238333">
        <ele>198.6</ele>
        <time>2025-07-30T09:23:31Z</time>
      </trkpt>
      <trkpt lat="47.23988333" lon="17.11215167">
        <ele>198.9</ele>
        <time>2025-07-30T09:23:32Z</time>
      </trkpt>
      <trkpt lat="47.23981833" lon="17.11190833">
        <ele>200.1</ele>
        <time>2025-07-30T09:23:33Z</time>
      </trkpt>
      <trkpt lat="47.23977667" lon="17.11168833">
        <ele>200.4</ele>
        <time>2025-07-30T09:23:34Z</time>
      </trkpt>
      <trkpt lat="47.23973167" lon="17.11149667">
        <ele>200.9</ele>
        <time>2025-07-30T09:23:35Z</time>
      </trkpt>
      <trkpt lat="47.23968333" lon="17.11130333">
        <ele>200.9</ele>
        <time>2025-07-30T09:23:36Z</time>
      </trkpt>
      <trkpt lat="47.23964833" lon="17.111135">
        <ele>200.2</ele>
        <time>2025-07-30T09:23:37Z</time>
      </trkpt>
      <trkpt lat="47.23960667" lon="17.11098333">
        <ele>199.5</ele>
        <time>2025-07-30T09:23:38Z</time>
      </trkpt>
      <trkpt lat="47.23957167" lon="17.11084167">
        <ele>199.6</ele>
        <time>2025-07-30T09:23:39Z</time>
      </trkpt>
      <trkpt lat="47.23951" lon="17.11060167">
        <ele>199.5</ele>
        <time>2025-07-30T09:23:41Z</time>
      </trkpt>
      <trkpt lat="47.23946" lon="17.1104">
        <ele>199.2</ele>
        <time>2025-07-30T09:23:43Z</time>
      </trkpt>
      <trkpt lat="47.239425" lon="17.11027">
        <ele>199.3</ele>
        <time>2025-07-30T09:23:45Z</time>
      </trkpt>
      <trkpt lat="47.23936" lon="17.11015667">
        <ele>199.4</ele>
        <time>2025-07-30T09:23:48Z</time>
      </trkpt>
      <trkpt lat="47.239245" lon="17.110145">
        <ele>198.3</ele>
        <time>2025-07-30T09:23:51Z</time>
      </trkpt>
      <trkpt lat="47.23916333" lon="17.11020333">
        <ele>196.8</ele>
        <time>2025-07-30T09:23:53Z</time>
      </trkpt>
      <trkpt lat="47.239065" lon="17.110265">
        <ele>196</ele>
        <time>2025-07-30T09:23:55Z</time>
      </trkpt>
      <trkpt lat="47.238965" lon="17.11033">
        <ele>195.3</ele>
        <time>2025-07-30T09:23:57Z</time>
      </trkpt>
      <trkpt lat="47.23888" lon="17.11040667">
        <ele>192.5</ele>
        <time>2025-07-30T09:23:59Z</time>
      </trkpt>
      <trkpt lat="47.23877167" lon="17.11048667">
        <ele>191.5</ele>
        <time>2025-07-30T09:24:01Z</time>
      </trkpt>
      <trkpt lat="47.23865333" lon="17.110555">
        <ele>191.1</ele>
        <time>2025-07-30T09:24:03Z</time>
      </trkpt>
      <trkpt lat="47.23854167" lon="17.110625">
        <ele>190.4</ele>
        <time>2025-07-30T09:24:05Z</time>
      </trkpt>
      <trkpt lat="47.238435" lon="17.11068167">
        <ele>190</ele>
        <time>2025-07-30T09:24:07Z</time>
      </trkpt>
      <trkpt lat="47.23834333" lon="17.11073833">
        <ele>189.2</ele>
        <time>2025-07-30T09:24:09Z</time>
      </trkpt>
      <trkpt lat="47.23824667" lon="17.11079">
        <ele>189.4</ele>
        <time>2025-07-30T09:24:11Z</time>
      </trkpt>
      <trkpt lat="47.23813167" lon="17.11081">
        <ele>189.4</ele>
        <time>2025-07-30T09:24:14Z</time>
      </trkpt>
      <trkpt lat="47.23803167" lon="17.11071167">
        <ele>190.5</ele>
        <time>2025-07-30T09:24:17Z</time>
      </trkpt>
      <trkpt lat="47.23795667" lon="17.11059167">
        <ele>190</ele>
        <time>2025-07-30T09:24:20Z</time>
      </trkpt>
      <trkpt lat="47.237885" lon="17.11050167">
        <ele>189.4</ele>
        <time>2025-07-30T09:24:22Z</time>
      </trkpt>
      <trkpt lat="47.23779167" lon="17.11041167">
        <ele>188.6</ele>
        <time>2025-07-30T09:24:24Z</time>
      </trkpt>
      <trkpt lat="47.237705" lon="17.11026667">
        <ele>187.6</ele>
        <time>2025-07-30T09:24:27Z</time>
      </trkpt>
      <trkpt lat="47.23763" lon="17.11017">
        <ele>187.6</ele>
        <time>2025-07-30T09:24:29Z</time>
      </trkpt>
      <trkpt lat="47.23755333" lon="17.11007833">
        <ele>187.8</ele>
        <time>2025-07-30T09:24:31Z</time>
      </trkpt>
      <trkpt lat="47.23748667" lon="17.10997333">
        <ele>188.4</ele>
        <time>2025-07-30T09:24:33Z</time>
      </trkpt>
      <trkpt lat="47.23741333" lon="17.10985">
        <ele>189.3</ele>
        <time>2025-07-30T09:24:35Z</time>
      </trkpt>
      <trkpt lat="47.23732" lon="17.10974167">
        <ele>189.7</ele>
        <time>2025-07-30T09:24:37Z</time>
      </trkpt>
      <trkpt lat="47.23721333" lon="17.109625">
        <ele>188.7</ele>
        <time>2025-07-30T09:24:39Z</time>
      </trkpt>
      <trkpt lat="47.23711833" lon="17.10953">
        <ele>188.8</ele>
        <time>2025-07-30T09:24:41Z</time>
      </trkpt>
      <trkpt lat="47.23702333" lon="17.10944833">
        <ele>189.1</ele>
        <time>2025-07-30T09:24:43Z</time>
      </trkpt>
      <trkpt lat="47.23693833" lon="17.10939667">
        <ele>189.4</ele>
        <time>2025-07-30T09:24:45Z</time>
      </trkpt>
      <trkpt lat="47.23683" lon="17.10933167">
        <ele>190.3</ele>
        <time>2025-07-30T09:24:48Z</time>
      </trkpt>
      <trkpt lat="47.236695" lon="17.10929">
        <ele>190.6</ele>
        <time>2025-07-30T09:24:51Z</time>
      </trkpt>
      <trkpt lat="47.23659" lon="17.10925333">
        <ele>190.9</ele>
        <time>2025-07-30T09:24:53Z</time>
      </trkpt>
      <trkpt lat="47.236495" lon="17.10920833">
        <ele>190.8</ele>
        <time>2025-07-30T09:24:55Z</time>
      </trkpt>
      <trkpt lat="47.23639667" lon="17.10914333">
        <ele>188.6</ele>
        <time>2025-07-30T09:24:57Z</time>
      </trkpt>
      <trkpt lat="47.23629833" lon="17.109105">
        <ele>186.4</ele>
        <time>2025-07-30T09:24:59Z</time>
      </trkpt>
      <trkpt lat="47.23619833" lon="17.10907333">
        <ele>184.8</ele>
        <time>2025-07-30T09:25:01Z</time>
      </trkpt>
      <trkpt lat="47.236055" lon="17.10905333">
        <ele>183.2</ele>
        <time>2025-07-30T09:25:04Z</time>
      </trkpt>
      <trkpt lat="47.23596167" lon="17.109035">
        <ele>182</ele>
        <time>2025-07-30T09:25:07Z</time>
      </trkpt>
      <trkpt lat="47.23587" lon="17.10899833">
        <ele>181.7</ele>
        <time>2025-07-30T09:25:10Z</time>
      </trkpt>
      <trkpt lat="47.23576" lon="17.108965">
        <ele>182</ele>
        <time>2025-07-30T09:25:13Z</time>
      </trkpt>
      <trkpt lat="47.235645" lon="17.10896167">
        <ele>181.4</ele>
        <time>2025-07-30T09:25:16Z</time>
      </trkpt>
      <trkpt lat="47.23553167" lon="17.10895667">
        <ele>181.7</ele>
        <time>2025-07-30T09:25:20Z</time>
      </trkpt>
      <trkpt lat="47.23541333" lon="17.10893167">
        <ele>183.2</ele>
        <time>2025-07-30T09:25:24Z</time>
      </trkpt>
      <trkpt lat="47.23529833" lon="17.10892333">
        <ele>185.6</ele>
        <time>2025-07-30T09:25:27Z</time>
      </trkpt>
      <trkpt lat="47.23517667" lon="17.10888333">
        <ele>186</ele>
        <time>2025-07-30T09:25:30Z</time>
      </trkpt>
      <trkpt lat="47.235075" lon="17.10887833">
        <ele>186.9</ele>
        <time>2025-07-30T09:25:33Z</time>
      </trkpt>
      <trkpt lat="47.23497333" lon="17.10892667">
        <ele>187.4</ele>
        <time>2025-07-30T09:25:36Z</time>
      </trkpt>
      <trkpt lat="47.23485" lon="17.109015">
        <ele>187.8</ele>
        <time>2025-07-30T09:25:39Z</time>
      </trkpt>
      <trkpt lat="47.23473333" lon="17.10905167">
        <ele>187.8</ele>
        <time>2025-07-30T09:25:42Z</time>
      </trkpt>
      <trkpt lat="47.234635" lon="17.10907833">
        <ele>188.8</ele>
        <time>2025-07-30T09:25:44Z</time>
      </trkpt>
      <trkpt lat="47.23452833" lon="17.10911167">
        <ele>189.6</ele>
        <time>2025-07-30T09:25:46Z</time>
      </trkpt>
      <trkpt lat="47.23442167" lon="17.10913167">
        <ele>190.8</ele>
        <time>2025-07-30T09:25:48Z</time>
      </trkpt>
      <trkpt lat="47.23433333" lon="17.10916167">
        <ele>192.1</ele>
        <time>2025-07-30T09:25:50Z</time>
      </trkpt>
      <trkpt lat="47.23424" lon="17.10921167">
        <ele>193.6</ele>
        <time>2025-07-30T09:25:52Z</time>
      </trkpt>
      <trkpt lat="47.23415333" lon="17.10927333">
        <ele>193.5</ele>
        <time>2025-07-30T09:25:54Z</time>
      </trkpt>
      <trkpt lat="47.23406" lon="17.10934833">
        <ele>194.8</ele>
        <time>2025-07-30T09:25:57Z</time>
      </trkpt>
      <trkpt lat="47.23395333" lon="17.10943">
        <ele>201.9</ele>
        <time>2025-07-30T09:26:52Z</time>
      </trkpt>
      <trkpt lat="47.23382333" lon="17.10951167">
        <ele>202.8</ele>
        <time>2025-07-30T09:26:55Z</time>
      </trkpt>
      <trkpt lat="47.23371833" lon="17.10961833">
        <ele>204</ele>
        <time>2025-07-30T09:26:57Z</time>
      </trkpt>
      <trkpt lat="47.23360167" lon="17.10971">
        <ele>205.5</ele>
        <time>2025-07-30T09:26:59Z</time>
      </trkpt>
      <trkpt lat="47.23348833" lon="17.10982333">
        <ele>207.4</ele>
        <time>2025-07-30T09:27:01Z</time>
      </trkpt>
      <trkpt lat="47.23338167" lon="17.10992333">
        <ele>209.7</ele>
        <time>2025-07-30T09:27:03Z</time>
      </trkpt>
      <trkpt lat="47.2333" lon="17.11005833">
        <ele>212.4</ele>
        <time>2025-07-30T09:27:05Z</time>
      </trkpt>
      <trkpt lat="47.23326833" lon="17.110195">
        <ele>214.5</ele>
        <time>2025-07-30T09:27:07Z</time>
      </trkpt>
      <trkpt lat="47.23323167" lon="17.11034">
        <ele>215</ele>
        <time>2025-07-30T09:27:11Z</time>
      </trkpt>
    </trkseg>
  </trk>
</gpx>