<?xml version='1.0' encoding='UTF-8' standalone='yes' ?>
<gpx xmlns="http://www.topografix.com/GPX/1/1" xmlns:geotracker="http://ilyabogdanovich.com/gpx/extensions/geotracker" xmlns:xsi="http://www.w3.org/2001/XMLSchema-instance" xsi:schemaLocation="http://www.topografix.com/GPX/1/1 http://www.topografix.com/GPX/1/1/gpx.xsd" version="1.1" creator="Recorded in Geo Tracker for Android from Ilya Bogdanovich">
  <metadata>
    <name>c_0728_02</name>
    <author>
      <name>Recorded in Geo Tracker for Android from Ilya Bogdanovich</name>
      <link href="https://play.google.com/store/apps/details?id=com.ilyabogdanovich.geotracker" />
    </author>
    <link href="https://play.google.com/store/apps/details?id=com.ilyabogdanovich.geotracker" />
    <time>2025-07-28T18:21:15Z</time>
  </metadata>
  <trk>
    <name>c_0728_02</name>
    <src>Recorded in Geo Tracker for Android from Ilya Bogdanovich</src>
    <link href="https://play.google.com/store/apps/details?id=com.ilyabogdanovich.geotracker" />
    <extensions>
      <geotracker:meta>
        <geotracker:length>7414.42</geotracker:length>
        <geotracker:duration>684680</geotracker:duration>
        <geotracker:creationtime>2025-07-28T18:21:15Z</geotracker:creationtime>
        <geotracker:activity>0</geotracker:activity>
      </geotracker:meta>
    </extensions>
    <trkseg>
      <trkpt lat="46.36296667" lon="16.87739333">
        <ele>185.9</ele>
        <time>2025-07-28T18:21:21Z</time>
      </trkpt>
      <trkpt lat="46.36314333" lon="16.87746">
        <ele>181.1</ele>
        <time>2025-07-28T18:22:24Z</time>
      </trkpt>
      <trkpt lat="46.363175" lon="16.87758333">
        <ele>180.7</ele>
        <time>2025-07-28T18:22:26Z</time>
      </trkpt>
      <trkpt lat="46.36321167" lon="16.87774333">
        <ele>180.7</ele>
        <time>2025-07-28T18:22:28Z</time>
      </trkpt>
      <trkpt lat="46.36324667" lon="16.877905">
        <ele>180.1</ele>
        <time>2025-07-28T18:22:30Z</time>
      </trkpt>
      <trkpt lat="46.36328333" lon="16.878085">
        <ele>181.8</ele>
        <time>2025-07-28T18:22:32Z</time>
      </trkpt>
      <trkpt lat="46.36331333" lon="16.87826667">
        <ele>182.9</ele>
        <time>2025-07-28T18:22:34Z</time>
      </trkpt>
      <trkpt lat="46.36333833" lon="16.87845">
        <ele>183.2</ele>
        <time>2025-07-28T18:22:36Z</time>
      </trkpt>
      <trkpt lat="46.36336667" lon="16.87864667">
        <ele>184.3</ele>
        <time>2025-07-28T18:22:38Z</time>
      </trkpt>
      <trkpt lat="46.363405" lon="16.87884833">
        <ele>186</ele>
        <time>2025-07-28T18:22:40Z</time>
      </trkpt>
      <trkpt lat="46.36345" lon="16.87905667">
        <ele>185.6</ele>
        <time>2025-07-28T18:22:42Z</time>
      </trkpt>
      <trkpt lat="46.36349667" lon="16.87926333">
        <ele>185.3</ele>
        <time>2025-07-28T18:22:44Z</time>
      </trkpt>
      <trkpt lat="46.36353833" lon="16.87948167">
        <ele>183.3</ele>
        <time>2025-07-28T18:22:46Z</time>
      </trkpt>
      <trkpt lat="46.36357833" lon="16.87971833">
        <ele>182.7</ele>
        <time>2025-07-28T18:22:48Z</time>
      </trkpt>
      <trkpt lat="46.36361333" lon="16.87994833">
        <ele>181.7</ele>
        <time>2025-07-28T18:22:50Z</time>
      </trkpt>
      <trkpt lat="46.363655" lon="16.88016667">
        <ele>181.5</ele>
        <time>2025-07-28T18:22:52Z</time>
      </trkpt>
      <trkpt lat="46.36369" lon="16.88040167">
        <ele>181.9</ele>
        <time>2025-07-28T18:22:54Z</time>
      </trkpt>
      <trkpt lat="46.36373667" lon="16.880645">
        <ele>181.4</ele>
        <time>2025-07-28T18:22:56Z</time>
      </trkpt>
      <trkpt lat="46.36378667" lon="16.8809">
        <ele>181.3</ele>
        <time>2025-07-28T18:22:58Z</time>
      </trkpt>
      <trkpt lat="46.36380833" lon="16.88104667">
        <ele>180.5</ele>
        <time>2025-07-28T18:22:59Z</time>
      </trkpt>
      <trkpt lat="46.363835" lon="16.88118167">
        <ele>181</ele>
        <time>2025-07-28T18:23:00Z</time>
      </trkpt>
      <trkpt lat="46.363865" lon="16.88131167">
        <ele>181.5</ele>
        <time>2025-07-28T18:23:01Z</time>
      </trkpt>
      <trkpt lat="46.36390667" lon="16.88157167">
        <ele>181.8</ele>
        <time>2025-07-28T18:23:03Z</time>
      </trkpt>
      <trkpt lat="46.36395" lon="16.881835">
        <ele>182</ele>
        <time>2025-07-28T18:23:05Z</time>
      </trkpt>
      <trkpt lat="46.36398167" lon="16.88197167">
        <ele>181.8</ele>
        <time>2025-07-28T18:23:06Z</time>
      </trkpt>
      <trkpt lat="46.36401" lon="16.88209667">
        <ele>181.5</ele>
        <time>2025-07-28T18:23:07Z</time>
      </trkpt>
      <trkpt lat="46.36402833" lon="16.882225">
        <ele>180.8</ele>
        <time>2025-07-28T18:23:08Z</time>
      </trkpt>
      <trkpt lat="46.36406333" lon="16.88235">
        <ele>180.6</ele>
        <time>2025-07-28T18:23:09Z</time>
      </trkpt>
      <trkpt lat="46.36412167" lon="16.88259833">
        <ele>180.6</ele>
        <time>2025-07-28T18:23:11Z</time>
      </trkpt>
      <trkpt lat="46.36415167" lon="16.88273333">
        <ele>180.8</ele>
        <time>2025-07-28T18:23:12Z</time>
      </trkpt>
      <trkpt lat="46.36418" lon="16.88286833">
        <ele>180.7</ele>
        <time>2025-07-28T18:23:13Z</time>
      </trkpt>
      <trkpt lat="46.36420667" lon="16.88300667">
        <ele>181</ele>
        <time>2025-07-28T18:23:14Z</time>
      </trkpt>
      <trkpt lat="46.36423" lon="16.88314">
        <ele>181.5</ele>
        <time>2025-07-28T18:23:15Z</time>
      </trkpt>
      <trkpt lat="46.36425333" lon="16.883275">
        <ele>181.8</ele>
        <time>2025-07-28T18:23:16Z</time>
      </trkpt>
      <trkpt lat="46.364275" lon="16.88340833">
        <ele>182</ele>
        <time>2025-07-28T18:23:17Z</time>
      </trkpt>
      <trkpt lat="46.36429833" lon="16.88354833">
        <ele>182.5</ele>
        <time>2025-07-28T18:23:18Z</time>
      </trkpt>
      <trkpt lat="46.36432333" lon="16.88368833">
        <ele>183.2</ele>
        <time>2025-07-28T18:23:19Z</time>
      </trkpt>
      <trkpt lat="46.36434167" lon="16.88382">
        <ele>182.7</ele>
        <time>2025-07-28T18:23:20Z</time>
      </trkpt>
      <trkpt lat="46.36436" lon="16.88396833">
        <ele>182.7</ele>
        <time>2025-07-28T18:23:21Z</time>
      </trkpt>
      <trkpt lat="46.36437833" lon="16.88411333">
        <ele>181.8</ele>
        <time>2025-07-28T18:23:22Z</time>
      </trkpt>
      <trkpt lat="46.36439667" lon="16.88425167">
        <ele>181.4</ele>
        <time>2025-07-28T18:23:23Z</time>
      </trkpt>
      <trkpt lat="46.36441667" lon="16.88439">
        <ele>180.8</ele>
        <time>2025-07-28T18:23:24Z</time>
      </trkpt>
      <trkpt lat="46.36444167" lon="16.88453167">
        <ele>181.8</ele>
        <time>2025-07-28T18:23:25Z</time>
      </trkpt>
      <trkpt lat="46.36446667" lon="16.88467667">
        <ele>182.1</ele>
        <time>2025-07-28T18:23:26Z</time>
      </trkpt>
      <trkpt lat="46.364495" lon="16.88480333">
        <ele>181.2</ele>
        <time>2025-07-28T18:23:27Z</time>
      </trkpt>
      <trkpt lat="46.36452333" lon="16.884935">
        <ele>180.6</ele>
        <time>2025-07-28T18:23:28Z</time>
      </trkpt>
      <trkpt lat="46.36454667" lon="16.88506333">
        <ele>179.3</ele>
        <time>2025-07-28T18:23:29Z</time>
      </trkpt>
      <trkpt lat="46.36456667" lon="16.88520833">
        <ele>178.9</ele>
        <time>2025-07-28T18:23:30Z</time>
      </trkpt>
      <trkpt lat="46.36458833" lon="16.88535167">
        <ele>178.6</ele>
        <time>2025-07-28T18:23:31Z</time>
      </trkpt>
      <trkpt lat="46.364615" lon="16.88549667">
        <ele>178.4</ele>
        <time>2025-07-28T18:23:32Z</time>
      </trkpt>
      <trkpt lat="46.36464333" lon="16.88563">
        <ele>177.7</ele>
        <time>2025-07-28T18:23:33Z</time>
      </trkpt>
      <trkpt lat="46.36466667" lon="16.88577667">
        <ele>177.3</ele>
        <time>2025-07-28T18:23:34Z</time>
      </trkpt>
      <trkpt lat="46.36470667" lon="16.88593">
        <ele>178</ele>
        <time>2025-07-28T18:23:35Z</time>
      </trkpt>
      <trkpt lat="46.36475" lon="16.88605333">
        <ele>177.1</ele>
        <time>2025-07-28T18:23:36Z</time>
      </trkpt>
      <trkpt lat="46.36478833" lon="16.88620667">
        <ele>178.3</ele>
        <time>2025-07-28T18:23:37Z</time>
      </trkpt>
      <trkpt lat="46.364815" lon="16.88635167">
        <ele>181.2</ele>
        <time>2025-07-28T18:23:38Z</time>
      </trkpt>
      <trkpt lat="46.36483833" lon="16.8865">
        <ele>185.1</ele>
        <time>2025-07-28T18:23:39Z</time>
      </trkpt>
      <trkpt lat="46.36486" lon="16.886645">
        <ele>190.3</ele>
        <time>2025-07-28T18:23:40Z</time>
      </trkpt>
      <trkpt lat="46.36488167" lon="16.88679333">
        <ele>194.8</ele>
        <time>2025-07-28T18:23:41Z</time>
      </trkpt>
      <trkpt lat="46.36492167" lon="16.88704667">
        <ele>192.2</ele>
        <time>2025-07-28T18:23:43Z</time>
      </trkpt>
      <trkpt lat="46.36495833" lon="16.8873">
        <ele>189.6</ele>
        <time>2025-07-28T18:23:45Z</time>
      </trkpt>
      <trkpt lat="46.36498" lon="16.88743">
        <ele>189</ele>
        <time>2025-07-28T18:23:46Z</time>
      </trkpt>
      <trkpt lat="46.365035" lon="16.887685">
        <ele>187.9</ele>
        <time>2025-07-28T18:23:48Z</time>
      </trkpt>
      <trkpt lat="46.36506333" lon="16.88781333">
        <ele>187.3</ele>
        <time>2025-07-28T18:23:49Z</time>
      </trkpt>
      <trkpt lat="46.36508833" lon="16.88794333">
        <ele>187</ele>
        <time>2025-07-28T18:23:50Z</time>
      </trkpt>
      <trkpt lat="46.36512" lon="16.88808">
        <ele>186.4</ele>
        <time>2025-07-28T18:23:51Z</time>
      </trkpt>
      <trkpt lat="46.36514833" lon="16.88820833">
        <ele>185.9</ele>
        <time>2025-07-28T18:23:52Z</time>
      </trkpt>
      <trkpt lat="46.36517833" lon="16.88833833">
        <ele>185.7</ele>
        <time>2025-07-28T18:23:53Z</time>
      </trkpt>
      <trkpt lat="46.36520333" lon="16.88846333">
        <ele>185.4</ele>
        <time>2025-07-28T18:23:54Z</time>
      </trkpt>
      <trkpt lat="46.36522833" lon="16.88860333">
        <ele>185.5</ele>
        <time>2025-07-28T18:23:55Z</time>
      </trkpt>
      <trkpt lat="46.36525833" lon="16.88875">
        <ele>185.1</ele>
        <time>2025-07-28T18:23:56Z</time>
      </trkpt>
      <trkpt lat="46.36528333" lon="16.88889333">
        <ele>184.7</ele>
        <time>2025-07-28T18:23:57Z</time>
      </trkpt>
      <trkpt lat="46.365305" lon="16.88903">
        <ele>184.1</ele>
        <time>2025-07-28T18:23:58Z</time>
      </trkpt>
      <trkpt lat="46.36534333" lon="16.88917667">
        <ele>183.9</ele>
        <time>2025-07-28T18:23:59Z</time>
      </trkpt>
      <trkpt lat="46.36538167" lon="16.88933167">
        <ele>184.2</ele>
        <time>2025-07-28T18:24:00Z</time>
      </trkpt>
      <trkpt lat="46.36542167" lon="16.88947167">
        <ele>184.2</ele>
        <time>2025-07-28T18:24:01Z</time>
      </trkpt>
      <trkpt lat="46.36546667" lon="16.889605">
        <ele>184.3</ele>
        <time>2025-07-28T18:24:02Z</time>
      </trkpt>
      <trkpt lat="46.36549833" lon="16.88973167">
        <ele>183.1</ele>
        <time>2025-07-28T18:24:03Z</time>
      </trkpt>
      <trkpt lat="46.36558833" lon="16.88997667">
        <ele>182.6</ele>
        <time>2025-07-28T18:24:05Z</time>
      </trkpt>
      <trkpt lat="46.36564" lon="16.89009667">
        <ele>181.5</ele>
        <time>2025-07-28T18:24:06Z</time>
      </trkpt>
      <trkpt lat="46.36569833" lon="16.89021833">
        <ele>181.3</ele>
        <time>2025-07-28T18:24:07Z</time>
      </trkpt>
      <trkpt lat="46.36576" lon="16.89034">
        <ele>180.4</ele>
        <time>2025-07-28T18:24:08Z</time>
      </trkpt>
      <trkpt lat="46.36582333" lon="16.89045833">
        <ele>179.9</ele>
        <time>2025-07-28T18:24:09Z</time>
      </trkpt>
      <trkpt lat="46.36589" lon="16.89058167">
        <ele>179.7</ele>
        <time>2025-07-28T18:24:10Z</time>
      </trkpt>
      <trkpt lat="46.36595167" lon="16.89070667">
        <ele>179</ele>
        <time>2025-07-28T18:24:11Z</time>
      </trkpt>
      <trkpt lat="46.36601667" lon="16.89083667">
        <ele>178.8</ele>
        <time>2025-07-28T18:24:12Z</time>
      </trkpt>
      <trkpt lat="46.36608333" lon="16.890965">
        <ele>178</ele>
        <time>2025-07-28T18:24:13Z</time>
      </trkpt>
      <trkpt lat="46.36615667" lon="16.89109667">
        <ele>178.6</ele>
        <time>2025-07-28T18:24:14Z</time>
      </trkpt>
      <trkpt lat="46.36622667" lon="16.89122167">
        <ele>178.6</ele>
        <time>2025-07-28T18:24:15Z</time>
      </trkpt>
      <trkpt lat="46.36629667" lon="16.89134667">
        <ele>178.1</ele>
        <time>2025-07-28T18:24:16Z</time>
      </trkpt>
      <trkpt lat="46.36636" lon="16.89148167">
        <ele>177.8</ele>
        <time>2025-07-28T18:24:17Z</time>
      </trkpt>
      <trkpt lat="46.36642" lon="16.89161833">
        <ele>177.7</ele>
        <time>2025-07-28T18:24:18Z</time>
      </trkpt>
      <trkpt lat="46.36647833" lon="16.89175333">
        <ele>176.8</ele>
        <time>2025-07-28T18:24:19Z</time>
      </trkpt>
      <trkpt lat="46.36654833" lon="16.89189833">
        <ele>177.9</ele>
        <time>2025-07-28T18:24:20Z</time>
      </trkpt>
      <trkpt lat="46.36661167" lon="16.892025">
        <ele>178.2</ele>
        <time>2025-07-28T18:24:21Z</time>
      </trkpt>
      <trkpt lat="46.36667333" lon="16.89214833">
        <ele>178.9</ele>
        <time>2025-07-28T18:24:22Z</time>
      </trkpt>
      <trkpt lat="46.36672667" lon="16.89226">
        <ele>179.2</ele>
        <time>2025-07-28T18:24:23Z</time>
      </trkpt>
      <trkpt lat="46.36683" lon="16.89244333">
        <ele>180.1</ele>
        <time>2025-07-28T18:24:25Z</time>
      </trkpt>
      <trkpt lat="46.36690667" lon="16.89258333">
        <ele>181</ele>
        <time>2025-07-28T18:24:27Z</time>
      </trkpt>
      <trkpt lat="46.366985" lon="16.89275">
        <ele>181.6</ele>
        <time>2025-07-28T18:24:29Z</time>
      </trkpt>
      <trkpt lat="46.36708667" lon="16.89295333">
        <ele>182</ele>
        <time>2025-07-28T18:24:31Z</time>
      </trkpt>
      <trkpt lat="46.367185" lon="16.89317333">
        <ele>181.2</ele>
        <time>2025-07-28T18:24:33Z</time>
      </trkpt>
      <trkpt lat="46.36723167" lon="16.89328667">
        <ele>181</ele>
        <time>2025-07-28T18:24:34Z</time>
      </trkpt>
      <trkpt lat="46.36728167" lon="16.89339833">
        <ele>180.5</ele>
        <time>2025-07-28T18:24:35Z</time>
      </trkpt>
      <trkpt lat="46.36734167" lon="16.89351333">
        <ele>180.3</ele>
        <time>2025-07-28T18:24:36Z</time>
      </trkpt>
      <trkpt lat="46.367455" lon="16.89372833">
        <ele>179.8</ele>
        <time>2025-07-28T18:24:38Z</time>
      </trkpt>
      <trkpt lat="46.367505" lon="16.89384167">
        <ele>179.5</ele>
        <time>2025-07-28T18:24:39Z</time>
      </trkpt>
      <trkpt lat="46.367555" lon="16.89395167">
        <ele>179.4</ele>
        <time>2025-07-28T18:24:40Z</time>
      </trkpt>
      <trkpt lat="46.36759667" lon="16.89406833">
        <ele>179.8</ele>
        <time>2025-07-28T18:24:41Z</time>
      </trkpt>
      <trkpt lat="46.367635" lon="16.89419667">
        <ele>180.3</ele>
        <time>2025-07-28T18:24:42Z</time>
      </trkpt>
      <trkpt lat="46.36765667" lon="16.89444667">
        <ele>184.1</ele>
        <time>2025-07-28T18:24:44Z</time>
      </trkpt>
      <trkpt lat="46.36766" lon="16.894625">
        <ele>183.4</ele>
        <time>2025-07-28T18:24:46Z</time>
      </trkpt>
      <trkpt lat="46.36770833" lon="16.89475167">
        <ele>183.1</ele>
        <time>2025-07-28T18:24:48Z</time>
      </trkpt>
      <trkpt lat="46.367795" lon="16.89480667">
        <ele>183.3</ele>
        <time>2025-07-28T18:24:50Z</time>
      </trkpt>
      <trkpt lat="46.36790333" lon="16.89478">
        <ele>183.9</ele>
        <time>2025-07-28T18:24:53Z</time>
      </trkpt>
      <trkpt lat="46.36797667" lon="16.89465333">
        <ele>184.6</ele>
        <time>2025-07-28T18:24:56Z</time>
      </trkpt>
      <trkpt lat="46.36795667" lon="16.89449667">
        <ele>184.3</ele>
        <time>2025-07-28T18:24:58Z</time>
      </trkpt>
      <trkpt lat="46.36789667" lon="16.8943">
        <ele>184.6</ele>
        <time>2025-07-28T18:25:00Z</time>
      </trkpt>
      <trkpt lat="46.36785167" lon="16.8941">
        <ele>185.8</ele>
        <time>2025-07-28T18:25:02Z</time>
      </trkpt>
      <trkpt lat="46.36781167" lon="16.893885">
        <ele>187.3</ele>
        <time>2025-07-28T18:25:04Z</time>
      </trkpt>
      <trkpt lat="46.36777" lon="16.89363167">
        <ele>187.9</ele>
        <time>2025-07-28T18:25:06Z</time>
      </trkpt>
      <trkpt lat="46.367755" lon="16.89350333">
        <ele>189</ele>
        <time>2025-07-28T18:25:07Z</time>
      </trkpt>
      <trkpt lat="46.36772667" lon="16.89335">
        <ele>189.4</ele>
        <time>2025-07-28T18:25:08Z</time>
      </trkpt>
      <trkpt lat="46.36770167" lon="16.89319333">
        <ele>189.9</ele>
        <time>2025-07-28T18:25:09Z</time>
      </trkpt>
      <trkpt lat="46.36768167" lon="16.89304">
        <ele>190.8</ele>
        <time>2025-07-28T18:25:10Z</time>
      </trkpt>
      <trkpt lat="46.36766167" lon="16.892865">
        <ele>191.1</ele>
        <time>2025-07-28T18:25:11Z</time>
      </trkpt>
      <trkpt lat="46.36763833" lon="16.89268">
        <ele>189.3</ele>
        <time>2025-07-28T18:25:12Z</time>
      </trkpt>
      <trkpt lat="46.36761833" lon="16.89250833">
        <ele>188.1</ele>
        <time>2025-07-28T18:25:13Z</time>
      </trkpt>
      <trkpt lat="46.36759667" lon="16.89234833">
        <ele>188.3</ele>
        <time>2025-07-28T18:25:14Z</time>
      </trkpt>
      <trkpt lat="46.36758833" lon="16.89216667">
        <ele>188.4</ele>
        <time>2025-07-28T18:25:15Z</time>
      </trkpt>
      <trkpt lat="46.36756833" lon="16.89198167">
        <ele>189</ele>
        <time>2025-07-28T18:25:16Z</time>
      </trkpt>
      <trkpt lat="46.36754833" lon="16.89179667">
        <ele>189.6</ele>
        <time>2025-07-28T18:25:17Z</time>
      </trkpt>
      <trkpt lat="46.367525" lon="16.89160667">
        <ele>189.8</ele>
        <time>2025-07-28T18:25:18Z</time>
      </trkpt>
      <trkpt lat="46.36750167" lon="16.89141833">
        <ele>190.1</ele>
        <time>2025-07-28T18:25:19Z</time>
      </trkpt>
      <trkpt lat="46.36748" lon="16.89123">
        <ele>190.4</ele>
        <time>2025-07-28T18:25:20Z</time>
      </trkpt>
      <trkpt lat="46.36745833" lon="16.89104">
        <ele>190.5</ele>
        <time>2025-07-28T18:25:21Z</time>
      </trkpt>
      <trkpt lat="46.36743833" lon="16.89085">
        <ele>190.3</ele>
        <time>2025-07-28T18:25:22Z</time>
      </trkpt>
      <trkpt lat="46.36741833" lon="16.89065667">
        <ele>190.6</ele>
        <time>2025-07-28T18:25:23Z</time>
      </trkpt>
      <trkpt lat="46.36739667" lon="16.890455">
        <ele>191</ele>
        <time>2025-07-28T18:25:24Z</time>
      </trkpt>
      <trkpt lat="46.36737833" lon="16.890255">
        <ele>191.6</ele>
        <time>2025-07-28T18:25:25Z</time>
      </trkpt>
      <trkpt lat="46.36736" lon="16.89005">
        <ele>191.8</ele>
        <time>2025-07-28T18:25:26Z</time>
      </trkpt>
      <trkpt lat="46.367335" lon="16.88984833">
        <ele>191.5</ele>
        <time>2025-07-28T18:25:27Z</time>
      </trkpt>
      <trkpt lat="46.36731833" lon="16.88965167">
        <ele>191</ele>
        <time>2025-07-28T18:25:28Z</time>
      </trkpt>
      <trkpt lat="46.36729833" lon="16.88946167">
        <ele>188.7</ele>
        <time>2025-07-28T18:25:29Z</time>
      </trkpt>
      <trkpt lat="46.367275" lon="16.88926833">
        <ele>188.8</ele>
        <time>2025-07-28T18:25:30Z</time>
      </trkpt>
      <trkpt lat="46.36726" lon="16.889075">
        <ele>188.6</ele>
        <time>2025-07-28T18:25:31Z</time>
      </trkpt>
      <trkpt lat="46.36724333" lon="16.88888">
        <ele>188.6</ele>
        <time>2025-07-28T18:25:32Z</time>
      </trkpt>
      <trkpt lat="46.36722833" lon="16.88870167">
        <ele>186.6</ele>
        <time>2025-07-28T18:25:33Z</time>
      </trkpt>
      <trkpt lat="46.36721167" lon="16.88850833">
        <ele>185.8</ele>
        <time>2025-07-28T18:25:34Z</time>
      </trkpt>
      <trkpt lat="46.36719833" lon="16.88831667">
        <ele>185.9</ele>
        <time>2025-07-28T18:25:35Z</time>
      </trkpt>
      <trkpt lat="46.36717833" lon="16.88814333">
        <ele>186.7</ele>
        <time>2025-07-28T18:25:36Z</time>
      </trkpt>
      <trkpt lat="46.367155" lon="16.88797167">
        <ele>185.7</ele>
        <time>2025-07-28T18:25:37Z</time>
      </trkpt>
      <trkpt lat="46.367135" lon="16.88779333">
        <ele>185.5</ele>
        <time>2025-07-28T18:25:38Z</time>
      </trkpt>
      <trkpt lat="46.36711167" lon="16.88761667">
        <ele>184.5</ele>
        <time>2025-07-28T18:25:39Z</time>
      </trkpt>
      <trkpt lat="46.367095" lon="16.88743">
        <ele>184.5</ele>
        <time>2025-07-28T18:25:40Z</time>
      </trkpt>
      <trkpt lat="46.367075" lon="16.88723833">
        <ele>183.9</ele>
        <time>2025-07-28T18:25:41Z</time>
      </trkpt>
      <trkpt lat="46.36705333" lon="16.88705333">
        <ele>182.8</ele>
        <time>2025-07-28T18:25:42Z</time>
      </trkpt>
      <trkpt lat="46.36703333" lon="16.88688">
        <ele>182.4</ele>
        <time>2025-07-28T18:25:43Z</time>
      </trkpt>
      <trkpt lat="46.36701667" lon="16.88671">
        <ele>181.9</ele>
        <time>2025-07-28T18:25:44Z</time>
      </trkpt>
      <trkpt lat="46.36699667" lon="16.88653333">
        <ele>182.2</ele>
        <time>2025-07-28T18:25:45Z</time>
      </trkpt>
      <trkpt lat="46.36697833" lon="16.88635">
        <ele>182.3</ele>
        <time>2025-07-28T18:25:46Z</time>
      </trkpt>
      <trkpt lat="46.36695833" lon="16.88617833">
        <ele>181.5</ele>
        <time>2025-07-28T18:25:47Z</time>
      </trkpt>
      <trkpt lat="46.36693667" lon="16.88599333">
        <ele>181.3</ele>
        <time>2025-07-28T18:25:48Z</time>
      </trkpt>
      <trkpt lat="46.36691833" lon="16.88581167">
        <ele>180.6</ele>
        <time>2025-07-28T18:25:49Z</time>
      </trkpt>
      <trkpt lat="46.36688833" lon="16.88563167">
        <ele>179.8</ele>
        <time>2025-07-28T18:25:50Z</time>
      </trkpt>
      <trkpt lat="46.36685667" lon="16.885455">
        <ele>178.3</ele>
        <time>2025-07-28T18:25:51Z</time>
      </trkpt>
      <trkpt lat="46.36682667" lon="16.88528667">
        <ele>178.5</ele>
        <time>2025-07-28T18:25:52Z</time>
      </trkpt>
      <trkpt lat="46.36681" lon="16.88510333">
        <ele>177.4</ele>
        <time>2025-07-28T18:25:53Z</time>
      </trkpt>
      <trkpt lat="46.36678833" lon="16.88493667">
        <ele>178.8</ele>
        <time>2025-07-28T18:25:54Z</time>
      </trkpt>
      <trkpt lat="46.36678" lon="16.88477167">
        <ele>179.1</ele>
        <time>2025-07-28T18:25:55Z</time>
      </trkpt>
      <trkpt lat="46.36676167" lon="16.8846">
        <ele>180.8</ele>
        <time>2025-07-28T18:25:56Z</time>
      </trkpt>
      <trkpt lat="46.366745" lon="16.884425">
        <ele>180.9</ele>
        <time>2025-07-28T18:25:57Z</time>
      </trkpt>
      <trkpt lat="46.36672833" lon="16.88425667">
        <ele>183.7</ele>
        <time>2025-07-28T18:25:58Z</time>
      </trkpt>
      <trkpt lat="46.36671333" lon="16.88409">
        <ele>184.9</ele>
        <time>2025-07-28T18:25:59Z</time>
      </trkpt>
      <trkpt lat="46.36669333" lon="16.88392167">
        <ele>187.4</ele>
        <time>2025-07-28T18:26:00Z</time>
      </trkpt>
      <trkpt lat="46.36667" lon="16.88375167">
        <ele>186.7</ele>
        <time>2025-07-28T18:26:01Z</time>
      </trkpt>
      <trkpt lat="46.36664" lon="16.88357833">
        <ele>186.3</ele>
        <time>2025-07-28T18:26:02Z</time>
      </trkpt>
      <trkpt lat="46.36661667" lon="16.88340167">
        <ele>186.7</ele>
        <time>2025-07-28T18:26:03Z</time>
      </trkpt>
      <trkpt lat="46.36659833" lon="16.883225">
        <ele>187</ele>
        <time>2025-07-28T18:26:04Z</time>
      </trkpt>
      <trkpt lat="46.36657333" lon="16.88304667">
        <ele>185.8</ele>
        <time>2025-07-28T18:26:05Z</time>
      </trkpt>
      <trkpt lat="46.36654833" lon="16.88286667">
        <ele>184.8</ele>
        <time>2025-07-28T18:26:06Z</time>
      </trkpt>
      <trkpt lat="46.36652667" lon="16.882685">
        <ele>184.6</ele>
        <time>2025-07-28T18:26:07Z</time>
      </trkpt>
      <trkpt lat="46.36650167" lon="16.88250333">
        <ele>182.5</ele>
        <time>2025-07-28T18:26:08Z</time>
      </trkpt>
      <trkpt lat="46.36647667" lon="16.88232667">
        <ele>180.5</ele>
        <time>2025-07-28T18:26:09Z</time>
      </trkpt>
      <trkpt lat="46.36645" lon="16.88215167">
        <ele>180.6</ele>
        <time>2025-07-28T18:26:10Z</time>
      </trkpt>
      <trkpt lat="46.36642833" lon="16.88197833">
        <ele>180.3</ele>
        <time>2025-07-28T18:26:11Z</time>
      </trkpt>
      <trkpt lat="46.3664" lon="16.88180167">
        <ele>179.3</ele>
        <time>2025-07-28T18:26:12Z</time>
      </trkpt>
      <trkpt lat="46.36637333" lon="16.881625">
        <ele>178.9</ele>
        <time>2025-07-28T18:26:13Z</time>
      </trkpt>
      <trkpt lat="46.36635833" lon="16.88145167">
        <ele>179.3</ele>
        <time>2025-07-28T18:26:14Z</time>
      </trkpt>
      <trkpt lat="46.36633833" lon="16.88128">
        <ele>179.2</ele>
        <time>2025-07-28T18:26:15Z</time>
      </trkpt>
      <trkpt lat="46.36633167" lon="16.88110667">
        <ele>181.9</ele>
        <time>2025-07-28T18:26:16Z</time>
      </trkpt>
      <trkpt lat="46.36632167" lon="16.88094333">
        <ele>183.5</ele>
        <time>2025-07-28T18:26:17Z</time>
      </trkpt>
      <trkpt lat="46.36631" lon="16.880775">
        <ele>186.2</ele>
        <time>2025-07-28T18:26:18Z</time>
      </trkpt>
      <trkpt lat="46.36628667" lon="16.88059667">
        <ele>187.7</ele>
        <time>2025-07-28T18:26:19Z</time>
      </trkpt>
      <trkpt lat="46.36627" lon="16.880425">
        <ele>188.8</ele>
        <time>2025-07-28T18:26:20Z</time>
      </trkpt>
      <trkpt lat="46.36626" lon="16.88026">
        <ele>190.7</ele>
        <time>2025-07-28T18:26:21Z</time>
      </trkpt>
      <trkpt lat="46.36624833" lon="16.880085">
        <ele>190.4</ele>
        <time>2025-07-28T18:26:22Z</time>
      </trkpt>
      <trkpt lat="46.36624333" lon="16.87993167">
        <ele>193.5</ele>
        <time>2025-07-28T18:26:23Z</time>
      </trkpt>
      <trkpt lat="46.36623667" lon="16.87976333">
        <ele>192.9</ele>
        <time>2025-07-28T18:26:24Z</time>
      </trkpt>
      <trkpt lat="46.36622833" lon="16.87960333">
        <ele>192.6</ele>
        <time>2025-07-28T18:26:25Z</time>
      </trkpt>
      <trkpt lat="46.36621" lon="16.87944">
        <ele>191.7</ele>
        <time>2025-07-28T18:26:26Z</time>
      </trkpt>
      <trkpt lat="46.36619" lon="16.87927833">
        <ele>191.1</ele>
        <time>2025-07-28T18:26:27Z</time>
      </trkpt>
      <trkpt lat="46.366165" lon="16.87911667">
        <ele>190.7</ele>
        <time>2025-07-28T18:26:28Z</time>
      </trkpt>
      <trkpt lat="46.36613167" lon="16.87896333">
        <ele>190</ele>
        <time>2025-07-28T18:26:29Z</time>
      </trkpt>
      <trkpt lat="46.366105" lon="16.878805">
        <ele>189.4</ele>
        <time>2025-07-28T18:26:30Z</time>
      </trkpt>
      <trkpt lat="46.36608333" lon="16.87864">
        <ele>188.8</ele>
        <time>2025-07-28T18:26:31Z</time>
      </trkpt>
      <trkpt lat="46.36606" lon="16.87847167">
        <ele>188.3</ele>
        <time>2025-07-28T18:26:32Z</time>
      </trkpt>
      <trkpt lat="46.366035" lon="16.87830667">
        <ele>188.1</ele>
        <time>2025-07-28T18:26:33Z</time>
      </trkpt>
      <trkpt lat="46.36601333" lon="16.87812833">
        <ele>187.7</ele>
        <time>2025-07-28T18:26:34Z</time>
      </trkpt>
      <trkpt lat="46.36598167" lon="16.87795833">
        <ele>188.2</ele>
        <time>2025-07-28T18:26:35Z</time>
      </trkpt>
      <trkpt lat="46.365955" lon="16.87779333">
        <ele>188.2</ele>
        <time>2025-07-28T18:26:36Z</time>
      </trkpt>
      <trkpt lat="46.36593333" lon="16.87763">
        <ele>188.1</ele>
        <time>2025-07-28T18:26:37Z</time>
      </trkpt>
      <trkpt lat="46.36590833" lon="16.87747167">
        <ele>187.6</ele>
        <time>2025-07-28T18:26:38Z</time>
      </trkpt>
      <trkpt lat="46.365895" lon="16.87730333">
        <ele>188.3</ele>
        <time>2025-07-28T18:26:39Z</time>
      </trkpt>
      <trkpt lat="46.36586167" lon="16.877135">
        <ele>190.9</ele>
        <time>2025-07-28T18:26:40Z</time>
      </trkpt>
      <trkpt lat="46.36582" lon="16.87696833">
        <ele>191.3</ele>
        <time>2025-07-28T18:26:41Z</time>
      </trkpt>
      <trkpt lat="46.36578167" lon="16.87679667">
        <ele>190.9</ele>
        <time>2025-07-28T18:26:42Z</time>
      </trkpt>
      <trkpt lat="46.36573833" lon="16.87662333">
        <ele>189.2</ele>
        <time>2025-07-28T18:26:43Z</time>
      </trkpt>
      <trkpt lat="46.365715" lon="16.87645167">
        <ele>189.2</ele>
        <time>2025-07-28T18:26:44Z</time>
      </trkpt>
      <trkpt lat="46.36568667" lon="16.87627667">
        <ele>189.1</ele>
        <time>2025-07-28T18:26:45Z</time>
      </trkpt>
      <trkpt lat="46.36565333" lon="16.8761">
        <ele>188.6</ele>
        <time>2025-07-28T18:26:46Z</time>
      </trkpt>
      <trkpt lat="46.36562" lon="16.87591833">
        <ele>188.4</ele>
        <time>2025-07-28T18:26:47Z</time>
      </trkpt>
      <trkpt lat="46.36559167" lon="16.87574333">
        <ele>187.9</ele>
        <time>2025-07-28T18:26:48Z</time>
      </trkpt>
      <trkpt lat="46.36556333" lon="16.87556333">
        <ele>187.6</ele>
        <time>2025-07-28T18:26:49Z</time>
      </trkpt>
      <trkpt lat="46.36553333" lon="16.87538833">
        <ele>186.9</ele>
        <time>2025-07-28T18:26:50Z</time>
      </trkpt>
      <trkpt lat="46.36549833" lon="16.875205">
        <ele>186.6</ele>
        <time>2025-07-28T18:26:51Z</time>
      </trkpt>
      <trkpt lat="46.36546" lon="16.87502">
        <ele>183.3</ele>
        <time>2025-07-28T18:26:52Z</time>
      </trkpt>
      <trkpt lat="46.365425" lon="16.87484333">
        <ele>182.6</ele>
        <time>2025-07-28T18:26:53Z</time>
      </trkpt>
      <trkpt lat="46.36538333" lon="16.87466">
        <ele>181.8</ele>
        <time>2025-07-28T18:26:54Z</time>
      </trkpt>
      <trkpt lat="46.36533833" lon="16.87447333">
        <ele>180.1</ele>
        <time>2025-07-28T18:26:55Z</time>
      </trkpt>
      <trkpt lat="46.36531167" lon="16.8743">
        <ele>180.1</ele>
        <time>2025-07-28T18:26:56Z</time>
      </trkpt>
      <trkpt lat="46.36527833" lon="16.87412667">
        <ele>180.2</ele>
        <time>2025-07-28T18:26:57Z</time>
      </trkpt>
      <trkpt lat="46.36524333" lon="16.87395667">
        <ele>180</ele>
        <time>2025-07-28T18:26:58Z</time>
      </trkpt>
      <trkpt lat="46.36520333" lon="16.87377833">
        <ele>179.5</ele>
        <time>2025-07-28T18:26:59Z</time>
      </trkpt>
      <trkpt lat="46.36517833" lon="16.87361167">
        <ele>180.1</ele>
        <time>2025-07-28T18:27:00Z</time>
      </trkpt>
      <trkpt lat="46.365155" lon="16.87344667">
        <ele>180.3</ele>
        <time>2025-07-28T18:27:01Z</time>
      </trkpt>
      <trkpt lat="46.36512667" lon="16.87328333">
        <ele>180</ele>
        <time>2025-07-28T18:27:02Z</time>
      </trkpt>
      <trkpt lat="46.36509333" lon="16.87311333">
        <ele>179.9</ele>
        <time>2025-07-28T18:27:03Z</time>
      </trkpt>
      <trkpt lat="46.36505667" lon="16.87294833">
        <ele>180</ele>
        <time>2025-07-28T18:27:04Z</time>
      </trkpt>
      <trkpt lat="46.36501833" lon="16.87277833">
        <ele>180.2</ele>
        <time>2025-07-28T18:27:05Z</time>
      </trkpt>
      <trkpt lat="46.364985" lon="16.87263333">
        <ele>180.7</ele>
        <time>2025-07-28T18:27:06Z</time>
      </trkpt>
      <trkpt lat="46.364955" lon="16.87250333">
        <ele>181.2</ele>
        <time>2025-07-28T18:27:07Z</time>
      </trkpt>
      <trkpt lat="46.36493" lon="16.87237">
        <ele>181.4</ele>
        <time>2025-07-28T18:27:08Z</time>
      </trkpt>
      <trkpt lat="46.36490333" lon="16.87224167">
        <ele>181.6</ele>
        <time>2025-07-28T18:27:09Z</time>
      </trkpt>
      <trkpt lat="46.36488167" lon="16.87209667">
        <ele>181.4</ele>
        <time>2025-07-28T18:27:10Z</time>
      </trkpt>
      <trkpt lat="46.36485667" lon="16.87195">
        <ele>181.9</ele>
        <time>2025-07-28T18:27:11Z</time>
      </trkpt>
      <trkpt lat="46.36483667" lon="16.87181167">
        <ele>181.4</ele>
        <time>2025-07-28T18:27:12Z</time>
      </trkpt>
      <trkpt lat="46.36481167" lon="16.87168">
        <ele>180.1</ele>
        <time>2025-07-28T18:27:13Z</time>
      </trkpt>
      <trkpt lat="46.36479" lon="16.87152">
        <ele>179.3</ele>
        <time>2025-07-28T18:27:14Z</time>
      </trkpt>
      <trkpt lat="46.36477" lon="16.87136">
        <ele>178.4</ele>
        <time>2025-07-28T18:27:15Z</time>
      </trkpt>
      <trkpt lat="46.36475333" lon="16.87119333">
        <ele>178.1</ele>
        <time>2025-07-28T18:27:16Z</time>
      </trkpt>
      <trkpt lat="46.36474833" lon="16.871035">
        <ele>177.5</ele>
        <time>2025-07-28T18:27:17Z</time>
      </trkpt>
      <trkpt lat="46.36474667" lon="16.87088333">
        <ele>176</ele>
        <time>2025-07-28T18:27:18Z</time>
      </trkpt>
      <trkpt lat="46.36474833" lon="16.87069833">
        <ele>175.3</ele>
        <time>2025-07-28T18:27:19Z</time>
      </trkpt>
      <trkpt lat="46.364755" lon="16.87051333">
        <ele>177.6</ele>
        <time>2025-07-28T18:27:20Z</time>
      </trkpt>
      <trkpt lat="46.36475833" lon="16.87033">
        <ele>178.7</ele>
        <time>2025-07-28T18:27:21Z</time>
      </trkpt>
      <trkpt lat="46.36478167" lon="16.870145">
        <ele>178</ele>
        <time>2025-07-28T18:27:22Z</time>
      </trkpt>
      <trkpt lat="46.36481167" lon="16.86995833">
        <ele>177</ele>
        <time>2025-07-28T18:27:23Z</time>
      </trkpt>
      <trkpt lat="46.36484" lon="16.86978167">
        <ele>176.2</ele>
        <time>2025-07-28T18:27:24Z</time>
      </trkpt>
      <trkpt lat="46.364875" lon="16.86958833">
        <ele>175.8</ele>
        <time>2025-07-28T18:27:25Z</time>
      </trkpt>
      <trkpt lat="46.36492" lon="16.869405">
        <ele>175.9</ele>
        <time>2025-07-28T18:27:26Z</time>
      </trkpt>
      <trkpt lat="46.36496" lon="16.869235">
        <ele>176.2</ele>
        <time>2025-07-28T18:27:27Z</time>
      </trkpt>
      <trkpt lat="46.36500667" lon="16.86908167">
        <ele>177</ele>
        <time>2025-07-28T18:27:28Z</time>
      </trkpt>
      <trkpt lat="46.36505167" lon="16.868925">
        <ele>178.4</ele>
        <time>2025-07-28T18:27:29Z</time>
      </trkpt>
      <trkpt lat="46.36509333" lon="16.86877">
        <ele>178.4</ele>
        <time>2025-07-28T18:27:30Z</time>
      </trkpt>
      <trkpt lat="46.36514167" lon="16.86863333">
        <ele>178.3</ele>
        <time>2025-07-28T18:27:31Z</time>
      </trkpt>
      <trkpt lat="46.36519167" lon="16.86848667">
        <ele>177.8</ele>
        <time>2025-07-28T18:27:32Z</time>
      </trkpt>
      <trkpt lat="46.36523167" lon="16.868325">
        <ele>177.1</ele>
        <time>2025-07-28T18:27:33Z</time>
      </trkpt>
      <trkpt lat="46.365285" lon="16.86817333">
        <ele>177.4</ele>
        <time>2025-07-28T18:27:34Z</time>
      </trkpt>
      <trkpt lat="46.36534667" lon="16.868035">
        <ele>176.9</ele>
        <time>2025-07-28T18:27:35Z</time>
      </trkpt>
      <trkpt lat="46.36540667" lon="16.86790167">
        <ele>175.8</ele>
        <time>2025-07-28T18:27:36Z</time>
      </trkpt>
      <trkpt lat="46.36546833" lon="16.86776833">
        <ele>174</ele>
        <time>2025-07-28T18:27:37Z</time>
      </trkpt>
      <trkpt lat="46.36552833" lon="16.86761333">
        <ele>172.7</ele>
        <time>2025-07-28T18:27:38Z</time>
      </trkpt>
      <trkpt lat="46.365595" lon="16.86745667">
        <ele>171</ele>
        <time>2025-07-28T18:27:39Z</time>
      </trkpt>
      <trkpt lat="46.36565667" lon="16.86729333">
        <ele>170.9</ele>
        <time>2025-07-28T18:27:40Z</time>
      </trkpt>
      <trkpt lat="46.36571167" lon="16.86711833">
        <ele>170.9</ele>
        <time>2025-07-28T18:27:41Z</time>
      </trkpt>
      <trkpt lat="46.36578167" lon="16.86692833">
        <ele>170.8</ele>
        <time>2025-07-28T18:27:42Z</time>
      </trkpt>
      <trkpt lat="46.365845" lon="16.86674667">
        <ele>170.7</ele>
        <time>2025-07-28T18:27:43Z</time>
      </trkpt>
      <trkpt lat="46.36590333" lon="16.86655667">
        <ele>171.7</ele>
        <time>2025-07-28T18:27:44Z</time>
      </trkpt>
      <trkpt lat="46.365985" lon="16.86637667">
        <ele>174</ele>
        <time>2025-07-28T18:27:45Z</time>
      </trkpt>
      <trkpt lat="46.36607667" lon="16.86620667">
        <ele>173.3</ele>
        <time>2025-07-28T18:27:46Z</time>
      </trkpt>
      <trkpt lat="46.36617833" lon="16.86604833">
        <ele>173.6</ele>
        <time>2025-07-28T18:27:47Z</time>
      </trkpt>
      <trkpt lat="46.36627167" lon="16.865875">
        <ele>172.8</ele>
        <time>2025-07-28T18:27:48Z</time>
      </trkpt>
      <trkpt lat="46.366385" lon="16.86572167">
        <ele>172.7</ele>
        <time>2025-07-28T18:27:49Z</time>
      </trkpt>
      <trkpt lat="46.36649833" lon="16.865565">
        <ele>173.3</ele>
        <time>2025-07-28T18:27:50Z</time>
      </trkpt>
      <trkpt lat="46.36661" lon="16.86538833">
        <ele>173.6</ele>
        <time>2025-07-28T18:27:51Z</time>
      </trkpt>
      <trkpt lat="46.36672" lon="16.86521833">
        <ele>174.8</ele>
        <time>2025-07-28T18:27:52Z</time>
      </trkpt>
      <trkpt lat="46.36682833" lon="16.86506167">
        <ele>178.6</ele>
        <time>2025-07-28T18:27:53Z</time>
      </trkpt>
      <trkpt lat="46.36692167" lon="16.86488333">
        <ele>180.7</ele>
        <time>2025-07-28T18:27:54Z</time>
      </trkpt>
      <trkpt lat="46.36701667" lon="16.86470833">
        <ele>180.8</ele>
        <time>2025-07-28T18:27:55Z</time>
      </trkpt>
      <trkpt lat="46.36710667" lon="16.86453">
        <ele>180.7</ele>
        <time>2025-07-28T18:27:56Z</time>
      </trkpt>
      <trkpt lat="46.3672" lon="16.86434667">
        <ele>180.7</ele>
        <time>2025-07-28T18:27:57Z</time>
      </trkpt>
      <trkpt lat="46.36729833" lon="16.864185">
        <ele>180.4</ele>
        <time>2025-07-28T18:27:58Z</time>
      </trkpt>
      <trkpt lat="46.36740333" lon="16.86401833">
        <ele>179.9</ele>
        <time>2025-07-28T18:27:59Z</time>
      </trkpt>
      <trkpt lat="46.367505" lon="16.86387667">
        <ele>180.6</ele>
        <time>2025-07-28T18:28:00Z</time>
      </trkpt>
      <trkpt lat="46.36762167" lon="16.86374">
        <ele>181.8</ele>
        <time>2025-07-28T18:28:01Z</time>
      </trkpt>
      <trkpt lat="46.36773" lon="16.863575">
        <ele>181.6</ele>
        <time>2025-07-28T18:28:02Z</time>
      </trkpt>
      <trkpt lat="46.36782833" lon="16.863425">
        <ele>180.7</ele>
        <time>2025-07-28T18:28:03Z</time>
      </trkpt>
      <trkpt lat="46.36793333" lon="16.86327833">
        <ele>180.4</ele>
        <time>2025-07-28T18:28:04Z</time>
      </trkpt>
      <trkpt lat="46.36804167" lon="16.86313167">
        <ele>179.9</ele>
        <time>2025-07-28T18:28:05Z</time>
      </trkpt>
      <trkpt lat="46.36815" lon="16.86298833">
        <ele>179.5</ele>
        <time>2025-07-28T18:28:06Z</time>
      </trkpt>
      <trkpt lat="46.36827" lon="16.862855">
        <ele>179.7</ele>
        <time>2025-07-28T18:28:07Z</time>
      </trkpt>
      <trkpt lat="46.36839167" lon="16.86271333">
        <ele>177.5</ele>
        <time>2025-07-28T18:28:08Z</time>
      </trkpt>
      <trkpt lat="46.36852333" lon="16.86261">
        <ele>176.1</ele>
        <time>2025-07-28T18:28:09Z</time>
      </trkpt>
      <trkpt lat="46.368645" lon="16.86249333">
        <ele>175.2</ele>
        <time>2025-07-28T18:28:10Z</time>
      </trkpt>
      <trkpt lat="46.36877" lon="16.86238167">
        <ele>174.2</ele>
        <time>2025-07-28T18:28:11Z</time>
      </trkpt>
      <trkpt lat="46.36889" lon="16.86227">
        <ele>172.9</ele>
        <time>2025-07-28T18:28:12Z</time>
      </trkpt>
      <trkpt lat="46.36901333" lon="16.86217">
        <ele>171.7</ele>
        <time>2025-07-28T18:28:13Z</time>
      </trkpt>
      <trkpt lat="46.36913167" lon="16.86208">
        <ele>171.4</ele>
        <time>2025-07-28T18:28:14Z</time>
      </trkpt>
      <trkpt lat="46.36924" lon="16.86199">
        <ele>170.7</ele>
        <time>2025-07-28T18:28:15Z</time>
      </trkpt>
      <trkpt lat="46.36935" lon="16.86197167">
        <ele>153.4</ele>
        <time>2025-07-28T18:28:16Z</time>
      </trkpt>
      <trkpt lat="46.36944833" lon="16.86187">
        <ele>152.9</ele>
        <time>2025-07-28T18:28:17Z</time>
      </trkpt>
      <trkpt lat="46.36953167" lon="16.86172167">
        <ele>155</ele>
        <time>2025-07-28T18:28:18Z</time>
      </trkpt>
      <trkpt lat="46.36964333" lon="16.86161">
        <ele>159.9</ele>
        <time>2025-07-28T18:28:19Z</time>
      </trkpt>
      <trkpt lat="46.36973167" lon="16.86148333">
        <ele>159.8</ele>
        <time>2025-07-28T18:28:20Z</time>
      </trkpt>
      <trkpt lat="46.36981167" lon="16.86133">
        <ele>159.3</ele>
        <time>2025-07-28T18:28:21Z</time>
      </trkpt>
      <trkpt lat="46.36985" lon="16.86108667">
        <ele>162.8</ele>
        <time>2025-07-28T18:28:22Z</time>
      </trkpt>
      <trkpt lat="46.37001" lon="16.860795">
        <ele>162.8</ele>
        <time>2025-07-28T18:28:24Z</time>
      </trkpt>
      <trkpt lat="46.37010333" lon="16.86066833">
        <ele>163.1</ele>
        <time>2025-07-28T18:28:25Z</time>
      </trkpt>
      <trkpt lat="46.37018333" lon="16.86049833">
        <ele>162.7</ele>
        <time>2025-07-28T18:28:26Z</time>
      </trkpt>
      <trkpt lat="46.37025833" lon="16.86032167">
        <ele>162.6</ele>
        <time>2025-07-28T18:28:27Z</time>
      </trkpt>
      <trkpt lat="46.37033667" lon="16.8602">
        <ele>163.4</ele>
        <time>2025-07-28T18:28:28Z</time>
      </trkpt>
      <trkpt lat="46.37042" lon="16.86002167">
        <ele>172.6</ele>
        <time>2025-07-28T18:28:29Z</time>
      </trkpt>
      <trkpt lat="46.37049833" lon="16.85983833">
        <ele>173.5</ele>
        <time>2025-07-28T18:28:30Z</time>
      </trkpt>
      <trkpt lat="46.37057" lon="16.85968167">
        <ele>172.9</ele>
        <time>2025-07-28T18:28:31Z</time>
      </trkpt>
      <trkpt lat="46.37065" lon="16.85949167">
        <ele>179.7</ele>
        <time>2025-07-28T18:28:32Z</time>
      </trkpt>
      <trkpt lat="46.37073667" lon="16.85934667">
        <ele>180.4</ele>
        <time>2025-07-28T18:28:33Z</time>
      </trkpt>
      <trkpt lat="46.370825" lon="16.85920333">
        <ele>180.7</ele>
        <time>2025-07-28T18:28:34Z</time>
      </trkpt>
      <trkpt lat="46.37090667" lon="16.858995">
        <ele>191.2</ele>
        <time>2025-07-28T18:28:35Z</time>
      </trkpt>
      <trkpt lat="46.37098667" lon="16.85881667">
        <ele>192.8</ele>
        <time>2025-07-28T18:28:36Z</time>
      </trkpt>
      <trkpt lat="46.37105833" lon="16.85862833">
        <ele>194.7</ele>
        <time>2025-07-28T18:28:37Z</time>
      </trkpt>
      <trkpt lat="46.37113667" lon="16.85847">
        <ele>194.6</ele>
        <time>2025-07-28T18:28:38Z</time>
      </trkpt>
      <trkpt lat="46.37122" lon="16.85833167">
        <ele>194.1</ele>
        <time>2025-07-28T18:28:39Z</time>
      </trkpt>
      <trkpt lat="46.37130333" lon="16.858185">
        <ele>193.6</ele>
        <time>2025-07-28T18:28:40Z</time>
      </trkpt>
      <trkpt lat="46.37139167" lon="16.858">
        <ele>194.3</ele>
        <time>2025-07-28T18:28:41Z</time>
      </trkpt>
      <trkpt lat="46.37147667" lon="16.85784333">
        <ele>194.4</ele>
        <time>2025-07-28T18:28:42Z</time>
      </trkpt>
      <trkpt lat="46.37157333" lon="16.85768333">
        <ele>191</ele>
        <time>2025-07-28T18:28:43Z</time>
      </trkpt>
      <trkpt lat="46.37166667" lon="16.857525">
        <ele>188.1</ele>
        <time>2025-07-28T18:28:44Z</time>
      </trkpt>
      <trkpt lat="46.37176667" lon="16.85738167">
        <ele>187.8</ele>
        <time>2025-07-28T18:28:45Z</time>
      </trkpt>
      <trkpt lat="46.37186167" lon="16.85722333">
        <ele>187.1</ele>
        <time>2025-07-28T18:28:46Z</time>
      </trkpt>
      <trkpt lat="46.37195167" lon="16.85706">
        <ele>187</ele>
        <time>2025-07-28T18:28:47Z</time>
      </trkpt>
      <trkpt lat="46.37203667" lon="16.856885">
        <ele>186.9</ele>
        <time>2025-07-28T18:28:48Z</time>
      </trkpt>
      <trkpt lat="46.37211" lon="16.85671833">
        <ele>190.8</ele>
        <time>2025-07-28T18:28:49Z</time>
      </trkpt>
      <trkpt lat="46.372195" lon="16.85655333">
        <ele>192.1</ele>
        <time>2025-07-28T18:28:50Z</time>
      </trkpt>
      <trkpt lat="46.37228167" lon="16.85638833">
        <ele>192</ele>
        <time>2025-07-28T18:28:51Z</time>
      </trkpt>
      <trkpt lat="46.37236333" lon="16.85621833">
        <ele>194</ele>
        <time>2025-07-28T18:28:52Z</time>
      </trkpt>
      <trkpt lat="46.37244667" lon="16.85605">
        <ele>194.1</ele>
        <time>2025-07-28T18:28:53Z</time>
      </trkpt>
      <trkpt lat="46.372525" lon="16.85587">
        <ele>193.5</ele>
        <time>2025-07-28T18:28:54Z</time>
      </trkpt>
      <trkpt lat="46.372605" lon="16.85568167">
        <ele>193.3</ele>
        <time>2025-07-28T18:28:55Z</time>
      </trkpt>
      <trkpt lat="46.37268667" lon="16.85551667">
        <ele>193.2</ele>
        <time>2025-07-28T18:28:56Z</time>
      </trkpt>
      <trkpt lat="46.37277167" lon="16.85535833">
        <ele>190.6</ele>
        <time>2025-07-28T18:28:57Z</time>
      </trkpt>
      <trkpt lat="46.37285167" lon="16.85518333">
        <ele>188.1</ele>
        <time>2025-07-28T18:28:58Z</time>
      </trkpt>
      <trkpt lat="46.37294" lon="16.85502167">
        <ele>188</ele>
        <time>2025-07-28T18:28:59Z</time>
      </trkpt>
      <trkpt lat="46.37302833" lon="16.85484">
        <ele>185.5</ele>
        <time>2025-07-28T18:29:00Z</time>
      </trkpt>
      <trkpt lat="46.37312" lon="16.85466833">
        <ele>185.3</ele>
        <time>2025-07-28T18:29:01Z</time>
      </trkpt>
      <trkpt lat="46.37322167" lon="16.85452167">
        <ele>185.2</ele>
        <time>2025-07-28T18:29:02Z</time>
      </trkpt>
      <trkpt lat="46.37331167" lon="16.85435167">
        <ele>185.4</ele>
        <time>2025-07-28T18:29:03Z</time>
      </trkpt>
      <trkpt lat="46.37340333" lon="16.854175">
        <ele>185.2</ele>
        <time>2025-07-28T18:29:04Z</time>
      </trkpt>
      <trkpt lat="46.37349167" lon="16.85400167">
        <ele>184</ele>
        <time>2025-07-28T18:29:05Z</time>
      </trkpt>
      <trkpt lat="46.37358333" lon="16.85382833">
        <ele>183.3</ele>
        <time>2025-07-28T18:29:06Z</time>
      </trkpt>
      <trkpt lat="46.37367667" lon="16.853655">
        <ele>183.4</ele>
        <time>2025-07-28T18:29:07Z</time>
      </trkpt>
      <trkpt lat="46.37377167" lon="16.85347">
        <ele>186.1</ele>
        <time>2025-07-28T18:29:08Z</time>
      </trkpt>
      <trkpt lat="46.37386" lon="16.85327167">
        <ele>184.9</ele>
        <time>2025-07-28T18:29:09Z</time>
      </trkpt>
      <trkpt lat="46.373945" lon="16.85307833">
        <ele>184.7</ele>
        <time>2025-07-28T18:29:10Z</time>
      </trkpt>
      <trkpt lat="46.37402667" lon="16.85289833">
        <ele>183.8</ele>
        <time>2025-07-28T18:29:11Z</time>
      </trkpt>
      <trkpt lat="46.37412" lon="16.85272667">
        <ele>182.9</ele>
        <time>2025-07-28T18:29:12Z</time>
      </trkpt>
      <trkpt lat="46.37420667" lon="16.85256167">
        <ele>183.5</ele>
        <time>2025-07-28T18:29:13Z</time>
      </trkpt>
      <trkpt lat="46.37431" lon="16.85241">
        <ele>184.9</ele>
        <time>2025-07-28T18:29:14Z</time>
      </trkpt>
      <trkpt lat="46.374415" lon="16.85223667">
        <ele>185</ele>
        <time>2025-07-28T18:29:15Z</time>
      </trkpt>
      <trkpt lat="46.37452333" lon="16.85207">
        <ele>187.8</ele>
        <time>2025-07-28T18:29:16Z</time>
      </trkpt>
      <trkpt lat="46.37464" lon="16.85192">
        <ele>188.1</ele>
        <time>2025-07-28T18:29:17Z</time>
      </trkpt>
      <trkpt lat="46.374745" lon="16.851745">
        <ele>190.3</ele>
        <time>2025-07-28T18:29:18Z</time>
      </trkpt>
      <trkpt lat="46.374845" lon="16.85157333">
        <ele>190.9</ele>
        <time>2025-07-28T18:29:19Z</time>
      </trkpt>
      <trkpt lat="46.37494" lon="16.85141">
        <ele>191.1</ele>
        <time>2025-07-28T18:29:20Z</time>
      </trkpt>
      <trkpt lat="46.375045" lon="16.85124333">
        <ele>189.6</ele>
        <time>2025-07-28T18:29:21Z</time>
      </trkpt>
      <trkpt lat="46.37514333" lon="16.85106833">
        <ele>188</ele>
        <time>2025-07-28T18:29:22Z</time>
      </trkpt>
      <trkpt lat="46.37525" lon="16.85090667">
        <ele>188.5</ele>
        <time>2025-07-28T18:29:23Z</time>
      </trkpt>
      <trkpt lat="46.37536" lon="16.85073833">
        <ele>189</ele>
        <time>2025-07-28T18:29:24Z</time>
      </trkpt>
      <trkpt lat="46.375465" lon="16.85056167">
        <ele>189.9</ele>
        <time>2025-07-28T18:29:25Z</time>
      </trkpt>
      <trkpt lat="46.375565" lon="16.85038833">
        <ele>190.9</ele>
        <time>2025-07-28T18:29:26Z</time>
      </trkpt>
      <trkpt lat="46.37566833" lon="16.85021167">
        <ele>191.9</ele>
        <time>2025-07-28T18:29:27Z</time>
      </trkpt>
      <trkpt lat="46.37577833" lon="16.85005667">
        <ele>192.3</ele>
        <time>2025-07-28T18:29:28Z</time>
      </trkpt>
      <trkpt lat="46.37588" lon="16.84988833">
        <ele>192.4</ele>
        <time>2025-07-28T18:29:29Z</time>
      </trkpt>
      <trkpt lat="46.37598333" lon="16.84972333">
        <ele>192.3</ele>
        <time>2025-07-28T18:29:30Z</time>
      </trkpt>
      <trkpt lat="46.37609" lon="16.84955667">
        <ele>192.5</ele>
        <time>2025-07-28T18:29:31Z</time>
      </trkpt>
      <trkpt lat="46.37618833" lon="16.84938333">
        <ele>192.8</ele>
        <time>2025-07-28T18:29:32Z</time>
      </trkpt>
      <trkpt lat="46.37627833" lon="16.84921833">
        <ele>192.1</ele>
        <time>2025-07-28T18:29:33Z</time>
      </trkpt>
      <trkpt lat="46.37637333" lon="16.84905667">
        <ele>190.8</ele>
        <time>2025-07-28T18:29:34Z</time>
      </trkpt>
      <trkpt lat="46.37647667" lon="16.8489">
        <ele>191</ele>
        <time>2025-07-28T18:29:35Z</time>
      </trkpt>
      <trkpt lat="46.37658" lon="16.848735">
        <ele>189.7</ele>
        <time>2025-07-28T18:29:36Z</time>
      </trkpt>
      <trkpt lat="46.376675" lon="16.84856333">
        <ele>189.5</ele>
        <time>2025-07-28T18:29:37Z</time>
      </trkpt>
      <trkpt lat="46.37677" lon="16.84841">
        <ele>188.7</ele>
        <time>2025-07-28T18:29:38Z</time>
      </trkpt>
      <trkpt lat="46.37686833" lon="16.848255">
        <ele>188.9</ele>
        <time>2025-07-28T18:29:39Z</time>
      </trkpt>
      <trkpt lat="46.376965" lon="16.848095">
        <ele>189.2</ele>
        <time>2025-07-28T18:29:40Z</time>
      </trkpt>
      <trkpt lat="46.37706333" lon="16.84792333">
        <ele>190.6</ele>
        <time>2025-07-28T18:29:41Z</time>
      </trkpt>
      <trkpt lat="46.37715667" lon="16.84775">
        <ele>191.2</ele>
        <time>2025-07-28T18:29:42Z</time>
      </trkpt>
      <trkpt lat="46.37725333" lon="16.847575">
        <ele>191.8</ele>
        <time>2025-07-28T18:29:43Z</time>
      </trkpt>
      <trkpt lat="46.37734833" lon="16.84740667">
        <ele>192.3</ele>
        <time>2025-07-28T18:29:44Z</time>
      </trkpt>
      <trkpt lat="46.37744833" lon="16.84723667">
        <ele>192.6</ele>
        <time>2025-07-28T18:29:45Z</time>
      </trkpt>
      <trkpt lat="46.37754667" lon="16.84707167">
        <ele>192.7</ele>
        <time>2025-07-28T18:29:46Z</time>
      </trkpt>
      <trkpt lat="46.37764" lon="16.84691333">
        <ele>193.6</ele>
        <time>2025-07-28T18:29:47Z</time>
      </trkpt>
      <trkpt lat="46.37773833" lon="16.84675333">
        <ele>195.1</ele>
        <time>2025-07-28T18:29:48Z</time>
      </trkpt>
      <trkpt lat="46.37783167" lon="16.84659167">
        <ele>196.3</ele>
        <time>2025-07-28T18:29:49Z</time>
      </trkpt>
      <trkpt lat="46.37793167" lon="16.84643667">
        <ele>198.8</ele>
        <time>2025-07-28T18:29:50Z</time>
      </trkpt>
      <trkpt lat="46.378025" lon="16.84628167">
        <ele>200.3</ele>
        <time>2025-07-28T18:29:51Z</time>
      </trkpt>
      <trkpt lat="46.37812667" lon="16.84611667">
        <ele>202</ele>
        <time>2025-07-28T18:29:52Z</time>
      </trkpt>
      <trkpt lat="46.37822667" lon="16.84595">
        <ele>201.4</ele>
        <time>2025-07-28T18:29:53Z</time>
      </trkpt>
      <trkpt lat="46.37832333" lon="16.84578167">
        <ele>201.4</ele>
        <time>2025-07-28T18:29:54Z</time>
      </trkpt>
      <trkpt lat="46.37842167" lon="16.84561833">
        <ele>200.6</ele>
        <time>2025-07-28T18:29:55Z</time>
      </trkpt>
      <trkpt lat="46.37852" lon="16.84545">
        <ele>199.6</ele>
        <time>2025-07-28T18:29:56Z</time>
      </trkpt>
      <trkpt lat="46.37862333" lon="16.84527">
        <ele>195</ele>
        <time>2025-07-28T18:29:57Z</time>
      </trkpt>
      <trkpt lat="46.37872" lon="16.84510667">
        <ele>194.7</ele>
        <time>2025-07-28T18:29:58Z</time>
      </trkpt>
      <trkpt lat="46.37882" lon="16.84493833">
        <ele>194.5</ele>
        <time>2025-07-28T18:29:59Z</time>
      </trkpt>
      <trkpt lat="46.37892333" lon="16.84477333">
        <ele>194.5</ele>
        <time>2025-07-28T18:30:00Z</time>
      </trkpt>
      <trkpt lat="46.37902" lon="16.84461">
        <ele>194.9</ele>
        <time>2025-07-28T18:30:01Z</time>
      </trkpt>
      <trkpt lat="46.37912" lon="16.84444833">
        <ele>194.8</ele>
        <time>2025-07-28T18:30:02Z</time>
      </trkpt>
      <trkpt lat="46.37922" lon="16.84429">
        <ele>194.2</ele>
        <time>2025-07-28T18:30:03Z</time>
      </trkpt>
      <trkpt lat="46.37931667" lon="16.84413667">
        <ele>193.7</ele>
        <time>2025-07-28T18:30:04Z</time>
      </trkpt>
      <trkpt lat="46.37941333" lon="16.84398167">
        <ele>193.3</ele>
        <time>2025-07-28T18:30:05Z</time>
      </trkpt>
      <trkpt lat="46.37951167" lon="16.843825">
        <ele>192.6</ele>
        <time>2025-07-28T18:30:06Z</time>
      </trkpt>
      <trkpt lat="46.37960667" lon="16.84366667">
        <ele>192</ele>
        <time>2025-07-28T18:30:07Z</time>
      </trkpt>
      <trkpt lat="46.37970333" lon="16.84351667">
        <ele>191.2</ele>
        <time>2025-07-28T18:30:08Z</time>
      </trkpt>
      <trkpt lat="46.379795" lon="16.84337">
        <ele>191</ele>
        <time>2025-07-28T18:30:09Z</time>
      </trkpt>
      <trkpt lat="46.37988833" lon="16.84323167">
        <ele>190.2</ele>
        <time>2025-07-28T18:30:10Z</time>
      </trkpt>
      <trkpt lat="46.37997833" lon="16.843085">
        <ele>189.5</ele>
        <time>2025-07-28T18:30:11Z</time>
      </trkpt>
      <trkpt lat="46.38006833" lon="16.84292833">
        <ele>189.4</ele>
        <time>2025-07-28T18:30:12Z</time>
      </trkpt>
      <trkpt lat="46.380155" lon="16.84277833">
        <ele>189.1</ele>
        <time>2025-07-28T18:30:13Z</time>
      </trkpt>
      <trkpt lat="46.38023833" lon="16.84263833">
        <ele>188.4</ele>
        <time>2025-07-28T18:30:14Z</time>
      </trkpt>
      <trkpt lat="46.38031833" lon="16.84249833">
        <ele>188.4</ele>
        <time>2025-07-28T18:30:15Z</time>
      </trkpt>
      <trkpt lat="46.3804" lon="16.84236333">
        <ele>188.8</ele>
        <time>2025-07-28T18:30:16Z</time>
      </trkpt>
      <trkpt lat="46.38048333" lon="16.84221167">
        <ele>185</ele>
        <time>2025-07-28T18:30:17Z</time>
      </trkpt>
      <trkpt lat="46.380585" lon="16.84206333">
        <ele>183.7</ele>
        <time>2025-07-28T18:30:18Z</time>
      </trkpt>
      <trkpt lat="46.38066333" lon="16.84192">
        <ele>183.6</ele>
        <time>2025-07-28T18:30:19Z</time>
      </trkpt>
      <trkpt lat="46.38073667" lon="16.84176833">
        <ele>183.6</ele>
        <time>2025-07-28T18:30:20Z</time>
      </trkpt>
      <trkpt lat="46.38079667" lon="16.84161833">
        <ele>183.5</ele>
        <time>2025-07-28T18:30:21Z</time>
      </trkpt>
      <trkpt lat="46.38085333" lon="16.84145833">
        <ele>183.6</ele>
        <time>2025-07-28T18:30:22Z</time>
      </trkpt>
      <trkpt lat="46.38089833" lon="16.84128333">
        <ele>183.4</ele>
        <time>2025-07-28T18:30:23Z</time>
      </trkpt>
      <trkpt lat="46.38092" lon="16.841125">
        <ele>183.2</ele>
        <time>2025-07-28T18:30:24Z</time>
      </trkpt>
      <trkpt lat="46.38094333" lon="16.84097">
        <ele>182.9</ele>
        <time>2025-07-28T18:30:25Z</time>
      </trkpt>
      <trkpt lat="46.38097" lon="16.84080167">
        <ele>183.1</ele>
        <time>2025-07-28T18:30:26Z</time>
      </trkpt>
      <trkpt lat="46.380995" lon="16.84064">
        <ele>183.1</ele>
        <time>2025-07-28T18:30:27Z</time>
      </trkpt>
      <trkpt lat="46.381015" lon="16.84048">
        <ele>183.2</ele>
        <time>2025-07-28T18:30:28Z</time>
      </trkpt>
      <trkpt lat="46.38103167" lon="16.84033">
        <ele>183.4</ele>
        <time>2025-07-28T18:30:29Z</time>
      </trkpt>
      <trkpt lat="46.38105333" lon="16.84017667">
        <ele>183.8</ele>
        <time>2025-07-28T18:30:30Z</time>
      </trkpt>
      <trkpt lat="46.38107" lon="16.840025">
        <ele>184.1</ele>
        <time>2025-07-28T18:30:31Z</time>
      </trkpt>
      <trkpt lat="46.38108833" lon="16.83987833">
        <ele>192.3</ele>
        <time>2025-07-28T18:30:32Z</time>
      </trkpt>
      <trkpt lat="46.38111" lon="16.83974167">
        <ele>192.1</ele>
        <time>2025-07-28T18:30:33Z</time>
      </trkpt>
      <trkpt lat="46.38112667" lon="16.839605">
        <ele>191.5</ele>
        <time>2025-07-28T18:30:34Z</time>
      </trkpt>
      <trkpt lat="46.38115167" lon="16.839465">
        <ele>191.3</ele>
        <time>2025-07-28T18:30:35Z</time>
      </trkpt>
      <trkpt lat="46.38119" lon="16.83929833">
        <ele>191.8</ele>
        <time>2025-07-28T18:30:36Z</time>
      </trkpt>
      <trkpt lat="46.38123167" lon="16.83914833">
        <ele>191.6</ele>
        <time>2025-07-28T18:30:37Z</time>
      </trkpt>
      <trkpt lat="46.38127167" lon="16.83898667">
        <ele>191.4</ele>
        <time>2025-07-28T18:30:38Z</time>
      </trkpt>
      <trkpt lat="46.381315" lon="16.83881833">
        <ele>190.6</ele>
        <time>2025-07-28T18:30:39Z</time>
      </trkpt>
      <trkpt lat="46.38136667" lon="16.83865833">
        <ele>190.2</ele>
        <time>2025-07-28T18:30:40Z</time>
      </trkpt>
      <trkpt lat="46.38142" lon="16.83849667">
        <ele>189.7</ele>
        <time>2025-07-28T18:30:41Z</time>
      </trkpt>
      <trkpt lat="46.38147833" lon="16.838345">
        <ele>189.4</ele>
        <time>2025-07-28T18:30:42Z</time>
      </trkpt>
      <trkpt lat="46.381535" lon="16.83819">
        <ele>189.3</ele>
        <time>2025-07-28T18:30:43Z</time>
      </trkpt>
      <trkpt lat="46.38159167" lon="16.83804">
        <ele>189.3</ele>
        <time>2025-07-28T18:30:44Z</time>
      </trkpt>
      <trkpt lat="46.38165333" lon="16.8379">
        <ele>189.4</ele>
        <time>2025-07-28T18:30:45Z</time>
      </trkpt>
      <trkpt lat="46.38172" lon="16.83775667">
        <ele>188.2</ele>
        <time>2025-07-28T18:30:46Z</time>
      </trkpt>
      <trkpt lat="46.381785" lon="16.83762667">
        <ele>187.4</ele>
        <time>2025-07-28T18:30:47Z</time>
      </trkpt>
      <trkpt lat="46.38185333" lon="16.837495">
        <ele>186.6</ele>
        <time>2025-07-28T18:30:48Z</time>
      </trkpt>
      <trkpt lat="46.38190667" lon="16.83738">
        <ele>186.1</ele>
        <time>2025-07-28T18:30:49Z</time>
      </trkpt>
      <trkpt lat="46.38198333" lon="16.83717833">
        <ele>184.7</ele>
        <time>2025-07-28T18:30:51Z</time>
      </trkpt>
      <trkpt lat="46.382025" lon="16.83700667">
        <ele>184.8</ele>
        <time>2025-07-28T18:30:53Z</time>
      </trkpt>
      <trkpt lat="46.38202833" lon="16.83682">
        <ele>184.3</ele>
        <time>2025-07-28T18:30:56Z</time>
      </trkpt>
      <trkpt lat="46.38195667" lon="16.836725">
        <ele>184.1</ele>
        <time>2025-07-28T18:30:58Z</time>
      </trkpt>
      <trkpt lat="46.381855" lon="16.83665833">
        <ele>184.3</ele>
        <time>2025-07-28T18:31:00Z</time>
      </trkpt>
      <trkpt lat="46.38173833" lon="16.83656667">
        <ele>184.1</ele>
        <time>2025-07-28T18:31:02Z</time>
      </trkpt>
      <trkpt lat="46.38160833" lon="16.83645333">
        <ele>183.6</ele>
        <time>2025-07-28T18:31:04Z</time>
      </trkpt>
      <trkpt lat="46.38147167" lon="16.83633">
        <ele>181.8</ele>
        <time>2025-07-28T18:31:06Z</time>
      </trkpt>
      <trkpt lat="46.38133667" lon="16.83619833">
        <ele>181.5</ele>
        <time>2025-07-28T18:31:08Z</time>
      </trkpt>
      <trkpt lat="46.38119667" lon="16.83606">
        <ele>181.7</ele>
        <time>2025-07-28T18:31:10Z</time>
      </trkpt>
      <trkpt lat="46.38105333" lon="16.83590833">
        <ele>182.1</ele>
        <time>2025-07-28T18:31:12Z</time>
      </trkpt>
      <trkpt lat="46.38091167" lon="16.83575833">
        <ele>182.5</ele>
        <time>2025-07-28T18:31:14Z</time>
      </trkpt>
      <trkpt lat="46.380765" lon="16.83562333">
        <ele>182.2</ele>
        <time>2025-07-28T18:31:16Z</time>
      </trkpt>
      <trkpt lat="46.380625" lon="16.83548833">
        <ele>182.8</ele>
        <time>2025-07-28T18:31:18Z</time>
      </trkpt>
      <trkpt lat="46.38048667" lon="16.83534833">
        <ele>182.8</ele>
        <time>2025-07-28T18:31:20Z</time>
      </trkpt>
      <trkpt lat="46.38034833" lon="16.83521667">
        <ele>182.2</ele>
        <time>2025-07-28T18:31:22Z</time>
      </trkpt>
      <trkpt lat="46.38020167" lon="16.83508167">
        <ele>181.8</ele>
        <time>2025-07-28T18:31:24Z</time>
      </trkpt>
      <trkpt lat="46.38007" lon="16.83494">
        <ele>180.7</ele>
        <time>2025-07-28T18:31:26Z</time>
      </trkpt>
      <trkpt lat="46.379935" lon="16.834795">
        <ele>180</ele>
        <time>2025-07-28T18:31:28Z</time>
      </trkpt>
      <trkpt lat="46.37980167" lon="16.83469">
        <ele>180.3</ele>
        <time>2025-07-28T18:31:30Z</time>
      </trkpt>
      <trkpt lat="46.37965833" lon="16.83463333">
        <ele>183</ele>
        <time>2025-07-28T18:31:32Z</time>
      </trkpt>
      <trkpt lat="46.37948667" lon="16.83456833">
        <ele>184.8</ele>
        <time>2025-07-28T18:31:34Z</time>
      </trkpt>
      <trkpt lat="46.379315" lon="16.83450333">
        <ele>186.4</ele>
        <time>2025-07-28T18:31:36Z</time>
      </trkpt>
      <trkpt lat="46.37915333" lon="16.83442833">
        <ele>187.5</ele>
        <time>2025-07-28T18:31:38Z</time>
      </trkpt>
      <trkpt lat="46.37906833" lon="16.83438167">
        <ele>187.3</ele>
        <time>2025-07-28T18:31:39Z</time>
      </trkpt>
      <trkpt lat="46.37898" lon="16.83434">
        <ele>186.5</ele>
        <time>2025-07-28T18:31:40Z</time>
      </trkpt>
      <trkpt lat="46.37889167" lon="16.8343">
        <ele>185.4</ele>
        <time>2025-07-28T18:31:41Z</time>
      </trkpt>
      <trkpt lat="46.37880333" lon="16.83425667">
        <ele>184</ele>
        <time>2025-07-28T18:31:42Z</time>
      </trkpt>
      <trkpt lat="46.37871" lon="16.83422">
        <ele>183.8</ele>
        <time>2025-07-28T18:31:43Z</time>
      </trkpt>
      <trkpt lat="46.37862" lon="16.83418667">
        <ele>183.8</ele>
        <time>2025-07-28T18:31:44Z</time>
      </trkpt>
      <trkpt lat="46.37845" lon="16.83413667">
        <ele>183.8</ele>
        <time>2025-07-28T18:31:46Z</time>
      </trkpt>
      <trkpt lat="46.37827" lon="16.83408833">
        <ele>184.3</ele>
        <time>2025-07-28T18:31:48Z</time>
      </trkpt>
      <trkpt lat="46.3781" lon="16.83404">
        <ele>183.3</ele>
        <time>2025-07-28T18:31:50Z</time>
      </trkpt>
      <trkpt lat="46.37800833" lon="16.83402333">
        <ele>183.8</ele>
        <time>2025-07-28T18:31:51Z</time>
      </trkpt>
      <trkpt lat="46.37791833" lon="16.83400833">
        <ele>184.3</ele>
        <time>2025-07-28T18:31:52Z</time>
      </trkpt>
      <trkpt lat="46.377825" lon="16.834005">
        <ele>184.4</ele>
        <time>2025-07-28T18:31:53Z</time>
      </trkpt>
      <trkpt lat="46.37772667" lon="16.834">
        <ele>184.3</ele>
        <time>2025-07-28T18:31:54Z</time>
      </trkpt>
      <trkpt lat="46.37763" lon="16.83398667">
        <ele>184</ele>
        <time>2025-07-28T18:31:55Z</time>
      </trkpt>
      <trkpt lat="46.37753333" lon="16.83397667">
        <ele>183.7</ele>
        <time>2025-07-28T18:31:56Z</time>
      </trkpt>
      <trkpt lat="46.37744" lon="16.83397667">
        <ele>182.8</ele>
        <time>2025-07-28T18:31:57Z</time>
      </trkpt>
      <trkpt lat="46.37726833" lon="16.83396833">
        <ele>182.1</ele>
        <time>2025-07-28T18:31:59Z</time>
      </trkpt>
      <trkpt lat="46.37710667" lon="16.83395167">
        <ele>180.2</ele>
        <time>2025-07-28T18:32:01Z</time>
      </trkpt>
      <trkpt lat="46.37701333" lon="16.83393667">
        <ele>179.4</ele>
        <time>2025-07-28T18:32:02Z</time>
      </trkpt>
      <trkpt lat="46.376865" lon="16.83392333">
        <ele>178.5</ele>
        <time>2025-07-28T18:32:04Z</time>
      </trkpt>
      <trkpt lat="46.37673833" lon="16.83390833">
        <ele>177.2</ele>
        <time>2025-07-28T18:32:06Z</time>
      </trkpt>
      <trkpt lat="46.37662333" lon="16.83389167">
        <ele>174.6</ele>
        <time>2025-07-28T18:32:10Z</time>
      </trkpt>
      <trkpt lat="46.376515" lon="16.83383833">
        <ele>172.9</ele>
        <time>2025-07-28T18:32:13Z</time>
      </trkpt>
      <trkpt lat="46.37640167" lon="16.83376667">
        <ele>169.7</ele>
        <time>2025-07-28T18:32:16Z</time>
      </trkpt>
      <trkpt lat="46.3763" lon="16.83369333">
        <ele>168.9</ele>
        <time>2025-07-28T18:32:19Z</time>
      </trkpt>
      <trkpt lat="46.37621667" lon="16.83358667">
        <ele>168.3</ele>
        <time>2025-07-28T18:32:22Z</time>
      </trkpt>
      <trkpt lat="46.376125" lon="16.833535">
        <ele>167.9</ele>
        <time>2025-07-28T18:32:26Z</time>
      </trkpt>
      <trkpt lat="46.37611667" lon="16.83367667">
        <ele>168.9</ele>
        <time>2025-07-28T18:32:31Z</time>
      </trkpt>
    </trkseg>
  </trk>
</gpx>