<?xml version='1.0' encoding='UTF-8' standalone='yes' ?>
<gpx xmlns="http://www.topografix.com/GPX/1/1" xmlns:geotracker="http://ilyabogdanovich.com/gpx/extensions/geotracker" xmlns:xsi="http://www.w3.org/2001/XMLSchema-instance" xsi:schemaLocation="http://www.topografix.com/GPX/1/1 http://www.topografix.com/GPX/1/1/gpx.xsd" version="1.1" creator="Recorded in Geo Tracker for Android from Ilya Bogdanovich">
  <metadata>
    <name>c_0720_03</name>
    <author>
      <name>Recorded in Geo Tracker for Android from Ilya Bogdanovich</name>
      <link href="https://play.google.com/store/apps/details?id=com.ilyabogdanovich.geotracker" />
    </author>
    <link href="https://play.google.com/store/apps/details?id=com.ilyabogdanovich.geotracker" />
    <time>2025-07-20T10:57:37Z</time>
  </metadata>
  <trk>
    <name>c_0720_03</name>
    <src>Recorded in Geo Tracker for Android from Ilya Bogdanovich</src>
    <link href="https://play.google.com/store/apps/details?id=com.ilyabogdanovich.geotracker" />
    <extensions>
      <geotracker:meta>
        <geotracker:length>7403.11</geotracker:length>
        <geotracker:duration>623578</geotracker:duration>
        <geotracker:creationtime>2025-07-20T10:57:37Z</geotracker:creationtime>
        <geotracker:activity>0</geotracker:activity>
      </geotracker:meta>
    </extensions>
    <trkseg>
      <trkpt lat="46.28987167" lon="18.606645">
        <ele>210.2</ele>
        <time>2025-07-20T10:57:43Z</time>
      </trkpt>
      <trkpt lat="46.29000167" lon="18.60645333">
        <ele>206.9</ele>
        <time>2025-07-20T10:59:39Z</time>
      </trkpt>
      <trkpt lat="46.29005" lon="18.60628667">
        <ele>194.5</ele>
        <time>2025-07-20T10:59:47Z</time>
      </trkpt>
      <trkpt lat="46.29010833" lon="18.60616167">
        <ele>189.5</ele>
        <time>2025-07-20T10:59:49Z</time>
      </trkpt>
      <trkpt lat="46.290185" lon="18.606025">
        <ele>186.4</ele>
        <time>2025-07-20T10:59:51Z</time>
      </trkpt>
      <trkpt lat="46.29028" lon="18.60584667">
        <ele>183.1</ele>
        <time>2025-07-20T10:59:53Z</time>
      </trkpt>
      <trkpt lat="46.29038167" lon="18.60566833">
        <ele>181.9</ele>
        <time>2025-07-20T10:59:55Z</time>
      </trkpt>
      <trkpt lat="46.29048833" lon="18.60548667">
        <ele>181.9</ele>
        <time>2025-07-20T10:59:57Z</time>
      </trkpt>
      <trkpt lat="46.290605" lon="18.605305">
        <ele>179.8</ele>
        <time>2025-07-20T10:59:59Z</time>
      </trkpt>
      <trkpt lat="46.29071" lon="18.60514333">
        <ele>177.4</ele>
        <time>2025-07-20T11:00:01Z</time>
      </trkpt>
      <trkpt lat="46.29078667" lon="18.605015">
        <ele>175.8</ele>
        <time>2025-07-20T11:00:03Z</time>
      </trkpt>
      <trkpt lat="46.29075667" lon="18.60488833">
        <ele>173.5</ele>
        <time>2025-07-20T11:00:06Z</time>
      </trkpt>
      <trkpt lat="46.290795" lon="18.60472">
        <ele>172.3</ele>
        <time>2025-07-20T11:00:09Z</time>
      </trkpt>
      <trkpt lat="46.29091333" lon="18.60455167">
        <ele>171.9</ele>
        <time>2025-07-20T11:00:11Z</time>
      </trkpt>
      <trkpt lat="46.29098" lon="18.60443833">
        <ele>171.9</ele>
        <time>2025-07-20T11:00:12Z</time>
      </trkpt>
      <trkpt lat="46.29104333" lon="18.60431333">
        <ele>173.5</ele>
        <time>2025-07-20T11:00:13Z</time>
      </trkpt>
      <trkpt lat="46.2911" lon="18.604185">
        <ele>174</ele>
        <time>2025-07-20T11:00:14Z</time>
      </trkpt>
      <trkpt lat="46.29116" lon="18.60406833">
        <ele>173.6</ele>
        <time>2025-07-20T11:00:15Z</time>
      </trkpt>
      <trkpt lat="46.29123833" lon="18.60384833">
        <ele>174.3</ele>
        <time>2025-07-20T11:00:17Z</time>
      </trkpt>
      <trkpt lat="46.29128333" lon="18.60364667">
        <ele>174.1</ele>
        <time>2025-07-20T11:00:19Z</time>
      </trkpt>
      <trkpt lat="46.29130667" lon="18.60347167">
        <ele>173.9</ele>
        <time>2025-07-20T11:00:21Z</time>
      </trkpt>
      <trkpt lat="46.29131167" lon="18.60327167">
        <ele>173.9</ele>
        <time>2025-07-20T11:00:23Z</time>
      </trkpt>
      <trkpt lat="46.29128667" lon="18.60302333">
        <ele>173.5</ele>
        <time>2025-07-20T11:00:25Z</time>
      </trkpt>
      <trkpt lat="46.29127167" lon="18.602895">
        <ele>172.9</ele>
        <time>2025-07-20T11:00:26Z</time>
      </trkpt>
      <trkpt lat="46.291245" lon="18.60275667">
        <ele>172.5</ele>
        <time>2025-07-20T11:00:27Z</time>
      </trkpt>
      <trkpt lat="46.29121833" lon="18.60260833">
        <ele>172.5</ele>
        <time>2025-07-20T11:00:28Z</time>
      </trkpt>
      <trkpt lat="46.29118833" lon="18.60245167">
        <ele>173.4</ele>
        <time>2025-07-20T11:00:29Z</time>
      </trkpt>
      <trkpt lat="46.29115833" lon="18.60228667">
        <ele>173.5</ele>
        <time>2025-07-20T11:00:30Z</time>
      </trkpt>
      <trkpt lat="46.291125" lon="18.60211667">
        <ele>173.9</ele>
        <time>2025-07-20T11:00:31Z</time>
      </trkpt>
      <trkpt lat="46.29109333" lon="18.60194167">
        <ele>174</ele>
        <time>2025-07-20T11:00:32Z</time>
      </trkpt>
      <trkpt lat="46.29106" lon="18.60177167">
        <ele>174.2</ele>
        <time>2025-07-20T11:00:33Z</time>
      </trkpt>
      <trkpt lat="46.29102833" lon="18.601605">
        <ele>174.5</ele>
        <time>2025-07-20T11:00:34Z</time>
      </trkpt>
      <trkpt lat="46.29099167" lon="18.60144167">
        <ele>175.6</ele>
        <time>2025-07-20T11:00:35Z</time>
      </trkpt>
      <trkpt lat="46.290955" lon="18.60127167">
        <ele>175.7</ele>
        <time>2025-07-20T11:00:36Z</time>
      </trkpt>
      <trkpt lat="46.29092833" lon="18.60110333">
        <ele>175.3</ele>
        <time>2025-07-20T11:00:37Z</time>
      </trkpt>
      <trkpt lat="46.29090333" lon="18.600935">
        <ele>175.8</ele>
        <time>2025-07-20T11:00:38Z</time>
      </trkpt>
      <trkpt lat="46.29087667" lon="18.60077333">
        <ele>175.8</ele>
        <time>2025-07-20T11:00:39Z</time>
      </trkpt>
      <trkpt lat="46.290845" lon="18.600605">
        <ele>175.5</ele>
        <time>2025-07-20T11:00:40Z</time>
      </trkpt>
      <trkpt lat="46.29080833" lon="18.60044167">
        <ele>175.1</ele>
        <time>2025-07-20T11:00:41Z</time>
      </trkpt>
      <trkpt lat="46.29076167" lon="18.60028167">
        <ele>174.2</ele>
        <time>2025-07-20T11:00:42Z</time>
      </trkpt>
      <trkpt lat="46.2907" lon="18.60012">
        <ele>173.3</ele>
        <time>2025-07-20T11:00:43Z</time>
      </trkpt>
      <trkpt lat="46.29062833" lon="18.599965">
        <ele>172.8</ele>
        <time>2025-07-20T11:00:44Z</time>
      </trkpt>
      <trkpt lat="46.29055" lon="18.59981667">
        <ele>172.1</ele>
        <time>2025-07-20T11:00:45Z</time>
      </trkpt>
      <trkpt lat="46.29046167" lon="18.59966167">
        <ele>171.9</ele>
        <time>2025-07-20T11:00:46Z</time>
      </trkpt>
      <trkpt lat="46.29036833" lon="18.59949667">
        <ele>171.3</ele>
        <time>2025-07-20T11:00:47Z</time>
      </trkpt>
      <trkpt lat="46.29027833" lon="18.59932">
        <ele>170.7</ele>
        <time>2025-07-20T11:00:48Z</time>
      </trkpt>
      <trkpt lat="46.29017667" lon="18.59913833">
        <ele>169.7</ele>
        <time>2025-07-20T11:00:49Z</time>
      </trkpt>
      <trkpt lat="46.290075" lon="18.59894">
        <ele>168.8</ele>
        <time>2025-07-20T11:00:50Z</time>
      </trkpt>
      <trkpt lat="46.289975" lon="18.59873667">
        <ele>168.3</ele>
        <time>2025-07-20T11:00:51Z</time>
      </trkpt>
      <trkpt lat="46.28987667" lon="18.59852667">
        <ele>168.1</ele>
        <time>2025-07-20T11:00:52Z</time>
      </trkpt>
      <trkpt lat="46.28977833" lon="18.59831667">
        <ele>168.9</ele>
        <time>2025-07-20T11:00:53Z</time>
      </trkpt>
      <trkpt lat="46.28968333" lon="18.59810333">
        <ele>170</ele>
        <time>2025-07-20T11:00:54Z</time>
      </trkpt>
      <trkpt lat="46.28959333" lon="18.59788833">
        <ele>169.3</ele>
        <time>2025-07-20T11:00:55Z</time>
      </trkpt>
      <trkpt lat="46.28950667" lon="18.59769833">
        <ele>168.7</ele>
        <time>2025-07-20T11:00:56Z</time>
      </trkpt>
      <trkpt lat="46.28942" lon="18.59749667">
        <ele>167.8</ele>
        <time>2025-07-20T11:00:57Z</time>
      </trkpt>
      <trkpt lat="46.28932833" lon="18.59729333">
        <ele>167.3</ele>
        <time>2025-07-20T11:00:58Z</time>
      </trkpt>
      <trkpt lat="46.289245" lon="18.59710167">
        <ele>167.1</ele>
        <time>2025-07-20T11:00:59Z</time>
      </trkpt>
      <trkpt lat="46.28917" lon="18.59691667">
        <ele>166.8</ele>
        <time>2025-07-20T11:01:00Z</time>
      </trkpt>
      <trkpt lat="46.28909" lon="18.59674167">
        <ele>166.4</ele>
        <time>2025-07-20T11:01:01Z</time>
      </trkpt>
      <trkpt lat="46.28901" lon="18.59656833">
        <ele>166.6</ele>
        <time>2025-07-20T11:01:02Z</time>
      </trkpt>
      <trkpt lat="46.28891667" lon="18.59640667">
        <ele>167.3</ele>
        <time>2025-07-20T11:01:03Z</time>
      </trkpt>
      <trkpt lat="46.28880667" lon="18.596255">
        <ele>167.9</ele>
        <time>2025-07-20T11:01:04Z</time>
      </trkpt>
      <trkpt lat="46.288685" lon="18.596115">
        <ele>168.5</ele>
        <time>2025-07-20T11:01:05Z</time>
      </trkpt>
      <trkpt lat="46.28854833" lon="18.59599833">
        <ele>169.3</ele>
        <time>2025-07-20T11:01:06Z</time>
      </trkpt>
      <trkpt lat="46.28841167" lon="18.5959">
        <ele>169.8</ele>
        <time>2025-07-20T11:01:07Z</time>
      </trkpt>
      <trkpt lat="46.28825833" lon="18.59581833">
        <ele>169.8</ele>
        <time>2025-07-20T11:01:08Z</time>
      </trkpt>
      <trkpt lat="46.28809167" lon="18.59574333">
        <ele>169.4</ele>
        <time>2025-07-20T11:01:09Z</time>
      </trkpt>
      <trkpt lat="46.28792" lon="18.59568333">
        <ele>169.5</ele>
        <time>2025-07-20T11:01:10Z</time>
      </trkpt>
      <trkpt lat="46.28774" lon="18.59562667">
        <ele>169.3</ele>
        <time>2025-07-20T11:01:11Z</time>
      </trkpt>
      <trkpt lat="46.28756167" lon="18.59556833">
        <ele>169</ele>
        <time>2025-07-20T11:01:12Z</time>
      </trkpt>
      <trkpt lat="46.287385" lon="18.59550667">
        <ele>168.8</ele>
        <time>2025-07-20T11:01:13Z</time>
      </trkpt>
      <trkpt lat="46.287205" lon="18.59544333">
        <ele>168.8</ele>
        <time>2025-07-20T11:01:14Z</time>
      </trkpt>
      <trkpt lat="46.28702333" lon="18.59538167">
        <ele>168.5</ele>
        <time>2025-07-20T11:01:15Z</time>
      </trkpt>
      <trkpt lat="46.28684333" lon="18.59531667">
        <ele>168.5</ele>
        <time>2025-07-20T11:01:16Z</time>
      </trkpt>
      <trkpt lat="46.28667" lon="18.59525667">
        <ele>168.6</ele>
        <time>2025-07-20T11:01:17Z</time>
      </trkpt>
      <trkpt lat="46.28649833" lon="18.59520167">
        <ele>167.8</ele>
        <time>2025-07-20T11:01:18Z</time>
      </trkpt>
      <trkpt lat="46.28631" lon="18.595155">
        <ele>167.5</ele>
        <time>2025-07-20T11:01:19Z</time>
      </trkpt>
      <trkpt lat="46.28611667" lon="18.59509">
        <ele>167.2</ele>
        <time>2025-07-20T11:01:20Z</time>
      </trkpt>
      <trkpt lat="46.28592" lon="18.59502833">
        <ele>167</ele>
        <time>2025-07-20T11:01:21Z</time>
      </trkpt>
      <trkpt lat="46.28572667" lon="18.59496667">
        <ele>166.8</ele>
        <time>2025-07-20T11:01:22Z</time>
      </trkpt>
      <trkpt lat="46.28553667" lon="18.5949">
        <ele>166</ele>
        <time>2025-07-20T11:01:23Z</time>
      </trkpt>
      <trkpt lat="46.28534333" lon="18.59483333">
        <ele>165.7</ele>
        <time>2025-07-20T11:01:24Z</time>
      </trkpt>
      <trkpt lat="46.28515833" lon="18.59477">
        <ele>165.3</ele>
        <time>2025-07-20T11:01:25Z</time>
      </trkpt>
      <trkpt lat="46.28498" lon="18.59469167">
        <ele>165.6</ele>
        <time>2025-07-20T11:01:26Z</time>
      </trkpt>
      <trkpt lat="46.28480667" lon="18.59459833">
        <ele>165.2</ele>
        <time>2025-07-20T11:01:27Z</time>
      </trkpt>
      <trkpt lat="46.28463333" lon="18.594485">
        <ele>164.6</ele>
        <time>2025-07-20T11:01:28Z</time>
      </trkpt>
      <trkpt lat="46.284455" lon="18.594365">
        <ele>164.1</ele>
        <time>2025-07-20T11:01:29Z</time>
      </trkpt>
      <trkpt lat="46.28428667" lon="18.594235">
        <ele>163.6</ele>
        <time>2025-07-20T11:01:30Z</time>
      </trkpt>
      <trkpt lat="46.28412" lon="18.59411">
        <ele>162.9</ele>
        <time>2025-07-20T11:01:31Z</time>
      </trkpt>
      <trkpt lat="46.28395" lon="18.59399">
        <ele>163.1</ele>
        <time>2025-07-20T11:01:32Z</time>
      </trkpt>
      <trkpt lat="46.28377833" lon="18.593865">
        <ele>162.9</ele>
        <time>2025-07-20T11:01:33Z</time>
      </trkpt>
      <trkpt lat="46.28360667" lon="18.59374167">
        <ele>163.2</ele>
        <time>2025-07-20T11:01:34Z</time>
      </trkpt>
      <trkpt lat="46.28344167" lon="18.59363">
        <ele>162.9</ele>
        <time>2025-07-20T11:01:35Z</time>
      </trkpt>
      <trkpt lat="46.28327667" lon="18.59351667">
        <ele>163.7</ele>
        <time>2025-07-20T11:01:36Z</time>
      </trkpt>
      <trkpt lat="46.28311333" lon="18.5934">
        <ele>164.1</ele>
        <time>2025-07-20T11:01:37Z</time>
      </trkpt>
      <trkpt lat="46.28296" lon="18.59327833">
        <ele>164</ele>
        <time>2025-07-20T11:01:38Z</time>
      </trkpt>
      <trkpt lat="46.28281833" lon="18.59313">
        <ele>164.7</ele>
        <time>2025-07-20T11:01:39Z</time>
      </trkpt>
      <trkpt lat="46.28268833" lon="18.59296833">
        <ele>164.5</ele>
        <time>2025-07-20T11:01:40Z</time>
      </trkpt>
      <trkpt lat="46.28256333" lon="18.592815">
        <ele>164.5</ele>
        <time>2025-07-20T11:01:41Z</time>
      </trkpt>
      <trkpt lat="46.282435" lon="18.59266667">
        <ele>164.2</ele>
        <time>2025-07-20T11:01:42Z</time>
      </trkpt>
      <trkpt lat="46.28229833" lon="18.59253">
        <ele>163.3</ele>
        <time>2025-07-20T11:01:43Z</time>
      </trkpt>
      <trkpt lat="46.28216167" lon="18.592415">
        <ele>162.5</ele>
        <time>2025-07-20T11:01:44Z</time>
      </trkpt>
      <trkpt lat="46.28201" lon="18.592335">
        <ele>161.9</ele>
        <time>2025-07-20T11:01:45Z</time>
      </trkpt>
      <trkpt lat="46.28185167" lon="18.59227667">
        <ele>161</ele>
        <time>2025-07-20T11:01:46Z</time>
      </trkpt>
      <trkpt lat="46.28168333" lon="18.59223">
        <ele>160</ele>
        <time>2025-07-20T11:01:47Z</time>
      </trkpt>
      <trkpt lat="46.28151" lon="18.59218">
        <ele>159.3</ele>
        <time>2025-07-20T11:01:48Z</time>
      </trkpt>
      <trkpt lat="46.28133333" lon="18.59213">
        <ele>158.7</ele>
        <time>2025-07-20T11:01:49Z</time>
      </trkpt>
      <trkpt lat="46.28115833" lon="18.59208667">
        <ele>158.9</ele>
        <time>2025-07-20T11:01:50Z</time>
      </trkpt>
      <trkpt lat="46.280995" lon="18.59204333">
        <ele>159</ele>
        <time>2025-07-20T11:01:51Z</time>
      </trkpt>
      <trkpt lat="46.28084167" lon="18.59199">
        <ele>159</ele>
        <time>2025-07-20T11:01:52Z</time>
      </trkpt>
      <trkpt lat="46.28070167" lon="18.59192667">
        <ele>158.8</ele>
        <time>2025-07-20T11:01:53Z</time>
      </trkpt>
      <trkpt lat="46.28057333" lon="18.59184333">
        <ele>158.8</ele>
        <time>2025-07-20T11:01:54Z</time>
      </trkpt>
      <trkpt lat="46.28045667" lon="18.59173167">
        <ele>158.8</ele>
        <time>2025-07-20T11:01:55Z</time>
      </trkpt>
      <trkpt lat="46.280355" lon="18.59159667">
        <ele>158.9</ele>
        <time>2025-07-20T11:01:56Z</time>
      </trkpt>
      <trkpt lat="46.28026667" lon="18.59143667">
        <ele>158.9</ele>
        <time>2025-07-20T11:01:57Z</time>
      </trkpt>
      <trkpt lat="46.28019167" lon="18.59125833">
        <ele>158.6</ele>
        <time>2025-07-20T11:01:58Z</time>
      </trkpt>
      <trkpt lat="46.28011" lon="18.59106333">
        <ele>159.7</ele>
        <time>2025-07-20T11:01:59Z</time>
      </trkpt>
      <trkpt lat="46.28003667" lon="18.59087833">
        <ele>159.1</ele>
        <time>2025-07-20T11:02:00Z</time>
      </trkpt>
      <trkpt lat="46.27993833" lon="18.59067833">
        <ele>161.4</ele>
        <time>2025-07-20T11:02:01Z</time>
      </trkpt>
      <trkpt lat="46.27983333" lon="18.59048833">
        <ele>162.2</ele>
        <time>2025-07-20T11:02:02Z</time>
      </trkpt>
      <trkpt lat="46.279725" lon="18.59029667">
        <ele>162.9</ele>
        <time>2025-07-20T11:02:03Z</time>
      </trkpt>
      <trkpt lat="46.27961167" lon="18.5901">
        <ele>162.9</ele>
        <time>2025-07-20T11:02:04Z</time>
      </trkpt>
      <trkpt lat="46.27948833" lon="18.58988667">
        <ele>162.2</ele>
        <time>2025-07-20T11:02:05Z</time>
      </trkpt>
      <trkpt lat="46.27936833" lon="18.58968167">
        <ele>161.9</ele>
        <time>2025-07-20T11:02:06Z</time>
      </trkpt>
      <trkpt lat="46.27924833" lon="18.58947167">
        <ele>161.2</ele>
        <time>2025-07-20T11:02:07Z</time>
      </trkpt>
      <trkpt lat="46.27912667" lon="18.58926">
        <ele>161</ele>
        <time>2025-07-20T11:02:08Z</time>
      </trkpt>
      <trkpt lat="46.278985" lon="18.58904667">
        <ele>162.9</ele>
        <time>2025-07-20T11:02:09Z</time>
      </trkpt>
      <trkpt lat="46.278845" lon="18.58884">
        <ele>165.1</ele>
        <time>2025-07-20T11:02:10Z</time>
      </trkpt>
      <trkpt lat="46.278715" lon="18.58864167">
        <ele>164.1</ele>
        <time>2025-07-20T11:02:11Z</time>
      </trkpt>
      <trkpt lat="46.27857" lon="18.58843667">
        <ele>163.1</ele>
        <time>2025-07-20T11:02:12Z</time>
      </trkpt>
      <trkpt lat="46.278435" lon="18.588225">
        <ele>161.8</ele>
        <time>2025-07-20T11:02:13Z</time>
      </trkpt>
      <trkpt lat="46.27828167" lon="18.58803">
        <ele>162.2</ele>
        <time>2025-07-20T11:02:14Z</time>
      </trkpt>
      <trkpt lat="46.27813" lon="18.58783833">
        <ele>162.3</ele>
        <time>2025-07-20T11:02:15Z</time>
      </trkpt>
      <trkpt lat="46.277985" lon="18.58766333">
        <ele>160.6</ele>
        <time>2025-07-20T11:02:16Z</time>
      </trkpt>
      <trkpt lat="46.27783667" lon="18.587445">
        <ele>160.4</ele>
        <time>2025-07-20T11:02:17Z</time>
      </trkpt>
      <trkpt lat="46.27769333" lon="18.58724">
        <ele>159.9</ele>
        <time>2025-07-20T11:02:18Z</time>
      </trkpt>
      <trkpt lat="46.27754167" lon="18.58703333">
        <ele>160.2</ele>
        <time>2025-07-20T11:02:19Z</time>
      </trkpt>
      <trkpt lat="46.27739333" lon="18.58682667">
        <ele>160.7</ele>
        <time>2025-07-20T11:02:20Z</time>
      </trkpt>
      <trkpt lat="46.27725333" lon="18.58661833">
        <ele>160.4</ele>
        <time>2025-07-20T11:02:21Z</time>
      </trkpt>
      <trkpt lat="46.27709167" lon="18.58640167">
        <ele>162.3</ele>
        <time>2025-07-20T11:02:22Z</time>
      </trkpt>
      <trkpt lat="46.27694667" lon="18.58619333">
        <ele>161.5</ele>
        <time>2025-07-20T11:02:23Z</time>
      </trkpt>
      <trkpt lat="46.27679667" lon="18.58599333">
        <ele>160.6</ele>
        <time>2025-07-20T11:02:24Z</time>
      </trkpt>
      <trkpt lat="46.276635" lon="18.58578833">
        <ele>162.7</ele>
        <time>2025-07-20T11:02:25Z</time>
      </trkpt>
      <trkpt lat="46.27648333" lon="18.585595">
        <ele>162.7</ele>
        <time>2025-07-20T11:02:26Z</time>
      </trkpt>
      <trkpt lat="46.27633" lon="18.58539">
        <ele>162.3</ele>
        <time>2025-07-20T11:02:27Z</time>
      </trkpt>
      <trkpt lat="46.276185" lon="18.58520167">
        <ele>162.4</ele>
        <time>2025-07-20T11:02:28Z</time>
      </trkpt>
      <trkpt lat="46.27604667" lon="18.58500833">
        <ele>163</ele>
        <time>2025-07-20T11:02:29Z</time>
      </trkpt>
      <trkpt lat="46.27590667" lon="18.58481833">
        <ele>162.8</ele>
        <time>2025-07-20T11:02:30Z</time>
      </trkpt>
      <trkpt lat="46.27576667" lon="18.58462167">
        <ele>162.9</ele>
        <time>2025-07-20T11:02:31Z</time>
      </trkpt>
      <trkpt lat="46.27562333" lon="18.58443333">
        <ele>163.1</ele>
        <time>2025-07-20T11:02:32Z</time>
      </trkpt>
      <trkpt lat="46.275475" lon="18.58424667">
        <ele>163.6</ele>
        <time>2025-07-20T11:02:33Z</time>
      </trkpt>
      <trkpt lat="46.27531833" lon="18.584075">
        <ele>163.3</ele>
        <time>2025-07-20T11:02:34Z</time>
      </trkpt>
      <trkpt lat="46.27514667" lon="18.58391167">
        <ele>163.6</ele>
        <time>2025-07-20T11:02:35Z</time>
      </trkpt>
      <trkpt lat="46.27496833" lon="18.58377667">
        <ele>163.8</ele>
        <time>2025-07-20T11:02:36Z</time>
      </trkpt>
      <trkpt lat="46.27478667" lon="18.58364167">
        <ele>163.2</ele>
        <time>2025-07-20T11:02:37Z</time>
      </trkpt>
      <trkpt lat="46.27460667" lon="18.58351667">
        <ele>162.2</ele>
        <time>2025-07-20T11:02:38Z</time>
      </trkpt>
      <trkpt lat="46.274415" lon="18.58340667">
        <ele>162</ele>
        <time>2025-07-20T11:02:39Z</time>
      </trkpt>
      <trkpt lat="46.274225" lon="18.58329167">
        <ele>161.4</ele>
        <time>2025-07-20T11:02:40Z</time>
      </trkpt>
      <trkpt lat="46.27403333" lon="18.58316333">
        <ele>161.8</ele>
        <time>2025-07-20T11:02:41Z</time>
      </trkpt>
      <trkpt lat="46.273835" lon="18.58304167">
        <ele>161.3</ele>
        <time>2025-07-20T11:02:42Z</time>
      </trkpt>
      <trkpt lat="46.27364667" lon="18.58291833">
        <ele>161.2</ele>
        <time>2025-07-20T11:02:43Z</time>
      </trkpt>
      <trkpt lat="46.27345667" lon="18.5828">
        <ele>160.4</ele>
        <time>2025-07-20T11:02:44Z</time>
      </trkpt>
      <trkpt lat="46.27327667" lon="18.58267833">
        <ele>159.8</ele>
        <time>2025-07-20T11:02:45Z</time>
      </trkpt>
      <trkpt lat="46.27310333" lon="18.58254">
        <ele>159.3</ele>
        <time>2025-07-20T11:02:46Z</time>
      </trkpt>
      <trkpt lat="46.27294" lon="18.5824">
        <ele>158.1</ele>
        <time>2025-07-20T11:02:47Z</time>
      </trkpt>
      <trkpt lat="46.27279" lon="18.58224667">
        <ele>157</ele>
        <time>2025-07-20T11:02:48Z</time>
      </trkpt>
      <trkpt lat="46.27264" lon="18.58205167">
        <ele>156.9</ele>
        <time>2025-07-20T11:02:49Z</time>
      </trkpt>
      <trkpt lat="46.27250167" lon="18.58184833">
        <ele>156.8</ele>
        <time>2025-07-20T11:02:50Z</time>
      </trkpt>
      <trkpt lat="46.27237667" lon="18.58164167">
        <ele>156.2</ele>
        <time>2025-07-20T11:02:51Z</time>
      </trkpt>
      <trkpt lat="46.27226833" lon="18.581425">
        <ele>155.7</ele>
        <time>2025-07-20T11:02:52Z</time>
      </trkpt>
      <trkpt lat="46.27218667" lon="18.581205">
        <ele>156.6</ele>
        <time>2025-07-20T11:02:53Z</time>
      </trkpt>
      <trkpt lat="46.27212833" lon="18.58100667">
        <ele>157</ele>
        <time>2025-07-20T11:02:54Z</time>
      </trkpt>
      <trkpt lat="46.27208167" lon="18.58084167">
        <ele>157.5</ele>
        <time>2025-07-20T11:02:55Z</time>
      </trkpt>
      <trkpt lat="46.27202667" lon="18.58063667">
        <ele>157.8</ele>
        <time>2025-07-20T11:02:57Z</time>
      </trkpt>
      <trkpt lat="46.27199667" lon="18.58051333">
        <ele>157.4</ele>
        <time>2025-07-20T11:03:02Z</time>
      </trkpt>
      <trkpt lat="46.27192833" lon="18.58036667">
        <ele>157.4</ele>
        <time>2025-07-20T11:03:14Z</time>
      </trkpt>
      <trkpt lat="46.27183167" lon="18.58038333">
        <ele>157.2</ele>
        <time>2025-07-20T11:03:16Z</time>
      </trkpt>
      <trkpt lat="46.271705" lon="18.58044833">
        <ele>156.4</ele>
        <time>2025-07-20T11:03:18Z</time>
      </trkpt>
      <trkpt lat="46.27162" lon="18.5805">
        <ele>156.6</ele>
        <time>2025-07-20T11:03:19Z</time>
      </trkpt>
      <trkpt lat="46.27152667" lon="18.58055167">
        <ele>156.7</ele>
        <time>2025-07-20T11:03:20Z</time>
      </trkpt>
      <trkpt lat="46.271435" lon="18.58060833">
        <ele>156.4</ele>
        <time>2025-07-20T11:03:21Z</time>
      </trkpt>
      <trkpt lat="46.27134" lon="18.580665">
        <ele>156.4</ele>
        <time>2025-07-20T11:03:22Z</time>
      </trkpt>
      <trkpt lat="46.27123667" lon="18.58073">
        <ele>155.5</ele>
        <time>2025-07-20T11:03:23Z</time>
      </trkpt>
      <trkpt lat="46.27113" lon="18.58079667">
        <ele>155.7</ele>
        <time>2025-07-20T11:03:24Z</time>
      </trkpt>
      <trkpt lat="46.27101333" lon="18.58086833">
        <ele>155.8</ele>
        <time>2025-07-20T11:03:25Z</time>
      </trkpt>
      <trkpt lat="46.27089" lon="18.58093833">
        <ele>156.1</ele>
        <time>2025-07-20T11:03:26Z</time>
      </trkpt>
      <trkpt lat="46.27077167" lon="18.58101167">
        <ele>156.3</ele>
        <time>2025-07-20T11:03:27Z</time>
      </trkpt>
      <trkpt lat="46.270655" lon="18.58108">
        <ele>156.3</ele>
        <time>2025-07-20T11:03:28Z</time>
      </trkpt>
      <trkpt lat="46.27053833" lon="18.58113833">
        <ele>156.3</ele>
        <time>2025-07-20T11:03:29Z</time>
      </trkpt>
      <trkpt lat="46.270425" lon="18.58117167">
        <ele>156.1</ele>
        <time>2025-07-20T11:03:30Z</time>
      </trkpt>
      <trkpt lat="46.27030667" lon="18.58117333">
        <ele>156.1</ele>
        <time>2025-07-20T11:03:31Z</time>
      </trkpt>
      <trkpt lat="46.270185" lon="18.58114333">
        <ele>156.9</ele>
        <time>2025-07-20T11:03:32Z</time>
      </trkpt>
      <trkpt lat="46.27006667" lon="18.58108167">
        <ele>157.3</ele>
        <time>2025-07-20T11:03:33Z</time>
      </trkpt>
      <trkpt lat="46.26994333" lon="18.581005">
        <ele>157.4</ele>
        <time>2025-07-20T11:03:34Z</time>
      </trkpt>
      <trkpt lat="46.26981" lon="18.58092333">
        <ele>157.3</ele>
        <time>2025-07-20T11:03:35Z</time>
      </trkpt>
      <trkpt lat="46.26967333" lon="18.580835">
        <ele>157.2</ele>
        <time>2025-07-20T11:03:36Z</time>
      </trkpt>
      <trkpt lat="46.26954" lon="18.580745">
        <ele>156.8</ele>
        <time>2025-07-20T11:03:37Z</time>
      </trkpt>
      <trkpt lat="46.26940667" lon="18.58064333">
        <ele>157.8</ele>
        <time>2025-07-20T11:03:38Z</time>
      </trkpt>
      <trkpt lat="46.26926667" lon="18.58056833">
        <ele>156.2</ele>
        <time>2025-07-20T11:03:39Z</time>
      </trkpt>
      <trkpt lat="46.26911833" lon="18.58049167">
        <ele>155</ele>
        <time>2025-07-20T11:03:40Z</time>
      </trkpt>
      <trkpt lat="46.26896167" lon="18.58042667">
        <ele>154.4</ele>
        <time>2025-07-20T11:03:41Z</time>
      </trkpt>
      <trkpt lat="46.26879667" lon="18.580375">
        <ele>154.3</ele>
        <time>2025-07-20T11:03:42Z</time>
      </trkpt>
      <trkpt lat="46.26863333" lon="18.58032667">
        <ele>154.4</ele>
        <time>2025-07-20T11:03:43Z</time>
      </trkpt>
      <trkpt lat="46.268455" lon="18.58026833">
        <ele>157.2</ele>
        <time>2025-07-20T11:03:44Z</time>
      </trkpt>
      <trkpt lat="46.26828667" lon="18.58025667">
        <ele>157.5</ele>
        <time>2025-07-20T11:03:45Z</time>
      </trkpt>
      <trkpt lat="46.26812333" lon="18.58027333">
        <ele>158.4</ele>
        <time>2025-07-20T11:03:46Z</time>
      </trkpt>
      <trkpt lat="46.267965" lon="18.58030667">
        <ele>158.4</ele>
        <time>2025-07-20T11:03:47Z</time>
      </trkpt>
      <trkpt lat="46.26779667" lon="18.58036">
        <ele>158</ele>
        <time>2025-07-20T11:03:48Z</time>
      </trkpt>
      <trkpt lat="46.26763167" lon="18.580435">
        <ele>158.5</ele>
        <time>2025-07-20T11:03:49Z</time>
      </trkpt>
      <trkpt lat="46.26747167" lon="18.58052833">
        <ele>159.1</ele>
        <time>2025-07-20T11:03:50Z</time>
      </trkpt>
      <trkpt lat="46.26731833" lon="18.58061833">
        <ele>159.7</ele>
        <time>2025-07-20T11:03:51Z</time>
      </trkpt>
      <trkpt lat="46.267165" lon="18.58068833">
        <ele>159.8</ele>
        <time>2025-07-20T11:03:52Z</time>
      </trkpt>
      <trkpt lat="46.267005" lon="18.58072833">
        <ele>159.1</ele>
        <time>2025-07-20T11:03:53Z</time>
      </trkpt>
      <trkpt lat="46.266845" lon="18.58073667">
        <ele>159.4</ele>
        <time>2025-07-20T11:03:54Z</time>
      </trkpt>
      <trkpt lat="46.26668333" lon="18.580735">
        <ele>159.7</ele>
        <time>2025-07-20T11:03:55Z</time>
      </trkpt>
      <trkpt lat="46.26651667" lon="18.58073333">
        <ele>159.4</ele>
        <time>2025-07-20T11:03:56Z</time>
      </trkpt>
      <trkpt lat="46.26634833" lon="18.58072">
        <ele>159.4</ele>
        <time>2025-07-20T11:03:57Z</time>
      </trkpt>
      <trkpt lat="46.26617667" lon="18.58069167">
        <ele>159.1</ele>
        <time>2025-07-20T11:03:58Z</time>
      </trkpt>
      <trkpt lat="46.266005" lon="18.58064833">
        <ele>158.8</ele>
        <time>2025-07-20T11:03:59Z</time>
      </trkpt>
      <trkpt lat="46.265845" lon="18.58060167">
        <ele>158.5</ele>
        <time>2025-07-20T11:04:00Z</time>
      </trkpt>
      <trkpt lat="46.26568333" lon="18.58054">
        <ele>158.8</ele>
        <time>2025-07-20T11:04:01Z</time>
      </trkpt>
      <trkpt lat="46.26552833" lon="18.58045833">
        <ele>159.1</ele>
        <time>2025-07-20T11:04:02Z</time>
      </trkpt>
      <trkpt lat="46.26537833" lon="18.58036667">
        <ele>159.4</ele>
        <time>2025-07-20T11:04:03Z</time>
      </trkpt>
      <trkpt lat="46.26524" lon="18.580265">
        <ele>159.8</ele>
        <time>2025-07-20T11:04:04Z</time>
      </trkpt>
      <trkpt lat="46.265105" lon="18.58017167">
        <ele>159.7</ele>
        <time>2025-07-20T11:04:05Z</time>
      </trkpt>
      <trkpt lat="46.26497167" lon="18.58008333">
        <ele>159.7</ele>
        <time>2025-07-20T11:04:06Z</time>
      </trkpt>
      <trkpt lat="46.26483" lon="18.580025">
        <ele>160.4</ele>
        <time>2025-07-20T11:04:07Z</time>
      </trkpt>
      <trkpt lat="46.264685" lon="18.58001167">
        <ele>160.6</ele>
        <time>2025-07-20T11:04:08Z</time>
      </trkpt>
      <trkpt lat="46.264545" lon="18.58003167">
        <ele>160.7</ele>
        <time>2025-07-20T11:04:09Z</time>
      </trkpt>
      <trkpt lat="46.2644" lon="18.58008">
        <ele>160.7</ele>
        <time>2025-07-20T11:04:10Z</time>
      </trkpt>
      <trkpt lat="46.26426" lon="18.58013333">
        <ele>160.4</ele>
        <time>2025-07-20T11:04:11Z</time>
      </trkpt>
      <trkpt lat="46.26411333" lon="18.58019">
        <ele>159.6</ele>
        <time>2025-07-20T11:04:12Z</time>
      </trkpt>
      <trkpt lat="46.26396333" lon="18.58023">
        <ele>158.4</ele>
        <time>2025-07-20T11:04:13Z</time>
      </trkpt>
      <trkpt lat="46.26381333" lon="18.580255">
        <ele>158</ele>
        <time>2025-07-20T11:04:14Z</time>
      </trkpt>
      <trkpt lat="46.26365333" lon="18.58027667">
        <ele>158.2</ele>
        <time>2025-07-20T11:04:15Z</time>
      </trkpt>
      <trkpt lat="46.26349667" lon="18.580285">
        <ele>158.7</ele>
        <time>2025-07-20T11:04:16Z</time>
      </trkpt>
      <trkpt lat="46.26334333" lon="18.58030667">
        <ele>159.2</ele>
        <time>2025-07-20T11:04:17Z</time>
      </trkpt>
      <trkpt lat="46.26320167" lon="18.58034833">
        <ele>159.5</ele>
        <time>2025-07-20T11:04:18Z</time>
      </trkpt>
      <trkpt lat="46.26306667" lon="18.58040833">
        <ele>160.6</ele>
        <time>2025-07-20T11:04:19Z</time>
      </trkpt>
      <trkpt lat="46.26294667" lon="18.58046">
        <ele>161.1</ele>
        <time>2025-07-20T11:04:20Z</time>
      </trkpt>
      <trkpt lat="46.262845" lon="18.58050833">
        <ele>161.2</ele>
        <time>2025-07-20T11:04:21Z</time>
      </trkpt>
      <trkpt lat="46.262755" lon="18.58054667">
        <ele>161.3</ele>
        <time>2025-07-20T11:04:22Z</time>
      </trkpt>
      <trkpt lat="46.262625" lon="18.58060167">
        <ele>161.6</ele>
        <time>2025-07-20T11:04:24Z</time>
      </trkpt>
      <trkpt lat="46.26251833" lon="18.58051833">
        <ele>160.8</ele>
        <time>2025-07-20T11:04:27Z</time>
      </trkpt>
      <trkpt lat="46.26252667" lon="18.58035333">
        <ele>160.8</ele>
        <time>2025-07-20T11:04:29Z</time>
      </trkpt>
      <trkpt lat="46.26255167" lon="18.58012167">
        <ele>160.5</ele>
        <time>2025-07-20T11:04:31Z</time>
      </trkpt>
      <trkpt lat="46.26257" lon="18.57998333">
        <ele>160.3</ele>
        <time>2025-07-20T11:04:32Z</time>
      </trkpt>
      <trkpt lat="46.26258667" lon="18.57983833">
        <ele>159.7</ele>
        <time>2025-07-20T11:04:33Z</time>
      </trkpt>
      <trkpt lat="46.2626" lon="18.57968667">
        <ele>160</ele>
        <time>2025-07-20T11:04:34Z</time>
      </trkpt>
      <trkpt lat="46.26261833" lon="18.57951667">
        <ele>160.3</ele>
        <time>2025-07-20T11:04:35Z</time>
      </trkpt>
      <trkpt lat="46.262635" lon="18.57934">
        <ele>160.7</ele>
        <time>2025-07-20T11:04:36Z</time>
      </trkpt>
      <trkpt lat="46.26265167" lon="18.57916167">
        <ele>161.1</ele>
        <time>2025-07-20T11:04:37Z</time>
      </trkpt>
      <trkpt lat="46.262675" lon="18.57898333">
        <ele>161.4</ele>
        <time>2025-07-20T11:04:38Z</time>
      </trkpt>
      <trkpt lat="46.26272167" lon="18.57880167">
        <ele>162.9</ele>
        <time>2025-07-20T11:04:39Z</time>
      </trkpt>
      <trkpt lat="46.26276167" lon="18.57862833">
        <ele>163</ele>
        <time>2025-07-20T11:04:40Z</time>
      </trkpt>
      <trkpt lat="46.26281833" lon="18.578455">
        <ele>163.4</ele>
        <time>2025-07-20T11:04:41Z</time>
      </trkpt>
      <trkpt lat="46.26288667" lon="18.57829667">
        <ele>162.8</ele>
        <time>2025-07-20T11:04:42Z</time>
      </trkpt>
      <trkpt lat="46.26297667" lon="18.57813333">
        <ele>163.1</ele>
        <time>2025-07-20T11:04:43Z</time>
      </trkpt>
      <trkpt lat="46.263075" lon="18.57798333">
        <ele>163</ele>
        <time>2025-07-20T11:04:44Z</time>
      </trkpt>
      <trkpt lat="46.26319" lon="18.57784">
        <ele>162.9</ele>
        <time>2025-07-20T11:04:45Z</time>
      </trkpt>
      <trkpt lat="46.26331667" lon="18.57772667">
        <ele>162.3</ele>
        <time>2025-07-20T11:04:46Z</time>
      </trkpt>
      <trkpt lat="46.26344333" lon="18.57764">
        <ele>162</ele>
        <time>2025-07-20T11:04:47Z</time>
      </trkpt>
      <trkpt lat="46.263585" lon="18.57755167">
        <ele>162.1</ele>
        <time>2025-07-20T11:04:48Z</time>
      </trkpt>
      <trkpt lat="46.26373" lon="18.57746833">
        <ele>162</ele>
        <time>2025-07-20T11:04:49Z</time>
      </trkpt>
      <trkpt lat="46.26388167" lon="18.57738167">
        <ele>161.7</ele>
        <time>2025-07-20T11:04:50Z</time>
      </trkpt>
      <trkpt lat="46.26404" lon="18.577295">
        <ele>161.7</ele>
        <time>2025-07-20T11:04:51Z</time>
      </trkpt>
      <trkpt lat="46.26420333" lon="18.57721">
        <ele>161.4</ele>
        <time>2025-07-20T11:04:52Z</time>
      </trkpt>
      <trkpt lat="46.264365" lon="18.57712333">
        <ele>160.4</ele>
        <time>2025-07-20T11:04:53Z</time>
      </trkpt>
      <trkpt lat="46.26453667" lon="18.57703">
        <ele>159.6</ele>
        <time>2025-07-20T11:04:54Z</time>
      </trkpt>
      <trkpt lat="46.26470833" lon="18.57693833">
        <ele>159.1</ele>
        <time>2025-07-20T11:04:55Z</time>
      </trkpt>
      <trkpt lat="46.264885" lon="18.576845">
        <ele>158.6</ele>
        <time>2025-07-20T11:04:56Z</time>
      </trkpt>
      <trkpt lat="46.26506667" lon="18.57675333">
        <ele>158.2</ele>
        <time>2025-07-20T11:04:57Z</time>
      </trkpt>
      <trkpt lat="46.26524833" lon="18.57666167">
        <ele>157.9</ele>
        <time>2025-07-20T11:04:58Z</time>
      </trkpt>
      <trkpt lat="46.26542833" lon="18.57657167">
        <ele>157.6</ele>
        <time>2025-07-20T11:04:59Z</time>
      </trkpt>
      <trkpt lat="46.26561" lon="18.57647667">
        <ele>157</ele>
        <time>2025-07-20T11:05:00Z</time>
      </trkpt>
      <trkpt lat="46.26579167" lon="18.57638333">
        <ele>156.6</ele>
        <time>2025-07-20T11:05:01Z</time>
      </trkpt>
      <trkpt lat="46.26597167" lon="18.57628333">
        <ele>156.3</ele>
        <time>2025-07-20T11:05:02Z</time>
      </trkpt>
      <trkpt lat="46.26614167" lon="18.576165">
        <ele>155.9</ele>
        <time>2025-07-20T11:05:03Z</time>
      </trkpt>
      <trkpt lat="46.266305" lon="18.57603">
        <ele>155.9</ele>
        <time>2025-07-20T11:05:04Z</time>
      </trkpt>
      <trkpt lat="46.26645833" lon="18.575885">
        <ele>155.5</ele>
        <time>2025-07-20T11:05:05Z</time>
      </trkpt>
      <trkpt lat="46.26660167" lon="18.57573">
        <ele>155.2</ele>
        <time>2025-07-20T11:05:06Z</time>
      </trkpt>
      <trkpt lat="46.26673667" lon="18.57555833">
        <ele>155</ele>
        <time>2025-07-20T11:05:07Z</time>
      </trkpt>
      <trkpt lat="46.26686333" lon="18.57537167">
        <ele>155.1</ele>
        <time>2025-07-20T11:05:08Z</time>
      </trkpt>
      <trkpt lat="46.26698667" lon="18.57515833">
        <ele>155.7</ele>
        <time>2025-07-20T11:05:09Z</time>
      </trkpt>
      <trkpt lat="46.26709333" lon="18.57493">
        <ele>156.4</ele>
        <time>2025-07-20T11:05:10Z</time>
      </trkpt>
      <trkpt lat="46.267185" lon="18.57469667">
        <ele>156.8</ele>
        <time>2025-07-20T11:05:11Z</time>
      </trkpt>
      <trkpt lat="46.26726167" lon="18.57445167">
        <ele>156.7</ele>
        <time>2025-07-20T11:05:12Z</time>
      </trkpt>
      <trkpt lat="46.26732167" lon="18.57420333">
        <ele>157.5</ele>
        <time>2025-07-20T11:05:13Z</time>
      </trkpt>
      <trkpt lat="46.26737167" lon="18.57395">
        <ele>158.2</ele>
        <time>2025-07-20T11:05:14Z</time>
      </trkpt>
      <trkpt lat="46.26740333" lon="18.573695">
        <ele>158.4</ele>
        <time>2025-07-20T11:05:15Z</time>
      </trkpt>
      <trkpt lat="46.26741667" lon="18.57343667">
        <ele>158.9</ele>
        <time>2025-07-20T11:05:16Z</time>
      </trkpt>
      <trkpt lat="46.26743167" lon="18.57317833">
        <ele>160.4</ele>
        <time>2025-07-20T11:05:17Z</time>
      </trkpt>
      <trkpt lat="46.26743667" lon="18.572925">
        <ele>160.5</ele>
        <time>2025-07-20T11:05:18Z</time>
      </trkpt>
      <trkpt lat="46.26744833" lon="18.57266">
        <ele>161.1</ele>
        <time>2025-07-20T11:05:19Z</time>
      </trkpt>
      <trkpt lat="46.26744833" lon="18.57238167">
        <ele>160.8</ele>
        <time>2025-07-20T11:05:20Z</time>
      </trkpt>
      <trkpt lat="46.267445" lon="18.5721">
        <ele>161.1</ele>
        <time>2025-07-20T11:05:21Z</time>
      </trkpt>
      <trkpt lat="46.26744333" lon="18.57181667">
        <ele>160.9</ele>
        <time>2025-07-20T11:05:22Z</time>
      </trkpt>
      <trkpt lat="46.26742667" lon="18.57153">
        <ele>161.6</ele>
        <time>2025-07-20T11:05:23Z</time>
      </trkpt>
      <trkpt lat="46.267405" lon="18.57124833">
        <ele>161.6</ele>
        <time>2025-07-20T11:05:24Z</time>
      </trkpt>
      <trkpt lat="46.26739" lon="18.57095833">
        <ele>162.5</ele>
        <time>2025-07-20T11:05:25Z</time>
      </trkpt>
      <trkpt lat="46.26736833" lon="18.57065167">
        <ele>162.8</ele>
        <time>2025-07-20T11:05:26Z</time>
      </trkpt>
      <trkpt lat="46.26734167" lon="18.57033167">
        <ele>163.9</ele>
        <time>2025-07-20T11:05:27Z</time>
      </trkpt>
      <trkpt lat="46.26732" lon="18.57003">
        <ele>164.3</ele>
        <time>2025-07-20T11:05:28Z</time>
      </trkpt>
      <trkpt lat="46.26729167" lon="18.56974">
        <ele>165.1</ele>
        <time>2025-07-20T11:05:29Z</time>
      </trkpt>
      <trkpt lat="46.26726833" lon="18.569455">
        <ele>165.5</ele>
        <time>2025-07-20T11:05:30Z</time>
      </trkpt>
      <trkpt lat="46.26724667" lon="18.569165">
        <ele>166.6</ele>
        <time>2025-07-20T11:05:31Z</time>
      </trkpt>
      <trkpt lat="46.26723" lon="18.56886833">
        <ele>167.7</ele>
        <time>2025-07-20T11:05:32Z</time>
      </trkpt>
      <trkpt lat="46.26721333" lon="18.56857667">
        <ele>167.3</ele>
        <time>2025-07-20T11:05:33Z</time>
      </trkpt>
      <trkpt lat="46.267195" lon="18.56829167">
        <ele>168.5</ele>
        <time>2025-07-20T11:05:34Z</time>
      </trkpt>
      <trkpt lat="46.26717" lon="18.56800167">
        <ele>169.2</ele>
        <time>2025-07-20T11:05:35Z</time>
      </trkpt>
      <trkpt lat="46.267145" lon="18.56771333">
        <ele>169.2</ele>
        <time>2025-07-20T11:05:36Z</time>
      </trkpt>
      <trkpt lat="46.26712333" lon="18.56743">
        <ele>169.3</ele>
        <time>2025-07-20T11:05:37Z</time>
      </trkpt>
      <trkpt lat="46.26709833" lon="18.56714">
        <ele>169.7</ele>
        <time>2025-07-20T11:05:38Z</time>
      </trkpt>
      <trkpt lat="46.26707833" lon="18.56684167">
        <ele>169.2</ele>
        <time>2025-07-20T11:05:39Z</time>
      </trkpt>
      <trkpt lat="46.26705667" lon="18.566545">
        <ele>169.4</ele>
        <time>2025-07-20T11:05:40Z</time>
      </trkpt>
      <trkpt lat="46.26703167" lon="18.56624833">
        <ele>169.5</ele>
        <time>2025-07-20T11:05:41Z</time>
      </trkpt>
      <trkpt lat="46.26701" lon="18.56594833">
        <ele>169.6</ele>
        <time>2025-07-20T11:05:42Z</time>
      </trkpt>
      <trkpt lat="46.266985" lon="18.56565667">
        <ele>169.6</ele>
        <time>2025-07-20T11:05:43Z</time>
      </trkpt>
      <trkpt lat="46.26696167" lon="18.56536333">
        <ele>170</ele>
        <time>2025-07-20T11:05:44Z</time>
      </trkpt>
      <trkpt lat="46.266935" lon="18.56507667">
        <ele>170.6</ele>
        <time>2025-07-20T11:05:45Z</time>
      </trkpt>
      <trkpt lat="46.26691333" lon="18.56480167">
        <ele>170.4</ele>
        <time>2025-07-20T11:05:46Z</time>
      </trkpt>
      <trkpt lat="46.26689333" lon="18.56450667">
        <ele>170.2</ele>
        <time>2025-07-20T11:05:47Z</time>
      </trkpt>
      <trkpt lat="46.26687667" lon="18.56422667">
        <ele>170</ele>
        <time>2025-07-20T11:05:48Z</time>
      </trkpt>
      <trkpt lat="46.26685833" lon="18.563945">
        <ele>170.2</ele>
        <time>2025-07-20T11:05:49Z</time>
      </trkpt>
      <trkpt lat="46.26683333" lon="18.56366333">
        <ele>170</ele>
        <time>2025-07-20T11:05:50Z</time>
      </trkpt>
      <trkpt lat="46.26680667" lon="18.56339833">
        <ele>170.1</ele>
        <time>2025-07-20T11:05:51Z</time>
      </trkpt>
      <trkpt lat="46.26677833" lon="18.56314167">
        <ele>171.1</ele>
        <time>2025-07-20T11:05:52Z</time>
      </trkpt>
      <trkpt lat="46.26673667" lon="18.56290667">
        <ele>172.8</ele>
        <time>2025-07-20T11:05:53Z</time>
      </trkpt>
      <trkpt lat="46.266675" lon="18.56268167">
        <ele>172.7</ele>
        <time>2025-07-20T11:05:54Z</time>
      </trkpt>
      <trkpt lat="46.26660667" lon="18.56248">
        <ele>171.7</ele>
        <time>2025-07-20T11:05:55Z</time>
      </trkpt>
      <trkpt lat="46.26652333" lon="18.5623">
        <ele>171.3</ele>
        <time>2025-07-20T11:05:56Z</time>
      </trkpt>
      <trkpt lat="46.26642667" lon="18.56213667">
        <ele>171.6</ele>
        <time>2025-07-20T11:05:57Z</time>
      </trkpt>
      <trkpt lat="46.26630833" lon="18.562">
        <ele>171.2</ele>
        <time>2025-07-20T11:05:58Z</time>
      </trkpt>
      <trkpt lat="46.266175" lon="18.56188">
        <ele>170.9</ele>
        <time>2025-07-20T11:05:59Z</time>
      </trkpt>
      <trkpt lat="46.26603333" lon="18.56177333">
        <ele>170.6</ele>
        <time>2025-07-20T11:06:00Z</time>
      </trkpt>
      <trkpt lat="46.26589167" lon="18.56167167">
        <ele>169.6</ele>
        <time>2025-07-20T11:06:01Z</time>
      </trkpt>
      <trkpt lat="46.26574833" lon="18.56156">
        <ele>169.3</ele>
        <time>2025-07-20T11:06:02Z</time>
      </trkpt>
      <trkpt lat="46.26560667" lon="18.56144833">
        <ele>169</ele>
        <time>2025-07-20T11:06:03Z</time>
      </trkpt>
      <trkpt lat="46.26545833" lon="18.56134333">
        <ele>168.6</ele>
        <time>2025-07-20T11:06:04Z</time>
      </trkpt>
      <trkpt lat="46.265315" lon="18.561245">
        <ele>168.6</ele>
        <time>2025-07-20T11:06:05Z</time>
      </trkpt>
      <trkpt lat="46.26518833" lon="18.56112667">
        <ele>168.9</ele>
        <time>2025-07-20T11:06:06Z</time>
      </trkpt>
      <trkpt lat="46.26507167" lon="18.56098167">
        <ele>168.4</ele>
        <time>2025-07-20T11:06:07Z</time>
      </trkpt>
      <trkpt lat="46.26496833" lon="18.56081667">
        <ele>168.1</ele>
        <time>2025-07-20T11:06:08Z</time>
      </trkpt>
      <trkpt lat="46.26487833" lon="18.56062833">
        <ele>167.7</ele>
        <time>2025-07-20T11:06:09Z</time>
      </trkpt>
      <trkpt lat="46.26480333" lon="18.560445">
        <ele>167</ele>
        <time>2025-07-20T11:06:10Z</time>
      </trkpt>
      <trkpt lat="46.264745" lon="18.56023667">
        <ele>167.7</ele>
        <time>2025-07-20T11:06:11Z</time>
      </trkpt>
      <trkpt lat="46.26470167" lon="18.560015">
        <ele>168.3</ele>
        <time>2025-07-20T11:06:12Z</time>
      </trkpt>
      <trkpt lat="46.26466167" lon="18.55978667">
        <ele>168.8</ele>
        <time>2025-07-20T11:06:13Z</time>
      </trkpt>
      <trkpt lat="46.26463167" lon="18.55954833">
        <ele>169.4</ele>
        <time>2025-07-20T11:06:14Z</time>
      </trkpt>
      <trkpt lat="46.26460333" lon="18.55931833">
        <ele>170.6</ele>
        <time>2025-07-20T11:06:15Z</time>
      </trkpt>
      <trkpt lat="46.26457667" lon="18.55909">
        <ele>170.9</ele>
        <time>2025-07-20T11:06:16Z</time>
      </trkpt>
      <trkpt lat="46.26455" lon="18.55886333">
        <ele>170.9</ele>
        <time>2025-07-20T11:06:17Z</time>
      </trkpt>
      <trkpt lat="46.26452333" lon="18.558645">
        <ele>171.5</ele>
        <time>2025-07-20T11:06:18Z</time>
      </trkpt>
      <trkpt lat="46.26449833" lon="18.558435">
        <ele>172.1</ele>
        <time>2025-07-20T11:06:19Z</time>
      </trkpt>
      <trkpt lat="46.264475" lon="18.558235">
        <ele>172.2</ele>
        <time>2025-07-20T11:06:20Z</time>
      </trkpt>
      <trkpt lat="46.26445" lon="18.558045">
        <ele>172.5</ele>
        <time>2025-07-20T11:06:21Z</time>
      </trkpt>
      <trkpt lat="46.26443" lon="18.55787167">
        <ele>172.8</ele>
        <time>2025-07-20T11:06:22Z</time>
      </trkpt>
      <trkpt lat="46.26441333" lon="18.55771667">
        <ele>173.3</ele>
        <time>2025-07-20T11:06:23Z</time>
      </trkpt>
      <trkpt lat="46.26439" lon="18.55748333">
        <ele>173.4</ele>
        <time>2025-07-20T11:06:25Z</time>
      </trkpt>
      <trkpt lat="46.264365" lon="18.557335">
        <ele>173.5</ele>
        <time>2025-07-20T11:06:28Z</time>
      </trkpt>
      <trkpt lat="46.26427" lon="18.557275">
        <ele>172.3</ele>
        <time>2025-07-20T11:06:32Z</time>
      </trkpt>
      <trkpt lat="46.26414333" lon="18.55727833">
        <ele>171.6</ele>
        <time>2025-07-20T11:06:34Z</time>
      </trkpt>
      <trkpt lat="46.26396167" lon="18.55728833">
        <ele>171.4</ele>
        <time>2025-07-20T11:06:36Z</time>
      </trkpt>
      <trkpt lat="46.26379167" lon="18.557295">
        <ele>170.7</ele>
        <time>2025-07-20T11:06:38Z</time>
      </trkpt>
      <trkpt lat="46.26364" lon="18.55732167">
        <ele>170.3</ele>
        <time>2025-07-20T11:06:40Z</time>
      </trkpt>
      <trkpt lat="46.26350167" lon="18.55731667">
        <ele>168.5</ele>
        <time>2025-07-20T11:06:43Z</time>
      </trkpt>
      <trkpt lat="46.26338167" lon="18.55730833">
        <ele>168.4</ele>
        <time>2025-07-20T11:06:45Z</time>
      </trkpt>
      <trkpt lat="46.26322" lon="18.55731667">
        <ele>168</ele>
        <time>2025-07-20T11:06:47Z</time>
      </trkpt>
      <trkpt lat="46.26306" lon="18.55735">
        <ele>168.9</ele>
        <time>2025-07-20T11:06:49Z</time>
      </trkpt>
      <trkpt lat="46.26290167" lon="18.55739667">
        <ele>168.6</ele>
        <time>2025-07-20T11:06:51Z</time>
      </trkpt>
      <trkpt lat="46.26275167" lon="18.557455">
        <ele>168.6</ele>
        <time>2025-07-20T11:06:53Z</time>
      </trkpt>
      <trkpt lat="46.26258667" lon="18.55750833">
        <ele>167.8</ele>
        <time>2025-07-20T11:06:55Z</time>
      </trkpt>
      <trkpt lat="46.26242" lon="18.55756167">
        <ele>167.8</ele>
        <time>2025-07-20T11:06:57Z</time>
      </trkpt>
      <trkpt lat="46.26228" lon="18.55761167">
        <ele>167.5</ele>
        <time>2025-07-20T11:06:59Z</time>
      </trkpt>
      <trkpt lat="46.26217833" lon="18.55759667">
        <ele>167.9</ele>
        <time>2025-07-20T11:07:01Z</time>
      </trkpt>
      <trkpt lat="46.26214333" lon="18.55745167">
        <ele>168</ele>
        <time>2025-07-20T11:07:03Z</time>
      </trkpt>
      <trkpt lat="46.262185" lon="18.55723833">
        <ele>169.3</ele>
        <time>2025-07-20T11:07:05Z</time>
      </trkpt>
      <trkpt lat="46.26223167" lon="18.55697333">
        <ele>169.7</ele>
        <time>2025-07-20T11:07:07Z</time>
      </trkpt>
      <trkpt lat="46.26226" lon="18.55682">
        <ele>170.3</ele>
        <time>2025-07-20T11:07:08Z</time>
      </trkpt>
      <trkpt lat="46.26228667" lon="18.55664667">
        <ele>170</ele>
        <time>2025-07-20T11:07:09Z</time>
      </trkpt>
      <trkpt lat="46.26231833" lon="18.55647">
        <ele>169.6</ele>
        <time>2025-07-20T11:07:10Z</time>
      </trkpt>
      <trkpt lat="46.26235" lon="18.556285">
        <ele>169.7</ele>
        <time>2025-07-20T11:07:11Z</time>
      </trkpt>
      <trkpt lat="46.26238333" lon="18.55608833">
        <ele>169.9</ele>
        <time>2025-07-20T11:07:12Z</time>
      </trkpt>
      <trkpt lat="46.262425" lon="18.55589167">
        <ele>170.6</ele>
        <time>2025-07-20T11:07:13Z</time>
      </trkpt>
      <trkpt lat="46.262465" lon="18.55568167">
        <ele>171.8</ele>
        <time>2025-07-20T11:07:14Z</time>
      </trkpt>
      <trkpt lat="46.26250667" lon="18.55546667">
        <ele>173</ele>
        <time>2025-07-20T11:07:15Z</time>
      </trkpt>
      <trkpt lat="46.26254333" lon="18.55524167">
        <ele>173.2</ele>
        <time>2025-07-20T11:07:16Z</time>
      </trkpt>
      <trkpt lat="46.26258" lon="18.55502667">
        <ele>173.5</ele>
        <time>2025-07-20T11:07:17Z</time>
      </trkpt>
      <trkpt lat="46.26263" lon="18.55481833">
        <ele>173.4</ele>
        <time>2025-07-20T11:07:18Z</time>
      </trkpt>
      <trkpt lat="46.26267333" lon="18.554625">
        <ele>172.9</ele>
        <time>2025-07-20T11:07:19Z</time>
      </trkpt>
      <trkpt lat="46.262705" lon="18.55442">
        <ele>173.2</ele>
        <time>2025-07-20T11:07:20Z</time>
      </trkpt>
      <trkpt lat="46.26272167" lon="18.554225">
        <ele>172.7</ele>
        <time>2025-07-20T11:07:21Z</time>
      </trkpt>
      <trkpt lat="46.26271" lon="18.554025">
        <ele>171.7</ele>
        <time>2025-07-20T11:07:22Z</time>
      </trkpt>
      <trkpt lat="46.26268833" lon="18.553815">
        <ele>172</ele>
        <time>2025-07-20T11:07:23Z</time>
      </trkpt>
      <trkpt lat="46.262655" lon="18.55361667">
        <ele>172.3</ele>
        <time>2025-07-20T11:07:24Z</time>
      </trkpt>
      <trkpt lat="46.26261" lon="18.55341333">
        <ele>172.5</ele>
        <time>2025-07-20T11:07:25Z</time>
      </trkpt>
      <trkpt lat="46.26256667" lon="18.553195">
        <ele>172.6</ele>
        <time>2025-07-20T11:07:26Z</time>
      </trkpt>
      <trkpt lat="46.26252" lon="18.55296833">
        <ele>172.7</ele>
        <time>2025-07-20T11:07:27Z</time>
      </trkpt>
      <trkpt lat="46.26247333" lon="18.55273833">
        <ele>172.8</ele>
        <time>2025-07-20T11:07:28Z</time>
      </trkpt>
      <trkpt lat="46.26242667" lon="18.55248833">
        <ele>173.8</ele>
        <time>2025-07-20T11:07:29Z</time>
      </trkpt>
      <trkpt lat="46.262375" lon="18.55225167">
        <ele>174</ele>
        <time>2025-07-20T11:07:30Z</time>
      </trkpt>
      <trkpt lat="46.26232333" lon="18.55200667">
        <ele>173.8</ele>
        <time>2025-07-20T11:07:31Z</time>
      </trkpt>
      <trkpt lat="46.26226667" lon="18.55176833">
        <ele>174.2</ele>
        <time>2025-07-20T11:07:32Z</time>
      </trkpt>
      <trkpt lat="46.26221833" lon="18.55153">
        <ele>173.6</ele>
        <time>2025-07-20T11:07:33Z</time>
      </trkpt>
      <trkpt lat="46.26217333" lon="18.55131">
        <ele>173.3</ele>
        <time>2025-07-20T11:07:34Z</time>
      </trkpt>
      <trkpt lat="46.26212833" lon="18.551115">
        <ele>172.9</ele>
        <time>2025-07-20T11:07:35Z</time>
      </trkpt>
      <trkpt lat="46.26208833" lon="18.55093333">
        <ele>172.6</ele>
        <time>2025-07-20T11:07:36Z</time>
      </trkpt>
      <trkpt lat="46.26206167" lon="18.55078333">
        <ele>172.7</ele>
        <time>2025-07-20T11:07:37Z</time>
      </trkpt>
      <trkpt lat="46.26202333" lon="18.55063833">
        <ele>173.3</ele>
        <time>2025-07-20T11:07:38Z</time>
      </trkpt>
      <trkpt lat="46.26199" lon="18.55051">
        <ele>174.3</ele>
        <time>2025-07-20T11:07:39Z</time>
      </trkpt>
      <trkpt lat="46.26193833" lon="18.550305">
        <ele>175.1</ele>
        <time>2025-07-20T11:07:41Z</time>
      </trkpt>
      <trkpt lat="46.26189167" lon="18.550165">
        <ele>174.3</ele>
        <time>2025-07-20T11:07:43Z</time>
      </trkpt>
      <trkpt lat="46.26183333" lon="18.55005833">
        <ele>173.4</ele>
        <time>2025-07-20T11:07:46Z</time>
      </trkpt>
    </trkseg>
  </trk>
</gpx>