<?xml version='1.0' encoding='UTF-8' standalone='yes' ?>
<gpx xmlns="http://www.topografix.com/GPX/1/1" xmlns:geotracker="http://ilyabogdanovich.com/gpx/extensions/geotracker" xmlns:xsi="http://www.w3.org/2001/XMLSchema-instance" xsi:schemaLocation="http://www.topografix.com/GPX/1/1 http://www.topografix.com/GPX/1/1/gpx.xsd" version="1.1" creator="Recorded in Geo Tracker for Android from Ilya Bogdanovich">
  <metadata>
    <name>c_0720_10</name>
    <author>
      <name>Recorded in Geo Tracker for Android from Ilya Bogdanovich</name>
      <link href="https://play.google.com/store/apps/details?id=com.ilyabogdanovich.geotracker" />
    </author>
    <link href="https://play.google.com/store/apps/details?id=com.ilyabogdanovich.geotracker" />
    <time>2025-07-20T15:20:04Z</time>
  </metadata>
  <trk>
    <name>c_0720_10</name>
    <src>Recorded in Geo Tracker for Android from Ilya Bogdanovich</src>
    <link href="https://play.google.com/store/apps/details?id=com.ilyabogdanovich.geotracker" />
    <extensions>
      <geotracker:meta>
        <geotracker:length>397.11</geotracker:length>
        <geotracker:duration>193210</geotracker:duration>
        <geotracker:creationtime>2025-07-20T15:20:04Z</geotracker:creationtime>
        <geotracker:activity>0</geotracker:activity>
      </geotracker:meta>
    </extensions>
    <trkseg>
      <trkpt lat="46.301185" lon="18.52673167">
        <ele>178.5</ele>
        <time>2025-07-20T15:20:22Z</time>
      </trkpt>
      <trkpt lat="46.30112167" lon="18.52685">
        <ele>178.5</ele>
        <time>2025-07-20T15:20:31Z</time>
      </trkpt>
      <trkpt lat="46.30108" lon="18.52698167">
        <ele>178.5</ele>
        <time>2025-07-20T15:20:34Z</time>
      </trkpt>
      <trkpt lat="46.30105" lon="18.527105">
        <ele>178.5</ele>
        <time>2025-07-20T15:20:36Z</time>
      </trkpt>
      <trkpt lat="46.30101333" lon="18.52723333">
        <ele>178.5</ele>
        <time>2025-07-20T15:20:38Z</time>
      </trkpt>
      <trkpt lat="46.30097" lon="18.527395">
        <ele>178.3</ele>
        <time>2025-07-20T15:20:41Z</time>
      </trkpt>
      <trkpt lat="46.30094167" lon="18.52754167">
        <ele>178.2</ele>
        <time>2025-07-20T15:20:45Z</time>
      </trkpt>
      <trkpt lat="46.30089833" lon="18.52773167">
        <ele>178.1</ele>
        <time>2025-07-20T15:20:48Z</time>
      </trkpt>
      <trkpt lat="46.30086" lon="18.527915">
        <ele>178.1</ele>
        <time>2025-07-20T15:20:50Z</time>
      </trkpt>
      <trkpt lat="46.30081333" lon="18.52814167">
        <ele>178.1</ele>
        <time>2025-07-20T15:20:52Z</time>
      </trkpt>
      <trkpt lat="46.30079333" lon="18.52834333">
        <ele>178.1</ele>
        <time>2025-07-20T15:20:54Z</time>
      </trkpt>
      <trkpt lat="46.30078167" lon="18.52847833">
        <ele>177.2</ele>
        <time>2025-07-20T15:20:56Z</time>
      </trkpt>
      <trkpt lat="46.300725" lon="18.52861667">
        <ele>176.8</ele>
        <time>2025-07-20T15:20:59Z</time>
      </trkpt>
      <trkpt lat="46.30063667" lon="18.52875833">
        <ele>174.9</ele>
        <time>2025-07-20T15:21:02Z</time>
      </trkpt>
      <trkpt lat="46.30053" lon="18.52892">
        <ele>174.1</ele>
        <time>2025-07-20T15:21:04Z</time>
      </trkpt>
      <trkpt lat="46.30041833" lon="18.52909667">
        <ele>173.8</ele>
        <time>2025-07-20T15:21:06Z</time>
      </trkpt>
      <trkpt lat="46.30029833" lon="18.52926833">
        <ele>173.4</ele>
        <time>2025-07-20T15:21:08Z</time>
      </trkpt>
      <trkpt lat="46.300195" lon="18.52944333">
        <ele>172.8</ele>
        <time>2025-07-20T15:21:10Z</time>
      </trkpt>
      <trkpt lat="46.30008667" lon="18.52959667">
        <ele>172.1</ele>
        <time>2025-07-20T15:21:12Z</time>
      </trkpt>
      <trkpt lat="46.29998333" lon="18.52974833">
        <ele>171.8</ele>
        <time>2025-07-20T15:21:14Z</time>
      </trkpt>
      <trkpt lat="46.299895" lon="18.52988833">
        <ele>171.6</ele>
        <time>2025-07-20T15:21:16Z</time>
      </trkpt>
      <trkpt lat="46.29983333" lon="18.52998333">
        <ele>171.1</ele>
        <time>2025-07-20T15:21:18Z</time>
      </trkpt>
      <trkpt lat="46.29974" lon="18.53012833">
        <ele>170.6</ele>
        <time>2025-07-20T15:21:21Z</time>
      </trkpt>
      <trkpt lat="46.29960667" lon="18.53019">
        <ele>169.7</ele>
        <time>2025-07-20T15:21:24Z</time>
      </trkpt>
      <trkpt lat="46.29950333" lon="18.53019833">
        <ele>169.5</ele>
        <time>2025-07-20T15:21:26Z</time>
      </trkpt>
      <trkpt lat="46.29939" lon="18.53015833">
        <ele>169.2</ele>
        <time>2025-07-20T15:21:28Z</time>
      </trkpt>
      <trkpt lat="46.299295" lon="18.53013667">
        <ele>168.8</ele>
        <time>2025-07-20T15:21:30Z</time>
      </trkpt>
      <trkpt lat="46.2992" lon="18.53011333">
        <ele>168.1</ele>
        <time>2025-07-20T15:21:35Z</time>
      </trkpt>
      <trkpt lat="46.29911333" lon="18.53015833">
        <ele>166.7</ele>
        <time>2025-07-20T15:21:45Z</time>
      </trkpt>
      <trkpt lat="46.29920333" lon="18.53014333">
        <ele>163.3</ele>
        <time>2025-07-20T15:22:47Z</time>
      </trkpt>
    </trkseg>
  </trk>
</gpx>