<?xml version='1.0' encoding='UTF-8' standalone='yes' ?>
<gpx xmlns="http://www.topografix.com/GPX/1/1" xmlns:geotracker="http://ilyabogdanovich.com/gpx/extensions/geotracker" xmlns:xsi="http://www.w3.org/2001/XMLSchema-instance" xsi:schemaLocation="http://www.topografix.com/GPX/1/1 http://www.topografix.com/GPX/1/1/gpx.xsd" version="1.1" creator="Recorded in Geo Tracker for Android from Ilya Bogdanovich">
  <metadata>
    <name>c_0720_01</name>
    <author>
      <name>Recorded in Geo Tracker for Android from Ilya Bogdanovich</name>
      <link href="https://play.google.com/store/apps/details?id=com.ilyabogdanovich.geotracker" />
    </author>
    <link href="https://play.google.com/store/apps/details?id=com.ilyabogdanovich.geotracker" />
    <time>2025-07-20T07:37:09Z</time>
  </metadata>
  <trk>
    <name>c_0720_01</name>
    <src>Recorded in Geo Tracker for Android from Ilya Bogdanovich</src>
    <link href="https://play.google.com/store/apps/details?id=com.ilyabogdanovich.geotracker" />
    <extensions>
      <geotracker:meta>
        <geotracker:length>7945.19</geotracker:length>
        <geotracker:duration>640644</geotracker:duration>
        <geotracker:creationtime>2025-07-20T07:37:09Z</geotracker:creationtime>
        <geotracker:activity>0</geotracker:activity>
      </geotracker:meta>
    </extensions>
    <trkseg>
      <trkpt lat="46.19574333" lon="18.92072167">
        <ele>137.2</ele>
        <time>2025-07-20T07:37:16Z</time>
      </trkpt>
      <trkpt lat="46.19555" lon="18.92092667">
        <ele>156.4</ele>
        <time>2025-07-20T07:38:50Z</time>
      </trkpt>
      <trkpt lat="46.19545333" lon="18.92095667">
        <ele>155.1</ele>
        <time>2025-07-20T07:38:52Z</time>
      </trkpt>
      <trkpt lat="46.19534" lon="18.920985">
        <ele>151.6</ele>
        <time>2025-07-20T07:38:54Z</time>
      </trkpt>
      <trkpt lat="46.19523167" lon="18.92100167">
        <ele>148.6</ele>
        <time>2025-07-20T07:38:56Z</time>
      </trkpt>
      <trkpt lat="46.19511333" lon="18.92102833">
        <ele>146.1</ele>
        <time>2025-07-20T07:38:58Z</time>
      </trkpt>
      <trkpt lat="46.195" lon="18.92106667">
        <ele>144.2</ele>
        <time>2025-07-20T07:39:00Z</time>
      </trkpt>
      <trkpt lat="46.19491167" lon="18.92112833">
        <ele>142.5</ele>
        <time>2025-07-20T07:39:02Z</time>
      </trkpt>
      <trkpt lat="46.19480333" lon="18.92117167">
        <ele>140.8</ele>
        <time>2025-07-20T07:39:04Z</time>
      </trkpt>
      <trkpt lat="46.19470333" lon="18.92120833">
        <ele>139.4</ele>
        <time>2025-07-20T07:39:06Z</time>
      </trkpt>
      <trkpt lat="46.194615" lon="18.92124833">
        <ele>139.1</ele>
        <time>2025-07-20T07:39:08Z</time>
      </trkpt>
      <trkpt lat="46.19452833" lon="18.92129167">
        <ele>138.4</ele>
        <time>2025-07-20T07:39:10Z</time>
      </trkpt>
      <trkpt lat="46.19444333" lon="18.92135">
        <ele>139.1</ele>
        <time>2025-07-20T07:39:12Z</time>
      </trkpt>
      <trkpt lat="46.19434167" lon="18.92143167">
        <ele>137.4</ele>
        <time>2025-07-20T07:39:15Z</time>
      </trkpt>
      <trkpt lat="46.19422333" lon="18.92145167">
        <ele>136.7</ele>
        <time>2025-07-20T07:39:18Z</time>
      </trkpt>
      <trkpt lat="46.19412833" lon="18.92145833">
        <ele>135.7</ele>
        <time>2025-07-20T07:39:21Z</time>
      </trkpt>
      <trkpt lat="46.19405833" lon="18.92135833">
        <ele>134.4</ele>
        <time>2025-07-20T07:39:24Z</time>
      </trkpt>
      <trkpt lat="46.19403333" lon="18.921195">
        <ele>134.6</ele>
        <time>2025-07-20T07:39:26Z</time>
      </trkpt>
      <trkpt lat="46.19401667" lon="18.92103667">
        <ele>134.2</ele>
        <time>2025-07-20T07:39:28Z</time>
      </trkpt>
      <trkpt lat="46.19401833" lon="18.92086833">
        <ele>133.4</ele>
        <time>2025-07-20T07:39:30Z</time>
      </trkpt>
      <trkpt lat="46.19399" lon="18.92069667">
        <ele>133.3</ele>
        <time>2025-07-20T07:39:32Z</time>
      </trkpt>
      <trkpt lat="46.19396167" lon="18.920535">
        <ele>133.2</ele>
        <time>2025-07-20T07:39:34Z</time>
      </trkpt>
      <trkpt lat="46.19393" lon="18.92037833">
        <ele>133.2</ele>
        <time>2025-07-20T07:39:37Z</time>
      </trkpt>
      <trkpt lat="46.19399667" lon="18.92025667">
        <ele>137.5</ele>
        <time>2025-07-20T07:39:42Z</time>
      </trkpt>
      <trkpt lat="46.19407833" lon="18.92020167">
        <ele>136.7</ele>
        <time>2025-07-20T07:39:45Z</time>
      </trkpt>
      <trkpt lat="46.19413167" lon="18.920065">
        <ele>135.2</ele>
        <time>2025-07-20T07:39:48Z</time>
      </trkpt>
      <trkpt lat="46.19412" lon="18.91993167">
        <ele>134</ele>
        <time>2025-07-20T07:39:51Z</time>
      </trkpt>
      <trkpt lat="46.19398333" lon="18.91985167">
        <ele>132.4</ele>
        <time>2025-07-20T07:39:54Z</time>
      </trkpt>
      <trkpt lat="46.19387333" lon="18.91982333">
        <ele>132.3</ele>
        <time>2025-07-20T07:39:56Z</time>
      </trkpt>
      <trkpt lat="46.193715" lon="18.91980667">
        <ele>132.9</ele>
        <time>2025-07-20T07:39:58Z</time>
      </trkpt>
      <trkpt lat="46.19358" lon="18.91978833">
        <ele>132.6</ele>
        <time>2025-07-20T07:40:00Z</time>
      </trkpt>
      <trkpt lat="46.19348167" lon="18.91975333">
        <ele>132</ele>
        <time>2025-07-20T07:40:03Z</time>
      </trkpt>
      <trkpt lat="46.19339333" lon="18.919635">
        <ele>131.3</ele>
        <time>2025-07-20T07:40:12Z</time>
      </trkpt>
      <trkpt lat="46.19333" lon="18.91953">
        <ele>131.1</ele>
        <time>2025-07-20T07:40:14Z</time>
      </trkpt>
      <trkpt lat="46.193185" lon="18.91932333">
        <ele>130.4</ele>
        <time>2025-07-20T07:40:16Z</time>
      </trkpt>
      <trkpt lat="46.19312" lon="18.91920667">
        <ele>130.2</ele>
        <time>2025-07-20T07:40:17Z</time>
      </trkpt>
      <trkpt lat="46.19306833" lon="18.91909667">
        <ele>129.5</ele>
        <time>2025-07-20T07:40:18Z</time>
      </trkpt>
      <trkpt lat="46.19302833" lon="18.91897667">
        <ele>129.6</ele>
        <time>2025-07-20T07:40:19Z</time>
      </trkpt>
      <trkpt lat="46.193" lon="18.91883833">
        <ele>129.7</ele>
        <time>2025-07-20T07:40:20Z</time>
      </trkpt>
      <trkpt lat="46.19297333" lon="18.91867167">
        <ele>128.4</ele>
        <time>2025-07-20T07:40:21Z</time>
      </trkpt>
      <trkpt lat="46.19295" lon="18.918475">
        <ele>127.5</ele>
        <time>2025-07-20T07:40:22Z</time>
      </trkpt>
      <trkpt lat="46.19294333" lon="18.918245">
        <ele>126.7</ele>
        <time>2025-07-20T07:40:23Z</time>
      </trkpt>
      <trkpt lat="46.19297" lon="18.918">
        <ele>126.5</ele>
        <time>2025-07-20T07:40:24Z</time>
      </trkpt>
      <trkpt lat="46.19301833" lon="18.917755">
        <ele>127.3</ele>
        <time>2025-07-20T07:40:25Z</time>
      </trkpt>
      <trkpt lat="46.19304667" lon="18.91751333">
        <ele>127.4</ele>
        <time>2025-07-20T07:40:26Z</time>
      </trkpt>
      <trkpt lat="46.19307167" lon="18.91726167">
        <ele>127.2</ele>
        <time>2025-07-20T07:40:27Z</time>
      </trkpt>
      <trkpt lat="46.193095" lon="18.91700333">
        <ele>126.6</ele>
        <time>2025-07-20T07:40:28Z</time>
      </trkpt>
      <trkpt lat="46.193115" lon="18.916745">
        <ele>126.5</ele>
        <time>2025-07-20T07:40:29Z</time>
      </trkpt>
      <trkpt lat="46.19314" lon="18.91647833">
        <ele>125.8</ele>
        <time>2025-07-20T07:40:30Z</time>
      </trkpt>
      <trkpt lat="46.19315667" lon="18.91621167">
        <ele>125.2</ele>
        <time>2025-07-20T07:40:31Z</time>
      </trkpt>
      <trkpt lat="46.193165" lon="18.91590833">
        <ele>132</ele>
        <time>2025-07-20T07:40:32Z</time>
      </trkpt>
      <trkpt lat="46.19314167" lon="18.91559333">
        <ele>137.4</ele>
        <time>2025-07-20T07:40:33Z</time>
      </trkpt>
      <trkpt lat="46.19313167" lon="18.91530333">
        <ele>139.7</ele>
        <time>2025-07-20T07:40:34Z</time>
      </trkpt>
      <trkpt lat="46.19314333" lon="18.91501667">
        <ele>142.2</ele>
        <time>2025-07-20T07:40:35Z</time>
      </trkpt>
      <trkpt lat="46.19315" lon="18.91474333">
        <ele>142.1</ele>
        <time>2025-07-20T07:40:36Z</time>
      </trkpt>
      <trkpt lat="46.19315167" lon="18.91447">
        <ele>141.6</ele>
        <time>2025-07-20T07:40:37Z</time>
      </trkpt>
      <trkpt lat="46.19315333" lon="18.91418833">
        <ele>141.7</ele>
        <time>2025-07-20T07:40:38Z</time>
      </trkpt>
      <trkpt lat="46.19315667" lon="18.91390833">
        <ele>142</ele>
        <time>2025-07-20T07:40:39Z</time>
      </trkpt>
      <trkpt lat="46.193155" lon="18.91364">
        <ele>142.2</ele>
        <time>2025-07-20T07:40:40Z</time>
      </trkpt>
      <trkpt lat="46.19315333" lon="18.91337333">
        <ele>142</ele>
        <time>2025-07-20T07:40:41Z</time>
      </trkpt>
      <trkpt lat="46.193165" lon="18.913095">
        <ele>139.7</ele>
        <time>2025-07-20T07:40:42Z</time>
      </trkpt>
      <trkpt lat="46.19316667" lon="18.91281833">
        <ele>139.7</ele>
        <time>2025-07-20T07:40:43Z</time>
      </trkpt>
      <trkpt lat="46.19316667" lon="18.91254167">
        <ele>139</ele>
        <time>2025-07-20T07:40:44Z</time>
      </trkpt>
      <trkpt lat="46.19317833" lon="18.91227">
        <ele>136.7</ele>
        <time>2025-07-20T07:40:45Z</time>
      </trkpt>
      <trkpt lat="46.19318167" lon="18.91200833">
        <ele>134</ele>
        <time>2025-07-20T07:40:46Z</time>
      </trkpt>
      <trkpt lat="46.19319667" lon="18.91174833">
        <ele>133.2</ele>
        <time>2025-07-20T07:40:47Z</time>
      </trkpt>
      <trkpt lat="46.19320167" lon="18.91149167">
        <ele>133.1</ele>
        <time>2025-07-20T07:40:48Z</time>
      </trkpt>
      <trkpt lat="46.19320833" lon="18.91123833">
        <ele>132.9</ele>
        <time>2025-07-20T07:40:49Z</time>
      </trkpt>
      <trkpt lat="46.19321333" lon="18.910975">
        <ele>133</ele>
        <time>2025-07-20T07:40:50Z</time>
      </trkpt>
      <trkpt lat="46.19321833" lon="18.910705">
        <ele>133</ele>
        <time>2025-07-20T07:40:51Z</time>
      </trkpt>
      <trkpt lat="46.19322667" lon="18.91043667">
        <ele>132.9</ele>
        <time>2025-07-20T07:40:52Z</time>
      </trkpt>
      <trkpt lat="46.19323" lon="18.91016">
        <ele>133</ele>
        <time>2025-07-20T07:40:53Z</time>
      </trkpt>
      <trkpt lat="46.19323" lon="18.90988333">
        <ele>133.1</ele>
        <time>2025-07-20T07:40:54Z</time>
      </trkpt>
      <trkpt lat="46.19322667" lon="18.90959167">
        <ele>132.5</ele>
        <time>2025-07-20T07:40:55Z</time>
      </trkpt>
      <trkpt lat="46.19320667" lon="18.909305">
        <ele>132.6</ele>
        <time>2025-07-20T07:40:56Z</time>
      </trkpt>
      <trkpt lat="46.19320167" lon="18.90900833">
        <ele>132.8</ele>
        <time>2025-07-20T07:40:57Z</time>
      </trkpt>
      <trkpt lat="46.193195" lon="18.90871833">
        <ele>132.8</ele>
        <time>2025-07-20T07:40:58Z</time>
      </trkpt>
      <trkpt lat="46.19321" lon="18.90842333">
        <ele>131.6</ele>
        <time>2025-07-20T07:40:59Z</time>
      </trkpt>
      <trkpt lat="46.19322167" lon="18.908115">
        <ele>131.9</ele>
        <time>2025-07-20T07:41:00Z</time>
      </trkpt>
      <trkpt lat="46.19323167" lon="18.90780833">
        <ele>132.3</ele>
        <time>2025-07-20T07:41:01Z</time>
      </trkpt>
      <trkpt lat="46.19323833" lon="18.90749833">
        <ele>132.5</ele>
        <time>2025-07-20T07:41:02Z</time>
      </trkpt>
      <trkpt lat="46.19324167" lon="18.90717667">
        <ele>133.2</ele>
        <time>2025-07-20T07:41:03Z</time>
      </trkpt>
      <trkpt lat="46.19323333" lon="18.906855">
        <ele>133.5</ele>
        <time>2025-07-20T07:41:04Z</time>
      </trkpt>
      <trkpt lat="46.19323" lon="18.90654">
        <ele>133.7</ele>
        <time>2025-07-20T07:41:05Z</time>
      </trkpt>
      <trkpt lat="46.19323667" lon="18.906215">
        <ele>133.4</ele>
        <time>2025-07-20T07:41:06Z</time>
      </trkpt>
      <trkpt lat="46.19324167" lon="18.90589333">
        <ele>133.3</ele>
        <time>2025-07-20T07:41:07Z</time>
      </trkpt>
      <trkpt lat="46.19324333" lon="18.90558333">
        <ele>134.1</ele>
        <time>2025-07-20T07:41:08Z</time>
      </trkpt>
      <trkpt lat="46.193245" lon="18.90527">
        <ele>134.2</ele>
        <time>2025-07-20T07:41:09Z</time>
      </trkpt>
      <trkpt lat="46.19324167" lon="18.90495">
        <ele>134.4</ele>
        <time>2025-07-20T07:41:10Z</time>
      </trkpt>
      <trkpt lat="46.19328667" lon="18.90463333">
        <ele>136.1</ele>
        <time>2025-07-20T07:41:11Z</time>
      </trkpt>
      <trkpt lat="46.1933" lon="18.90430667">
        <ele>136.3</ele>
        <time>2025-07-20T07:41:12Z</time>
      </trkpt>
      <trkpt lat="46.19332833" lon="18.90397">
        <ele>137.4</ele>
        <time>2025-07-20T07:41:13Z</time>
      </trkpt>
      <trkpt lat="46.193335" lon="18.90365">
        <ele>138.2</ele>
        <time>2025-07-20T07:41:14Z</time>
      </trkpt>
      <trkpt lat="46.193335" lon="18.90331">
        <ele>140.8</ele>
        <time>2025-07-20T07:41:15Z</time>
      </trkpt>
      <trkpt lat="46.19333833" lon="18.90300167">
        <ele>141.4</ele>
        <time>2025-07-20T07:41:16Z</time>
      </trkpt>
      <trkpt lat="46.19334667" lon="18.90267167">
        <ele>140.8</ele>
        <time>2025-07-20T07:41:17Z</time>
      </trkpt>
      <trkpt lat="46.193375" lon="18.90234333">
        <ele>137.4</ele>
        <time>2025-07-20T07:41:18Z</time>
      </trkpt>
      <trkpt lat="46.19337667" lon="18.90201">
        <ele>137.8</ele>
        <time>2025-07-20T07:41:19Z</time>
      </trkpt>
      <trkpt lat="46.193405" lon="18.90169">
        <ele>137.4</ele>
        <time>2025-07-20T07:41:20Z</time>
      </trkpt>
      <trkpt lat="46.19340833" lon="18.90135333">
        <ele>138</ele>
        <time>2025-07-20T07:41:21Z</time>
      </trkpt>
      <trkpt lat="46.19340833" lon="18.90101333">
        <ele>137.6</ele>
        <time>2025-07-20T07:41:22Z</time>
      </trkpt>
      <trkpt lat="46.19340667" lon="18.90067833">
        <ele>137.3</ele>
        <time>2025-07-20T07:41:23Z</time>
      </trkpt>
      <trkpt lat="46.19342833" lon="18.900345">
        <ele>133.1</ele>
        <time>2025-07-20T07:41:24Z</time>
      </trkpt>
      <trkpt lat="46.193445" lon="18.89999167">
        <ele>131</ele>
        <time>2025-07-20T07:41:25Z</time>
      </trkpt>
      <trkpt lat="46.19343333" lon="18.89964333">
        <ele>131.4</ele>
        <time>2025-07-20T07:41:26Z</time>
      </trkpt>
      <trkpt lat="46.19344667" lon="18.89929667">
        <ele>131.5</ele>
        <time>2025-07-20T07:41:27Z</time>
      </trkpt>
      <trkpt lat="46.19345" lon="18.89893833">
        <ele>132</ele>
        <time>2025-07-20T07:41:28Z</time>
      </trkpt>
      <trkpt lat="46.19345667" lon="18.89858667">
        <ele>132.6</ele>
        <time>2025-07-20T07:41:29Z</time>
      </trkpt>
      <trkpt lat="46.19346" lon="18.89824167">
        <ele>132.8</ele>
        <time>2025-07-20T07:41:30Z</time>
      </trkpt>
      <trkpt lat="46.19346167" lon="18.89789167">
        <ele>134.1</ele>
        <time>2025-07-20T07:41:31Z</time>
      </trkpt>
      <trkpt lat="46.19346" lon="18.89754333">
        <ele>135.6</ele>
        <time>2025-07-20T07:41:32Z</time>
      </trkpt>
      <trkpt lat="46.19347" lon="18.89719333">
        <ele>135.7</ele>
        <time>2025-07-20T07:41:33Z</time>
      </trkpt>
      <trkpt lat="46.193485" lon="18.89683667">
        <ele>136.3</ele>
        <time>2025-07-20T07:41:34Z</time>
      </trkpt>
      <trkpt lat="46.19349333" lon="18.89649">
        <ele>136</ele>
        <time>2025-07-20T07:41:35Z</time>
      </trkpt>
      <trkpt lat="46.19349833" lon="18.896145">
        <ele>137.4</ele>
        <time>2025-07-20T07:41:36Z</time>
      </trkpt>
      <trkpt lat="46.1935" lon="18.89579333">
        <ele>137.8</ele>
        <time>2025-07-20T07:41:37Z</time>
      </trkpt>
      <trkpt lat="46.19350167" lon="18.89544667">
        <ele>137.7</ele>
        <time>2025-07-20T07:41:38Z</time>
      </trkpt>
      <trkpt lat="46.193515" lon="18.89511667">
        <ele>138.1</ele>
        <time>2025-07-20T07:41:39Z</time>
      </trkpt>
      <trkpt lat="46.19352167" lon="18.89476833">
        <ele>138.3</ele>
        <time>2025-07-20T07:41:40Z</time>
      </trkpt>
      <trkpt lat="46.19352667" lon="18.89443">
        <ele>135.5</ele>
        <time>2025-07-20T07:41:41Z</time>
      </trkpt>
      <trkpt lat="46.19354167" lon="18.89408833">
        <ele>135.7</ele>
        <time>2025-07-20T07:41:42Z</time>
      </trkpt>
      <trkpt lat="46.19354667" lon="18.89375333">
        <ele>135</ele>
        <time>2025-07-20T07:41:43Z</time>
      </trkpt>
      <trkpt lat="46.19355833" lon="18.89341833">
        <ele>135.1</ele>
        <time>2025-07-20T07:41:44Z</time>
      </trkpt>
      <trkpt lat="46.19356167" lon="18.89307333">
        <ele>135.6</ele>
        <time>2025-07-20T07:41:45Z</time>
      </trkpt>
      <trkpt lat="46.19356833" lon="18.892735">
        <ele>135.9</ele>
        <time>2025-07-20T07:41:46Z</time>
      </trkpt>
      <trkpt lat="46.19357" lon="18.892385">
        <ele>133.8</ele>
        <time>2025-07-20T07:41:47Z</time>
      </trkpt>
      <trkpt lat="46.19358167" lon="18.892045">
        <ele>134</ele>
        <time>2025-07-20T07:41:48Z</time>
      </trkpt>
      <trkpt lat="46.19358" lon="18.89169833">
        <ele>132.6</ele>
        <time>2025-07-20T07:41:49Z</time>
      </trkpt>
      <trkpt lat="46.19359167" lon="18.89135167">
        <ele>131.1</ele>
        <time>2025-07-20T07:41:50Z</time>
      </trkpt>
      <trkpt lat="46.193595" lon="18.891015">
        <ele>131.5</ele>
        <time>2025-07-20T07:41:51Z</time>
      </trkpt>
      <trkpt lat="46.19360167" lon="18.890675">
        <ele>131.8</ele>
        <time>2025-07-20T07:41:52Z</time>
      </trkpt>
      <trkpt lat="46.19359833" lon="18.89032333">
        <ele>133.7</ele>
        <time>2025-07-20T07:41:53Z</time>
      </trkpt>
      <trkpt lat="46.19359167" lon="18.88999167">
        <ele>133.7</ele>
        <time>2025-07-20T07:41:54Z</time>
      </trkpt>
      <trkpt lat="46.19359167" lon="18.88966">
        <ele>134.5</ele>
        <time>2025-07-20T07:41:55Z</time>
      </trkpt>
      <trkpt lat="46.1936" lon="18.88932833">
        <ele>135.5</ele>
        <time>2025-07-20T07:41:56Z</time>
      </trkpt>
      <trkpt lat="46.19360667" lon="18.88899167">
        <ele>136.2</ele>
        <time>2025-07-20T07:41:57Z</time>
      </trkpt>
      <trkpt lat="46.19361833" lon="18.88867">
        <ele>136.5</ele>
        <time>2025-07-20T07:41:58Z</time>
      </trkpt>
      <trkpt lat="46.19362833" lon="18.88833333">
        <ele>137.1</ele>
        <time>2025-07-20T07:41:59Z</time>
      </trkpt>
      <trkpt lat="46.19363167" lon="18.888">
        <ele>136.3</ele>
        <time>2025-07-20T07:42:00Z</time>
      </trkpt>
      <trkpt lat="46.19364" lon="18.88765667">
        <ele>136.8</ele>
        <time>2025-07-20T07:42:01Z</time>
      </trkpt>
      <trkpt lat="46.19364167" lon="18.88731333">
        <ele>137.1</ele>
        <time>2025-07-20T07:42:02Z</time>
      </trkpt>
      <trkpt lat="46.19364833" lon="18.886965">
        <ele>137.8</ele>
        <time>2025-07-20T07:42:03Z</time>
      </trkpt>
      <trkpt lat="46.19365667" lon="18.88662">
        <ele>137.3</ele>
        <time>2025-07-20T07:42:04Z</time>
      </trkpt>
      <trkpt lat="46.19365833" lon="18.88627833">
        <ele>136.9</ele>
        <time>2025-07-20T07:42:05Z</time>
      </trkpt>
      <trkpt lat="46.193675" lon="18.88592833">
        <ele>135.2</ele>
        <time>2025-07-20T07:42:06Z</time>
      </trkpt>
      <trkpt lat="46.19368167" lon="18.88557333">
        <ele>132.9</ele>
        <time>2025-07-20T07:42:07Z</time>
      </trkpt>
      <trkpt lat="46.19369167" lon="18.88523667">
        <ele>132.5</ele>
        <time>2025-07-20T07:42:08Z</time>
      </trkpt>
      <trkpt lat="46.193695" lon="18.88490333">
        <ele>133</ele>
        <time>2025-07-20T07:42:09Z</time>
      </trkpt>
      <trkpt lat="46.19369833" lon="18.88457167">
        <ele>132.5</ele>
        <time>2025-07-20T07:42:10Z</time>
      </trkpt>
      <trkpt lat="46.19370333" lon="18.88423667">
        <ele>131.8</ele>
        <time>2025-07-20T07:42:11Z</time>
      </trkpt>
      <trkpt lat="46.19371167" lon="18.88389667">
        <ele>132</ele>
        <time>2025-07-20T07:42:12Z</time>
      </trkpt>
      <trkpt lat="46.19372333" lon="18.88355833">
        <ele>132.3</ele>
        <time>2025-07-20T07:42:13Z</time>
      </trkpt>
      <trkpt lat="46.19373833" lon="18.88323667">
        <ele>133</ele>
        <time>2025-07-20T07:42:14Z</time>
      </trkpt>
      <trkpt lat="46.193745" lon="18.88290667">
        <ele>132.9</ele>
        <time>2025-07-20T07:42:15Z</time>
      </trkpt>
      <trkpt lat="46.19375" lon="18.88256667">
        <ele>133</ele>
        <time>2025-07-20T07:42:16Z</time>
      </trkpt>
      <trkpt lat="46.193755" lon="18.88222667">
        <ele>132.9</ele>
        <time>2025-07-20T07:42:17Z</time>
      </trkpt>
      <trkpt lat="46.19376" lon="18.88188833">
        <ele>132.9</ele>
        <time>2025-07-20T07:42:18Z</time>
      </trkpt>
      <trkpt lat="46.19376167" lon="18.88154333">
        <ele>134.7</ele>
        <time>2025-07-20T07:42:19Z</time>
      </trkpt>
      <trkpt lat="46.19377833" lon="18.88121667">
        <ele>134</ele>
        <time>2025-07-20T07:42:20Z</time>
      </trkpt>
      <trkpt lat="46.19379833" lon="18.88089833">
        <ele>133.2</ele>
        <time>2025-07-20T07:42:21Z</time>
      </trkpt>
      <trkpt lat="46.19380833" lon="18.88057833">
        <ele>132.3</ele>
        <time>2025-07-20T07:42:22Z</time>
      </trkpt>
      <trkpt lat="46.193795" lon="18.88025167">
        <ele>132.1</ele>
        <time>2025-07-20T07:42:23Z</time>
      </trkpt>
      <trkpt lat="46.19380667" lon="18.879935">
        <ele>131.9</ele>
        <time>2025-07-20T07:42:24Z</time>
      </trkpt>
      <trkpt lat="46.19381167" lon="18.879615">
        <ele>132.1</ele>
        <time>2025-07-20T07:42:25Z</time>
      </trkpt>
      <trkpt lat="46.19382167" lon="18.879305">
        <ele>132.3</ele>
        <time>2025-07-20T07:42:26Z</time>
      </trkpt>
      <trkpt lat="46.19383167" lon="18.87899167">
        <ele>132.4</ele>
        <time>2025-07-20T07:42:27Z</time>
      </trkpt>
      <trkpt lat="46.19381833" lon="18.87866833">
        <ele>133.1</ele>
        <time>2025-07-20T07:42:28Z</time>
      </trkpt>
      <trkpt lat="46.19381667" lon="18.878355">
        <ele>133.2</ele>
        <time>2025-07-20T07:42:29Z</time>
      </trkpt>
      <trkpt lat="46.193815" lon="18.87805">
        <ele>133.3</ele>
        <time>2025-07-20T07:42:30Z</time>
      </trkpt>
      <trkpt lat="46.193815" lon="18.87775167">
        <ele>133.3</ele>
        <time>2025-07-20T07:42:31Z</time>
      </trkpt>
      <trkpt lat="46.19381" lon="18.87745">
        <ele>132.8</ele>
        <time>2025-07-20T07:42:32Z</time>
      </trkpt>
      <trkpt lat="46.19380833" lon="18.877145">
        <ele>130.7</ele>
        <time>2025-07-20T07:42:33Z</time>
      </trkpt>
      <trkpt lat="46.19381333" lon="18.87685667">
        <ele>131.2</ele>
        <time>2025-07-20T07:42:34Z</time>
      </trkpt>
      <trkpt lat="46.19381" lon="18.87657167">
        <ele>131.9</ele>
        <time>2025-07-20T07:42:35Z</time>
      </trkpt>
      <trkpt lat="46.19382167" lon="18.87631167">
        <ele>131.6</ele>
        <time>2025-07-20T07:42:36Z</time>
      </trkpt>
      <trkpt lat="46.19381333" lon="18.87604833">
        <ele>131.1</ele>
        <time>2025-07-20T07:42:37Z</time>
      </trkpt>
      <trkpt lat="46.193825" lon="18.87580667">
        <ele>131.5</ele>
        <time>2025-07-20T07:42:38Z</time>
      </trkpt>
      <trkpt lat="46.19384" lon="18.87557167">
        <ele>131.6</ele>
        <time>2025-07-20T07:42:39Z</time>
      </trkpt>
      <trkpt lat="46.19385833" lon="18.87534">
        <ele>131.7</ele>
        <time>2025-07-20T07:42:40Z</time>
      </trkpt>
      <trkpt lat="46.19386833" lon="18.87510833">
        <ele>131.9</ele>
        <time>2025-07-20T07:42:41Z</time>
      </trkpt>
      <trkpt lat="46.19387167" lon="18.87488">
        <ele>131.4</ele>
        <time>2025-07-20T07:42:42Z</time>
      </trkpt>
      <trkpt lat="46.19387333" lon="18.874645">
        <ele>131.4</ele>
        <time>2025-07-20T07:42:43Z</time>
      </trkpt>
      <trkpt lat="46.19387833" lon="18.87441667">
        <ele>131.5</ele>
        <time>2025-07-20T07:42:44Z</time>
      </trkpt>
      <trkpt lat="46.19389167" lon="18.87418667">
        <ele>130.6</ele>
        <time>2025-07-20T07:42:45Z</time>
      </trkpt>
      <trkpt lat="46.19389833" lon="18.873955">
        <ele>131.2</ele>
        <time>2025-07-20T07:42:46Z</time>
      </trkpt>
      <trkpt lat="46.19390333" lon="18.87372833">
        <ele>133</ele>
        <time>2025-07-20T07:42:47Z</time>
      </trkpt>
      <trkpt lat="46.1939" lon="18.87350667">
        <ele>133.5</ele>
        <time>2025-07-20T07:42:48Z</time>
      </trkpt>
      <trkpt lat="46.19391" lon="18.87331">
        <ele>133.8</ele>
        <time>2025-07-20T07:42:49Z</time>
      </trkpt>
      <trkpt lat="46.19389333" lon="18.87310333">
        <ele>133.9</ele>
        <time>2025-07-20T07:42:50Z</time>
      </trkpt>
      <trkpt lat="46.19390333" lon="18.87290333">
        <ele>134</ele>
        <time>2025-07-20T07:42:51Z</time>
      </trkpt>
      <trkpt lat="46.193905" lon="18.872705">
        <ele>134.2</ele>
        <time>2025-07-20T07:42:52Z</time>
      </trkpt>
      <trkpt lat="46.19391167" lon="18.87251833">
        <ele>134.5</ele>
        <time>2025-07-20T07:42:53Z</time>
      </trkpt>
      <trkpt lat="46.19391" lon="18.87232833">
        <ele>134.7</ele>
        <time>2025-07-20T07:42:54Z</time>
      </trkpt>
      <trkpt lat="46.19392833" lon="18.87215333">
        <ele>134.8</ele>
        <time>2025-07-20T07:42:55Z</time>
      </trkpt>
      <trkpt lat="46.19395" lon="18.87197833">
        <ele>134.6</ele>
        <time>2025-07-20T07:42:56Z</time>
      </trkpt>
      <trkpt lat="46.19396833" lon="18.87180333">
        <ele>135</ele>
        <time>2025-07-20T07:42:57Z</time>
      </trkpt>
      <trkpt lat="46.19398167" lon="18.87162667">
        <ele>135.1</ele>
        <time>2025-07-20T07:42:58Z</time>
      </trkpt>
      <trkpt lat="46.19398833" lon="18.871445">
        <ele>136.3</ele>
        <time>2025-07-20T07:42:59Z</time>
      </trkpt>
      <trkpt lat="46.194005" lon="18.87126833">
        <ele>136.3</ele>
        <time>2025-07-20T07:43:00Z</time>
      </trkpt>
      <trkpt lat="46.19402833" lon="18.87109667">
        <ele>136.6</ele>
        <time>2025-07-20T07:43:01Z</time>
      </trkpt>
      <trkpt lat="46.19405167" lon="18.87092">
        <ele>136.2</ele>
        <time>2025-07-20T07:43:02Z</time>
      </trkpt>
      <trkpt lat="46.19407167" lon="18.87075167">
        <ele>135.8</ele>
        <time>2025-07-20T07:43:03Z</time>
      </trkpt>
      <trkpt lat="46.19409" lon="18.87056667">
        <ele>138.1</ele>
        <time>2025-07-20T07:43:04Z</time>
      </trkpt>
      <trkpt lat="46.19411167" lon="18.87036667">
        <ele>138.3</ele>
        <time>2025-07-20T07:43:05Z</time>
      </trkpt>
      <trkpt lat="46.19413167" lon="18.87016">
        <ele>138.1</ele>
        <time>2025-07-20T07:43:06Z</time>
      </trkpt>
      <trkpt lat="46.19416333" lon="18.86996167">
        <ele>135.6</ele>
        <time>2025-07-20T07:43:07Z</time>
      </trkpt>
      <trkpt lat="46.19419" lon="18.86976667">
        <ele>135.5</ele>
        <time>2025-07-20T07:43:08Z</time>
      </trkpt>
      <trkpt lat="46.19422167" lon="18.86956833">
        <ele>135.5</ele>
        <time>2025-07-20T07:43:09Z</time>
      </trkpt>
      <trkpt lat="46.19426833" lon="18.86936333">
        <ele>136.1</ele>
        <time>2025-07-20T07:43:10Z</time>
      </trkpt>
      <trkpt lat="46.19433333" lon="18.86917667">
        <ele>136.2</ele>
        <time>2025-07-20T07:43:11Z</time>
      </trkpt>
      <trkpt lat="46.19437833" lon="18.86896167">
        <ele>136.2</ele>
        <time>2025-07-20T07:43:12Z</time>
      </trkpt>
      <trkpt lat="46.194425" lon="18.86876667">
        <ele>136.3</ele>
        <time>2025-07-20T07:43:13Z</time>
      </trkpt>
      <trkpt lat="46.19447" lon="18.86855667">
        <ele>136.7</ele>
        <time>2025-07-20T07:43:14Z</time>
      </trkpt>
      <trkpt lat="46.19452833" lon="18.868355">
        <ele>138.5</ele>
        <time>2025-07-20T07:43:15Z</time>
      </trkpt>
      <trkpt lat="46.19457833" lon="18.86814833">
        <ele>138.7</ele>
        <time>2025-07-20T07:43:16Z</time>
      </trkpt>
      <trkpt lat="46.194635" lon="18.867945">
        <ele>139.1</ele>
        <time>2025-07-20T07:43:17Z</time>
      </trkpt>
      <trkpt lat="46.19469833" lon="18.86774667">
        <ele>138.8</ele>
        <time>2025-07-20T07:43:18Z</time>
      </trkpt>
      <trkpt lat="46.19474333" lon="18.86753167">
        <ele>139</ele>
        <time>2025-07-20T07:43:19Z</time>
      </trkpt>
      <trkpt lat="46.19477833" lon="18.86730833">
        <ele>139.2</ele>
        <time>2025-07-20T07:43:20Z</time>
      </trkpt>
      <trkpt lat="46.194835" lon="18.86710333">
        <ele>139.8</ele>
        <time>2025-07-20T07:43:21Z</time>
      </trkpt>
      <trkpt lat="46.19489333" lon="18.866915">
        <ele>140.1</ele>
        <time>2025-07-20T07:43:22Z</time>
      </trkpt>
      <trkpt lat="46.19494667" lon="18.86671333">
        <ele>136</ele>
        <time>2025-07-20T07:43:23Z</time>
      </trkpt>
      <trkpt lat="46.195" lon="18.86650167">
        <ele>135.4</ele>
        <time>2025-07-20T07:43:24Z</time>
      </trkpt>
      <trkpt lat="46.195055" lon="18.86629167">
        <ele>131.3</ele>
        <time>2025-07-20T07:43:25Z</time>
      </trkpt>
      <trkpt lat="46.195095" lon="18.86608167">
        <ele>130.6</ele>
        <time>2025-07-20T07:43:26Z</time>
      </trkpt>
      <trkpt lat="46.19515167" lon="18.86587667">
        <ele>130.1</ele>
        <time>2025-07-20T07:43:27Z</time>
      </trkpt>
      <trkpt lat="46.19519" lon="18.865665">
        <ele>130.1</ele>
        <time>2025-07-20T07:43:28Z</time>
      </trkpt>
      <trkpt lat="46.19523833" lon="18.865475">
        <ele>127.4</ele>
        <time>2025-07-20T07:43:29Z</time>
      </trkpt>
      <trkpt lat="46.19528833" lon="18.86528333">
        <ele>127.7</ele>
        <time>2025-07-20T07:43:30Z</time>
      </trkpt>
      <trkpt lat="46.19533667" lon="18.86508833">
        <ele>127.8</ele>
        <time>2025-07-20T07:43:31Z</time>
      </trkpt>
      <trkpt lat="46.19536" lon="18.864895">
        <ele>123.6</ele>
        <time>2025-07-20T07:43:32Z</time>
      </trkpt>
      <trkpt lat="46.195405" lon="18.86470167">
        <ele>124.9</ele>
        <time>2025-07-20T07:43:33Z</time>
      </trkpt>
      <trkpt lat="46.19543333" lon="18.86450167">
        <ele>127.8</ele>
        <time>2025-07-20T07:43:34Z</time>
      </trkpt>
      <trkpt lat="46.195485" lon="18.86431">
        <ele>128.7</ele>
        <time>2025-07-20T07:43:35Z</time>
      </trkpt>
      <trkpt lat="46.195545" lon="18.86411333">
        <ele>129.9</ele>
        <time>2025-07-20T07:43:36Z</time>
      </trkpt>
      <trkpt lat="46.19559" lon="18.863925">
        <ele>130.5</ele>
        <time>2025-07-20T07:43:37Z</time>
      </trkpt>
      <trkpt lat="46.195635" lon="18.863745">
        <ele>130.5</ele>
        <time>2025-07-20T07:43:38Z</time>
      </trkpt>
      <trkpt lat="46.19568167" lon="18.86356667">
        <ele>131.5</ele>
        <time>2025-07-20T07:43:39Z</time>
      </trkpt>
      <trkpt lat="46.19573" lon="18.86339333">
        <ele>131.5</ele>
        <time>2025-07-20T07:43:40Z</time>
      </trkpt>
      <trkpt lat="46.19579" lon="18.86322833">
        <ele>131.7</ele>
        <time>2025-07-20T07:43:41Z</time>
      </trkpt>
      <trkpt lat="46.195825" lon="18.86303333">
        <ele>130.9</ele>
        <time>2025-07-20T07:43:42Z</time>
      </trkpt>
      <trkpt lat="46.19587667" lon="18.86283667">
        <ele>131.2</ele>
        <time>2025-07-20T07:43:43Z</time>
      </trkpt>
      <trkpt lat="46.19592833" lon="18.86265167">
        <ele>131.8</ele>
        <time>2025-07-20T07:43:44Z</time>
      </trkpt>
      <trkpt lat="46.19597333" lon="18.86246167">
        <ele>132.3</ele>
        <time>2025-07-20T07:43:45Z</time>
      </trkpt>
      <trkpt lat="46.19601667" lon="18.86225667">
        <ele>132.4</ele>
        <time>2025-07-20T07:43:46Z</time>
      </trkpt>
      <trkpt lat="46.196065" lon="18.86205">
        <ele>131.5</ele>
        <time>2025-07-20T07:43:47Z</time>
      </trkpt>
      <trkpt lat="46.19611167" lon="18.86184667">
        <ele>131.1</ele>
        <time>2025-07-20T07:43:48Z</time>
      </trkpt>
      <trkpt lat="46.19615167" lon="18.86166167">
        <ele>129.1</ele>
        <time>2025-07-20T07:43:49Z</time>
      </trkpt>
      <trkpt lat="46.19620167" lon="18.86147667">
        <ele>128.8</ele>
        <time>2025-07-20T07:43:50Z</time>
      </trkpt>
      <trkpt lat="46.196255" lon="18.86130333">
        <ele>129.7</ele>
        <time>2025-07-20T07:43:51Z</time>
      </trkpt>
      <trkpt lat="46.196315" lon="18.861125">
        <ele>132.5</ele>
        <time>2025-07-20T07:43:52Z</time>
      </trkpt>
      <trkpt lat="46.196365" lon="18.860955">
        <ele>136.8</ele>
        <time>2025-07-20T07:43:53Z</time>
      </trkpt>
      <trkpt lat="46.19640833" lon="18.860775">
        <ele>137.4</ele>
        <time>2025-07-20T07:43:54Z</time>
      </trkpt>
      <trkpt lat="46.19645" lon="18.860595">
        <ele>137.3</ele>
        <time>2025-07-20T07:43:55Z</time>
      </trkpt>
      <trkpt lat="46.1965" lon="18.86041333">
        <ele>137.2</ele>
        <time>2025-07-20T07:43:56Z</time>
      </trkpt>
      <trkpt lat="46.19655167" lon="18.86022833">
        <ele>136.7</ele>
        <time>2025-07-20T07:43:57Z</time>
      </trkpt>
      <trkpt lat="46.19659167" lon="18.86003">
        <ele>136.3</ele>
        <time>2025-07-20T07:43:58Z</time>
      </trkpt>
      <trkpt lat="46.19662667" lon="18.85983667">
        <ele>135.5</ele>
        <time>2025-07-20T07:43:59Z</time>
      </trkpt>
      <trkpt lat="46.19666333" lon="18.85964167">
        <ele>135.1</ele>
        <time>2025-07-20T07:44:00Z</time>
      </trkpt>
      <trkpt lat="46.19670167" lon="18.859415">
        <ele>133.5</ele>
        <time>2025-07-20T07:44:01Z</time>
      </trkpt>
      <trkpt lat="46.19674833" lon="18.85920167">
        <ele>132.9</ele>
        <time>2025-07-20T07:44:02Z</time>
      </trkpt>
      <trkpt lat="46.19680167" lon="18.85899333">
        <ele>132.7</ele>
        <time>2025-07-20T07:44:03Z</time>
      </trkpt>
      <trkpt lat="46.19685833" lon="18.85877833">
        <ele>132.2</ele>
        <time>2025-07-20T07:44:04Z</time>
      </trkpt>
      <trkpt lat="46.196905" lon="18.85855833">
        <ele>132.2</ele>
        <time>2025-07-20T07:44:05Z</time>
      </trkpt>
      <trkpt lat="46.19695167" lon="18.85833667">
        <ele>131.9</ele>
        <time>2025-07-20T07:44:06Z</time>
      </trkpt>
      <trkpt lat="46.19700333" lon="18.858115">
        <ele>131.6</ele>
        <time>2025-07-20T07:44:07Z</time>
      </trkpt>
      <trkpt lat="46.19705833" lon="18.85789">
        <ele>131.5</ele>
        <time>2025-07-20T07:44:08Z</time>
      </trkpt>
      <trkpt lat="46.19711833" lon="18.85766333">
        <ele>131.5</ele>
        <time>2025-07-20T07:44:09Z</time>
      </trkpt>
      <trkpt lat="46.197195" lon="18.857435">
        <ele>129.7</ele>
        <time>2025-07-20T07:44:10Z</time>
      </trkpt>
      <trkpt lat="46.19725333" lon="18.857205">
        <ele>129.6</ele>
        <time>2025-07-20T07:44:11Z</time>
      </trkpt>
      <trkpt lat="46.19731" lon="18.85699333">
        <ele>131.4</ele>
        <time>2025-07-20T07:44:12Z</time>
      </trkpt>
      <trkpt lat="46.19736667" lon="18.856775">
        <ele>133.5</ele>
        <time>2025-07-20T07:44:13Z</time>
      </trkpt>
      <trkpt lat="46.197425" lon="18.85655667">
        <ele>134</ele>
        <time>2025-07-20T07:44:14Z</time>
      </trkpt>
      <trkpt lat="46.19747333" lon="18.85633667">
        <ele>134.1</ele>
        <time>2025-07-20T07:44:15Z</time>
      </trkpt>
      <trkpt lat="46.19752167" lon="18.85611">
        <ele>134.6</ele>
        <time>2025-07-20T07:44:16Z</time>
      </trkpt>
      <trkpt lat="46.19757167" lon="18.85589167">
        <ele>134.8</ele>
        <time>2025-07-20T07:44:17Z</time>
      </trkpt>
      <trkpt lat="46.197625" lon="18.85568667">
        <ele>134.8</ele>
        <time>2025-07-20T07:44:18Z</time>
      </trkpt>
      <trkpt lat="46.19767667" lon="18.85549833">
        <ele>135.1</ele>
        <time>2025-07-20T07:44:19Z</time>
      </trkpt>
      <trkpt lat="46.19772833" lon="18.85531">
        <ele>135.2</ele>
        <time>2025-07-20T07:44:20Z</time>
      </trkpt>
      <trkpt lat="46.19778" lon="18.85511333">
        <ele>134.5</ele>
        <time>2025-07-20T07:44:21Z</time>
      </trkpt>
      <trkpt lat="46.19782333" lon="18.85492">
        <ele>133.8</ele>
        <time>2025-07-20T07:44:22Z</time>
      </trkpt>
      <trkpt lat="46.19788" lon="18.85471">
        <ele>133.8</ele>
        <time>2025-07-20T07:44:23Z</time>
      </trkpt>
      <trkpt lat="46.19794" lon="18.85451167">
        <ele>134.2</ele>
        <time>2025-07-20T07:44:24Z</time>
      </trkpt>
      <trkpt lat="46.19799" lon="18.85431">
        <ele>134.4</ele>
        <time>2025-07-20T07:44:25Z</time>
      </trkpt>
      <trkpt lat="46.198035" lon="18.8541">
        <ele>134.6</ele>
        <time>2025-07-20T07:44:26Z</time>
      </trkpt>
      <trkpt lat="46.19807833" lon="18.85387167">
        <ele>134.4</ele>
        <time>2025-07-20T07:44:27Z</time>
      </trkpt>
      <trkpt lat="46.19811833" lon="18.85364833">
        <ele>134.1</ele>
        <time>2025-07-20T07:44:28Z</time>
      </trkpt>
      <trkpt lat="46.19815833" lon="18.85343">
        <ele>134.3</ele>
        <time>2025-07-20T07:44:29Z</time>
      </trkpt>
      <trkpt lat="46.19818167" lon="18.85322">
        <ele>134</ele>
        <time>2025-07-20T07:44:30Z</time>
      </trkpt>
      <trkpt lat="46.198215" lon="18.85300167">
        <ele>133.9</ele>
        <time>2025-07-20T07:44:31Z</time>
      </trkpt>
      <trkpt lat="46.198265" lon="18.85278">
        <ele>136.9</ele>
        <time>2025-07-20T07:44:32Z</time>
      </trkpt>
      <trkpt lat="46.19829833" lon="18.85256833">
        <ele>136.8</ele>
        <time>2025-07-20T07:44:33Z</time>
      </trkpt>
      <trkpt lat="46.19832" lon="18.85235333">
        <ele>136.9</ele>
        <time>2025-07-20T07:44:34Z</time>
      </trkpt>
      <trkpt lat="46.19835333" lon="18.85213333">
        <ele>135.9</ele>
        <time>2025-07-20T07:44:35Z</time>
      </trkpt>
      <trkpt lat="46.19837333" lon="18.851915">
        <ele>133.9</ele>
        <time>2025-07-20T07:44:36Z</time>
      </trkpt>
      <trkpt lat="46.19839333" lon="18.85169167">
        <ele>132.9</ele>
        <time>2025-07-20T07:44:37Z</time>
      </trkpt>
      <trkpt lat="46.19840667" lon="18.85148167">
        <ele>133</ele>
        <time>2025-07-20T07:44:38Z</time>
      </trkpt>
      <trkpt lat="46.19843333" lon="18.85128667">
        <ele>133.4</ele>
        <time>2025-07-20T07:44:39Z</time>
      </trkpt>
      <trkpt lat="46.19845667" lon="18.85108333">
        <ele>133.1</ele>
        <time>2025-07-20T07:44:40Z</time>
      </trkpt>
      <trkpt lat="46.198475" lon="18.85088">
        <ele>135.1</ele>
        <time>2025-07-20T07:44:41Z</time>
      </trkpt>
      <trkpt lat="46.19851" lon="18.85067667">
        <ele>135.1</ele>
        <time>2025-07-20T07:44:42Z</time>
      </trkpt>
      <trkpt lat="46.19852833" lon="18.85048667">
        <ele>136.5</ele>
        <time>2025-07-20T07:44:43Z</time>
      </trkpt>
      <trkpt lat="46.198545" lon="18.8503">
        <ele>137.2</ele>
        <time>2025-07-20T07:44:44Z</time>
      </trkpt>
      <trkpt lat="46.19855833" lon="18.85008333">
        <ele>138.1</ele>
        <time>2025-07-20T07:44:45Z</time>
      </trkpt>
      <trkpt lat="46.19857333" lon="18.84986833">
        <ele>138.5</ele>
        <time>2025-07-20T07:44:46Z</time>
      </trkpt>
      <trkpt lat="46.198585" lon="18.84965833">
        <ele>138.2</ele>
        <time>2025-07-20T07:44:47Z</time>
      </trkpt>
      <trkpt lat="46.198595" lon="18.84945667">
        <ele>139.2</ele>
        <time>2025-07-20T07:44:48Z</time>
      </trkpt>
      <trkpt lat="46.19860333" lon="18.84926667">
        <ele>139</ele>
        <time>2025-07-20T07:44:49Z</time>
      </trkpt>
      <trkpt lat="46.19861667" lon="18.84907333">
        <ele>138.8</ele>
        <time>2025-07-20T07:44:50Z</time>
      </trkpt>
      <trkpt lat="46.19862833" lon="18.848885">
        <ele>139</ele>
        <time>2025-07-20T07:44:51Z</time>
      </trkpt>
      <trkpt lat="46.19864167" lon="18.848695">
        <ele>139.7</ele>
        <time>2025-07-20T07:44:52Z</time>
      </trkpt>
      <trkpt lat="46.19866" lon="18.84851333">
        <ele>139</ele>
        <time>2025-07-20T07:44:53Z</time>
      </trkpt>
      <trkpt lat="46.19867833" lon="18.84832167">
        <ele>139.1</ele>
        <time>2025-07-20T07:44:54Z</time>
      </trkpt>
      <trkpt lat="46.19869833" lon="18.84813">
        <ele>139.2</ele>
        <time>2025-07-20T07:44:55Z</time>
      </trkpt>
      <trkpt lat="46.19871333" lon="18.84792833">
        <ele>139.4</ele>
        <time>2025-07-20T07:44:56Z</time>
      </trkpt>
      <trkpt lat="46.19873" lon="18.84773333">
        <ele>138.2</ele>
        <time>2025-07-20T07:44:57Z</time>
      </trkpt>
      <trkpt lat="46.198745" lon="18.84753">
        <ele>138.9</ele>
        <time>2025-07-20T07:44:58Z</time>
      </trkpt>
      <trkpt lat="46.19876" lon="18.84731833">
        <ele>138.7</ele>
        <time>2025-07-20T07:44:59Z</time>
      </trkpt>
      <trkpt lat="46.19878" lon="18.84710667">
        <ele>138</ele>
        <time>2025-07-20T07:45:00Z</time>
      </trkpt>
      <trkpt lat="46.19881167" lon="18.84691333">
        <ele>136.3</ele>
        <time>2025-07-20T07:45:01Z</time>
      </trkpt>
      <trkpt lat="46.198835" lon="18.84672">
        <ele>136</ele>
        <time>2025-07-20T07:45:02Z</time>
      </trkpt>
      <trkpt lat="46.198845" lon="18.84651333">
        <ele>135.7</ele>
        <time>2025-07-20T07:45:03Z</time>
      </trkpt>
      <trkpt lat="46.19885833" lon="18.84630333">
        <ele>135</ele>
        <time>2025-07-20T07:45:04Z</time>
      </trkpt>
      <trkpt lat="46.19886833" lon="18.84609833">
        <ele>135</ele>
        <time>2025-07-20T07:45:05Z</time>
      </trkpt>
      <trkpt lat="46.19888" lon="18.84589667">
        <ele>134.6</ele>
        <time>2025-07-20T07:45:06Z</time>
      </trkpt>
      <trkpt lat="46.198885" lon="18.84568833">
        <ele>134</ele>
        <time>2025-07-20T07:45:07Z</time>
      </trkpt>
      <trkpt lat="46.19889167" lon="18.84547833">
        <ele>133</ele>
        <time>2025-07-20T07:45:08Z</time>
      </trkpt>
      <trkpt lat="46.19889667" lon="18.84526333">
        <ele>131.9</ele>
        <time>2025-07-20T07:45:09Z</time>
      </trkpt>
      <trkpt lat="46.19892" lon="18.845045">
        <ele>131.7</ele>
        <time>2025-07-20T07:45:10Z</time>
      </trkpt>
      <trkpt lat="46.19893833" lon="18.84483">
        <ele>132.1</ele>
        <time>2025-07-20T07:45:11Z</time>
      </trkpt>
      <trkpt lat="46.19895833" lon="18.84462333">
        <ele>132</ele>
        <time>2025-07-20T07:45:12Z</time>
      </trkpt>
      <trkpt lat="46.19897167" lon="18.844415">
        <ele>131.4</ele>
        <time>2025-07-20T07:45:13Z</time>
      </trkpt>
      <trkpt lat="46.19896833" lon="18.84419833">
        <ele>129.9</ele>
        <time>2025-07-20T07:45:14Z</time>
      </trkpt>
      <trkpt lat="46.19897667" lon="18.84398333">
        <ele>130.5</ele>
        <time>2025-07-20T07:45:15Z</time>
      </trkpt>
      <trkpt lat="46.19897667" lon="18.84376167">
        <ele>130.8</ele>
        <time>2025-07-20T07:45:16Z</time>
      </trkpt>
      <trkpt lat="46.19898" lon="18.84354667">
        <ele>130.7</ele>
        <time>2025-07-20T07:45:17Z</time>
      </trkpt>
      <trkpt lat="46.19899333" lon="18.84334">
        <ele>130.9</ele>
        <time>2025-07-20T07:45:18Z</time>
      </trkpt>
      <trkpt lat="46.199" lon="18.84313833">
        <ele>130.9</ele>
        <time>2025-07-20T07:45:19Z</time>
      </trkpt>
      <trkpt lat="46.19899833" lon="18.842945">
        <ele>130.9</ele>
        <time>2025-07-20T07:45:20Z</time>
      </trkpt>
      <trkpt lat="46.19899667" lon="18.84274667">
        <ele>132.2</ele>
        <time>2025-07-20T07:45:21Z</time>
      </trkpt>
      <trkpt lat="46.198995" lon="18.84255833">
        <ele>132.6</ele>
        <time>2025-07-20T07:45:22Z</time>
      </trkpt>
      <trkpt lat="46.19899167" lon="18.84237667">
        <ele>133.2</ele>
        <time>2025-07-20T07:45:23Z</time>
      </trkpt>
      <trkpt lat="46.19898667" lon="18.84215833">
        <ele>131.2</ele>
        <time>2025-07-20T07:45:24Z</time>
      </trkpt>
      <trkpt lat="46.19898167" lon="18.84195">
        <ele>128.6</ele>
        <time>2025-07-20T07:45:25Z</time>
      </trkpt>
      <trkpt lat="46.19895333" lon="18.84174667">
        <ele>127.2</ele>
        <time>2025-07-20T07:45:26Z</time>
      </trkpt>
      <trkpt lat="46.19895333" lon="18.84153333">
        <ele>127.5</ele>
        <time>2025-07-20T07:45:27Z</time>
      </trkpt>
      <trkpt lat="46.19896167" lon="18.84132167">
        <ele>128</ele>
        <time>2025-07-20T07:45:28Z</time>
      </trkpt>
      <trkpt lat="46.198955" lon="18.84111833">
        <ele>128</ele>
        <time>2025-07-20T07:45:29Z</time>
      </trkpt>
      <trkpt lat="46.198965" lon="18.84089833">
        <ele>130.6</ele>
        <time>2025-07-20T07:45:30Z</time>
      </trkpt>
      <trkpt lat="46.19896667" lon="18.84069333">
        <ele>130.3</ele>
        <time>2025-07-20T07:45:31Z</time>
      </trkpt>
      <trkpt lat="46.198975" lon="18.84049">
        <ele>129.8</ele>
        <time>2025-07-20T07:45:32Z</time>
      </trkpt>
      <trkpt lat="46.19896333" lon="18.84027">
        <ele>127.5</ele>
        <time>2025-07-20T07:45:33Z</time>
      </trkpt>
      <trkpt lat="46.19895667" lon="18.84005667">
        <ele>129</ele>
        <time>2025-07-20T07:45:34Z</time>
      </trkpt>
      <trkpt lat="46.19896" lon="18.83985167">
        <ele>129.3</ele>
        <time>2025-07-20T07:45:35Z</time>
      </trkpt>
      <trkpt lat="46.19895667" lon="18.83963833">
        <ele>129.4</ele>
        <time>2025-07-20T07:45:36Z</time>
      </trkpt>
      <trkpt lat="46.198955" lon="18.83942167">
        <ele>130.2</ele>
        <time>2025-07-20T07:45:37Z</time>
      </trkpt>
      <trkpt lat="46.19892" lon="18.83921">
        <ele>133.3</ele>
        <time>2025-07-20T07:45:38Z</time>
      </trkpt>
      <trkpt lat="46.19892333" lon="18.838985">
        <ele>135.3</ele>
        <time>2025-07-20T07:45:39Z</time>
      </trkpt>
      <trkpt lat="46.19889833" lon="18.83877167">
        <ele>135.5</ele>
        <time>2025-07-20T07:45:40Z</time>
      </trkpt>
      <trkpt lat="46.198875" lon="18.83855833">
        <ele>135.4</ele>
        <time>2025-07-20T07:45:41Z</time>
      </trkpt>
      <trkpt lat="46.19885833" lon="18.83835833">
        <ele>135.7</ele>
        <time>2025-07-20T07:45:42Z</time>
      </trkpt>
      <trkpt lat="46.19883" lon="18.838175">
        <ele>134.9</ele>
        <time>2025-07-20T07:45:43Z</time>
      </trkpt>
      <trkpt lat="46.198815" lon="18.83797667">
        <ele>134.4</ele>
        <time>2025-07-20T07:45:44Z</time>
      </trkpt>
      <trkpt lat="46.19878333" lon="18.837775">
        <ele>134.1</ele>
        <time>2025-07-20T07:45:45Z</time>
      </trkpt>
      <trkpt lat="46.198755" lon="18.83755667">
        <ele>137.2</ele>
        <time>2025-07-20T07:45:46Z</time>
      </trkpt>
      <trkpt lat="46.19873167" lon="18.837345">
        <ele>136.7</ele>
        <time>2025-07-20T07:45:47Z</time>
      </trkpt>
      <trkpt lat="46.1987" lon="18.83712333">
        <ele>134.8</ele>
        <time>2025-07-20T07:45:48Z</time>
      </trkpt>
      <trkpt lat="46.19866333" lon="18.836885">
        <ele>134</ele>
        <time>2025-07-20T07:45:49Z</time>
      </trkpt>
      <trkpt lat="46.19863" lon="18.83667333">
        <ele>133.5</ele>
        <time>2025-07-20T07:45:50Z</time>
      </trkpt>
      <trkpt lat="46.19860167" lon="18.83646">
        <ele>133.3</ele>
        <time>2025-07-20T07:45:51Z</time>
      </trkpt>
      <trkpt lat="46.198575" lon="18.83623667">
        <ele>132.6</ele>
        <time>2025-07-20T07:45:52Z</time>
      </trkpt>
      <trkpt lat="46.19855833" lon="18.83601333">
        <ele>132.3</ele>
        <time>2025-07-20T07:45:53Z</time>
      </trkpt>
      <trkpt lat="46.19853667" lon="18.83578667">
        <ele>132.1</ele>
        <time>2025-07-20T07:45:54Z</time>
      </trkpt>
      <trkpt lat="46.19850667" lon="18.83557">
        <ele>131.2</ele>
        <time>2025-07-20T07:45:55Z</time>
      </trkpt>
      <trkpt lat="46.19848" lon="18.83533833">
        <ele>131.5</ele>
        <time>2025-07-20T07:45:56Z</time>
      </trkpt>
      <trkpt lat="46.198445" lon="18.83510167">
        <ele>131.3</ele>
        <time>2025-07-20T07:45:57Z</time>
      </trkpt>
      <trkpt lat="46.19840833" lon="18.83487">
        <ele>131.4</ele>
        <time>2025-07-20T07:45:58Z</time>
      </trkpt>
      <trkpt lat="46.198385" lon="18.83462833">
        <ele>130</ele>
        <time>2025-07-20T07:45:59Z</time>
      </trkpt>
      <trkpt lat="46.19831" lon="18.83437167">
        <ele>132.5</ele>
        <time>2025-07-20T07:46:00Z</time>
      </trkpt>
      <trkpt lat="46.19829167" lon="18.83411833">
        <ele>136.2</ele>
        <time>2025-07-20T07:46:01Z</time>
      </trkpt>
      <trkpt lat="46.19828833" lon="18.83391333">
        <ele>136.8</ele>
        <time>2025-07-20T07:46:02Z</time>
      </trkpt>
      <trkpt lat="46.19837667" lon="18.83373">
        <ele>137.6</ele>
        <time>2025-07-20T07:46:03Z</time>
      </trkpt>
      <trkpt lat="46.19839167" lon="18.83352333">
        <ele>137.5</ele>
        <time>2025-07-20T07:46:04Z</time>
      </trkpt>
      <trkpt lat="46.19838167" lon="18.83331667">
        <ele>139</ele>
        <time>2025-07-20T07:46:05Z</time>
      </trkpt>
      <trkpt lat="46.19839667" lon="18.83311667">
        <ele>138.2</ele>
        <time>2025-07-20T07:46:06Z</time>
      </trkpt>
      <trkpt lat="46.19841" lon="18.83289833">
        <ele>136.6</ele>
        <time>2025-07-20T07:46:07Z</time>
      </trkpt>
      <trkpt lat="46.198405" lon="18.83265333">
        <ele>136.1</ele>
        <time>2025-07-20T07:46:08Z</time>
      </trkpt>
      <trkpt lat="46.19840167" lon="18.83239167">
        <ele>135.3</ele>
        <time>2025-07-20T07:46:09Z</time>
      </trkpt>
      <trkpt lat="46.19839667" lon="18.83212">
        <ele>134.4</ele>
        <time>2025-07-20T07:46:10Z</time>
      </trkpt>
      <trkpt lat="46.19839" lon="18.831835">
        <ele>134.5</ele>
        <time>2025-07-20T07:46:11Z</time>
      </trkpt>
      <trkpt lat="46.19837833" lon="18.83154">
        <ele>134.2</ele>
        <time>2025-07-20T07:46:12Z</time>
      </trkpt>
      <trkpt lat="46.19838" lon="18.83123667">
        <ele>133.9</ele>
        <time>2025-07-20T07:46:13Z</time>
      </trkpt>
      <trkpt lat="46.19838167" lon="18.83093">
        <ele>133.8</ele>
        <time>2025-07-20T07:46:14Z</time>
      </trkpt>
      <trkpt lat="46.198385" lon="18.83063">
        <ele>133.5</ele>
        <time>2025-07-20T07:46:15Z</time>
      </trkpt>
      <trkpt lat="46.19838667" lon="18.830335">
        <ele>133</ele>
        <time>2025-07-20T07:46:16Z</time>
      </trkpt>
      <trkpt lat="46.19839833" lon="18.83003833">
        <ele>133</ele>
        <time>2025-07-20T07:46:17Z</time>
      </trkpt>
      <trkpt lat="46.19839" lon="18.82976">
        <ele>132.8</ele>
        <time>2025-07-20T07:46:18Z</time>
      </trkpt>
      <trkpt lat="46.19837167" lon="18.82948333">
        <ele>132.7</ele>
        <time>2025-07-20T07:46:19Z</time>
      </trkpt>
      <trkpt lat="46.19836667" lon="18.82920333">
        <ele>132.5</ele>
        <time>2025-07-20T07:46:20Z</time>
      </trkpt>
      <trkpt lat="46.19837167" lon="18.82893333">
        <ele>132.3</ele>
        <time>2025-07-20T07:46:21Z</time>
      </trkpt>
      <trkpt lat="46.19837667" lon="18.82867333">
        <ele>132.4</ele>
        <time>2025-07-20T07:46:22Z</time>
      </trkpt>
      <trkpt lat="46.19838333" lon="18.82842">
        <ele>132.4</ele>
        <time>2025-07-20T07:46:23Z</time>
      </trkpt>
      <trkpt lat="46.19839167" lon="18.82818833">
        <ele>132.2</ele>
        <time>2025-07-20T07:46:24Z</time>
      </trkpt>
      <trkpt lat="46.19839667" lon="18.82796">
        <ele>132.3</ele>
        <time>2025-07-20T07:46:25Z</time>
      </trkpt>
      <trkpt lat="46.19840333" lon="18.82773333">
        <ele>132.3</ele>
        <time>2025-07-20T07:46:26Z</time>
      </trkpt>
      <trkpt lat="46.19841" lon="18.82751667">
        <ele>132.1</ele>
        <time>2025-07-20T07:46:27Z</time>
      </trkpt>
      <trkpt lat="46.19841333" lon="18.82731667">
        <ele>132.1</ele>
        <time>2025-07-20T07:46:28Z</time>
      </trkpt>
      <trkpt lat="46.19840833" lon="18.82712833">
        <ele>131.6</ele>
        <time>2025-07-20T07:46:29Z</time>
      </trkpt>
      <trkpt lat="46.19841" lon="18.82696333">
        <ele>132.1</ele>
        <time>2025-07-20T07:46:30Z</time>
      </trkpt>
      <trkpt lat="46.19842833" lon="18.82679833">
        <ele>132.7</ele>
        <time>2025-07-20T07:46:31Z</time>
      </trkpt>
      <trkpt lat="46.198465" lon="18.82664333">
        <ele>133.3</ele>
        <time>2025-07-20T07:46:32Z</time>
      </trkpt>
      <trkpt lat="46.19850167" lon="18.82649167">
        <ele>135</ele>
        <time>2025-07-20T07:46:33Z</time>
      </trkpt>
      <trkpt lat="46.198545" lon="18.826355">
        <ele>135.6</ele>
        <time>2025-07-20T07:46:34Z</time>
      </trkpt>
      <trkpt lat="46.198605" lon="18.82623">
        <ele>135.5</ele>
        <time>2025-07-20T07:46:35Z</time>
      </trkpt>
      <trkpt lat="46.19868667" lon="18.82612667">
        <ele>134.6</ele>
        <time>2025-07-20T07:46:36Z</time>
      </trkpt>
      <trkpt lat="46.198775" lon="18.82603667">
        <ele>135.1</ele>
        <time>2025-07-20T07:46:37Z</time>
      </trkpt>
      <trkpt lat="46.19886667" lon="18.82596167">
        <ele>135.3</ele>
        <time>2025-07-20T07:46:38Z</time>
      </trkpt>
      <trkpt lat="46.19895667" lon="18.82590333">
        <ele>136.4</ele>
        <time>2025-07-20T07:46:39Z</time>
      </trkpt>
      <trkpt lat="46.19909833" lon="18.82582833">
        <ele>137.5</ele>
        <time>2025-07-20T07:46:41Z</time>
      </trkpt>
      <trkpt lat="46.199235" lon="18.82576167">
        <ele>138.1</ele>
        <time>2025-07-20T07:46:43Z</time>
      </trkpt>
      <trkpt lat="46.199335" lon="18.82573667">
        <ele>135.3</ele>
        <time>2025-07-20T07:46:45Z</time>
      </trkpt>
      <trkpt lat="46.19944833" lon="18.82582">
        <ele>134.6</ele>
        <time>2025-07-20T07:46:48Z</time>
      </trkpt>
      <trkpt lat="46.19952" lon="18.82595167">
        <ele>133.3</ele>
        <time>2025-07-20T07:46:51Z</time>
      </trkpt>
      <trkpt lat="46.19960167" lon="18.82606333">
        <ele>132</ele>
        <time>2025-07-20T07:46:54Z</time>
      </trkpt>
      <trkpt lat="46.19967833" lon="18.82616333">
        <ele>132.1</ele>
        <time>2025-07-20T07:46:58Z</time>
      </trkpt>
      <trkpt lat="46.199655" lon="18.82631167">
        <ele>130.1</ele>
        <time>2025-07-20T07:47:04Z</time>
      </trkpt>
      <trkpt lat="46.19957333" lon="18.82642333">
        <ele>128.8</ele>
        <time>2025-07-20T07:47:08Z</time>
      </trkpt>
      <trkpt lat="46.199515" lon="18.826535">
        <ele>128.7</ele>
        <time>2025-07-20T07:47:11Z</time>
      </trkpt>
      <trkpt lat="46.19945333" lon="18.82664333">
        <ele>130.8</ele>
        <time>2025-07-20T07:47:14Z</time>
      </trkpt>
      <trkpt lat="46.19938667" lon="18.82676">
        <ele>133.3</ele>
        <time>2025-07-20T07:47:18Z</time>
      </trkpt>
    </trkseg>
  </trk>
</gpx>