<?xml version='1.0' encoding='UTF-8' standalone='yes' ?>
<gpx xmlns="http://www.topografix.com/GPX/1/1" xmlns:geotracker="http://ilyabogdanovich.com/gpx/extensions/geotracker" xmlns:xsi="http://www.w3.org/2001/XMLSchema-instance" xsi:schemaLocation="http://www.topografix.com/GPX/1/1 http://www.topografix.com/GPX/1/1/gpx.xsd" version="1.1" creator="Recorded in Geo Tracker for Android from Ilya Bogdanovich">
  <metadata>
    <name>c_0709_01</name>
    <author>
      <name>Recorded in Geo Tracker for Android from Ilya Bogdanovich</name>
      <link href="https://play.google.com/store/apps/details?id=com.ilyabogdanovich.geotracker" />
    </author>
    <link href="https://play.google.com/store/apps/details?id=com.ilyabogdanovich.geotracker" />
    <time>2025-07-09T17:18:32Z</time>
  </metadata>
  <trk>
    <name>c_0709_01</name>
    <src>Recorded in Geo Tracker for Android from Ilya Bogdanovich</src>
    <link href="https://play.google.com/store/apps/details?id=com.ilyabogdanovich.geotracker" />
    <extensions>
      <geotracker:meta>
        <geotracker:length>5789.05</geotracker:length>
        <geotracker:duration>616545</geotracker:duration>
        <geotracker:creationtime>2025-07-09T17:18:32Z</geotracker:creationtime>
        <geotracker:activity>0</geotracker:activity>
      </geotracker:meta>
    </extensions>
    <trkseg>
      <trkpt lat="48.12693167" lon="22.32049833">
        <ele>148.6</ele>
        <time>2025-07-09T17:18:39Z</time>
      </trkpt>
      <trkpt lat="48.12688" lon="22.320775">
        <ele>152.7</ele>
        <time>2025-07-09T17:20:31Z</time>
      </trkpt>
      <trkpt lat="48.12678333" lon="22.32085">
        <ele>152.7</ele>
        <time>2025-07-09T17:20:43Z</time>
      </trkpt>
      <trkpt lat="48.126675" lon="22.32086333">
        <ele>152.2</ele>
        <time>2025-07-09T17:20:46Z</time>
      </trkpt>
      <trkpt lat="48.126575" lon="22.320805">
        <ele>150.3</ele>
        <time>2025-07-09T17:20:51Z</time>
      </trkpt>
      <trkpt lat="48.126545" lon="22.320625">
        <ele>150</ele>
        <time>2025-07-09T17:20:55Z</time>
      </trkpt>
      <trkpt lat="48.12653" lon="22.32048333">
        <ele>149.9</ele>
        <time>2025-07-09T17:20:57Z</time>
      </trkpt>
      <trkpt lat="48.12652" lon="22.32032667">
        <ele>149.3</ele>
        <time>2025-07-09T17:20:59Z</time>
      </trkpt>
      <trkpt lat="48.12653333" lon="22.32017833">
        <ele>148.9</ele>
        <time>2025-07-09T17:21:01Z</time>
      </trkpt>
      <trkpt lat="48.12659667" lon="22.32006">
        <ele>148.5</ele>
        <time>2025-07-09T17:21:03Z</time>
      </trkpt>
      <trkpt lat="48.126755" lon="22.320005">
        <ele>147.1</ele>
        <time>2025-07-09T17:21:05Z</time>
      </trkpt>
      <trkpt lat="48.126875" lon="22.31995167">
        <ele>146.1</ele>
        <time>2025-07-09T17:21:07Z</time>
      </trkpt>
      <trkpt lat="48.12697167" lon="22.31993">
        <ele>145.5</ele>
        <time>2025-07-09T17:21:10Z</time>
      </trkpt>
      <trkpt lat="48.12706167" lon="22.31988833">
        <ele>145</ele>
        <time>2025-07-09T17:21:15Z</time>
      </trkpt>
      <trkpt lat="48.12710833" lon="22.31975333">
        <ele>147.1</ele>
        <time>2025-07-09T17:21:18Z</time>
      </trkpt>
      <trkpt lat="48.12712" lon="22.31956667">
        <ele>147.3</ele>
        <time>2025-07-09T17:21:20Z</time>
      </trkpt>
      <trkpt lat="48.127105" lon="22.31933333">
        <ele>145.1</ele>
        <time>2025-07-09T17:21:22Z</time>
      </trkpt>
      <trkpt lat="48.12707333" lon="22.31909667">
        <ele>144.7</ele>
        <time>2025-07-09T17:21:24Z</time>
      </trkpt>
      <trkpt lat="48.12703833" lon="22.31886333">
        <ele>144.4</ele>
        <time>2025-07-09T17:21:26Z</time>
      </trkpt>
      <trkpt lat="48.12701833" lon="22.31865833">
        <ele>143.3</ele>
        <time>2025-07-09T17:21:28Z</time>
      </trkpt>
      <trkpt lat="48.12700333" lon="22.31851667">
        <ele>143.3</ele>
        <time>2025-07-09T17:21:32Z</time>
      </trkpt>
      <trkpt lat="48.127075" lon="22.31838167">
        <ele>144.1</ele>
        <time>2025-07-09T17:21:36Z</time>
      </trkpt>
      <trkpt lat="48.12718" lon="22.31835167">
        <ele>144.9</ele>
        <time>2025-07-09T17:21:38Z</time>
      </trkpt>
      <trkpt lat="48.12731167" lon="22.31834">
        <ele>145.3</ele>
        <time>2025-07-09T17:21:40Z</time>
      </trkpt>
      <trkpt lat="48.127435" lon="22.31830833">
        <ele>145.4</ele>
        <time>2025-07-09T17:21:42Z</time>
      </trkpt>
      <trkpt lat="48.12754167" lon="22.31829">
        <ele>145</ele>
        <time>2025-07-09T17:21:44Z</time>
      </trkpt>
      <trkpt lat="48.12765167" lon="22.31826">
        <ele>145.2</ele>
        <time>2025-07-09T17:21:46Z</time>
      </trkpt>
      <trkpt lat="48.12778167" lon="22.31825667">
        <ele>146.2</ele>
        <time>2025-07-09T17:21:48Z</time>
      </trkpt>
      <trkpt lat="48.12794167" lon="22.31824833">
        <ele>147.2</ele>
        <time>2025-07-09T17:21:50Z</time>
      </trkpt>
      <trkpt lat="48.128125" lon="22.31826">
        <ele>148.5</ele>
        <time>2025-07-09T17:21:52Z</time>
      </trkpt>
      <trkpt lat="48.128225" lon="22.31826833">
        <ele>148.9</ele>
        <time>2025-07-09T17:21:53Z</time>
      </trkpt>
      <trkpt lat="48.128325" lon="22.31826667">
        <ele>148.8</ele>
        <time>2025-07-09T17:21:54Z</time>
      </trkpt>
      <trkpt lat="48.12842667" lon="22.31826667">
        <ele>148.8</ele>
        <time>2025-07-09T17:21:55Z</time>
      </trkpt>
      <trkpt lat="48.12854" lon="22.31826667">
        <ele>148.7</ele>
        <time>2025-07-09T17:21:56Z</time>
      </trkpt>
      <trkpt lat="48.12864833" lon="22.31827">
        <ele>148.7</ele>
        <time>2025-07-09T17:21:57Z</time>
      </trkpt>
      <trkpt lat="48.12874833" lon="22.31826">
        <ele>148.7</ele>
        <time>2025-07-09T17:21:58Z</time>
      </trkpt>
      <trkpt lat="48.128855" lon="22.31823833">
        <ele>148.9</ele>
        <time>2025-07-09T17:21:59Z</time>
      </trkpt>
      <trkpt lat="48.12894833" lon="22.318225">
        <ele>149.1</ele>
        <time>2025-07-09T17:22:00Z</time>
      </trkpt>
      <trkpt lat="48.129085" lon="22.31817167">
        <ele>149.4</ele>
        <time>2025-07-09T17:22:02Z</time>
      </trkpt>
      <trkpt lat="48.12918333" lon="22.31812167">
        <ele>149.9</ele>
        <time>2025-07-09T17:22:04Z</time>
      </trkpt>
      <trkpt lat="48.129295" lon="22.31804167">
        <ele>149.4</ele>
        <time>2025-07-09T17:22:06Z</time>
      </trkpt>
      <trkpt lat="48.12944667" lon="22.31796667">
        <ele>149.8</ele>
        <time>2025-07-09T17:22:08Z</time>
      </trkpt>
      <trkpt lat="48.12962333" lon="22.31786167">
        <ele>150</ele>
        <time>2025-07-09T17:22:10Z</time>
      </trkpt>
      <trkpt lat="48.12972" lon="22.31780333">
        <ele>150.9</ele>
        <time>2025-07-09T17:22:11Z</time>
      </trkpt>
      <trkpt lat="48.12982167" lon="22.31773167">
        <ele>151</ele>
        <time>2025-07-09T17:22:12Z</time>
      </trkpt>
      <trkpt lat="48.12991667" lon="22.31765667">
        <ele>152.3</ele>
        <time>2025-07-09T17:22:13Z</time>
      </trkpt>
      <trkpt lat="48.13001667" lon="22.317565">
        <ele>152.8</ele>
        <time>2025-07-09T17:22:14Z</time>
      </trkpt>
      <trkpt lat="48.13010167" lon="22.31749167">
        <ele>151.9</ele>
        <time>2025-07-09T17:22:15Z</time>
      </trkpt>
      <trkpt lat="48.13019" lon="22.31740833">
        <ele>152.2</ele>
        <time>2025-07-09T17:22:16Z</time>
      </trkpt>
      <trkpt lat="48.13027167" lon="22.317325">
        <ele>152.3</ele>
        <time>2025-07-09T17:22:17Z</time>
      </trkpt>
      <trkpt lat="48.130355" lon="22.31723167">
        <ele>152.5</ele>
        <time>2025-07-09T17:22:18Z</time>
      </trkpt>
      <trkpt lat="48.13043167" lon="22.31713">
        <ele>151.8</ele>
        <time>2025-07-09T17:22:19Z</time>
      </trkpt>
      <trkpt lat="48.1305" lon="22.31702833">
        <ele>151.2</ele>
        <time>2025-07-09T17:22:20Z</time>
      </trkpt>
      <trkpt lat="48.13056833" lon="22.31690667">
        <ele>151.1</ele>
        <time>2025-07-09T17:22:21Z</time>
      </trkpt>
      <trkpt lat="48.13064167" lon="22.31677333">
        <ele>150.8</ele>
        <time>2025-07-09T17:22:22Z</time>
      </trkpt>
      <trkpt lat="48.130715" lon="22.31664667">
        <ele>150.8</ele>
        <time>2025-07-09T17:22:23Z</time>
      </trkpt>
      <trkpt lat="48.13078167" lon="22.316515">
        <ele>150.2</ele>
        <time>2025-07-09T17:22:24Z</time>
      </trkpt>
      <trkpt lat="48.13083333" lon="22.31636667">
        <ele>149</ele>
        <time>2025-07-09T17:22:25Z</time>
      </trkpt>
      <trkpt lat="48.130885" lon="22.316215">
        <ele>148.5</ele>
        <time>2025-07-09T17:22:26Z</time>
      </trkpt>
      <trkpt lat="48.13092333" lon="22.31607">
        <ele>148.8</ele>
        <time>2025-07-09T17:22:27Z</time>
      </trkpt>
      <trkpt lat="48.13094167" lon="22.31590333">
        <ele>148.7</ele>
        <time>2025-07-09T17:22:28Z</time>
      </trkpt>
      <trkpt lat="48.13096" lon="22.31574667">
        <ele>148.5</ele>
        <time>2025-07-09T17:22:29Z</time>
      </trkpt>
      <trkpt lat="48.13097167" lon="22.31558167">
        <ele>148.2</ele>
        <time>2025-07-09T17:22:30Z</time>
      </trkpt>
      <trkpt lat="48.13098333" lon="22.31542167">
        <ele>147.7</ele>
        <time>2025-07-09T17:22:31Z</time>
      </trkpt>
      <trkpt lat="48.13098833" lon="22.31527333">
        <ele>147.5</ele>
        <time>2025-07-09T17:22:32Z</time>
      </trkpt>
      <trkpt lat="48.13099333" lon="22.31512333">
        <ele>147.5</ele>
        <time>2025-07-09T17:22:33Z</time>
      </trkpt>
      <trkpt lat="48.13102" lon="22.31498333">
        <ele>148.7</ele>
        <time>2025-07-09T17:22:34Z</time>
      </trkpt>
      <trkpt lat="48.13103333" lon="22.31483833">
        <ele>150.3</ele>
        <time>2025-07-09T17:22:35Z</time>
      </trkpt>
      <trkpt lat="48.13104667" lon="22.3147">
        <ele>150.8</ele>
        <time>2025-07-09T17:22:36Z</time>
      </trkpt>
      <trkpt lat="48.13105" lon="22.314565">
        <ele>152</ele>
        <time>2025-07-09T17:22:37Z</time>
      </trkpt>
      <trkpt lat="48.131045" lon="22.31442333">
        <ele>152.9</ele>
        <time>2025-07-09T17:22:38Z</time>
      </trkpt>
      <trkpt lat="48.13102667" lon="22.31425833">
        <ele>152.8</ele>
        <time>2025-07-09T17:22:39Z</time>
      </trkpt>
      <trkpt lat="48.13100333" lon="22.31409667">
        <ele>152.3</ele>
        <time>2025-07-09T17:22:40Z</time>
      </trkpt>
      <trkpt lat="48.13098333" lon="22.313935">
        <ele>152.1</ele>
        <time>2025-07-09T17:22:41Z</time>
      </trkpt>
      <trkpt lat="48.130965" lon="22.31376833">
        <ele>151.8</ele>
        <time>2025-07-09T17:22:42Z</time>
      </trkpt>
      <trkpt lat="48.13094833" lon="22.31361167">
        <ele>152</ele>
        <time>2025-07-09T17:22:43Z</time>
      </trkpt>
      <trkpt lat="48.13093333" lon="22.31345">
        <ele>152</ele>
        <time>2025-07-09T17:22:44Z</time>
      </trkpt>
      <trkpt lat="48.13091333" lon="22.31328167">
        <ele>150.5</ele>
        <time>2025-07-09T17:22:45Z</time>
      </trkpt>
      <trkpt lat="48.13089" lon="22.313115">
        <ele>150.5</ele>
        <time>2025-07-09T17:22:46Z</time>
      </trkpt>
      <trkpt lat="48.13086" lon="22.31294833">
        <ele>150.6</ele>
        <time>2025-07-09T17:22:47Z</time>
      </trkpt>
      <trkpt lat="48.13081833" lon="22.312785">
        <ele>150.4</ele>
        <time>2025-07-09T17:22:48Z</time>
      </trkpt>
      <trkpt lat="48.13077167" lon="22.31263667">
        <ele>150.4</ele>
        <time>2025-07-09T17:22:49Z</time>
      </trkpt>
      <trkpt lat="48.13071333" lon="22.31247667">
        <ele>150.8</ele>
        <time>2025-07-09T17:22:50Z</time>
      </trkpt>
      <trkpt lat="48.13066333" lon="22.31230333">
        <ele>150.3</ele>
        <time>2025-07-09T17:22:51Z</time>
      </trkpt>
      <trkpt lat="48.13060333" lon="22.31212667">
        <ele>149.6</ele>
        <time>2025-07-09T17:22:52Z</time>
      </trkpt>
      <trkpt lat="48.13054667" lon="22.31194667">
        <ele>149.3</ele>
        <time>2025-07-09T17:22:53Z</time>
      </trkpt>
      <trkpt lat="48.13049" lon="22.31177">
        <ele>148.4</ele>
        <time>2025-07-09T17:22:54Z</time>
      </trkpt>
      <trkpt lat="48.13041833" lon="22.31160333">
        <ele>145.1</ele>
        <time>2025-07-09T17:22:55Z</time>
      </trkpt>
      <trkpt lat="48.13034667" lon="22.311425">
        <ele>146.5</ele>
        <time>2025-07-09T17:22:56Z</time>
      </trkpt>
      <trkpt lat="48.13028333" lon="22.31124833">
        <ele>148.3</ele>
        <time>2025-07-09T17:22:57Z</time>
      </trkpt>
      <trkpt lat="48.13022833" lon="22.31107667">
        <ele>148.7</ele>
        <time>2025-07-09T17:22:58Z</time>
      </trkpt>
      <trkpt lat="48.13017167" lon="22.310905">
        <ele>148.8</ele>
        <time>2025-07-09T17:22:59Z</time>
      </trkpt>
      <trkpt lat="48.13011667" lon="22.31072833">
        <ele>149.6</ele>
        <time>2025-07-09T17:23:00Z</time>
      </trkpt>
      <trkpt lat="48.130065" lon="22.31056167">
        <ele>150.2</ele>
        <time>2025-07-09T17:23:01Z</time>
      </trkpt>
      <trkpt lat="48.13001333" lon="22.31039833">
        <ele>150.6</ele>
        <time>2025-07-09T17:23:02Z</time>
      </trkpt>
      <trkpt lat="48.12996333" lon="22.31023333">
        <ele>150.7</ele>
        <time>2025-07-09T17:23:03Z</time>
      </trkpt>
      <trkpt lat="48.12990833" lon="22.31006333">
        <ele>150.1</ele>
        <time>2025-07-09T17:23:04Z</time>
      </trkpt>
      <trkpt lat="48.12985833" lon="22.309885">
        <ele>149.9</ele>
        <time>2025-07-09T17:23:05Z</time>
      </trkpt>
      <trkpt lat="48.12981" lon="22.30971667">
        <ele>150.3</ele>
        <time>2025-07-09T17:23:06Z</time>
      </trkpt>
      <trkpt lat="48.12975833" lon="22.30954833">
        <ele>150.9</ele>
        <time>2025-07-09T17:23:07Z</time>
      </trkpt>
      <trkpt lat="48.129705" lon="22.30938">
        <ele>150.8</ele>
        <time>2025-07-09T17:23:08Z</time>
      </trkpt>
      <trkpt lat="48.12965667" lon="22.309215">
        <ele>151.1</ele>
        <time>2025-07-09T17:23:09Z</time>
      </trkpt>
      <trkpt lat="48.129605" lon="22.30905333">
        <ele>151.6</ele>
        <time>2025-07-09T17:23:10Z</time>
      </trkpt>
      <trkpt lat="48.12955667" lon="22.30888333">
        <ele>151.5</ele>
        <time>2025-07-09T17:23:11Z</time>
      </trkpt>
      <trkpt lat="48.129505" lon="22.30872833">
        <ele>152.6</ele>
        <time>2025-07-09T17:23:12Z</time>
      </trkpt>
      <trkpt lat="48.12944833" lon="22.30856167">
        <ele>153</ele>
        <time>2025-07-09T17:23:13Z</time>
      </trkpt>
      <trkpt lat="48.12938833" lon="22.30841333">
        <ele>153.3</ele>
        <time>2025-07-09T17:23:14Z</time>
      </trkpt>
      <trkpt lat="48.12933667" lon="22.30826">
        <ele>153.7</ele>
        <time>2025-07-09T17:23:15Z</time>
      </trkpt>
      <trkpt lat="48.12928" lon="22.30810333">
        <ele>153.9</ele>
        <time>2025-07-09T17:23:16Z</time>
      </trkpt>
      <trkpt lat="48.12922667" lon="22.30794167">
        <ele>155.5</ele>
        <time>2025-07-09T17:23:17Z</time>
      </trkpt>
      <trkpt lat="48.129175" lon="22.307785">
        <ele>155.5</ele>
        <time>2025-07-09T17:23:18Z</time>
      </trkpt>
      <trkpt lat="48.12912667" lon="22.30763667">
        <ele>155.6</ele>
        <time>2025-07-09T17:23:19Z</time>
      </trkpt>
      <trkpt lat="48.129085" lon="22.30749333">
        <ele>156.3</ele>
        <time>2025-07-09T17:23:20Z</time>
      </trkpt>
      <trkpt lat="48.12904833" lon="22.30736167">
        <ele>155.4</ele>
        <time>2025-07-09T17:23:21Z</time>
      </trkpt>
      <trkpt lat="48.12901333" lon="22.30723333">
        <ele>154</ele>
        <time>2025-07-09T17:23:22Z</time>
      </trkpt>
      <trkpt lat="48.128965" lon="22.30704333">
        <ele>153.7</ele>
        <time>2025-07-09T17:23:24Z</time>
      </trkpt>
      <trkpt lat="48.12899" lon="22.30687167">
        <ele>152.7</ele>
        <time>2025-07-09T17:23:26Z</time>
      </trkpt>
      <trkpt lat="48.12911167" lon="22.30676333">
        <ele>154.1</ele>
        <time>2025-07-09T17:23:28Z</time>
      </trkpt>
      <trkpt lat="48.12920667" lon="22.30672667">
        <ele>154.9</ele>
        <time>2025-07-09T17:23:29Z</time>
      </trkpt>
      <trkpt lat="48.129305" lon="22.30667333">
        <ele>155.3</ele>
        <time>2025-07-09T17:23:30Z</time>
      </trkpt>
      <trkpt lat="48.12939667" lon="22.30660333">
        <ele>155.1</ele>
        <time>2025-07-09T17:23:31Z</time>
      </trkpt>
      <trkpt lat="48.12949667" lon="22.306535">
        <ele>154.3</ele>
        <time>2025-07-09T17:23:32Z</time>
      </trkpt>
      <trkpt lat="48.12960333" lon="22.30645833">
        <ele>153.7</ele>
        <time>2025-07-09T17:23:33Z</time>
      </trkpt>
      <trkpt lat="48.12970833" lon="22.306375">
        <ele>152.3</ele>
        <time>2025-07-09T17:23:34Z</time>
      </trkpt>
      <trkpt lat="48.12981833" lon="22.30629833">
        <ele>152.6</ele>
        <time>2025-07-09T17:23:35Z</time>
      </trkpt>
      <trkpt lat="48.12993" lon="22.30622667">
        <ele>151.8</ele>
        <time>2025-07-09T17:23:36Z</time>
      </trkpt>
      <trkpt lat="48.13003833" lon="22.30615">
        <ele>151.3</ele>
        <time>2025-07-09T17:23:37Z</time>
      </trkpt>
      <trkpt lat="48.13015" lon="22.30606333">
        <ele>150.9</ele>
        <time>2025-07-09T17:23:38Z</time>
      </trkpt>
      <trkpt lat="48.13026" lon="22.30598667">
        <ele>150.6</ele>
        <time>2025-07-09T17:23:39Z</time>
      </trkpt>
      <trkpt lat="48.13037833" lon="22.30589833">
        <ele>151.4</ele>
        <time>2025-07-09T17:23:40Z</time>
      </trkpt>
      <trkpt lat="48.13050167" lon="22.30582167">
        <ele>151.6</ele>
        <time>2025-07-09T17:23:41Z</time>
      </trkpt>
      <trkpt lat="48.13062833" lon="22.30573333">
        <ele>150.8</ele>
        <time>2025-07-09T17:23:42Z</time>
      </trkpt>
      <trkpt lat="48.13075" lon="22.30566">
        <ele>151.4</ele>
        <time>2025-07-09T17:23:43Z</time>
      </trkpt>
      <trkpt lat="48.13086667" lon="22.305575">
        <ele>151</ele>
        <time>2025-07-09T17:23:44Z</time>
      </trkpt>
      <trkpt lat="48.13097" lon="22.30549167">
        <ele>151.7</ele>
        <time>2025-07-09T17:23:45Z</time>
      </trkpt>
      <trkpt lat="48.131075" lon="22.30541">
        <ele>152.2</ele>
        <time>2025-07-09T17:23:46Z</time>
      </trkpt>
      <trkpt lat="48.13118" lon="22.30535833">
        <ele>151</ele>
        <time>2025-07-09T17:23:47Z</time>
      </trkpt>
      <trkpt lat="48.13127667" lon="22.305275">
        <ele>151.2</ele>
        <time>2025-07-09T17:23:48Z</time>
      </trkpt>
      <trkpt lat="48.13137667" lon="22.305185">
        <ele>150.5</ele>
        <time>2025-07-09T17:23:49Z</time>
      </trkpt>
      <trkpt lat="48.13151" lon="22.30509167">
        <ele>153.2</ele>
        <time>2025-07-09T17:23:50Z</time>
      </trkpt>
      <trkpt lat="48.13163333" lon="22.305005">
        <ele>152.7</ele>
        <time>2025-07-09T17:23:51Z</time>
      </trkpt>
      <trkpt lat="48.13174833" lon="22.304915">
        <ele>152.8</ele>
        <time>2025-07-09T17:23:52Z</time>
      </trkpt>
      <trkpt lat="48.13186667" lon="22.30482667">
        <ele>152.8</ele>
        <time>2025-07-09T17:23:53Z</time>
      </trkpt>
      <trkpt lat="48.13199333" lon="22.30473167">
        <ele>152.6</ele>
        <time>2025-07-09T17:23:54Z</time>
      </trkpt>
      <trkpt lat="48.13212333" lon="22.30465">
        <ele>152.1</ele>
        <time>2025-07-09T17:23:55Z</time>
      </trkpt>
      <trkpt lat="48.13225167" lon="22.30456667">
        <ele>152.5</ele>
        <time>2025-07-09T17:23:56Z</time>
      </trkpt>
      <trkpt lat="48.13238167" lon="22.30447167">
        <ele>152.4</ele>
        <time>2025-07-09T17:23:57Z</time>
      </trkpt>
      <trkpt lat="48.1325" lon="22.30434667">
        <ele>152.3</ele>
        <time>2025-07-09T17:23:58Z</time>
      </trkpt>
      <trkpt lat="48.13262" lon="22.304215">
        <ele>151.9</ele>
        <time>2025-07-09T17:23:59Z</time>
      </trkpt>
      <trkpt lat="48.13271167" lon="22.304085">
        <ele>151.7</ele>
        <time>2025-07-09T17:24:00Z</time>
      </trkpt>
      <trkpt lat="48.13281167" lon="22.30394">
        <ele>151.1</ele>
        <time>2025-07-09T17:24:01Z</time>
      </trkpt>
      <trkpt lat="48.13290833" lon="22.30378">
        <ele>148.7</ele>
        <time>2025-07-09T17:24:02Z</time>
      </trkpt>
      <trkpt lat="48.13301" lon="22.303625">
        <ele>147.9</ele>
        <time>2025-07-09T17:24:03Z</time>
      </trkpt>
      <trkpt lat="48.13312" lon="22.30347333">
        <ele>148.1</ele>
        <time>2025-07-09T17:24:04Z</time>
      </trkpt>
      <trkpt lat="48.13322" lon="22.30333333">
        <ele>147.9</ele>
        <time>2025-07-09T17:24:05Z</time>
      </trkpt>
      <trkpt lat="48.133325" lon="22.30318333">
        <ele>147.9</ele>
        <time>2025-07-09T17:24:06Z</time>
      </trkpt>
      <trkpt lat="48.133425" lon="22.30303833">
        <ele>148.6</ele>
        <time>2025-07-09T17:24:07Z</time>
      </trkpt>
      <trkpt lat="48.13352833" lon="22.30288167">
        <ele>148.1</ele>
        <time>2025-07-09T17:24:08Z</time>
      </trkpt>
      <trkpt lat="48.13363833" lon="22.302735">
        <ele>148.6</ele>
        <time>2025-07-09T17:24:09Z</time>
      </trkpt>
      <trkpt lat="48.13375167" lon="22.30260667">
        <ele>148.6</ele>
        <time>2025-07-09T17:24:10Z</time>
      </trkpt>
      <trkpt lat="48.13387667" lon="22.30249333">
        <ele>148</ele>
        <time>2025-07-09T17:24:11Z</time>
      </trkpt>
      <trkpt lat="48.134005" lon="22.30241167">
        <ele>147.5</ele>
        <time>2025-07-09T17:24:12Z</time>
      </trkpt>
      <trkpt lat="48.134135" lon="22.30235">
        <ele>147.4</ele>
        <time>2025-07-09T17:24:13Z</time>
      </trkpt>
      <trkpt lat="48.13427" lon="22.3023">
        <ele>147.4</ele>
        <time>2025-07-09T17:24:14Z</time>
      </trkpt>
      <trkpt lat="48.13440167" lon="22.30225667">
        <ele>147.9</ele>
        <time>2025-07-09T17:24:15Z</time>
      </trkpt>
      <trkpt lat="48.13452167" lon="22.30221667">
        <ele>148</ele>
        <time>2025-07-09T17:24:16Z</time>
      </trkpt>
      <trkpt lat="48.13464167" lon="22.302225">
        <ele>148.1</ele>
        <time>2025-07-09T17:24:17Z</time>
      </trkpt>
      <trkpt lat="48.13475" lon="22.30226333">
        <ele>150.1</ele>
        <time>2025-07-09T17:24:18Z</time>
      </trkpt>
      <trkpt lat="48.13487167" lon="22.30229667">
        <ele>150.1</ele>
        <time>2025-07-09T17:24:19Z</time>
      </trkpt>
      <trkpt lat="48.13499333" lon="22.30231833">
        <ele>150.1</ele>
        <time>2025-07-09T17:24:20Z</time>
      </trkpt>
      <trkpt lat="48.13511833" lon="22.30233">
        <ele>150.1</ele>
        <time>2025-07-09T17:24:21Z</time>
      </trkpt>
      <trkpt lat="48.13524667" lon="22.30233667">
        <ele>149.8</ele>
        <time>2025-07-09T17:24:22Z</time>
      </trkpt>
      <trkpt lat="48.13537333" lon="22.30232333">
        <ele>149.6</ele>
        <time>2025-07-09T17:24:23Z</time>
      </trkpt>
      <trkpt lat="48.13549167" lon="22.3023">
        <ele>149.4</ele>
        <time>2025-07-09T17:24:24Z</time>
      </trkpt>
      <trkpt lat="48.13560833" lon="22.30229167">
        <ele>145</ele>
        <time>2025-07-09T17:24:25Z</time>
      </trkpt>
      <trkpt lat="48.13572833" lon="22.30228167">
        <ele>144.5</ele>
        <time>2025-07-09T17:24:26Z</time>
      </trkpt>
      <trkpt lat="48.13584333" lon="22.30229">
        <ele>144.8</ele>
        <time>2025-07-09T17:24:27Z</time>
      </trkpt>
      <trkpt lat="48.13596833" lon="22.30230667">
        <ele>144.8</ele>
        <time>2025-07-09T17:24:28Z</time>
      </trkpt>
      <trkpt lat="48.136105" lon="22.30233">
        <ele>144.8</ele>
        <time>2025-07-09T17:24:29Z</time>
      </trkpt>
      <trkpt lat="48.13625" lon="22.30235333">
        <ele>145.4</ele>
        <time>2025-07-09T17:24:30Z</time>
      </trkpt>
      <trkpt lat="48.13639667" lon="22.30237">
        <ele>146.1</ele>
        <time>2025-07-09T17:24:31Z</time>
      </trkpt>
      <trkpt lat="48.13654167" lon="22.302385">
        <ele>146</ele>
        <time>2025-07-09T17:24:32Z</time>
      </trkpt>
      <trkpt lat="48.13668167" lon="22.30238">
        <ele>146.3</ele>
        <time>2025-07-09T17:24:33Z</time>
      </trkpt>
      <trkpt lat="48.13682667" lon="22.30239833">
        <ele>146.2</ele>
        <time>2025-07-09T17:24:34Z</time>
      </trkpt>
      <trkpt lat="48.13697" lon="22.30241833">
        <ele>145.5</ele>
        <time>2025-07-09T17:24:35Z</time>
      </trkpt>
      <trkpt lat="48.137115" lon="22.30243333">
        <ele>146.3</ele>
        <time>2025-07-09T17:24:36Z</time>
      </trkpt>
      <trkpt lat="48.13726" lon="22.30246">
        <ele>144.4</ele>
        <time>2025-07-09T17:24:37Z</time>
      </trkpt>
      <trkpt lat="48.13740667" lon="22.30247833">
        <ele>143.4</ele>
        <time>2025-07-09T17:24:38Z</time>
      </trkpt>
      <trkpt lat="48.13755667" lon="22.30248833">
        <ele>143.1</ele>
        <time>2025-07-09T17:24:39Z</time>
      </trkpt>
      <trkpt lat="48.13769667" lon="22.30249167">
        <ele>143.8</ele>
        <time>2025-07-09T17:24:40Z</time>
      </trkpt>
      <trkpt lat="48.137835" lon="22.302465">
        <ele>143.4</ele>
        <time>2025-07-09T17:24:41Z</time>
      </trkpt>
      <trkpt lat="48.13796667" lon="22.30240167">
        <ele>144.6</ele>
        <time>2025-07-09T17:24:42Z</time>
      </trkpt>
      <trkpt lat="48.13807833" lon="22.30233">
        <ele>145.8</ele>
        <time>2025-07-09T17:24:43Z</time>
      </trkpt>
      <trkpt lat="48.13819833" lon="22.30224667">
        <ele>145.3</ele>
        <time>2025-07-09T17:24:44Z</time>
      </trkpt>
      <trkpt lat="48.13831833" lon="22.30215167">
        <ele>144</ele>
        <time>2025-07-09T17:24:45Z</time>
      </trkpt>
      <trkpt lat="48.13844" lon="22.30206">
        <ele>143.8</ele>
        <time>2025-07-09T17:24:46Z</time>
      </trkpt>
      <trkpt lat="48.138565" lon="22.301975">
        <ele>144.1</ele>
        <time>2025-07-09T17:24:47Z</time>
      </trkpt>
      <trkpt lat="48.13869333" lon="22.30189167">
        <ele>143.2</ele>
        <time>2025-07-09T17:24:48Z</time>
      </trkpt>
      <trkpt lat="48.13881667" lon="22.30180667">
        <ele>143</ele>
        <time>2025-07-09T17:24:49Z</time>
      </trkpt>
      <trkpt lat="48.13894333" lon="22.30171167">
        <ele>143.4</ele>
        <time>2025-07-09T17:24:50Z</time>
      </trkpt>
      <trkpt lat="48.13906667" lon="22.30162167">
        <ele>143.4</ele>
        <time>2025-07-09T17:24:51Z</time>
      </trkpt>
      <trkpt lat="48.13917833" lon="22.30152333">
        <ele>142.5</ele>
        <time>2025-07-09T17:24:52Z</time>
      </trkpt>
      <trkpt lat="48.13929667" lon="22.30143167">
        <ele>142.1</ele>
        <time>2025-07-09T17:24:53Z</time>
      </trkpt>
      <trkpt lat="48.139425" lon="22.30133833">
        <ele>142.1</ele>
        <time>2025-07-09T17:24:54Z</time>
      </trkpt>
      <trkpt lat="48.139555" lon="22.30124">
        <ele>141.9</ele>
        <time>2025-07-09T17:24:55Z</time>
      </trkpt>
      <trkpt lat="48.13969" lon="22.301145">
        <ele>142.2</ele>
        <time>2025-07-09T17:24:56Z</time>
      </trkpt>
      <trkpt lat="48.13982667" lon="22.30105">
        <ele>142.7</ele>
        <time>2025-07-09T17:24:57Z</time>
      </trkpt>
      <trkpt lat="48.13995833" lon="22.300955">
        <ele>143.3</ele>
        <time>2025-07-09T17:24:58Z</time>
      </trkpt>
      <trkpt lat="48.14008833" lon="22.30086">
        <ele>147</ele>
        <time>2025-07-09T17:24:59Z</time>
      </trkpt>
      <trkpt lat="48.140225" lon="22.30076167">
        <ele>147.5</ele>
        <time>2025-07-09T17:25:00Z</time>
      </trkpt>
      <trkpt lat="48.140375" lon="22.30066333">
        <ele>146.7</ele>
        <time>2025-07-09T17:25:01Z</time>
      </trkpt>
      <trkpt lat="48.14052" lon="22.30057833">
        <ele>145.6</ele>
        <time>2025-07-09T17:25:02Z</time>
      </trkpt>
      <trkpt lat="48.140655" lon="22.30046833">
        <ele>148.4</ele>
        <time>2025-07-09T17:25:03Z</time>
      </trkpt>
      <trkpt lat="48.14077667" lon="22.30037667">
        <ele>151.3</ele>
        <time>2025-07-09T17:25:04Z</time>
      </trkpt>
      <trkpt lat="48.14089333" lon="22.3003">
        <ele>152.6</ele>
        <time>2025-07-09T17:25:05Z</time>
      </trkpt>
      <trkpt lat="48.14102333" lon="22.30021833">
        <ele>152</ele>
        <time>2025-07-09T17:25:06Z</time>
      </trkpt>
      <trkpt lat="48.14115333" lon="22.30013333">
        <ele>151.2</ele>
        <time>2025-07-09T17:25:07Z</time>
      </trkpt>
      <trkpt lat="48.14126333" lon="22.30002833">
        <ele>153.1</ele>
        <time>2025-07-09T17:25:08Z</time>
      </trkpt>
      <trkpt lat="48.141385" lon="22.29994167">
        <ele>153.2</ele>
        <time>2025-07-09T17:25:09Z</time>
      </trkpt>
      <trkpt lat="48.141505" lon="22.29986333">
        <ele>154.2</ele>
        <time>2025-07-09T17:25:10Z</time>
      </trkpt>
      <trkpt lat="48.14162833" lon="22.299785">
        <ele>153.8</ele>
        <time>2025-07-09T17:25:11Z</time>
      </trkpt>
      <trkpt lat="48.14176" lon="22.29969833">
        <ele>153.4</ele>
        <time>2025-07-09T17:25:12Z</time>
      </trkpt>
      <trkpt lat="48.14190667" lon="22.29960167">
        <ele>151.1</ele>
        <time>2025-07-09T17:25:13Z</time>
      </trkpt>
      <trkpt lat="48.14202833" lon="22.29949167">
        <ele>151.1</ele>
        <time>2025-07-09T17:25:14Z</time>
      </trkpt>
      <trkpt lat="48.14215167" lon="22.29938167">
        <ele>151.3</ele>
        <time>2025-07-09T17:25:15Z</time>
      </trkpt>
      <trkpt lat="48.14228333" lon="22.29929">
        <ele>153.2</ele>
        <time>2025-07-09T17:25:16Z</time>
      </trkpt>
      <trkpt lat="48.14238333" lon="22.29919333">
        <ele>152.4</ele>
        <time>2025-07-09T17:25:17Z</time>
      </trkpt>
      <trkpt lat="48.1425" lon="22.299105">
        <ele>152.5</ele>
        <time>2025-07-09T17:25:18Z</time>
      </trkpt>
      <trkpt lat="48.142615" lon="22.29902667">
        <ele>150</ele>
        <time>2025-07-09T17:25:19Z</time>
      </trkpt>
      <trkpt lat="48.14273333" lon="22.29893667">
        <ele>150</ele>
        <time>2025-07-09T17:25:20Z</time>
      </trkpt>
      <trkpt lat="48.14285167" lon="22.29885">
        <ele>150.1</ele>
        <time>2025-07-09T17:25:21Z</time>
      </trkpt>
      <trkpt lat="48.14297333" lon="22.29876333">
        <ele>150.3</ele>
        <time>2025-07-09T17:25:22Z</time>
      </trkpt>
      <trkpt lat="48.143095" lon="22.29867333">
        <ele>150.6</ele>
        <time>2025-07-09T17:25:23Z</time>
      </trkpt>
      <trkpt lat="48.14322" lon="22.298585">
        <ele>150.4</ele>
        <time>2025-07-09T17:25:24Z</time>
      </trkpt>
      <trkpt lat="48.143355" lon="22.298495">
        <ele>150.1</ele>
        <time>2025-07-09T17:25:25Z</time>
      </trkpt>
      <trkpt lat="48.14348667" lon="22.29841167">
        <ele>150.2</ele>
        <time>2025-07-09T17:25:26Z</time>
      </trkpt>
      <trkpt lat="48.14361167" lon="22.298325">
        <ele>150</ele>
        <time>2025-07-09T17:25:27Z</time>
      </trkpt>
      <trkpt lat="48.143735" lon="22.29824">
        <ele>149.3</ele>
        <time>2025-07-09T17:25:28Z</time>
      </trkpt>
      <trkpt lat="48.14387833" lon="22.29816167">
        <ele>151.3</ele>
        <time>2025-07-09T17:25:29Z</time>
      </trkpt>
      <trkpt lat="48.14399667" lon="22.29804333">
        <ele>149.4</ele>
        <time>2025-07-09T17:25:30Z</time>
      </trkpt>
      <trkpt lat="48.14413167" lon="22.297975">
        <ele>146.9</ele>
        <time>2025-07-09T17:25:31Z</time>
      </trkpt>
      <trkpt lat="48.14426833" lon="22.29787833">
        <ele>146.5</ele>
        <time>2025-07-09T17:25:32Z</time>
      </trkpt>
      <trkpt lat="48.14440333" lon="22.29778833">
        <ele>146.7</ele>
        <time>2025-07-09T17:25:33Z</time>
      </trkpt>
      <trkpt lat="48.14452667" lon="22.29768167">
        <ele>148.8</ele>
        <time>2025-07-09T17:25:34Z</time>
      </trkpt>
      <trkpt lat="48.14466" lon="22.29758667">
        <ele>148.9</ele>
        <time>2025-07-09T17:25:35Z</time>
      </trkpt>
      <trkpt lat="48.14479333" lon="22.29749167">
        <ele>149</ele>
        <time>2025-07-09T17:25:36Z</time>
      </trkpt>
      <trkpt lat="48.14492" lon="22.29740667">
        <ele>149.3</ele>
        <time>2025-07-09T17:25:37Z</time>
      </trkpt>
      <trkpt lat="48.14504833" lon="22.29732167">
        <ele>149.3</ele>
        <time>2025-07-09T17:25:38Z</time>
      </trkpt>
      <trkpt lat="48.14518" lon="22.29722667">
        <ele>148.9</ele>
        <time>2025-07-09T17:25:39Z</time>
      </trkpt>
      <trkpt lat="48.14529333" lon="22.29712833">
        <ele>147.7</ele>
        <time>2025-07-09T17:25:40Z</time>
      </trkpt>
      <trkpt lat="48.14542667" lon="22.29703333">
        <ele>147.6</ele>
        <time>2025-07-09T17:25:41Z</time>
      </trkpt>
      <trkpt lat="48.14556167" lon="22.29694">
        <ele>147.7</ele>
        <time>2025-07-09T17:25:42Z</time>
      </trkpt>
      <trkpt lat="48.145695" lon="22.29685667">
        <ele>147.5</ele>
        <time>2025-07-09T17:25:43Z</time>
      </trkpt>
      <trkpt lat="48.14583" lon="22.29676667">
        <ele>147.3</ele>
        <time>2025-07-09T17:25:44Z</time>
      </trkpt>
      <trkpt lat="48.14596333" lon="22.296665">
        <ele>148.4</ele>
        <time>2025-07-09T17:25:45Z</time>
      </trkpt>
      <trkpt lat="48.14609833" lon="22.29655833">
        <ele>148.4</ele>
        <time>2025-07-09T17:25:46Z</time>
      </trkpt>
      <trkpt lat="48.14623333" lon="22.29645833">
        <ele>148.4</ele>
        <time>2025-07-09T17:25:47Z</time>
      </trkpt>
      <trkpt lat="48.14637167" lon="22.296345">
        <ele>148.1</ele>
        <time>2025-07-09T17:25:48Z</time>
      </trkpt>
      <trkpt lat="48.14650833" lon="22.29624667">
        <ele>147.8</ele>
        <time>2025-07-09T17:25:49Z</time>
      </trkpt>
      <trkpt lat="48.14664167" lon="22.29615333">
        <ele>147.5</ele>
        <time>2025-07-09T17:25:50Z</time>
      </trkpt>
      <trkpt lat="48.14677333" lon="22.29604833">
        <ele>147</ele>
        <time>2025-07-09T17:25:51Z</time>
      </trkpt>
      <trkpt lat="48.14689833" lon="22.29596">
        <ele>144.5</ele>
        <time>2025-07-09T17:25:52Z</time>
      </trkpt>
      <trkpt lat="48.14702833" lon="22.29586167">
        <ele>143.9</ele>
        <time>2025-07-09T17:25:53Z</time>
      </trkpt>
      <trkpt lat="48.147155" lon="22.29577333">
        <ele>144.7</ele>
        <time>2025-07-09T17:25:54Z</time>
      </trkpt>
      <trkpt lat="48.14728833" lon="22.29568333">
        <ele>145.5</ele>
        <time>2025-07-09T17:25:55Z</time>
      </trkpt>
      <trkpt lat="48.14742667" lon="22.29559167">
        <ele>145.8</ele>
        <time>2025-07-09T17:25:56Z</time>
      </trkpt>
      <trkpt lat="48.14756333" lon="22.29549833">
        <ele>146.6</ele>
        <time>2025-07-09T17:25:57Z</time>
      </trkpt>
      <trkpt lat="48.14770333" lon="22.295385">
        <ele>147</ele>
        <time>2025-07-09T17:25:58Z</time>
      </trkpt>
      <trkpt lat="48.14783" lon="22.29528167">
        <ele>146</ele>
        <time>2025-07-09T17:25:59Z</time>
      </trkpt>
      <trkpt lat="48.147975" lon="22.29517833">
        <ele>145.8</ele>
        <time>2025-07-09T17:26:00Z</time>
      </trkpt>
      <trkpt lat="48.14811667" lon="22.295085">
        <ele>145.9</ele>
        <time>2025-07-09T17:26:01Z</time>
      </trkpt>
      <trkpt lat="48.14825833" lon="22.294995">
        <ele>145.5</ele>
        <time>2025-07-09T17:26:02Z</time>
      </trkpt>
      <trkpt lat="48.14839833" lon="22.29489833">
        <ele>145.5</ele>
        <time>2025-07-09T17:26:03Z</time>
      </trkpt>
      <trkpt lat="48.14853167" lon="22.2948">
        <ele>145.1</ele>
        <time>2025-07-09T17:26:04Z</time>
      </trkpt>
      <trkpt lat="48.14865167" lon="22.29469167">
        <ele>142.3</ele>
        <time>2025-07-09T17:26:05Z</time>
      </trkpt>
      <trkpt lat="48.148775" lon="22.29457333">
        <ele>141.6</ele>
        <time>2025-07-09T17:26:06Z</time>
      </trkpt>
      <trkpt lat="48.14888333" lon="22.29445667">
        <ele>141.5</ele>
        <time>2025-07-09T17:26:07Z</time>
      </trkpt>
      <trkpt lat="48.149" lon="22.29431667">
        <ele>141.7</ele>
        <time>2025-07-09T17:26:08Z</time>
      </trkpt>
      <trkpt lat="48.149105" lon="22.29417667">
        <ele>141.7</ele>
        <time>2025-07-09T17:26:09Z</time>
      </trkpt>
      <trkpt lat="48.149215" lon="22.29402167">
        <ele>142.5</ele>
        <time>2025-07-09T17:26:10Z</time>
      </trkpt>
      <trkpt lat="48.14932333" lon="22.293865">
        <ele>143.5</ele>
        <time>2025-07-09T17:26:11Z</time>
      </trkpt>
      <trkpt lat="48.149435" lon="22.29371167">
        <ele>145.4</ele>
        <time>2025-07-09T17:26:12Z</time>
      </trkpt>
      <trkpt lat="48.149545" lon="22.293555">
        <ele>147.7</ele>
        <time>2025-07-09T17:26:13Z</time>
      </trkpt>
      <trkpt lat="48.14964667" lon="22.29340833">
        <ele>148.4</ele>
        <time>2025-07-09T17:26:14Z</time>
      </trkpt>
      <trkpt lat="48.14974667" lon="22.29326667">
        <ele>147.6</ele>
        <time>2025-07-09T17:26:15Z</time>
      </trkpt>
      <trkpt lat="48.14985" lon="22.29312833">
        <ele>147.9</ele>
        <time>2025-07-09T17:26:16Z</time>
      </trkpt>
      <trkpt lat="48.149955" lon="22.29299833">
        <ele>147.8</ele>
        <time>2025-07-09T17:26:17Z</time>
      </trkpt>
      <trkpt lat="48.15009667" lon="22.29287167">
        <ele>145.3</ele>
        <time>2025-07-09T17:26:18Z</time>
      </trkpt>
      <trkpt lat="48.15024333" lon="22.292725">
        <ele>147.9</ele>
        <time>2025-07-09T17:26:19Z</time>
      </trkpt>
      <trkpt lat="48.15037333" lon="22.29259667">
        <ele>147.8</ele>
        <time>2025-07-09T17:26:20Z</time>
      </trkpt>
      <trkpt lat="48.150505" lon="22.29249167">
        <ele>147.4</ele>
        <time>2025-07-09T17:26:21Z</time>
      </trkpt>
      <trkpt lat="48.150635" lon="22.29238333">
        <ele>146.9</ele>
        <time>2025-07-09T17:26:22Z</time>
      </trkpt>
      <trkpt lat="48.15076667" lon="22.29226667">
        <ele>145.4</ele>
        <time>2025-07-09T17:26:23Z</time>
      </trkpt>
      <trkpt lat="48.150895" lon="22.29214667">
        <ele>144.9</ele>
        <time>2025-07-09T17:26:24Z</time>
      </trkpt>
      <trkpt lat="48.15101" lon="22.29201333">
        <ele>146.6</ele>
        <time>2025-07-09T17:26:25Z</time>
      </trkpt>
      <trkpt lat="48.15112667" lon="22.29187833">
        <ele>148.1</ele>
        <time>2025-07-09T17:26:26Z</time>
      </trkpt>
      <trkpt lat="48.15125" lon="22.29173167">
        <ele>149.8</ele>
        <time>2025-07-09T17:26:27Z</time>
      </trkpt>
      <trkpt lat="48.15136167" lon="22.291575">
        <ele>150.4</ele>
        <time>2025-07-09T17:26:28Z</time>
      </trkpt>
      <trkpt lat="48.15148167" lon="22.291415">
        <ele>150.1</ele>
        <time>2025-07-09T17:26:29Z</time>
      </trkpt>
      <trkpt lat="48.15160833" lon="22.29127167">
        <ele>149.7</ele>
        <time>2025-07-09T17:26:30Z</time>
      </trkpt>
      <trkpt lat="48.15173167" lon="22.29111167">
        <ele>150.4</ele>
        <time>2025-07-09T17:26:31Z</time>
      </trkpt>
      <trkpt lat="48.151845" lon="22.29094833">
        <ele>150.2</ele>
        <time>2025-07-09T17:26:32Z</time>
      </trkpt>
      <trkpt lat="48.15195333" lon="22.29078667">
        <ele>150</ele>
        <time>2025-07-09T17:26:33Z</time>
      </trkpt>
      <trkpt lat="48.15207833" lon="22.29060167">
        <ele>148.4</ele>
        <time>2025-07-09T17:26:34Z</time>
      </trkpt>
      <trkpt lat="48.15217333" lon="22.29042667">
        <ele>148</ele>
        <time>2025-07-09T17:26:35Z</time>
      </trkpt>
      <trkpt lat="48.15224833" lon="22.29025333">
        <ele>148.3</ele>
        <time>2025-07-09T17:26:36Z</time>
      </trkpt>
      <trkpt lat="48.15231833" lon="22.29008333">
        <ele>147.6</ele>
        <time>2025-07-09T17:26:37Z</time>
      </trkpt>
      <trkpt lat="48.15237833" lon="22.289905">
        <ele>147.7</ele>
        <time>2025-07-09T17:26:38Z</time>
      </trkpt>
      <trkpt lat="48.15241833" lon="22.28971833">
        <ele>147.7</ele>
        <time>2025-07-09T17:26:39Z</time>
      </trkpt>
      <trkpt lat="48.15244833" lon="22.28950667">
        <ele>147.6</ele>
        <time>2025-07-09T17:26:40Z</time>
      </trkpt>
      <trkpt lat="48.15248333" lon="22.28929167">
        <ele>147.2</ele>
        <time>2025-07-09T17:26:41Z</time>
      </trkpt>
      <trkpt lat="48.15251" lon="22.28908167">
        <ele>147</ele>
        <time>2025-07-09T17:26:42Z</time>
      </trkpt>
      <trkpt lat="48.15253667" lon="22.28887333">
        <ele>146.7</ele>
        <time>2025-07-09T17:26:43Z</time>
      </trkpt>
      <trkpt lat="48.152565" lon="22.28866333">
        <ele>145.4</ele>
        <time>2025-07-09T17:26:44Z</time>
      </trkpt>
      <trkpt lat="48.15259333" lon="22.28842333">
        <ele>144.8</ele>
        <time>2025-07-09T17:26:45Z</time>
      </trkpt>
      <trkpt lat="48.15264333" lon="22.28821667">
        <ele>144.8</ele>
        <time>2025-07-09T17:26:46Z</time>
      </trkpt>
      <trkpt lat="48.15271333" lon="22.28801">
        <ele>144.5</ele>
        <time>2025-07-09T17:26:47Z</time>
      </trkpt>
      <trkpt lat="48.15279167" lon="22.28783333">
        <ele>144</ele>
        <time>2025-07-09T17:26:48Z</time>
      </trkpt>
      <trkpt lat="48.15287167" lon="22.28765">
        <ele>145</ele>
        <time>2025-07-09T17:26:49Z</time>
      </trkpt>
      <trkpt lat="48.152955" lon="22.28748333">
        <ele>144</ele>
        <time>2025-07-09T17:26:50Z</time>
      </trkpt>
      <trkpt lat="48.15303833" lon="22.28731">
        <ele>143</ele>
        <time>2025-07-09T17:26:51Z</time>
      </trkpt>
      <trkpt lat="48.15311833" lon="22.287135">
        <ele>142.7</ele>
        <time>2025-07-09T17:26:52Z</time>
      </trkpt>
      <trkpt lat="48.15321333" lon="22.28694667">
        <ele>143.4</ele>
        <time>2025-07-09T17:26:53Z</time>
      </trkpt>
      <trkpt lat="48.15331" lon="22.28676333">
        <ele>144.2</ele>
        <time>2025-07-09T17:26:54Z</time>
      </trkpt>
      <trkpt lat="48.153405" lon="22.28658">
        <ele>144.6</ele>
        <time>2025-07-09T17:26:55Z</time>
      </trkpt>
      <trkpt lat="48.15349167" lon="22.28640167">
        <ele>145</ele>
        <time>2025-07-09T17:26:56Z</time>
      </trkpt>
      <trkpt lat="48.15357667" lon="22.28622667">
        <ele>145.1</ele>
        <time>2025-07-09T17:26:57Z</time>
      </trkpt>
      <trkpt lat="48.15366167" lon="22.286045">
        <ele>145.1</ele>
        <time>2025-07-09T17:26:58Z</time>
      </trkpt>
      <trkpt lat="48.153745" lon="22.28586333">
        <ele>145.2</ele>
        <time>2025-07-09T17:26:59Z</time>
      </trkpt>
      <trkpt lat="48.15384167" lon="22.28568833">
        <ele>144.8</ele>
        <time>2025-07-09T17:27:00Z</time>
      </trkpt>
      <trkpt lat="48.15393167" lon="22.28552">
        <ele>145.1</ele>
        <time>2025-07-09T17:27:01Z</time>
      </trkpt>
      <trkpt lat="48.15401833" lon="22.285365">
        <ele>145.2</ele>
        <time>2025-07-09T17:27:02Z</time>
      </trkpt>
      <trkpt lat="48.154105" lon="22.285195">
        <ele>144.9</ele>
        <time>2025-07-09T17:27:03Z</time>
      </trkpt>
      <trkpt lat="48.15419" lon="22.285035">
        <ele>144.7</ele>
        <time>2025-07-09T17:27:04Z</time>
      </trkpt>
      <trkpt lat="48.15428667" lon="22.28485833">
        <ele>144.1</ele>
        <time>2025-07-09T17:27:05Z</time>
      </trkpt>
      <trkpt lat="48.154365" lon="22.28468333">
        <ele>143.9</ele>
        <time>2025-07-09T17:27:06Z</time>
      </trkpt>
      <trkpt lat="48.154445" lon="22.28451833">
        <ele>142.9</ele>
        <time>2025-07-09T17:27:07Z</time>
      </trkpt>
      <trkpt lat="48.15451667" lon="22.28434333">
        <ele>142.5</ele>
        <time>2025-07-09T17:27:08Z</time>
      </trkpt>
      <trkpt lat="48.15458833" lon="22.28417">
        <ele>142.7</ele>
        <time>2025-07-09T17:27:09Z</time>
      </trkpt>
      <trkpt lat="48.15466667" lon="22.284">
        <ele>142.7</ele>
        <time>2025-07-09T17:27:10Z</time>
      </trkpt>
      <trkpt lat="48.15475" lon="22.28383333">
        <ele>142.8</ele>
        <time>2025-07-09T17:27:11Z</time>
      </trkpt>
      <trkpt lat="48.15482833" lon="22.28367">
        <ele>142.8</ele>
        <time>2025-07-09T17:27:12Z</time>
      </trkpt>
      <trkpt lat="48.15491" lon="22.28351667">
        <ele>143</ele>
        <time>2025-07-09T17:27:13Z</time>
      </trkpt>
      <trkpt lat="48.15498" lon="22.28336333">
        <ele>142.5</ele>
        <time>2025-07-09T17:27:14Z</time>
      </trkpt>
      <trkpt lat="48.15505833" lon="22.28320667">
        <ele>142.3</ele>
        <time>2025-07-09T17:27:15Z</time>
      </trkpt>
      <trkpt lat="48.155135" lon="22.283055">
        <ele>142.6</ele>
        <time>2025-07-09T17:27:16Z</time>
      </trkpt>
      <trkpt lat="48.15520667" lon="22.28290833">
        <ele>143.2</ele>
        <time>2025-07-09T17:27:17Z</time>
      </trkpt>
      <trkpt lat="48.15527333" lon="22.282765">
        <ele>144.5</ele>
        <time>2025-07-09T17:27:18Z</time>
      </trkpt>
      <trkpt lat="48.155345" lon="22.282635">
        <ele>145.2</ele>
        <time>2025-07-09T17:27:19Z</time>
      </trkpt>
      <trkpt lat="48.15542667" lon="22.28250333">
        <ele>146</ele>
        <time>2025-07-09T17:27:20Z</time>
      </trkpt>
      <trkpt lat="48.155495" lon="22.28235833">
        <ele>146.5</ele>
        <time>2025-07-09T17:27:21Z</time>
      </trkpt>
      <trkpt lat="48.15558" lon="22.28223">
        <ele>148.2</ele>
        <time>2025-07-09T17:27:22Z</time>
      </trkpt>
      <trkpt lat="48.15563667" lon="22.2821">
        <ele>149.1</ele>
        <time>2025-07-09T17:27:23Z</time>
      </trkpt>
      <trkpt lat="48.15571167" lon="22.28195167">
        <ele>149.9</ele>
        <time>2025-07-09T17:27:24Z</time>
      </trkpt>
      <trkpt lat="48.15578667" lon="22.281815">
        <ele>149.8</ele>
        <time>2025-07-09T17:27:25Z</time>
      </trkpt>
      <trkpt lat="48.15586333" lon="22.28167833">
        <ele>150</ele>
        <time>2025-07-09T17:27:26Z</time>
      </trkpt>
      <trkpt lat="48.15594167" lon="22.28154167">
        <ele>150.4</ele>
        <time>2025-07-09T17:27:27Z</time>
      </trkpt>
      <trkpt lat="48.15602833" lon="22.28140667">
        <ele>150.4</ele>
        <time>2025-07-09T17:27:28Z</time>
      </trkpt>
      <trkpt lat="48.15610667" lon="22.28126333">
        <ele>149.9</ele>
        <time>2025-07-09T17:27:29Z</time>
      </trkpt>
      <trkpt lat="48.15619667" lon="22.28111667">
        <ele>149.8</ele>
        <time>2025-07-09T17:27:30Z</time>
      </trkpt>
      <trkpt lat="48.15628833" lon="22.28095833">
        <ele>149.6</ele>
        <time>2025-07-09T17:27:31Z</time>
      </trkpt>
      <trkpt lat="48.15637167" lon="22.28080333">
        <ele>148.9</ele>
        <time>2025-07-09T17:27:32Z</time>
      </trkpt>
      <trkpt lat="48.15646" lon="22.28065">
        <ele>148.7</ele>
        <time>2025-07-09T17:27:33Z</time>
      </trkpt>
      <trkpt lat="48.15654833" lon="22.28050167">
        <ele>148.6</ele>
        <time>2025-07-09T17:27:34Z</time>
      </trkpt>
      <trkpt lat="48.15663167" lon="22.28035">
        <ele>149.2</ele>
        <time>2025-07-09T17:27:35Z</time>
      </trkpt>
      <trkpt lat="48.15672667" lon="22.28018">
        <ele>148.7</ele>
        <time>2025-07-09T17:27:36Z</time>
      </trkpt>
      <trkpt lat="48.15680667" lon="22.28002667">
        <ele>149.2</ele>
        <time>2025-07-09T17:27:37Z</time>
      </trkpt>
      <trkpt lat="48.15688667" lon="22.279865">
        <ele>149.7</ele>
        <time>2025-07-09T17:27:38Z</time>
      </trkpt>
      <trkpt lat="48.15698" lon="22.27971667">
        <ele>148.2</ele>
        <time>2025-07-09T17:27:39Z</time>
      </trkpt>
      <trkpt lat="48.15706" lon="22.279555">
        <ele>148.5</ele>
        <time>2025-07-09T17:27:40Z</time>
      </trkpt>
      <trkpt lat="48.15714167" lon="22.27941">
        <ele>148.8</ele>
        <time>2025-07-09T17:27:41Z</time>
      </trkpt>
      <trkpt lat="48.15723833" lon="22.27926667">
        <ele>147.6</ele>
        <time>2025-07-09T17:27:42Z</time>
      </trkpt>
      <trkpt lat="48.15733167" lon="22.27912667">
        <ele>146.9</ele>
        <time>2025-07-09T17:27:43Z</time>
      </trkpt>
      <trkpt lat="48.15742" lon="22.27897167">
        <ele>146.6</ele>
        <time>2025-07-09T17:27:44Z</time>
      </trkpt>
      <trkpt lat="48.15751333" lon="22.27882167">
        <ele>145.7</ele>
        <time>2025-07-09T17:27:45Z</time>
      </trkpt>
      <trkpt lat="48.15760167" lon="22.27867667">
        <ele>145.6</ele>
        <time>2025-07-09T17:27:46Z</time>
      </trkpt>
      <trkpt lat="48.15768667" lon="22.27855833">
        <ele>146.5</ele>
        <time>2025-07-09T17:27:47Z</time>
      </trkpt>
      <trkpt lat="48.15776167" lon="22.278425">
        <ele>147.2</ele>
        <time>2025-07-09T17:27:48Z</time>
      </trkpt>
      <trkpt lat="48.15784667" lon="22.27831">
        <ele>147.3</ele>
        <time>2025-07-09T17:27:49Z</time>
      </trkpt>
      <trkpt lat="48.15793333" lon="22.27819833">
        <ele>147.2</ele>
        <time>2025-07-09T17:27:50Z</time>
      </trkpt>
      <trkpt lat="48.15800667" lon="22.278085">
        <ele>146.6</ele>
        <time>2025-07-09T17:27:51Z</time>
      </trkpt>
      <trkpt lat="48.15808167" lon="22.27798333">
        <ele>146.1</ele>
        <time>2025-07-09T17:27:52Z</time>
      </trkpt>
      <trkpt lat="48.15818" lon="22.27789333">
        <ele>145.6</ele>
        <time>2025-07-09T17:27:53Z</time>
      </trkpt>
      <trkpt lat="48.15827167" lon="22.27780833">
        <ele>145.5</ele>
        <time>2025-07-09T17:27:54Z</time>
      </trkpt>
      <trkpt lat="48.158355" lon="22.27774">
        <ele>146.3</ele>
        <time>2025-07-09T17:27:55Z</time>
      </trkpt>
      <trkpt lat="48.15843333" lon="22.27767333">
        <ele>147</ele>
        <time>2025-07-09T17:27:56Z</time>
      </trkpt>
      <trkpt lat="48.15855833" lon="22.277595">
        <ele>148.6</ele>
        <time>2025-07-09T17:27:58Z</time>
      </trkpt>
      <trkpt lat="48.15866833" lon="22.27759">
        <ele>151.1</ele>
        <time>2025-07-09T17:28:01Z</time>
      </trkpt>
      <trkpt lat="48.15872333" lon="22.27774333">
        <ele>151.2</ele>
        <time>2025-07-09T17:28:03Z</time>
      </trkpt>
      <trkpt lat="48.15879833" lon="22.27795">
        <ele>151.3</ele>
        <time>2025-07-09T17:28:05Z</time>
      </trkpt>
      <trkpt lat="48.15888333" lon="22.27815">
        <ele>152.1</ele>
        <time>2025-07-09T17:28:07Z</time>
      </trkpt>
      <trkpt lat="48.15896667" lon="22.27835">
        <ele>152.5</ele>
        <time>2025-07-09T17:28:09Z</time>
      </trkpt>
      <trkpt lat="48.15903667" lon="22.27852667">
        <ele>153.7</ele>
        <time>2025-07-09T17:28:11Z</time>
      </trkpt>
      <trkpt lat="48.15908667" lon="22.27864333">
        <ele>153.4</ele>
        <time>2025-07-09T17:28:13Z</time>
      </trkpt>
      <trkpt lat="48.159145" lon="22.27876833">
        <ele>152.9</ele>
        <time>2025-07-09T17:28:20Z</time>
      </trkpt>
      <trkpt lat="48.15920333" lon="22.278885">
        <ele>152.5</ele>
        <time>2025-07-09T17:28:23Z</time>
      </trkpt>
      <trkpt lat="48.15926167" lon="22.278995">
        <ele>154.6</ele>
        <time>2025-07-09T17:28:31Z</time>
      </trkpt>
    </trkseg>
  </trk>
</gpx>