<?xml version='1.0' encoding='UTF-8' standalone='yes' ?>
<gpx xmlns="http://www.topografix.com/GPX/1/1" xmlns:geotracker="http://ilyabogdanovich.com/gpx/extensions/geotracker" xmlns:xsi="http://www.w3.org/2001/XMLSchema-instance" xsi:schemaLocation="http://www.topografix.com/GPX/1/1 http://www.topografix.com/GPX/1/1/gpx.xsd" version="1.1" creator="Recorded in Geo Tracker for Android from Ilya Bogdanovich">
  <metadata>
    <name>c_0721_01</name>
    <author>
      <name>Recorded in Geo Tracker for Android from Ilya Bogdanovich</name>
      <link href="https://play.google.com/store/apps/details?id=com.ilyabogdanovich.geotracker" />
    </author>
    <link href="https://play.google.com/store/apps/details?id=com.ilyabogdanovich.geotracker" />
    <time>2025-07-21T16:19:44Z</time>
  </metadata>
  <trk>
    <name>c_0721_01</name>
    <src>Recorded in Geo Tracker for Android from Ilya Bogdanovich</src>
    <link href="https://play.google.com/store/apps/details?id=com.ilyabogdanovich.geotracker" />
    <extensions>
      <geotracker:meta>
        <geotracker:length>1187.03</geotracker:length>
        <geotracker:duration>247182</geotracker:duration>
        <geotracker:creationtime>2025-07-21T16:19:44Z</geotracker:creationtime>
        <geotracker:activity>0</geotracker:activity>
      </geotracker:meta>
    </extensions>
    <trkseg>
      <trkpt lat="45.87447667" lon="17.84305167">
        <ele>175.6</ele>
        <time>2025-07-21T16:19:50Z</time>
      </trkpt>
      <trkpt lat="45.87454" lon="17.84315167">
        <ele>174.1</ele>
        <time>2025-07-21T16:20:24Z</time>
      </trkpt>
      <trkpt lat="45.87455333" lon="17.84328667">
        <ele>162.6</ele>
        <time>2025-07-21T16:20:33Z</time>
      </trkpt>
      <trkpt lat="45.874565" lon="17.84342333">
        <ele>154.6</ele>
        <time>2025-07-21T16:20:48Z</time>
      </trkpt>
      <trkpt lat="45.87446667" lon="17.8435">
        <ele>152.2</ele>
        <time>2025-07-21T16:21:03Z</time>
      </trkpt>
      <trkpt lat="45.87434" lon="17.84354333">
        <ele>151.6</ele>
        <time>2025-07-21T16:21:06Z</time>
      </trkpt>
      <trkpt lat="45.87424333" lon="17.84355667">
        <ele>151</ele>
        <time>2025-07-21T16:21:08Z</time>
      </trkpt>
      <trkpt lat="45.87413667" lon="17.84356833">
        <ele>151</ele>
        <time>2025-07-21T16:21:10Z</time>
      </trkpt>
      <trkpt lat="45.87404667" lon="17.84357333">
        <ele>150.7</ele>
        <time>2025-07-21T16:21:12Z</time>
      </trkpt>
      <trkpt lat="45.873945" lon="17.84369">
        <ele>149.4</ele>
        <time>2025-07-21T16:21:22Z</time>
      </trkpt>
      <trkpt lat="45.87392" lon="17.84381667">
        <ele>148.7</ele>
        <time>2025-07-21T16:21:24Z</time>
      </trkpt>
      <trkpt lat="45.87388667" lon="17.84395333">
        <ele>148.4</ele>
        <time>2025-07-21T16:21:26Z</time>
      </trkpt>
      <trkpt lat="45.87385833" lon="17.84407667">
        <ele>148.1</ele>
        <time>2025-07-21T16:21:28Z</time>
      </trkpt>
      <trkpt lat="45.87387333" lon="17.84422667">
        <ele>148.1</ele>
        <time>2025-07-21T16:21:31Z</time>
      </trkpt>
      <trkpt lat="45.87399667" lon="17.84431167">
        <ele>148.1</ele>
        <time>2025-07-21T16:21:34Z</time>
      </trkpt>
      <trkpt lat="45.87413833" lon="17.84434833">
        <ele>147.9</ele>
        <time>2025-07-21T16:21:36Z</time>
      </trkpt>
      <trkpt lat="45.874295" lon="17.84440833">
        <ele>146.7</ele>
        <time>2025-07-21T16:21:38Z</time>
      </trkpt>
      <trkpt lat="45.87446" lon="17.844495">
        <ele>145.7</ele>
        <time>2025-07-21T16:21:40Z</time>
      </trkpt>
      <trkpt lat="45.87462167" lon="17.84458">
        <ele>145.5</ele>
        <time>2025-07-21T16:21:42Z</time>
      </trkpt>
      <trkpt lat="45.87478667" lon="17.84468333">
        <ele>144.7</ele>
        <time>2025-07-21T16:21:44Z</time>
      </trkpt>
      <trkpt lat="45.87495333" lon="17.84480167">
        <ele>144.1</ele>
        <time>2025-07-21T16:21:46Z</time>
      </trkpt>
      <trkpt lat="45.87504" lon="17.84484333">
        <ele>144.1</ele>
        <time>2025-07-21T16:21:47Z</time>
      </trkpt>
      <trkpt lat="45.87513333" lon="17.84487167">
        <ele>143.8</ele>
        <time>2025-07-21T16:21:48Z</time>
      </trkpt>
      <trkpt lat="45.875225" lon="17.84488333">
        <ele>142.7</ele>
        <time>2025-07-21T16:21:49Z</time>
      </trkpt>
      <trkpt lat="45.87532333" lon="17.84488833">
        <ele>142.3</ele>
        <time>2025-07-21T16:21:50Z</time>
      </trkpt>
      <trkpt lat="45.87542" lon="17.84489">
        <ele>141.9</ele>
        <time>2025-07-21T16:21:51Z</time>
      </trkpt>
      <trkpt lat="45.87551667" lon="17.84488833">
        <ele>141.8</ele>
        <time>2025-07-21T16:21:52Z</time>
      </trkpt>
      <trkpt lat="45.87561" lon="17.84488333">
        <ele>141.6</ele>
        <time>2025-07-21T16:21:53Z</time>
      </trkpt>
      <trkpt lat="45.87571" lon="17.84487833">
        <ele>141.4</ele>
        <time>2025-07-21T16:21:54Z</time>
      </trkpt>
      <trkpt lat="45.87581" lon="17.84486833">
        <ele>141.3</ele>
        <time>2025-07-21T16:21:55Z</time>
      </trkpt>
      <trkpt lat="45.87591" lon="17.84485667">
        <ele>140.7</ele>
        <time>2025-07-21T16:21:56Z</time>
      </trkpt>
      <trkpt lat="45.87601167" lon="17.84484667">
        <ele>140.2</ele>
        <time>2025-07-21T16:21:57Z</time>
      </trkpt>
      <trkpt lat="45.87611333" lon="17.84483667">
        <ele>140</ele>
        <time>2025-07-21T16:21:58Z</time>
      </trkpt>
      <trkpt lat="45.876225" lon="17.84481667">
        <ele>140.1</ele>
        <time>2025-07-21T16:21:59Z</time>
      </trkpt>
      <trkpt lat="45.87633833" lon="17.84480667">
        <ele>139.6</ele>
        <time>2025-07-21T16:22:00Z</time>
      </trkpt>
      <trkpt lat="45.87644667" lon="17.84479167">
        <ele>139.8</ele>
        <time>2025-07-21T16:22:01Z</time>
      </trkpt>
      <trkpt lat="45.87655667" lon="17.84478167">
        <ele>140.7</ele>
        <time>2025-07-21T16:22:02Z</time>
      </trkpt>
      <trkpt lat="45.87666" lon="17.84477667">
        <ele>142</ele>
        <time>2025-07-21T16:22:03Z</time>
      </trkpt>
      <trkpt lat="45.87677" lon="17.84477167">
        <ele>142.4</ele>
        <time>2025-07-21T16:22:04Z</time>
      </trkpt>
      <trkpt lat="45.876875" lon="17.84477">
        <ele>142.6</ele>
        <time>2025-07-21T16:22:05Z</time>
      </trkpt>
      <trkpt lat="45.87698167" lon="17.84476">
        <ele>142.7</ele>
        <time>2025-07-21T16:22:06Z</time>
      </trkpt>
      <trkpt lat="45.87708833" lon="17.84475">
        <ele>142.9</ele>
        <time>2025-07-21T16:22:07Z</time>
      </trkpt>
      <trkpt lat="45.87718667" lon="17.844745">
        <ele>143</ele>
        <time>2025-07-21T16:22:08Z</time>
      </trkpt>
      <trkpt lat="45.87727667" lon="17.84473833">
        <ele>143.3</ele>
        <time>2025-07-21T16:22:09Z</time>
      </trkpt>
      <trkpt lat="45.877425" lon="17.84470833">
        <ele>144</ele>
        <time>2025-07-21T16:22:11Z</time>
      </trkpt>
      <trkpt lat="45.87752333" lon="17.844745">
        <ele>144.3</ele>
        <time>2025-07-21T16:22:14Z</time>
      </trkpt>
      <trkpt lat="45.87753833" lon="17.84488167">
        <ele>145.8</ele>
        <time>2025-07-21T16:22:17Z</time>
      </trkpt>
      <trkpt lat="45.87754667" lon="17.845085">
        <ele>146.6</ele>
        <time>2025-07-21T16:22:20Z</time>
      </trkpt>
      <trkpt lat="45.877565" lon="17.84525833">
        <ele>147.2</ele>
        <time>2025-07-21T16:22:22Z</time>
      </trkpt>
      <trkpt lat="45.87757833" lon="17.84547667">
        <ele>147.7</ele>
        <time>2025-07-21T16:22:24Z</time>
      </trkpt>
      <trkpt lat="45.87760833" lon="17.84568167">
        <ele>146.7</ele>
        <time>2025-07-21T16:22:26Z</time>
      </trkpt>
      <trkpt lat="45.877635" lon="17.845895">
        <ele>145.1</ele>
        <time>2025-07-21T16:22:28Z</time>
      </trkpt>
      <trkpt lat="45.87765" lon="17.84611833">
        <ele>144.6</ele>
        <time>2025-07-21T16:22:30Z</time>
      </trkpt>
      <trkpt lat="45.87766" lon="17.84635">
        <ele>144.9</ele>
        <time>2025-07-21T16:22:32Z</time>
      </trkpt>
      <trkpt lat="45.87768" lon="17.84659667">
        <ele>145.6</ele>
        <time>2025-07-21T16:22:34Z</time>
      </trkpt>
      <trkpt lat="45.87770167" lon="17.84685667">
        <ele>144.4</ele>
        <time>2025-07-21T16:22:36Z</time>
      </trkpt>
      <trkpt lat="45.87771833" lon="17.84699333">
        <ele>144.9</ele>
        <time>2025-07-21T16:22:37Z</time>
      </trkpt>
      <trkpt lat="45.87772167" lon="17.847125">
        <ele>144.7</ele>
        <time>2025-07-21T16:22:38Z</time>
      </trkpt>
      <trkpt lat="45.87772333" lon="17.84725667">
        <ele>145.7</ele>
        <time>2025-07-21T16:22:39Z</time>
      </trkpt>
      <trkpt lat="45.87773333" lon="17.84739667">
        <ele>145.7</ele>
        <time>2025-07-21T16:22:40Z</time>
      </trkpt>
      <trkpt lat="45.877745" lon="17.84754">
        <ele>145.7</ele>
        <time>2025-07-21T16:22:41Z</time>
      </trkpt>
      <trkpt lat="45.87775333" lon="17.847675">
        <ele>145.5</ele>
        <time>2025-07-21T16:22:42Z</time>
      </trkpt>
      <trkpt lat="45.87776833" lon="17.84780833">
        <ele>145.1</ele>
        <time>2025-07-21T16:22:43Z</time>
      </trkpt>
      <trkpt lat="45.87778" lon="17.84793667">
        <ele>144.8</ele>
        <time>2025-07-21T16:22:44Z</time>
      </trkpt>
      <trkpt lat="45.87781167" lon="17.84818">
        <ele>144.1</ele>
        <time>2025-07-21T16:22:46Z</time>
      </trkpt>
      <trkpt lat="45.87784167" lon="17.84843">
        <ele>143.5</ele>
        <time>2025-07-21T16:22:48Z</time>
      </trkpt>
      <trkpt lat="45.87786" lon="17.848565">
        <ele>143.6</ele>
        <time>2025-07-21T16:22:49Z</time>
      </trkpt>
      <trkpt lat="45.87787833" lon="17.848695">
        <ele>143.3</ele>
        <time>2025-07-21T16:22:50Z</time>
      </trkpt>
      <trkpt lat="45.877895" lon="17.84882333">
        <ele>143.2</ele>
        <time>2025-07-21T16:22:51Z</time>
      </trkpt>
      <trkpt lat="45.87791" lon="17.84895167">
        <ele>142.6</ele>
        <time>2025-07-21T16:22:52Z</time>
      </trkpt>
      <trkpt lat="45.87792667" lon="17.84908">
        <ele>142</ele>
        <time>2025-07-21T16:22:53Z</time>
      </trkpt>
      <trkpt lat="45.87794333" lon="17.84921167">
        <ele>141.3</ele>
        <time>2025-07-21T16:22:54Z</time>
      </trkpt>
      <trkpt lat="45.87797667" lon="17.849465">
        <ele>140.8</ele>
        <time>2025-07-21T16:22:56Z</time>
      </trkpt>
      <trkpt lat="45.87799667" lon="17.84959667">
        <ele>141.1</ele>
        <time>2025-07-21T16:22:57Z</time>
      </trkpt>
      <trkpt lat="45.87801333" lon="17.84973">
        <ele>141.7</ele>
        <time>2025-07-21T16:22:58Z</time>
      </trkpt>
      <trkpt lat="45.87803" lon="17.84986167">
        <ele>142.4</ele>
        <time>2025-07-21T16:22:59Z</time>
      </trkpt>
      <trkpt lat="45.87804833" lon="17.84998833">
        <ele>142.2</ele>
        <time>2025-07-21T16:23:00Z</time>
      </trkpt>
      <trkpt lat="45.87808" lon="17.85021833">
        <ele>143</ele>
        <time>2025-07-21T16:23:02Z</time>
      </trkpt>
      <trkpt lat="45.87810333" lon="17.85037167">
        <ele>143.4</ele>
        <time>2025-07-21T16:23:04Z</time>
      </trkpt>
      <trkpt lat="45.87808667" lon="17.85050833">
        <ele>143.4</ele>
        <time>2025-07-21T16:23:07Z</time>
      </trkpt>
      <trkpt lat="45.87798833" lon="17.85057167">
        <ele>143.2</ele>
        <time>2025-07-21T16:23:10Z</time>
      </trkpt>
      <trkpt lat="45.87788167" lon="17.8506">
        <ele>143.4</ele>
        <time>2025-07-21T16:23:12Z</time>
      </trkpt>
      <trkpt lat="45.87774667" lon="17.85064167">
        <ele>143.8</ele>
        <time>2025-07-21T16:23:14Z</time>
      </trkpt>
      <trkpt lat="45.87760833" lon="17.85069333">
        <ele>143.4</ele>
        <time>2025-07-21T16:23:16Z</time>
      </trkpt>
      <trkpt lat="45.87746" lon="17.85074667">
        <ele>142</ele>
        <time>2025-07-21T16:23:18Z</time>
      </trkpt>
      <trkpt lat="45.87731667" lon="17.85080167">
        <ele>142</ele>
        <time>2025-07-21T16:23:20Z</time>
      </trkpt>
      <trkpt lat="45.87718833" lon="17.85084333">
        <ele>142.5</ele>
        <time>2025-07-21T16:23:22Z</time>
      </trkpt>
      <trkpt lat="45.87708833" lon="17.85087333">
        <ele>143.8</ele>
        <time>2025-07-21T16:23:24Z</time>
      </trkpt>
      <trkpt lat="45.877005" lon="17.85094333">
        <ele>144.2</ele>
        <time>2025-07-21T16:23:27Z</time>
      </trkpt>
      <trkpt lat="45.87701" lon="17.85109167">
        <ele>142.1</ele>
        <time>2025-07-21T16:23:30Z</time>
      </trkpt>
      <trkpt lat="45.87703667" lon="17.85122333">
        <ele>142.4</ele>
        <time>2025-07-21T16:23:32Z</time>
      </trkpt>
      <trkpt lat="45.877065" lon="17.85135833">
        <ele>144.4</ele>
        <time>2025-07-21T16:23:34Z</time>
      </trkpt>
      <trkpt lat="45.87709667" lon="17.85148333">
        <ele>144.9</ele>
        <time>2025-07-21T16:23:37Z</time>
      </trkpt>
    </trkseg>
  </trk>
</gpx>