<?xml version='1.0' encoding='UTF-8' standalone='yes' ?>
<gpx xmlns="http://www.topografix.com/GPX/1/1" xmlns:geotracker="http://ilyabogdanovich.com/gpx/extensions/geotracker" xmlns:xsi="http://www.w3.org/2001/XMLSchema-instance" xsi:schemaLocation="http://www.topografix.com/GPX/1/1 http://www.topografix.com/GPX/1/1/gpx.xsd" version="1.1" creator="Recorded in Geo Tracker for Android from Ilya Bogdanovich">
  <metadata>
    <name>c_0720_05</name>
    <author>
      <name>Recorded in Geo Tracker for Android from Ilya Bogdanovich</name>
      <link href="https://play.google.com/store/apps/details?id=com.ilyabogdanovich.geotracker" />
    </author>
    <link href="https://play.google.com/store/apps/details?id=com.ilyabogdanovich.geotracker" />
    <time>2025-07-20T12:18:42Z</time>
  </metadata>
  <trk>
    <name>c_0720_05</name>
    <src>Recorded in Geo Tracker for Android from Ilya Bogdanovich</src>
    <link href="https://play.google.com/store/apps/details?id=com.ilyabogdanovich.geotracker" />
    <extensions>
      <geotracker:meta>
        <geotracker:length>336.55</geotracker:length>
        <geotracker:duration>325297</geotracker:duration>
        <geotracker:creationtime>2025-07-20T12:18:42Z</geotracker:creationtime>
        <geotracker:activity>0</geotracker:activity>
      </geotracker:meta>
    </extensions>
    <trkseg>
      <trkpt lat="46.29565167" lon="18.52672833">
        <ele>185.2</ele>
        <time>2025-07-20T12:18:48Z</time>
      </trkpt>
      <trkpt lat="46.295575" lon="18.52670333">
        <ele>178.7</ele>
        <time>2025-07-20T12:22:18Z</time>
      </trkpt>
      <trkpt lat="46.29547" lon="18.52669667">
        <ele>178.3</ele>
        <time>2025-07-20T12:22:21Z</time>
      </trkpt>
      <trkpt lat="46.29536167" lon="18.526695">
        <ele>179</ele>
        <time>2025-07-20T12:22:24Z</time>
      </trkpt>
      <trkpt lat="46.29527333" lon="18.52680333">
        <ele>178.5</ele>
        <time>2025-07-20T12:22:28Z</time>
      </trkpt>
      <trkpt lat="46.29527667" lon="18.52697167">
        <ele>177.9</ele>
        <time>2025-07-20T12:22:31Z</time>
      </trkpt>
      <trkpt lat="46.295295" lon="18.52714167">
        <ele>177.7</ele>
        <time>2025-07-20T12:22:34Z</time>
      </trkpt>
      <trkpt lat="46.29528667" lon="18.52728667">
        <ele>177.6</ele>
        <time>2025-07-20T12:22:36Z</time>
      </trkpt>
      <trkpt lat="46.29527833" lon="18.52743333">
        <ele>177.5</ele>
        <time>2025-07-20T12:22:38Z</time>
      </trkpt>
      <trkpt lat="46.29526833" lon="18.52756667">
        <ele>177.5</ele>
        <time>2025-07-20T12:22:40Z</time>
      </trkpt>
      <trkpt lat="46.29525" lon="18.52770167">
        <ele>176.9</ele>
        <time>2025-07-20T12:22:42Z</time>
      </trkpt>
      <trkpt lat="46.29523333" lon="18.52783667">
        <ele>176.1</ele>
        <time>2025-07-20T12:22:44Z</time>
      </trkpt>
      <trkpt lat="46.29519167" lon="18.52796667">
        <ele>173</ele>
        <time>2025-07-20T12:22:50Z</time>
      </trkpt>
      <trkpt lat="46.29507167" lon="18.52796667">
        <ele>170.9</ele>
        <time>2025-07-20T12:22:54Z</time>
      </trkpt>
      <trkpt lat="46.29496667" lon="18.52788167">
        <ele>170.4</ele>
        <time>2025-07-20T12:22:57Z</time>
      </trkpt>
      <trkpt lat="46.29487333" lon="18.52782333">
        <ele>170.3</ele>
        <time>2025-07-20T12:22:59Z</time>
      </trkpt>
      <trkpt lat="46.29475167" lon="18.52776333">
        <ele>170.4</ele>
        <time>2025-07-20T12:23:01Z</time>
      </trkpt>
      <trkpt lat="46.29460833" lon="18.52770167">
        <ele>171.4</ele>
        <time>2025-07-20T12:23:03Z</time>
      </trkpt>
      <trkpt lat="46.29448333" lon="18.52764167">
        <ele>173.9</ele>
        <time>2025-07-20T12:23:05Z</time>
      </trkpt>
      <trkpt lat="46.29437333" lon="18.52756167">
        <ele>174.3</ele>
        <time>2025-07-20T12:23:07Z</time>
      </trkpt>
      <trkpt lat="46.29425333" lon="18.52748333">
        <ele>175.2</ele>
        <time>2025-07-20T12:23:09Z</time>
      </trkpt>
      <trkpt lat="46.29413667" lon="18.52739833">
        <ele>174.7</ele>
        <time>2025-07-20T12:23:11Z</time>
      </trkpt>
      <trkpt lat="46.29403167" lon="18.52731667">
        <ele>174</ele>
        <time>2025-07-20T12:23:13Z</time>
      </trkpt>
      <trkpt lat="46.29392833" lon="18.52726167">
        <ele>175.1</ele>
        <time>2025-07-20T12:23:15Z</time>
      </trkpt>
      <trkpt lat="46.29382833" lon="18.52722">
        <ele>176.2</ele>
        <time>2025-07-20T12:23:17Z</time>
      </trkpt>
      <trkpt lat="46.293705" lon="18.52716">
        <ele>176.9</ele>
        <time>2025-07-20T12:23:20Z</time>
      </trkpt>
      <trkpt lat="46.29362667" lon="18.52706833">
        <ele>176.8</ele>
        <time>2025-07-20T12:23:25Z</time>
      </trkpt>
      <trkpt lat="46.29362" lon="18.52693">
        <ele>176.3</ele>
        <time>2025-07-20T12:23:30Z</time>
      </trkpt>
    </trkseg>
  </trk>
</gpx>