<?xml version='1.0' encoding='UTF-8' standalone='yes' ?>
<gpx xmlns="http://www.topografix.com/GPX/1/1" xmlns:geotracker="http://ilyabogdanovich.com/gpx/extensions/geotracker" xmlns:xsi="http://www.w3.org/2001/XMLSchema-instance" xsi:schemaLocation="http://www.topografix.com/GPX/1/1 http://www.topografix.com/GPX/1/1/gpx.xsd" version="1.1" creator="Recorded in Geo Tracker for Android from Ilya Bogdanovich">
  <metadata>
    <name>b_0707_04</name>
    <author>
      <name>Recorded in Geo Tracker for Android from Ilya Bogdanovich</name>
      <link href="https://play.google.com/store/apps/details?id=com.ilyabogdanovich.geotracker" />
    </author>
    <link href="https://play.google.com/store/apps/details?id=com.ilyabogdanovich.geotracker" />
    <time>2025-07-07T11:33:34Z</time>
  </metadata>
  <trk>
    <name>b_0707_04</name>
    <src>Recorded in Geo Tracker for Android from Ilya Bogdanovich</src>
    <link href="https://play.google.com/store/apps/details?id=com.ilyabogdanovich.geotracker" />
    <extensions>
      <geotracker:meta>
        <geotracker:length>10800.17</geotracker:length>
        <geotracker:duration>1251198</geotracker:duration>
        <geotracker:creationtime>2025-07-07T11:33:34Z</geotracker:creationtime>
        <geotracker:activity>0</geotracker:activity>
      </geotracker:meta>
    </extensions>
    <trkseg>
      <trkpt lat="47.859065" lon="21.92241333">
        <ele>180.9</ele>
        <time>2025-07-07T11:33:41Z</time>
      </trkpt>
      <trkpt lat="47.85909833" lon="21.92238167">
        <ele>180.5</ele>
        <time>2025-07-07T11:37:22Z</time>
      </trkpt>
      <trkpt lat="47.859165" lon="21.92247833">
        <ele>191</ele>
        <time>2025-07-07T11:37:28Z</time>
      </trkpt>
      <trkpt lat="47.85907833" lon="21.922525">
        <ele>182.8</ele>
        <time>2025-07-07T11:37:41Z</time>
      </trkpt>
      <trkpt lat="47.85909833" lon="21.92269">
        <ele>176.5</ele>
        <time>2025-07-07T11:38:35Z</time>
      </trkpt>
      <trkpt lat="47.859135" lon="21.92288833">
        <ele>176.9</ele>
        <time>2025-07-07T11:38:37Z</time>
      </trkpt>
      <trkpt lat="47.85917167" lon="21.92309">
        <ele>177.5</ele>
        <time>2025-07-07T11:38:39Z</time>
      </trkpt>
      <trkpt lat="47.85921333" lon="21.92331667">
        <ele>177.7</ele>
        <time>2025-07-07T11:38:41Z</time>
      </trkpt>
      <trkpt lat="47.859235" lon="21.923455">
        <ele>178</ele>
        <time>2025-07-07T11:38:42Z</time>
      </trkpt>
      <trkpt lat="47.859255" lon="21.92358833">
        <ele>177.9</ele>
        <time>2025-07-07T11:38:43Z</time>
      </trkpt>
      <trkpt lat="47.85927833" lon="21.92373167">
        <ele>177.2</ele>
        <time>2025-07-07T11:38:44Z</time>
      </trkpt>
      <trkpt lat="47.85930167" lon="21.923875">
        <ele>176.5</ele>
        <time>2025-07-07T11:38:45Z</time>
      </trkpt>
      <trkpt lat="47.85929333" lon="21.92413833">
        <ele>175.5</ele>
        <time>2025-07-07T11:38:47Z</time>
      </trkpt>
      <trkpt lat="47.859265" lon="21.92429833">
        <ele>175.1</ele>
        <time>2025-07-07T11:38:48Z</time>
      </trkpt>
      <trkpt lat="47.85923167" lon="21.92446">
        <ele>175.5</ele>
        <time>2025-07-07T11:38:49Z</time>
      </trkpt>
      <trkpt lat="47.85920333" lon="21.92461333">
        <ele>175.6</ele>
        <time>2025-07-07T11:38:50Z</time>
      </trkpt>
      <trkpt lat="47.85917" lon="21.92477">
        <ele>175.2</ele>
        <time>2025-07-07T11:38:51Z</time>
      </trkpt>
      <trkpt lat="47.85913833" lon="21.92493833">
        <ele>175.5</ele>
        <time>2025-07-07T11:38:52Z</time>
      </trkpt>
      <trkpt lat="47.85909667" lon="21.92509">
        <ele>175.8</ele>
        <time>2025-07-07T11:38:53Z</time>
      </trkpt>
      <trkpt lat="47.85905333" lon="21.92524667">
        <ele>175.6</ele>
        <time>2025-07-07T11:38:54Z</time>
      </trkpt>
      <trkpt lat="47.85901167" lon="21.92541167">
        <ele>175.3</ele>
        <time>2025-07-07T11:38:55Z</time>
      </trkpt>
      <trkpt lat="47.858975" lon="21.925565">
        <ele>175.3</ele>
        <time>2025-07-07T11:38:56Z</time>
      </trkpt>
      <trkpt lat="47.858935" lon="21.925715">
        <ele>175.4</ele>
        <time>2025-07-07T11:38:57Z</time>
      </trkpt>
      <trkpt lat="47.85889667" lon="21.925865">
        <ele>175.4</ele>
        <time>2025-07-07T11:38:58Z</time>
      </trkpt>
      <trkpt lat="47.85885667" lon="21.92601833">
        <ele>175.9</ele>
        <time>2025-07-07T11:38:59Z</time>
      </trkpt>
      <trkpt lat="47.85881667" lon="21.92619333">
        <ele>177.3</ele>
        <time>2025-07-07T11:39:00Z</time>
      </trkpt>
      <trkpt lat="47.858795" lon="21.92637">
        <ele>177.8</ele>
        <time>2025-07-07T11:39:01Z</time>
      </trkpt>
      <trkpt lat="47.85877833" lon="21.92655333">
        <ele>177.8</ele>
        <time>2025-07-07T11:39:02Z</time>
      </trkpt>
      <trkpt lat="47.85876333" lon="21.92674667">
        <ele>177.9</ele>
        <time>2025-07-07T11:39:03Z</time>
      </trkpt>
      <trkpt lat="47.85875167" lon="21.92693333">
        <ele>178.5</ele>
        <time>2025-07-07T11:39:04Z</time>
      </trkpt>
      <trkpt lat="47.85875667" lon="21.927115">
        <ele>178.2</ele>
        <time>2025-07-07T11:39:05Z</time>
      </trkpt>
      <trkpt lat="47.85876167" lon="21.92731333">
        <ele>177.5</ele>
        <time>2025-07-07T11:39:06Z</time>
      </trkpt>
      <trkpt lat="47.85877" lon="21.92751833">
        <ele>177.2</ele>
        <time>2025-07-07T11:39:07Z</time>
      </trkpt>
      <trkpt lat="47.858785" lon="21.92772167">
        <ele>176.8</ele>
        <time>2025-07-07T11:39:08Z</time>
      </trkpt>
      <trkpt lat="47.85879833" lon="21.92792">
        <ele>176.7</ele>
        <time>2025-07-07T11:39:09Z</time>
      </trkpt>
      <trkpt lat="47.85882" lon="21.92811667">
        <ele>176.7</ele>
        <time>2025-07-07T11:39:10Z</time>
      </trkpt>
      <trkpt lat="47.85884333" lon="21.92831167">
        <ele>176.1</ele>
        <time>2025-07-07T11:39:11Z</time>
      </trkpt>
      <trkpt lat="47.85887167" lon="21.92848667">
        <ele>175.8</ele>
        <time>2025-07-07T11:39:12Z</time>
      </trkpt>
      <trkpt lat="47.85887667" lon="21.92868167">
        <ele>176</ele>
        <time>2025-07-07T11:39:13Z</time>
      </trkpt>
      <trkpt lat="47.85888833" lon="21.92887833">
        <ele>175.8</ele>
        <time>2025-07-07T11:39:14Z</time>
      </trkpt>
      <trkpt lat="47.85889833" lon="21.92908167">
        <ele>175.9</ele>
        <time>2025-07-07T11:39:15Z</time>
      </trkpt>
      <trkpt lat="47.85890333" lon="21.92927833">
        <ele>176.4</ele>
        <time>2025-07-07T11:39:16Z</time>
      </trkpt>
      <trkpt lat="47.85890333" lon="21.92948167">
        <ele>177.2</ele>
        <time>2025-07-07T11:39:17Z</time>
      </trkpt>
      <trkpt lat="47.85889333" lon="21.92968167">
        <ele>178</ele>
        <time>2025-07-07T11:39:18Z</time>
      </trkpt>
      <trkpt lat="47.85888667" lon="21.92987333">
        <ele>178.2</ele>
        <time>2025-07-07T11:39:19Z</time>
      </trkpt>
      <trkpt lat="47.85887833" lon="21.93007667">
        <ele>177.5</ele>
        <time>2025-07-07T11:39:20Z</time>
      </trkpt>
      <trkpt lat="47.858875" lon="21.93028167">
        <ele>177</ele>
        <time>2025-07-07T11:39:21Z</time>
      </trkpt>
      <trkpt lat="47.85887333" lon="21.93048333">
        <ele>176.1</ele>
        <time>2025-07-07T11:39:22Z</time>
      </trkpt>
      <trkpt lat="47.858865" lon="21.93067333">
        <ele>175.8</ele>
        <time>2025-07-07T11:39:23Z</time>
      </trkpt>
      <trkpt lat="47.85886167" lon="21.93087167">
        <ele>176.4</ele>
        <time>2025-07-07T11:39:24Z</time>
      </trkpt>
      <trkpt lat="47.85886833" lon="21.93105167">
        <ele>175.1</ele>
        <time>2025-07-07T11:39:25Z</time>
      </trkpt>
      <trkpt lat="47.85887667" lon="21.93122333">
        <ele>174.6</ele>
        <time>2025-07-07T11:39:26Z</time>
      </trkpt>
      <trkpt lat="47.85888167" lon="21.93141667">
        <ele>173.8</ele>
        <time>2025-07-07T11:39:27Z</time>
      </trkpt>
      <trkpt lat="47.85888833" lon="21.93159833">
        <ele>173.2</ele>
        <time>2025-07-07T11:39:28Z</time>
      </trkpt>
      <trkpt lat="47.8589" lon="21.93177833">
        <ele>173</ele>
        <time>2025-07-07T11:39:29Z</time>
      </trkpt>
      <trkpt lat="47.85891167" lon="21.931955">
        <ele>175.5</ele>
        <time>2025-07-07T11:39:30Z</time>
      </trkpt>
      <trkpt lat="47.85893333" lon="21.93214">
        <ele>177.4</ele>
        <time>2025-07-07T11:39:31Z</time>
      </trkpt>
      <trkpt lat="47.85894" lon="21.93233167">
        <ele>177.4</ele>
        <time>2025-07-07T11:39:32Z</time>
      </trkpt>
      <trkpt lat="47.85895167" lon="21.93251">
        <ele>177.6</ele>
        <time>2025-07-07T11:39:33Z</time>
      </trkpt>
      <trkpt lat="47.85896167" lon="21.93268">
        <ele>177.7</ele>
        <time>2025-07-07T11:39:34Z</time>
      </trkpt>
      <trkpt lat="47.858975" lon="21.93283833">
        <ele>177.6</ele>
        <time>2025-07-07T11:39:35Z</time>
      </trkpt>
      <trkpt lat="47.85899333" lon="21.93307667">
        <ele>178.4</ele>
        <time>2025-07-07T11:39:37Z</time>
      </trkpt>
      <trkpt lat="47.85900333" lon="21.933255">
        <ele>178.5</ele>
        <time>2025-07-07T11:39:39Z</time>
      </trkpt>
      <trkpt lat="47.85898333" lon="21.93341">
        <ele>178.9</ele>
        <time>2025-07-07T11:39:57Z</time>
      </trkpt>
      <trkpt lat="47.859005" lon="21.93359667">
        <ele>177.6</ele>
        <time>2025-07-07T11:40:00Z</time>
      </trkpt>
      <trkpt lat="47.859015" lon="21.933745">
        <ele>178.7</ele>
        <time>2025-07-07T11:40:02Z</time>
      </trkpt>
      <trkpt lat="47.85901833" lon="21.93395">
        <ele>177.7</ele>
        <time>2025-07-07T11:40:04Z</time>
      </trkpt>
      <trkpt lat="47.85903333" lon="21.93419333">
        <ele>177.2</ele>
        <time>2025-07-07T11:40:06Z</time>
      </trkpt>
      <trkpt lat="47.859055" lon="21.934455">
        <ele>176.8</ele>
        <time>2025-07-07T11:40:08Z</time>
      </trkpt>
      <trkpt lat="47.85906833" lon="21.93460333">
        <ele>176.4</ele>
        <time>2025-07-07T11:40:09Z</time>
      </trkpt>
      <trkpt lat="47.85908" lon="21.93474833">
        <ele>175.7</ele>
        <time>2025-07-07T11:40:10Z</time>
      </trkpt>
      <trkpt lat="47.85909833" lon="21.93489667">
        <ele>175.1</ele>
        <time>2025-07-07T11:40:11Z</time>
      </trkpt>
      <trkpt lat="47.85912" lon="21.93505">
        <ele>175.6</ele>
        <time>2025-07-07T11:40:12Z</time>
      </trkpt>
      <trkpt lat="47.85913667" lon="21.93521333">
        <ele>175.9</ele>
        <time>2025-07-07T11:40:13Z</time>
      </trkpt>
      <trkpt lat="47.85915167" lon="21.935385">
        <ele>174.9</ele>
        <time>2025-07-07T11:40:14Z</time>
      </trkpt>
      <trkpt lat="47.85916333" lon="21.93556333">
        <ele>174.4</ele>
        <time>2025-07-07T11:40:15Z</time>
      </trkpt>
      <trkpt lat="47.85917833" lon="21.935745">
        <ele>174.6</ele>
        <time>2025-07-07T11:40:16Z</time>
      </trkpt>
      <trkpt lat="47.85918167" lon="21.93593333">
        <ele>174</ele>
        <time>2025-07-07T11:40:17Z</time>
      </trkpt>
      <trkpt lat="47.859185" lon="21.936125">
        <ele>170.9</ele>
        <time>2025-07-07T11:40:18Z</time>
      </trkpt>
      <trkpt lat="47.85918667" lon="21.936315">
        <ele>169.4</ele>
        <time>2025-07-07T11:40:19Z</time>
      </trkpt>
      <trkpt lat="47.85917333" lon="21.936495">
        <ele>168.6</ele>
        <time>2025-07-07T11:40:20Z</time>
      </trkpt>
      <trkpt lat="47.859165" lon="21.936675">
        <ele>169.3</ele>
        <time>2025-07-07T11:40:21Z</time>
      </trkpt>
      <trkpt lat="47.85915333" lon="21.93685833">
        <ele>169.8</ele>
        <time>2025-07-07T11:40:22Z</time>
      </trkpt>
      <trkpt lat="47.85914167" lon="21.93705333">
        <ele>170.1</ele>
        <time>2025-07-07T11:40:23Z</time>
      </trkpt>
      <trkpt lat="47.85912667" lon="21.937245">
        <ele>170.2</ele>
        <time>2025-07-07T11:40:24Z</time>
      </trkpt>
      <trkpt lat="47.85911" lon="21.93743667">
        <ele>170.7</ele>
        <time>2025-07-07T11:40:25Z</time>
      </trkpt>
      <trkpt lat="47.85908" lon="21.93764667">
        <ele>175.7</ele>
        <time>2025-07-07T11:40:26Z</time>
      </trkpt>
      <trkpt lat="47.85907" lon="21.93783333">
        <ele>176.4</ele>
        <time>2025-07-07T11:40:27Z</time>
      </trkpt>
      <trkpt lat="47.85905167" lon="21.93803167">
        <ele>176.9</ele>
        <time>2025-07-07T11:40:28Z</time>
      </trkpt>
      <trkpt lat="47.859035" lon="21.93823333">
        <ele>177.5</ele>
        <time>2025-07-07T11:40:29Z</time>
      </trkpt>
      <trkpt lat="47.85901833" lon="21.93843167">
        <ele>178.2</ele>
        <time>2025-07-07T11:40:30Z</time>
      </trkpt>
      <trkpt lat="47.859005" lon="21.93864333">
        <ele>175.7</ele>
        <time>2025-07-07T11:40:31Z</time>
      </trkpt>
      <trkpt lat="47.858995" lon="21.93884">
        <ele>175.5</ele>
        <time>2025-07-07T11:40:32Z</time>
      </trkpt>
      <trkpt lat="47.85898333" lon="21.93903667">
        <ele>176</ele>
        <time>2025-07-07T11:40:33Z</time>
      </trkpt>
      <trkpt lat="47.85896667" lon="21.93923333">
        <ele>176.6</ele>
        <time>2025-07-07T11:40:34Z</time>
      </trkpt>
      <trkpt lat="47.85894833" lon="21.93943833">
        <ele>176.8</ele>
        <time>2025-07-07T11:40:35Z</time>
      </trkpt>
      <trkpt lat="47.85893" lon="21.93963667">
        <ele>176.2</ele>
        <time>2025-07-07T11:40:36Z</time>
      </trkpt>
      <trkpt lat="47.85892" lon="21.93983667">
        <ele>176.3</ele>
        <time>2025-07-07T11:40:37Z</time>
      </trkpt>
      <trkpt lat="47.85889833" lon="21.94002667">
        <ele>176</ele>
        <time>2025-07-07T11:40:38Z</time>
      </trkpt>
      <trkpt lat="47.85888833" lon="21.94023167">
        <ele>172.7</ele>
        <time>2025-07-07T11:40:39Z</time>
      </trkpt>
      <trkpt lat="47.85887" lon="21.94044">
        <ele>172.6</ele>
        <time>2025-07-07T11:40:40Z</time>
      </trkpt>
      <trkpt lat="47.85884667" lon="21.94063833">
        <ele>173.3</ele>
        <time>2025-07-07T11:40:41Z</time>
      </trkpt>
      <trkpt lat="47.85883167" lon="21.94084">
        <ele>173.3</ele>
        <time>2025-07-07T11:40:42Z</time>
      </trkpt>
      <trkpt lat="47.85881333" lon="21.941035">
        <ele>173.2</ele>
        <time>2025-07-07T11:40:43Z</time>
      </trkpt>
      <trkpt lat="47.85880167" lon="21.941235">
        <ele>173.8</ele>
        <time>2025-07-07T11:40:44Z</time>
      </trkpt>
      <trkpt lat="47.85878167" lon="21.94144333">
        <ele>175.9</ele>
        <time>2025-07-07T11:40:45Z</time>
      </trkpt>
      <trkpt lat="47.858765" lon="21.94165667">
        <ele>176.2</ele>
        <time>2025-07-07T11:40:46Z</time>
      </trkpt>
      <trkpt lat="47.85875167" lon="21.94185833">
        <ele>176.2</ele>
        <time>2025-07-07T11:40:47Z</time>
      </trkpt>
      <trkpt lat="47.85873833" lon="21.94206667">
        <ele>176.5</ele>
        <time>2025-07-07T11:40:48Z</time>
      </trkpt>
      <trkpt lat="47.85873" lon="21.94226667">
        <ele>177.4</ele>
        <time>2025-07-07T11:40:49Z</time>
      </trkpt>
      <trkpt lat="47.85871" lon="21.94247333">
        <ele>174.8</ele>
        <time>2025-07-07T11:40:50Z</time>
      </trkpt>
      <trkpt lat="47.85869" lon="21.94269833">
        <ele>174.6</ele>
        <time>2025-07-07T11:40:51Z</time>
      </trkpt>
      <trkpt lat="47.85866833" lon="21.942905">
        <ele>173.3</ele>
        <time>2025-07-07T11:40:52Z</time>
      </trkpt>
      <trkpt lat="47.85864833" lon="21.943115">
        <ele>173</ele>
        <time>2025-07-07T11:40:53Z</time>
      </trkpt>
      <trkpt lat="47.85864" lon="21.94332667">
        <ele>173.8</ele>
        <time>2025-07-07T11:40:54Z</time>
      </trkpt>
      <trkpt lat="47.85864333" lon="21.94352">
        <ele>172.9</ele>
        <time>2025-07-07T11:40:55Z</time>
      </trkpt>
      <trkpt lat="47.85864167" lon="21.94371667">
        <ele>173</ele>
        <time>2025-07-07T11:40:56Z</time>
      </trkpt>
      <trkpt lat="47.85862167" lon="21.94396833">
        <ele>174.2</ele>
        <time>2025-07-07T11:40:57Z</time>
      </trkpt>
      <trkpt lat="47.85860333" lon="21.94418667">
        <ele>175.5</ele>
        <time>2025-07-07T11:40:58Z</time>
      </trkpt>
      <trkpt lat="47.85858833" lon="21.94439333">
        <ele>175.3</ele>
        <time>2025-07-07T11:40:59Z</time>
      </trkpt>
      <trkpt lat="47.858585" lon="21.94460167">
        <ele>173.6</ele>
        <time>2025-07-07T11:41:00Z</time>
      </trkpt>
      <trkpt lat="47.858565" lon="21.94483167">
        <ele>174.4</ele>
        <time>2025-07-07T11:41:01Z</time>
      </trkpt>
      <trkpt lat="47.858545" lon="21.94505667">
        <ele>174.8</ele>
        <time>2025-07-07T11:41:02Z</time>
      </trkpt>
      <trkpt lat="47.85853167" lon="21.94528167">
        <ele>175</ele>
        <time>2025-07-07T11:41:03Z</time>
      </trkpt>
      <trkpt lat="47.85851667" lon="21.945515">
        <ele>173.5</ele>
        <time>2025-07-07T11:41:04Z</time>
      </trkpt>
      <trkpt lat="47.85849667" lon="21.94575833">
        <ele>172.5</ele>
        <time>2025-07-07T11:41:05Z</time>
      </trkpt>
      <trkpt lat="47.85846833" lon="21.94600333">
        <ele>173.1</ele>
        <time>2025-07-07T11:41:06Z</time>
      </trkpt>
      <trkpt lat="47.858445" lon="21.94625333">
        <ele>173.7</ele>
        <time>2025-07-07T11:41:07Z</time>
      </trkpt>
      <trkpt lat="47.85843" lon="21.94649167">
        <ele>174.1</ele>
        <time>2025-07-07T11:41:08Z</time>
      </trkpt>
      <trkpt lat="47.85841667" lon="21.94672833">
        <ele>174.4</ele>
        <time>2025-07-07T11:41:09Z</time>
      </trkpt>
      <trkpt lat="47.858395" lon="21.946995">
        <ele>173.3</ele>
        <time>2025-07-07T11:41:10Z</time>
      </trkpt>
      <trkpt lat="47.85838333" lon="21.94724">
        <ele>172.6</ele>
        <time>2025-07-07T11:41:11Z</time>
      </trkpt>
      <trkpt lat="47.858365" lon="21.947475">
        <ele>172.9</ele>
        <time>2025-07-07T11:41:12Z</time>
      </trkpt>
      <trkpt lat="47.85833" lon="21.94774333">
        <ele>172.3</ele>
        <time>2025-07-07T11:41:13Z</time>
      </trkpt>
      <trkpt lat="47.858295" lon="21.94801333">
        <ele>174.5</ele>
        <time>2025-07-07T11:41:14Z</time>
      </trkpt>
      <trkpt lat="47.85827" lon="21.948275">
        <ele>176.5</ele>
        <time>2025-07-07T11:41:15Z</time>
      </trkpt>
      <trkpt lat="47.85824667" lon="21.94853167">
        <ele>176.1</ele>
        <time>2025-07-07T11:41:16Z</time>
      </trkpt>
      <trkpt lat="47.85822667" lon="21.94878833">
        <ele>175.7</ele>
        <time>2025-07-07T11:41:17Z</time>
      </trkpt>
      <trkpt lat="47.85820167" lon="21.94903333">
        <ele>176.2</ele>
        <time>2025-07-07T11:41:18Z</time>
      </trkpt>
      <trkpt lat="47.858185" lon="21.94928667">
        <ele>177.2</ele>
        <time>2025-07-07T11:41:19Z</time>
      </trkpt>
      <trkpt lat="47.85816333" lon="21.94953333">
        <ele>177.1</ele>
        <time>2025-07-07T11:41:20Z</time>
      </trkpt>
      <trkpt lat="47.85814" lon="21.94979">
        <ele>176.1</ele>
        <time>2025-07-07T11:41:21Z</time>
      </trkpt>
      <trkpt lat="47.85811667" lon="21.95004667">
        <ele>175.6</ele>
        <time>2025-07-07T11:41:22Z</time>
      </trkpt>
      <trkpt lat="47.85809833" lon="21.950295">
        <ele>175.3</ele>
        <time>2025-07-07T11:41:23Z</time>
      </trkpt>
      <trkpt lat="47.858075" lon="21.95055333">
        <ele>175</ele>
        <time>2025-07-07T11:41:24Z</time>
      </trkpt>
      <trkpt lat="47.858055" lon="21.95079833">
        <ele>175.1</ele>
        <time>2025-07-07T11:41:25Z</time>
      </trkpt>
      <trkpt lat="47.85803167" lon="21.95105833">
        <ele>176.2</ele>
        <time>2025-07-07T11:41:26Z</time>
      </trkpt>
      <trkpt lat="47.85801667" lon="21.95131">
        <ele>174.2</ele>
        <time>2025-07-07T11:41:27Z</time>
      </trkpt>
      <trkpt lat="47.85800333" lon="21.95155667">
        <ele>172.9</ele>
        <time>2025-07-07T11:41:28Z</time>
      </trkpt>
      <trkpt lat="47.85798333" lon="21.951805">
        <ele>172</ele>
        <time>2025-07-07T11:41:29Z</time>
      </trkpt>
      <trkpt lat="47.85796333" lon="21.952065">
        <ele>172.2</ele>
        <time>2025-07-07T11:41:30Z</time>
      </trkpt>
      <trkpt lat="47.85794333" lon="21.95231333">
        <ele>173.7</ele>
        <time>2025-07-07T11:41:31Z</time>
      </trkpt>
      <trkpt lat="47.85792167" lon="21.95256833">
        <ele>173.9</ele>
        <time>2025-07-07T11:41:32Z</time>
      </trkpt>
      <trkpt lat="47.85790833" lon="21.95282167">
        <ele>173.7</ele>
        <time>2025-07-07T11:41:33Z</time>
      </trkpt>
      <trkpt lat="47.85789333" lon="21.95306833">
        <ele>173.8</ele>
        <time>2025-07-07T11:41:34Z</time>
      </trkpt>
      <trkpt lat="47.857875" lon="21.95331833">
        <ele>173.3</ele>
        <time>2025-07-07T11:41:35Z</time>
      </trkpt>
      <trkpt lat="47.85785667" lon="21.95357">
        <ele>172.7</ele>
        <time>2025-07-07T11:41:36Z</time>
      </trkpt>
      <trkpt lat="47.85784167" lon="21.95381167">
        <ele>173.5</ele>
        <time>2025-07-07T11:41:37Z</time>
      </trkpt>
      <trkpt lat="47.85781167" lon="21.95406833">
        <ele>173.5</ele>
        <time>2025-07-07T11:41:38Z</time>
      </trkpt>
      <trkpt lat="47.85779333" lon="21.95430667">
        <ele>172.2</ele>
        <time>2025-07-07T11:41:39Z</time>
      </trkpt>
      <trkpt lat="47.857775" lon="21.95455667">
        <ele>171.7</ele>
        <time>2025-07-07T11:41:40Z</time>
      </trkpt>
      <trkpt lat="47.85775667" lon="21.95479833">
        <ele>172.2</ele>
        <time>2025-07-07T11:41:41Z</time>
      </trkpt>
      <trkpt lat="47.857735" lon="21.95504667">
        <ele>172.2</ele>
        <time>2025-07-07T11:41:42Z</time>
      </trkpt>
      <trkpt lat="47.85772167" lon="21.95527833">
        <ele>171.5</ele>
        <time>2025-07-07T11:41:43Z</time>
      </trkpt>
      <trkpt lat="47.85770333" lon="21.95551667">
        <ele>171.3</ele>
        <time>2025-07-07T11:41:44Z</time>
      </trkpt>
      <trkpt lat="47.85767833" lon="21.955775">
        <ele>171</ele>
        <time>2025-07-07T11:41:45Z</time>
      </trkpt>
      <trkpt lat="47.85765667" lon="21.95603333">
        <ele>171.6</ele>
        <time>2025-07-07T11:41:46Z</time>
      </trkpt>
      <trkpt lat="47.85764" lon="21.95628667">
        <ele>172.4</ele>
        <time>2025-07-07T11:41:47Z</time>
      </trkpt>
      <trkpt lat="47.85762833" lon="21.95654167">
        <ele>173.2</ele>
        <time>2025-07-07T11:41:48Z</time>
      </trkpt>
      <trkpt lat="47.85761" lon="21.95679667">
        <ele>174</ele>
        <time>2025-07-07T11:41:49Z</time>
      </trkpt>
      <trkpt lat="47.85759167" lon="21.95705333">
        <ele>173.8</ele>
        <time>2025-07-07T11:41:50Z</time>
      </trkpt>
      <trkpt lat="47.85757167" lon="21.95732">
        <ele>175.9</ele>
        <time>2025-07-07T11:41:51Z</time>
      </trkpt>
      <trkpt lat="47.85755333" lon="21.95759">
        <ele>179.8</ele>
        <time>2025-07-07T11:41:52Z</time>
      </trkpt>
      <trkpt lat="47.85753167" lon="21.957865">
        <ele>179.5</ele>
        <time>2025-07-07T11:41:53Z</time>
      </trkpt>
      <trkpt lat="47.85750667" lon="21.95813833">
        <ele>177.7</ele>
        <time>2025-07-07T11:41:54Z</time>
      </trkpt>
      <trkpt lat="47.857475" lon="21.95839333">
        <ele>176.4</ele>
        <time>2025-07-07T11:41:55Z</time>
      </trkpt>
      <trkpt lat="47.85746" lon="21.95864667">
        <ele>175.9</ele>
        <time>2025-07-07T11:41:56Z</time>
      </trkpt>
      <trkpt lat="47.85743833" lon="21.95889667">
        <ele>175.6</ele>
        <time>2025-07-07T11:41:57Z</time>
      </trkpt>
      <trkpt lat="47.857415" lon="21.95915333">
        <ele>174.3</ele>
        <time>2025-07-07T11:41:58Z</time>
      </trkpt>
      <trkpt lat="47.857395" lon="21.95942">
        <ele>173.8</ele>
        <time>2025-07-07T11:41:59Z</time>
      </trkpt>
      <trkpt lat="47.85737167" lon="21.95968833">
        <ele>173.9</ele>
        <time>2025-07-07T11:42:00Z</time>
      </trkpt>
      <trkpt lat="47.85734833" lon="21.95995333">
        <ele>173.5</ele>
        <time>2025-07-07T11:42:01Z</time>
      </trkpt>
      <trkpt lat="47.85732833" lon="21.96021667">
        <ele>173</ele>
        <time>2025-07-07T11:42:02Z</time>
      </trkpt>
      <trkpt lat="47.85730333" lon="21.960485">
        <ele>170.2</ele>
        <time>2025-07-07T11:42:03Z</time>
      </trkpt>
      <trkpt lat="47.85728833" lon="21.96072833">
        <ele>170.9</ele>
        <time>2025-07-07T11:42:04Z</time>
      </trkpt>
      <trkpt lat="47.85727833" lon="21.96097667">
        <ele>169.8</ele>
        <time>2025-07-07T11:42:05Z</time>
      </trkpt>
      <trkpt lat="47.85726667" lon="21.96123333">
        <ele>169.4</ele>
        <time>2025-07-07T11:42:06Z</time>
      </trkpt>
      <trkpt lat="47.85725667" lon="21.96148667">
        <ele>170.2</ele>
        <time>2025-07-07T11:42:07Z</time>
      </trkpt>
      <trkpt lat="47.85724167" lon="21.96174">
        <ele>171.1</ele>
        <time>2025-07-07T11:42:08Z</time>
      </trkpt>
      <trkpt lat="47.85722667" lon="21.962">
        <ele>172.1</ele>
        <time>2025-07-07T11:42:09Z</time>
      </trkpt>
      <trkpt lat="47.85721333" lon="21.96226333">
        <ele>172.1</ele>
        <time>2025-07-07T11:42:10Z</time>
      </trkpt>
      <trkpt lat="47.857195" lon="21.96252167">
        <ele>173.7</ele>
        <time>2025-07-07T11:42:11Z</time>
      </trkpt>
      <trkpt lat="47.85717667" lon="21.962765">
        <ele>175</ele>
        <time>2025-07-07T11:42:12Z</time>
      </trkpt>
      <trkpt lat="47.85715667" lon="21.96301333">
        <ele>174</ele>
        <time>2025-07-07T11:42:13Z</time>
      </trkpt>
      <trkpt lat="47.85712667" lon="21.96328833">
        <ele>174.1</ele>
        <time>2025-07-07T11:42:14Z</time>
      </trkpt>
      <trkpt lat="47.857115" lon="21.96353333">
        <ele>174.3</ele>
        <time>2025-07-07T11:42:15Z</time>
      </trkpt>
      <trkpt lat="47.85709667" lon="21.963795">
        <ele>176.3</ele>
        <time>2025-07-07T11:42:16Z</time>
      </trkpt>
      <trkpt lat="47.85706667" lon="21.96406333">
        <ele>175.2</ele>
        <time>2025-07-07T11:42:17Z</time>
      </trkpt>
      <trkpt lat="47.85704333" lon="21.96433167">
        <ele>174.5</ele>
        <time>2025-07-07T11:42:18Z</time>
      </trkpt>
      <trkpt lat="47.85702333" lon="21.96459167">
        <ele>171.7</ele>
        <time>2025-07-07T11:42:19Z</time>
      </trkpt>
      <trkpt lat="47.85700833" lon="21.96485333">
        <ele>172</ele>
        <time>2025-07-07T11:42:20Z</time>
      </trkpt>
      <trkpt lat="47.85699167" lon="21.96510833">
        <ele>172.1</ele>
        <time>2025-07-07T11:42:21Z</time>
      </trkpt>
      <trkpt lat="47.85697833" lon="21.96535833">
        <ele>172.1</ele>
        <time>2025-07-07T11:42:22Z</time>
      </trkpt>
      <trkpt lat="47.85695167" lon="21.96561">
        <ele>169</ele>
        <time>2025-07-07T11:42:23Z</time>
      </trkpt>
      <trkpt lat="47.85691667" lon="21.96589333">
        <ele>168.3</ele>
        <time>2025-07-07T11:42:24Z</time>
      </trkpt>
      <trkpt lat="47.85689167" lon="21.96616833">
        <ele>169.7</ele>
        <time>2025-07-07T11:42:25Z</time>
      </trkpt>
      <trkpt lat="47.85687" lon="21.96643667">
        <ele>168.9</ele>
        <time>2025-07-07T11:42:26Z</time>
      </trkpt>
      <trkpt lat="47.85685333" lon="21.96669333">
        <ele>168.7</ele>
        <time>2025-07-07T11:42:27Z</time>
      </trkpt>
      <trkpt lat="47.85682667" lon="21.96696">
        <ele>168.7</ele>
        <time>2025-07-07T11:42:28Z</time>
      </trkpt>
      <trkpt lat="47.85680667" lon="21.967225">
        <ele>168.4</ele>
        <time>2025-07-07T11:42:29Z</time>
      </trkpt>
      <trkpt lat="47.85679167" lon="21.96749667">
        <ele>168.1</ele>
        <time>2025-07-07T11:42:30Z</time>
      </trkpt>
      <trkpt lat="47.85677333" lon="21.96778833">
        <ele>166.3</ele>
        <time>2025-07-07T11:42:31Z</time>
      </trkpt>
      <trkpt lat="47.85675" lon="21.96805167">
        <ele>166.4</ele>
        <time>2025-07-07T11:42:32Z</time>
      </trkpt>
      <trkpt lat="47.856735" lon="21.96829833">
        <ele>166.7</ele>
        <time>2025-07-07T11:42:33Z</time>
      </trkpt>
      <trkpt lat="47.85671833" lon="21.96854667">
        <ele>167.4</ele>
        <time>2025-07-07T11:42:34Z</time>
      </trkpt>
      <trkpt lat="47.85669833" lon="21.96880667">
        <ele>167.7</ele>
        <time>2025-07-07T11:42:35Z</time>
      </trkpt>
      <trkpt lat="47.85668" lon="21.96906667">
        <ele>168</ele>
        <time>2025-07-07T11:42:36Z</time>
      </trkpt>
      <trkpt lat="47.85666167" lon="21.969315">
        <ele>168.4</ele>
        <time>2025-07-07T11:42:37Z</time>
      </trkpt>
      <trkpt lat="47.856645" lon="21.96956833">
        <ele>168.7</ele>
        <time>2025-07-07T11:42:38Z</time>
      </trkpt>
      <trkpt lat="47.85662333" lon="21.96983833">
        <ele>169.1</ele>
        <time>2025-07-07T11:42:39Z</time>
      </trkpt>
      <trkpt lat="47.85660833" lon="21.97009667">
        <ele>169.4</ele>
        <time>2025-07-07T11:42:40Z</time>
      </trkpt>
      <trkpt lat="47.85658667" lon="21.970375">
        <ele>170.1</ele>
        <time>2025-07-07T11:42:41Z</time>
      </trkpt>
      <trkpt lat="47.85654" lon="21.97067833">
        <ele>172</ele>
        <time>2025-07-07T11:42:42Z</time>
      </trkpt>
      <trkpt lat="47.85649833" lon="21.97097333">
        <ele>173.8</ele>
        <time>2025-07-07T11:42:43Z</time>
      </trkpt>
      <trkpt lat="47.85647333" lon="21.97125833">
        <ele>173.6</ele>
        <time>2025-07-07T11:42:44Z</time>
      </trkpt>
      <trkpt lat="47.85644167" lon="21.97152167">
        <ele>175.4</ele>
        <time>2025-07-07T11:42:45Z</time>
      </trkpt>
      <trkpt lat="47.856425" lon="21.97176833">
        <ele>175.2</ele>
        <time>2025-07-07T11:42:46Z</time>
      </trkpt>
      <trkpt lat="47.856395" lon="21.97203667">
        <ele>175</ele>
        <time>2025-07-07T11:42:47Z</time>
      </trkpt>
      <trkpt lat="47.85637833" lon="21.97228667">
        <ele>175.2</ele>
        <time>2025-07-07T11:42:48Z</time>
      </trkpt>
      <trkpt lat="47.85635167" lon="21.972535">
        <ele>175</ele>
        <time>2025-07-07T11:42:49Z</time>
      </trkpt>
      <trkpt lat="47.85634" lon="21.97279">
        <ele>175.5</ele>
        <time>2025-07-07T11:42:50Z</time>
      </trkpt>
      <trkpt lat="47.85632667" lon="21.97304167">
        <ele>176.1</ele>
        <time>2025-07-07T11:42:51Z</time>
      </trkpt>
      <trkpt lat="47.85631167" lon="21.97328667">
        <ele>176.1</ele>
        <time>2025-07-07T11:42:52Z</time>
      </trkpt>
      <trkpt lat="47.85629833" lon="21.97354167">
        <ele>176.5</ele>
        <time>2025-07-07T11:42:53Z</time>
      </trkpt>
      <trkpt lat="47.85628667" lon="21.97378">
        <ele>176.3</ele>
        <time>2025-07-07T11:42:54Z</time>
      </trkpt>
      <trkpt lat="47.85627" lon="21.97403333">
        <ele>176.7</ele>
        <time>2025-07-07T11:42:55Z</time>
      </trkpt>
      <trkpt lat="47.85625333" lon="21.97428167">
        <ele>177.6</ele>
        <time>2025-07-07T11:42:56Z</time>
      </trkpt>
      <trkpt lat="47.856235" lon="21.97453667">
        <ele>177.7</ele>
        <time>2025-07-07T11:42:57Z</time>
      </trkpt>
      <trkpt lat="47.856225" lon="21.97478">
        <ele>178.8</ele>
        <time>2025-07-07T11:42:58Z</time>
      </trkpt>
      <trkpt lat="47.85622167" lon="21.97500833">
        <ele>180.8</ele>
        <time>2025-07-07T11:42:59Z</time>
      </trkpt>
      <trkpt lat="47.85620333" lon="21.975245">
        <ele>181.1</ele>
        <time>2025-07-07T11:43:00Z</time>
      </trkpt>
      <trkpt lat="47.85618667" lon="21.97547833">
        <ele>180.8</ele>
        <time>2025-07-07T11:43:01Z</time>
      </trkpt>
      <trkpt lat="47.856165" lon="21.97572333">
        <ele>180.9</ele>
        <time>2025-07-07T11:43:02Z</time>
      </trkpt>
      <trkpt lat="47.856135" lon="21.97599">
        <ele>179.8</ele>
        <time>2025-07-07T11:43:03Z</time>
      </trkpt>
      <trkpt lat="47.856125" lon="21.976225">
        <ele>175.7</ele>
        <time>2025-07-07T11:43:04Z</time>
      </trkpt>
      <trkpt lat="47.85611" lon="21.97645167">
        <ele>176</ele>
        <time>2025-07-07T11:43:05Z</time>
      </trkpt>
      <trkpt lat="47.85609833" lon="21.97668167">
        <ele>176.1</ele>
        <time>2025-07-07T11:43:06Z</time>
      </trkpt>
      <trkpt lat="47.85608667" lon="21.97688833">
        <ele>176.4</ele>
        <time>2025-07-07T11:43:07Z</time>
      </trkpt>
      <trkpt lat="47.85606833" lon="21.9771">
        <ele>176.5</ele>
        <time>2025-07-07T11:43:08Z</time>
      </trkpt>
      <trkpt lat="47.85604833" lon="21.977315">
        <ele>176.8</ele>
        <time>2025-07-07T11:43:09Z</time>
      </trkpt>
      <trkpt lat="47.85602833" lon="21.977535">
        <ele>177.2</ele>
        <time>2025-07-07T11:43:10Z</time>
      </trkpt>
      <trkpt lat="47.85601167" lon="21.97775">
        <ele>177.4</ele>
        <time>2025-07-07T11:43:11Z</time>
      </trkpt>
      <trkpt lat="47.85599167" lon="21.97796167">
        <ele>177.6</ele>
        <time>2025-07-07T11:43:12Z</time>
      </trkpt>
      <trkpt lat="47.85597333" lon="21.97817167">
        <ele>177.7</ele>
        <time>2025-07-07T11:43:13Z</time>
      </trkpt>
      <trkpt lat="47.85594333" lon="21.97837833">
        <ele>177.8</ele>
        <time>2025-07-07T11:43:14Z</time>
      </trkpt>
      <trkpt lat="47.85592167" lon="21.97858">
        <ele>178.2</ele>
        <time>2025-07-07T11:43:15Z</time>
      </trkpt>
      <trkpt lat="47.85590833" lon="21.97878333">
        <ele>178.5</ele>
        <time>2025-07-07T11:43:16Z</time>
      </trkpt>
      <trkpt lat="47.85589" lon="21.97898167">
        <ele>178.4</ele>
        <time>2025-07-07T11:43:17Z</time>
      </trkpt>
      <trkpt lat="47.85586833" lon="21.97918333">
        <ele>177.7</ele>
        <time>2025-07-07T11:43:18Z</time>
      </trkpt>
      <trkpt lat="47.85585" lon="21.979375">
        <ele>178</ele>
        <time>2025-07-07T11:43:19Z</time>
      </trkpt>
      <trkpt lat="47.855835" lon="21.97956167">
        <ele>177.9</ele>
        <time>2025-07-07T11:43:20Z</time>
      </trkpt>
      <trkpt lat="47.85581667" lon="21.97974333">
        <ele>178</ele>
        <time>2025-07-07T11:43:21Z</time>
      </trkpt>
      <trkpt lat="47.8558" lon="21.97991667">
        <ele>178</ele>
        <time>2025-07-07T11:43:22Z</time>
      </trkpt>
      <trkpt lat="47.85578667" lon="21.98007">
        <ele>178</ele>
        <time>2025-07-07T11:43:23Z</time>
      </trkpt>
      <trkpt lat="47.85576833" lon="21.980315">
        <ele>178.1</ele>
        <time>2025-07-07T11:43:25Z</time>
      </trkpt>
      <trkpt lat="47.85576167" lon="21.98050833">
        <ele>178.4</ele>
        <time>2025-07-07T11:43:27Z</time>
      </trkpt>
      <trkpt lat="47.85575167" lon="21.98064167">
        <ele>179</ele>
        <time>2025-07-07T11:43:29Z</time>
      </trkpt>
      <trkpt lat="47.855775" lon="21.9808">
        <ele>174.5</ele>
        <time>2025-07-07T11:44:01Z</time>
      </trkpt>
      <trkpt lat="47.855875" lon="21.98088">
        <ele>173.1</ele>
        <time>2025-07-07T11:44:04Z</time>
      </trkpt>
      <trkpt lat="47.85597" lon="21.98089">
        <ele>172.4</ele>
        <time>2025-07-07T11:44:06Z</time>
      </trkpt>
      <trkpt lat="47.85607833" lon="21.98086833">
        <ele>171.8</ele>
        <time>2025-07-07T11:44:08Z</time>
      </trkpt>
      <trkpt lat="47.856195" lon="21.98083">
        <ele>171.5</ele>
        <time>2025-07-07T11:44:10Z</time>
      </trkpt>
      <trkpt lat="47.85632" lon="21.98078333">
        <ele>173.3</ele>
        <time>2025-07-07T11:44:12Z</time>
      </trkpt>
      <trkpt lat="47.85648" lon="21.98072">
        <ele>177.4</ele>
        <time>2025-07-07T11:44:14Z</time>
      </trkpt>
      <trkpt lat="47.85657833" lon="21.98069333">
        <ele>177.1</ele>
        <time>2025-07-07T11:44:15Z</time>
      </trkpt>
      <trkpt lat="47.856685" lon="21.98064833">
        <ele>175.4</ele>
        <time>2025-07-07T11:44:16Z</time>
      </trkpt>
      <trkpt lat="47.85678333" lon="21.98061167">
        <ele>174.3</ele>
        <time>2025-07-07T11:44:17Z</time>
      </trkpt>
      <trkpt lat="47.85688" lon="21.98057833">
        <ele>172.2</ele>
        <time>2025-07-07T11:44:18Z</time>
      </trkpt>
      <trkpt lat="47.85698" lon="21.980525">
        <ele>170.7</ele>
        <time>2025-07-07T11:44:19Z</time>
      </trkpt>
      <trkpt lat="47.857085" lon="21.98046833">
        <ele>167.9</ele>
        <time>2025-07-07T11:44:20Z</time>
      </trkpt>
      <trkpt lat="47.85719" lon="21.98043167">
        <ele>167.2</ele>
        <time>2025-07-07T11:44:21Z</time>
      </trkpt>
      <trkpt lat="47.85728333" lon="21.98039167">
        <ele>167.2</ele>
        <time>2025-07-07T11:44:22Z</time>
      </trkpt>
      <trkpt lat="47.85739167" lon="21.98034833">
        <ele>166.5</ele>
        <time>2025-07-07T11:44:23Z</time>
      </trkpt>
      <trkpt lat="47.85750833" lon="21.98030667">
        <ele>165.6</ele>
        <time>2025-07-07T11:44:24Z</time>
      </trkpt>
      <trkpt lat="47.857625" lon="21.98026667">
        <ele>165</ele>
        <time>2025-07-07T11:44:25Z</time>
      </trkpt>
      <trkpt lat="47.85775" lon="21.98021333">
        <ele>164.3</ele>
        <time>2025-07-07T11:44:26Z</time>
      </trkpt>
      <trkpt lat="47.85785833" lon="21.98016667">
        <ele>164.6</ele>
        <time>2025-07-07T11:44:27Z</time>
      </trkpt>
      <trkpt lat="47.85799" lon="21.98010667">
        <ele>164.7</ele>
        <time>2025-07-07T11:44:28Z</time>
      </trkpt>
      <trkpt lat="47.85811833" lon="21.98004833">
        <ele>164.4</ele>
        <time>2025-07-07T11:44:29Z</time>
      </trkpt>
      <trkpt lat="47.858245" lon="21.97998833">
        <ele>164.4</ele>
        <time>2025-07-07T11:44:30Z</time>
      </trkpt>
      <trkpt lat="47.85837" lon="21.97992833">
        <ele>164.6</ele>
        <time>2025-07-07T11:44:31Z</time>
      </trkpt>
      <trkpt lat="47.85850333" lon="21.97987333">
        <ele>164.5</ele>
        <time>2025-07-07T11:44:32Z</time>
      </trkpt>
      <trkpt lat="47.85864833" lon="21.97981167">
        <ele>164.9</ele>
        <time>2025-07-07T11:44:33Z</time>
      </trkpt>
      <trkpt lat="47.85879667" lon="21.97974667">
        <ele>165</ele>
        <time>2025-07-07T11:44:34Z</time>
      </trkpt>
      <trkpt lat="47.858945" lon="21.97969167">
        <ele>165.3</ele>
        <time>2025-07-07T11:44:35Z</time>
      </trkpt>
      <trkpt lat="47.85909667" lon="21.97964833">
        <ele>164.8</ele>
        <time>2025-07-07T11:44:36Z</time>
      </trkpt>
      <trkpt lat="47.85925667" lon="21.97960167">
        <ele>164.6</ele>
        <time>2025-07-07T11:44:37Z</time>
      </trkpt>
      <trkpt lat="47.85941833" lon="21.979545">
        <ele>164.5</ele>
        <time>2025-07-07T11:44:38Z</time>
      </trkpt>
      <trkpt lat="47.85957" lon="21.97948">
        <ele>165.2</ele>
        <time>2025-07-07T11:44:39Z</time>
      </trkpt>
      <trkpt lat="47.85972667" lon="21.97942">
        <ele>164.9</ele>
        <time>2025-07-07T11:44:40Z</time>
      </trkpt>
      <trkpt lat="47.85988333" lon="21.979365">
        <ele>164.4</ele>
        <time>2025-07-07T11:44:41Z</time>
      </trkpt>
      <trkpt lat="47.86004667" lon="21.97931667">
        <ele>164.4</ele>
        <time>2025-07-07T11:44:42Z</time>
      </trkpt>
      <trkpt lat="47.86019333" lon="21.97927">
        <ele>165.3</ele>
        <time>2025-07-07T11:44:43Z</time>
      </trkpt>
      <trkpt lat="47.86034167" lon="21.979215">
        <ele>166.1</ele>
        <time>2025-07-07T11:44:44Z</time>
      </trkpt>
      <trkpt lat="47.86049167" lon="21.97915333">
        <ele>166.9</ele>
        <time>2025-07-07T11:44:45Z</time>
      </trkpt>
      <trkpt lat="47.86064667" lon="21.97908333">
        <ele>161.1</ele>
        <time>2025-07-07T11:44:46Z</time>
      </trkpt>
      <trkpt lat="47.860795" lon="21.979015">
        <ele>161.1</ele>
        <time>2025-07-07T11:44:47Z</time>
      </trkpt>
      <trkpt lat="47.86096" lon="21.97895">
        <ele>161.4</ele>
        <time>2025-07-07T11:44:48Z</time>
      </trkpt>
      <trkpt lat="47.86111" lon="21.97889333">
        <ele>161.7</ele>
        <time>2025-07-07T11:44:49Z</time>
      </trkpt>
      <trkpt lat="47.86126833" lon="21.978835">
        <ele>161.8</ele>
        <time>2025-07-07T11:44:50Z</time>
      </trkpt>
      <trkpt lat="47.86142167" lon="21.97878167">
        <ele>162.7</ele>
        <time>2025-07-07T11:44:51Z</time>
      </trkpt>
      <trkpt lat="47.86157833" lon="21.97872167">
        <ele>162.8</ele>
        <time>2025-07-07T11:44:52Z</time>
      </trkpt>
      <trkpt lat="47.86174333" lon="21.97866">
        <ele>163.7</ele>
        <time>2025-07-07T11:44:53Z</time>
      </trkpt>
      <trkpt lat="47.86193" lon="21.97858167">
        <ele>172.7</ele>
        <time>2025-07-07T11:44:54Z</time>
      </trkpt>
      <trkpt lat="47.86212" lon="21.97855">
        <ele>175.2</ele>
        <time>2025-07-07T11:44:55Z</time>
      </trkpt>
      <trkpt lat="47.86226667" lon="21.97849333">
        <ele>174.8</ele>
        <time>2025-07-07T11:44:56Z</time>
      </trkpt>
      <trkpt lat="47.86241167" lon="21.97845167">
        <ele>174.4</ele>
        <time>2025-07-07T11:44:57Z</time>
      </trkpt>
      <trkpt lat="47.86255833" lon="21.97840333">
        <ele>174.6</ele>
        <time>2025-07-07T11:44:58Z</time>
      </trkpt>
      <trkpt lat="47.86270333" lon="21.97835167">
        <ele>174.6</ele>
        <time>2025-07-07T11:44:59Z</time>
      </trkpt>
      <trkpt lat="47.86284" lon="21.97830667">
        <ele>174.3</ele>
        <time>2025-07-07T11:45:00Z</time>
      </trkpt>
      <trkpt lat="47.86298167" lon="21.97826">
        <ele>174.4</ele>
        <time>2025-07-07T11:45:01Z</time>
      </trkpt>
      <trkpt lat="47.86312167" lon="21.97820333">
        <ele>174.6</ele>
        <time>2025-07-07T11:45:02Z</time>
      </trkpt>
      <trkpt lat="47.86325333" lon="21.97813333">
        <ele>174.4</ele>
        <time>2025-07-07T11:45:03Z</time>
      </trkpt>
      <trkpt lat="47.86336833" lon="21.97805333">
        <ele>174.3</ele>
        <time>2025-07-07T11:45:04Z</time>
      </trkpt>
      <trkpt lat="47.86349667" lon="21.977995">
        <ele>172.4</ele>
        <time>2025-07-07T11:45:05Z</time>
      </trkpt>
      <trkpt lat="47.86365833" lon="21.97794833">
        <ele>174.1</ele>
        <time>2025-07-07T11:45:06Z</time>
      </trkpt>
      <trkpt lat="47.86381667" lon="21.97789833">
        <ele>171.8</ele>
        <time>2025-07-07T11:45:07Z</time>
      </trkpt>
      <trkpt lat="47.86397" lon="21.97784167">
        <ele>170.5</ele>
        <time>2025-07-07T11:45:08Z</time>
      </trkpt>
      <trkpt lat="47.86413667" lon="21.97779667">
        <ele>171.4</ele>
        <time>2025-07-07T11:45:09Z</time>
      </trkpt>
      <trkpt lat="47.86428667" lon="21.97773667">
        <ele>170.6</ele>
        <time>2025-07-07T11:45:10Z</time>
      </trkpt>
      <trkpt lat="47.86443" lon="21.97768167">
        <ele>170.6</ele>
        <time>2025-07-07T11:45:11Z</time>
      </trkpt>
      <trkpt lat="47.86457333" lon="21.97763167">
        <ele>170.8</ele>
        <time>2025-07-07T11:45:12Z</time>
      </trkpt>
      <trkpt lat="47.86472167" lon="21.97757833">
        <ele>170.9</ele>
        <time>2025-07-07T11:45:13Z</time>
      </trkpt>
      <trkpt lat="47.86487333" lon="21.977525">
        <ele>170.8</ele>
        <time>2025-07-07T11:45:14Z</time>
      </trkpt>
      <trkpt lat="47.86502" lon="21.97746333">
        <ele>170.6</ele>
        <time>2025-07-07T11:45:15Z</time>
      </trkpt>
      <trkpt lat="47.865175" lon="21.97740833">
        <ele>170.5</ele>
        <time>2025-07-07T11:45:16Z</time>
      </trkpt>
      <trkpt lat="47.86532" lon="21.977355">
        <ele>170.7</ele>
        <time>2025-07-07T11:45:17Z</time>
      </trkpt>
      <trkpt lat="47.86546833" lon="21.97729667">
        <ele>171.9</ele>
        <time>2025-07-07T11:45:18Z</time>
      </trkpt>
      <trkpt lat="47.86576167" lon="21.97714667">
        <ele>175.5</ele>
        <time>2025-07-07T11:45:20Z</time>
      </trkpt>
      <trkpt lat="47.86591833" lon="21.97708667">
        <ele>173.2</ele>
        <time>2025-07-07T11:45:21Z</time>
      </trkpt>
      <trkpt lat="47.86607833" lon="21.97702833">
        <ele>170.5</ele>
        <time>2025-07-07T11:45:22Z</time>
      </trkpt>
      <trkpt lat="47.86624" lon="21.97697333">
        <ele>170.5</ele>
        <time>2025-07-07T11:45:23Z</time>
      </trkpt>
      <trkpt lat="47.86638" lon="21.97690833">
        <ele>170.6</ele>
        <time>2025-07-07T11:45:24Z</time>
      </trkpt>
      <trkpt lat="47.86652667" lon="21.97685167">
        <ele>170.5</ele>
        <time>2025-07-07T11:45:25Z</time>
      </trkpt>
      <trkpt lat="47.86668333" lon="21.97679833">
        <ele>174.2</ele>
        <time>2025-07-07T11:45:26Z</time>
      </trkpt>
      <trkpt lat="47.86683333" lon="21.97674333">
        <ele>174.9</ele>
        <time>2025-07-07T11:45:27Z</time>
      </trkpt>
      <trkpt lat="47.86697333" lon="21.97669333">
        <ele>175.3</ele>
        <time>2025-07-07T11:45:28Z</time>
      </trkpt>
      <trkpt lat="47.86712" lon="21.97664">
        <ele>176.2</ele>
        <time>2025-07-07T11:45:29Z</time>
      </trkpt>
      <trkpt lat="47.86727167" lon="21.976585">
        <ele>177.1</ele>
        <time>2025-07-07T11:45:30Z</time>
      </trkpt>
      <trkpt lat="47.86742333" lon="21.97653333">
        <ele>178.4</ele>
        <time>2025-07-07T11:45:31Z</time>
      </trkpt>
      <trkpt lat="47.86757167" lon="21.97649">
        <ele>179.3</ele>
        <time>2025-07-07T11:45:32Z</time>
      </trkpt>
      <trkpt lat="47.86771667" lon="21.97645167">
        <ele>179.8</ele>
        <time>2025-07-07T11:45:33Z</time>
      </trkpt>
      <trkpt lat="47.867865" lon="21.97640667">
        <ele>180.6</ele>
        <time>2025-07-07T11:45:34Z</time>
      </trkpt>
      <trkpt lat="47.86801167" lon="21.97635833">
        <ele>181</ele>
        <time>2025-07-07T11:45:35Z</time>
      </trkpt>
      <trkpt lat="47.86815833" lon="21.97629833">
        <ele>180.7</ele>
        <time>2025-07-07T11:45:36Z</time>
      </trkpt>
      <trkpt lat="47.86831" lon="21.97624167">
        <ele>180.1</ele>
        <time>2025-07-07T11:45:37Z</time>
      </trkpt>
      <trkpt lat="47.86846167" lon="21.976185">
        <ele>181.1</ele>
        <time>2025-07-07T11:45:38Z</time>
      </trkpt>
      <trkpt lat="47.86861167" lon="21.97613">
        <ele>181.7</ele>
        <time>2025-07-07T11:45:39Z</time>
      </trkpt>
      <trkpt lat="47.86876167" lon="21.97607667">
        <ele>181.7</ele>
        <time>2025-07-07T11:45:40Z</time>
      </trkpt>
      <trkpt lat="47.86890833" lon="21.97602833">
        <ele>181.5</ele>
        <time>2025-07-07T11:45:41Z</time>
      </trkpt>
      <trkpt lat="47.869195" lon="21.97592333">
        <ele>182.4</ele>
        <time>2025-07-07T11:45:43Z</time>
      </trkpt>
      <trkpt lat="47.86934667" lon="21.975875">
        <ele>182</ele>
        <time>2025-07-07T11:45:44Z</time>
      </trkpt>
      <trkpt lat="47.86948667" lon="21.97581667">
        <ele>183.9</ele>
        <time>2025-07-07T11:45:45Z</time>
      </trkpt>
      <trkpt lat="47.86962333" lon="21.97576333">
        <ele>184.1</ele>
        <time>2025-07-07T11:45:46Z</time>
      </trkpt>
      <trkpt lat="47.86977333" lon="21.97571333">
        <ele>184.7</ele>
        <time>2025-07-07T11:45:47Z</time>
      </trkpt>
      <trkpt lat="47.87005833" lon="21.97560333">
        <ele>184.8</ele>
        <time>2025-07-07T11:45:49Z</time>
      </trkpt>
      <trkpt lat="47.87020167" lon="21.97555">
        <ele>184.8</ele>
        <time>2025-07-07T11:45:50Z</time>
      </trkpt>
      <trkpt lat="47.87032333" lon="21.9755">
        <ele>181.9</ele>
        <time>2025-07-07T11:45:51Z</time>
      </trkpt>
      <trkpt lat="47.87046" lon="21.97544333">
        <ele>182.1</ele>
        <time>2025-07-07T11:45:52Z</time>
      </trkpt>
      <trkpt lat="47.87059667" lon="21.97539167">
        <ele>182.7</ele>
        <time>2025-07-07T11:45:53Z</time>
      </trkpt>
      <trkpt lat="47.87073" lon="21.97534833">
        <ele>183.6</ele>
        <time>2025-07-07T11:45:54Z</time>
      </trkpt>
      <trkpt lat="47.87101333" lon="21.975255">
        <ele>185</ele>
        <time>2025-07-07T11:45:56Z</time>
      </trkpt>
      <trkpt lat="47.87114667" lon="21.97521667">
        <ele>185.5</ele>
        <time>2025-07-07T11:45:57Z</time>
      </trkpt>
      <trkpt lat="47.87142833" lon="21.97513333">
        <ele>185.9</ele>
        <time>2025-07-07T11:45:59Z</time>
      </trkpt>
      <trkpt lat="47.87170333" lon="21.97505333">
        <ele>186.5</ele>
        <time>2025-07-07T11:46:01Z</time>
      </trkpt>
      <trkpt lat="47.87183333" lon="21.975005">
        <ele>187.3</ele>
        <time>2025-07-07T11:46:02Z</time>
      </trkpt>
      <trkpt lat="47.87195833" lon="21.97492">
        <ele>195.3</ele>
        <time>2025-07-07T11:46:03Z</time>
      </trkpt>
      <trkpt lat="47.87209333" lon="21.974865">
        <ele>195.5</ele>
        <time>2025-07-07T11:46:04Z</time>
      </trkpt>
      <trkpt lat="47.87223167" lon="21.97482667">
        <ele>195.2</ele>
        <time>2025-07-07T11:46:05Z</time>
      </trkpt>
      <trkpt lat="47.87236833" lon="21.97478333">
        <ele>195.2</ele>
        <time>2025-07-07T11:46:06Z</time>
      </trkpt>
      <trkpt lat="47.87249833" lon="21.97473833">
        <ele>195.2</ele>
        <time>2025-07-07T11:46:07Z</time>
      </trkpt>
      <trkpt lat="47.87262167" lon="21.97468667">
        <ele>194.9</ele>
        <time>2025-07-07T11:46:08Z</time>
      </trkpt>
      <trkpt lat="47.87275333" lon="21.97462667">
        <ele>194.9</ele>
        <time>2025-07-07T11:46:09Z</time>
      </trkpt>
      <trkpt lat="47.872895" lon="21.97457">
        <ele>194.7</ele>
        <time>2025-07-07T11:46:10Z</time>
      </trkpt>
      <trkpt lat="47.87303333" lon="21.97452167">
        <ele>194.2</ele>
        <time>2025-07-07T11:46:11Z</time>
      </trkpt>
      <trkpt lat="47.87315833" lon="21.974465">
        <ele>192.6</ele>
        <time>2025-07-07T11:46:12Z</time>
      </trkpt>
      <trkpt lat="47.87328333" lon="21.97439333">
        <ele>188</ele>
        <time>2025-07-07T11:46:13Z</time>
      </trkpt>
      <trkpt lat="47.87340167" lon="21.97434333">
        <ele>183.3</ele>
        <time>2025-07-07T11:46:14Z</time>
      </trkpt>
      <trkpt lat="47.87351667" lon="21.97429167">
        <ele>182.5</ele>
        <time>2025-07-07T11:46:15Z</time>
      </trkpt>
      <trkpt lat="47.87362167" lon="21.97424167">
        <ele>181.9</ele>
        <time>2025-07-07T11:46:16Z</time>
      </trkpt>
      <trkpt lat="47.87372667" lon="21.97419833">
        <ele>181.3</ele>
        <time>2025-07-07T11:46:17Z</time>
      </trkpt>
      <trkpt lat="47.873815" lon="21.97416667">
        <ele>181.3</ele>
        <time>2025-07-07T11:46:18Z</time>
      </trkpt>
      <trkpt lat="47.87390667" lon="21.97412333">
        <ele>180.7</ele>
        <time>2025-07-07T11:46:19Z</time>
      </trkpt>
      <trkpt lat="47.87407333" lon="21.97406667">
        <ele>178.2</ele>
        <time>2025-07-07T11:46:21Z</time>
      </trkpt>
      <trkpt lat="47.874185" lon="21.97402667">
        <ele>176.6</ele>
        <time>2025-07-07T11:46:23Z</time>
      </trkpt>
      <trkpt lat="47.87432167" lon="21.97400833">
        <ele>175.5</ele>
        <time>2025-07-07T11:46:26Z</time>
      </trkpt>
      <trkpt lat="47.87440833" lon="21.974055">
        <ele>173.7</ele>
        <time>2025-07-07T11:46:28Z</time>
      </trkpt>
      <trkpt lat="47.87447167" lon="21.97416167">
        <ele>173.3</ele>
        <time>2025-07-07T11:46:30Z</time>
      </trkpt>
      <trkpt lat="47.87454" lon="21.97427667">
        <ele>172.8</ele>
        <time>2025-07-07T11:46:32Z</time>
      </trkpt>
      <trkpt lat="47.87463333" lon="21.97443333">
        <ele>172.5</ele>
        <time>2025-07-07T11:46:34Z</time>
      </trkpt>
      <trkpt lat="47.874745" lon="21.97461">
        <ele>171.7</ele>
        <time>2025-07-07T11:46:36Z</time>
      </trkpt>
      <trkpt lat="47.87481" lon="21.97470833">
        <ele>171.8</ele>
        <time>2025-07-07T11:46:37Z</time>
      </trkpt>
      <trkpt lat="47.87487333" lon="21.974815">
        <ele>171.8</ele>
        <time>2025-07-07T11:46:38Z</time>
      </trkpt>
      <trkpt lat="47.87493833" lon="21.97493167">
        <ele>171.9</ele>
        <time>2025-07-07T11:46:39Z</time>
      </trkpt>
      <trkpt lat="47.87500667" lon="21.97505833">
        <ele>171.9</ele>
        <time>2025-07-07T11:46:40Z</time>
      </trkpt>
      <trkpt lat="47.87508333" lon="21.975185">
        <ele>171.8</ele>
        <time>2025-07-07T11:46:41Z</time>
      </trkpt>
      <trkpt lat="47.875165" lon="21.97531833">
        <ele>171.9</ele>
        <time>2025-07-07T11:46:42Z</time>
      </trkpt>
      <trkpt lat="47.875245" lon="21.97544833">
        <ele>172.1</ele>
        <time>2025-07-07T11:46:43Z</time>
      </trkpt>
      <trkpt lat="47.87532333" lon="21.975585">
        <ele>172.2</ele>
        <time>2025-07-07T11:46:44Z</time>
      </trkpt>
      <trkpt lat="47.87541" lon="21.97571667">
        <ele>172.4</ele>
        <time>2025-07-07T11:46:45Z</time>
      </trkpt>
      <trkpt lat="47.87549" lon="21.97584167">
        <ele>173.6</ele>
        <time>2025-07-07T11:46:46Z</time>
      </trkpt>
      <trkpt lat="47.87556833" lon="21.97596833">
        <ele>173.4</ele>
        <time>2025-07-07T11:46:47Z</time>
      </trkpt>
      <trkpt lat="47.87564333" lon="21.976095">
        <ele>173.1</ele>
        <time>2025-07-07T11:46:48Z</time>
      </trkpt>
      <trkpt lat="47.87572" lon="21.97623333">
        <ele>173.4</ele>
        <time>2025-07-07T11:46:49Z</time>
      </trkpt>
      <trkpt lat="47.8758" lon="21.97638333">
        <ele>174.1</ele>
        <time>2025-07-07T11:46:50Z</time>
      </trkpt>
      <trkpt lat="47.87588833" lon="21.97653167">
        <ele>174.8</ele>
        <time>2025-07-07T11:46:51Z</time>
      </trkpt>
      <trkpt lat="47.87600167" lon="21.97667167">
        <ele>174.8</ele>
        <time>2025-07-07T11:46:52Z</time>
      </trkpt>
      <trkpt lat="47.87611667" lon="21.97681167">
        <ele>175.1</ele>
        <time>2025-07-07T11:46:53Z</time>
      </trkpt>
      <trkpt lat="47.87620333" lon="21.97695">
        <ele>176</ele>
        <time>2025-07-07T11:46:54Z</time>
      </trkpt>
      <trkpt lat="47.87628667" lon="21.97709333">
        <ele>176.5</ele>
        <time>2025-07-07T11:46:55Z</time>
      </trkpt>
      <trkpt lat="47.87637667" lon="21.97723667">
        <ele>176.4</ele>
        <time>2025-07-07T11:46:56Z</time>
      </trkpt>
      <trkpt lat="47.87646833" lon="21.97737833">
        <ele>176.3</ele>
        <time>2025-07-07T11:46:57Z</time>
      </trkpt>
      <trkpt lat="47.87655167" lon="21.97752167">
        <ele>176.4</ele>
        <time>2025-07-07T11:46:58Z</time>
      </trkpt>
      <trkpt lat="47.87663333" lon="21.97765667">
        <ele>176.4</ele>
        <time>2025-07-07T11:46:59Z</time>
      </trkpt>
      <trkpt lat="47.87671667" lon="21.977805">
        <ele>176.4</ele>
        <time>2025-07-07T11:47:00Z</time>
      </trkpt>
      <trkpt lat="47.87679167" lon="21.97796">
        <ele>176.4</ele>
        <time>2025-07-07T11:47:01Z</time>
      </trkpt>
      <trkpt lat="47.87687167" lon="21.97813">
        <ele>176.2</ele>
        <time>2025-07-07T11:47:02Z</time>
      </trkpt>
      <trkpt lat="47.87695167" lon="21.97830667">
        <ele>175.7</ele>
        <time>2025-07-07T11:47:03Z</time>
      </trkpt>
      <trkpt lat="47.87702833" lon="21.9785">
        <ele>175.1</ele>
        <time>2025-07-07T11:47:04Z</time>
      </trkpt>
      <trkpt lat="47.87708833" lon="21.978685">
        <ele>175.2</ele>
        <time>2025-07-07T11:47:05Z</time>
      </trkpt>
      <trkpt lat="47.87714833" lon="21.97887167">
        <ele>174.9</ele>
        <time>2025-07-07T11:47:06Z</time>
      </trkpt>
      <trkpt lat="47.87719667" lon="21.97905333">
        <ele>175</ele>
        <time>2025-07-07T11:47:07Z</time>
      </trkpt>
      <trkpt lat="47.87725333" lon="21.979245">
        <ele>174.7</ele>
        <time>2025-07-07T11:47:08Z</time>
      </trkpt>
      <trkpt lat="47.87731" lon="21.97943667">
        <ele>174</ele>
        <time>2025-07-07T11:47:09Z</time>
      </trkpt>
      <trkpt lat="47.87736333" lon="21.97964">
        <ele>173.4</ele>
        <time>2025-07-07T11:47:10Z</time>
      </trkpt>
      <trkpt lat="47.87742333" lon="21.97984">
        <ele>172.9</ele>
        <time>2025-07-07T11:47:11Z</time>
      </trkpt>
      <trkpt lat="47.87745667" lon="21.98004">
        <ele>171.2</ele>
        <time>2025-07-07T11:47:12Z</time>
      </trkpt>
      <trkpt lat="47.877505" lon="21.98023667">
        <ele>170.3</ele>
        <time>2025-07-07T11:47:13Z</time>
      </trkpt>
      <trkpt lat="47.87756167" lon="21.98042833">
        <ele>169.1</ele>
        <time>2025-07-07T11:47:14Z</time>
      </trkpt>
      <trkpt lat="47.87760333" lon="21.98063">
        <ele>171.7</ele>
        <time>2025-07-07T11:47:15Z</time>
      </trkpt>
      <trkpt lat="47.877645" lon="21.98083167">
        <ele>172.9</ele>
        <time>2025-07-07T11:47:16Z</time>
      </trkpt>
      <trkpt lat="47.877685" lon="21.98101333">
        <ele>172.8</ele>
        <time>2025-07-07T11:47:17Z</time>
      </trkpt>
      <trkpt lat="47.877735" lon="21.98119333">
        <ele>172.3</ele>
        <time>2025-07-07T11:47:18Z</time>
      </trkpt>
      <trkpt lat="47.877785" lon="21.98139">
        <ele>172.1</ele>
        <time>2025-07-07T11:47:19Z</time>
      </trkpt>
      <trkpt lat="47.87783833" lon="21.98158167">
        <ele>171.1</ele>
        <time>2025-07-07T11:47:20Z</time>
      </trkpt>
      <trkpt lat="47.87789" lon="21.98177333">
        <ele>170.5</ele>
        <time>2025-07-07T11:47:21Z</time>
      </trkpt>
      <trkpt lat="47.87793833" lon="21.98195833">
        <ele>169.9</ele>
        <time>2025-07-07T11:47:22Z</time>
      </trkpt>
      <trkpt lat="47.87798667" lon="21.98215167">
        <ele>169.3</ele>
        <time>2025-07-07T11:47:23Z</time>
      </trkpt>
      <trkpt lat="47.87802833" lon="21.98234333">
        <ele>169.1</ele>
        <time>2025-07-07T11:47:24Z</time>
      </trkpt>
      <trkpt lat="47.87807" lon="21.98252833">
        <ele>170.5</ele>
        <time>2025-07-07T11:47:25Z</time>
      </trkpt>
      <trkpt lat="47.87811167" lon="21.98271333">
        <ele>172.3</ele>
        <time>2025-07-07T11:47:26Z</time>
      </trkpt>
      <trkpt lat="47.87816667" lon="21.98289">
        <ele>172.9</ele>
        <time>2025-07-07T11:47:27Z</time>
      </trkpt>
      <trkpt lat="47.87823" lon="21.98306167">
        <ele>173.9</ele>
        <time>2025-07-07T11:47:28Z</time>
      </trkpt>
      <trkpt lat="47.87829333" lon="21.98323333">
        <ele>174.4</ele>
        <time>2025-07-07T11:47:29Z</time>
      </trkpt>
      <trkpt lat="47.87836" lon="21.98341333">
        <ele>174.6</ele>
        <time>2025-07-07T11:47:30Z</time>
      </trkpt>
      <trkpt lat="47.878435" lon="21.98358667">
        <ele>176</ele>
        <time>2025-07-07T11:47:31Z</time>
      </trkpt>
      <trkpt lat="47.87850167" lon="21.983765">
        <ele>176.9</ele>
        <time>2025-07-07T11:47:32Z</time>
      </trkpt>
      <trkpt lat="47.87856333" lon="21.983935">
        <ele>177</ele>
        <time>2025-07-07T11:47:33Z</time>
      </trkpt>
      <trkpt lat="47.87861833" lon="21.98410333">
        <ele>177.3</ele>
        <time>2025-07-07T11:47:34Z</time>
      </trkpt>
      <trkpt lat="47.87868" lon="21.98426667">
        <ele>177.4</ele>
        <time>2025-07-07T11:47:35Z</time>
      </trkpt>
      <trkpt lat="47.878725" lon="21.98443">
        <ele>177.5</ele>
        <time>2025-07-07T11:47:36Z</time>
      </trkpt>
      <trkpt lat="47.87877333" lon="21.98458667">
        <ele>179</ele>
        <time>2025-07-07T11:47:37Z</time>
      </trkpt>
      <trkpt lat="47.87881333" lon="21.98472333">
        <ele>180</ele>
        <time>2025-07-07T11:47:38Z</time>
      </trkpt>
      <trkpt lat="47.8789" lon="21.98495333">
        <ele>179.1</ele>
        <time>2025-07-07T11:47:40Z</time>
      </trkpt>
      <trkpt lat="47.87899167" lon="21.985145">
        <ele>177.7</ele>
        <time>2025-07-07T11:47:42Z</time>
      </trkpt>
      <trkpt lat="47.87907833" lon="21.98530167">
        <ele>176.8</ele>
        <time>2025-07-07T11:47:44Z</time>
      </trkpt>
      <trkpt lat="47.87914167" lon="21.98543833">
        <ele>180.1</ele>
        <time>2025-07-07T11:47:46Z</time>
      </trkpt>
      <trkpt lat="47.87919833" lon="21.98555333">
        <ele>180.5</ele>
        <time>2025-07-07T11:47:50Z</time>
      </trkpt>
      <trkpt lat="47.87924167" lon="21.985685">
        <ele>179.6</ele>
        <time>2025-07-07T11:48:10Z</time>
      </trkpt>
      <trkpt lat="47.87929833" lon="21.98580667">
        <ele>179.5</ele>
        <time>2025-07-07T11:48:12Z</time>
      </trkpt>
      <trkpt lat="47.87937833" lon="21.98596667">
        <ele>179.3</ele>
        <time>2025-07-07T11:48:14Z</time>
      </trkpt>
      <trkpt lat="47.87946667" lon="21.98614333">
        <ele>179.6</ele>
        <time>2025-07-07T11:48:16Z</time>
      </trkpt>
      <trkpt lat="47.87956333" lon="21.98632833">
        <ele>178.7</ele>
        <time>2025-07-07T11:48:18Z</time>
      </trkpt>
      <trkpt lat="47.87966667" lon="21.98653333">
        <ele>177.7</ele>
        <time>2025-07-07T11:48:20Z</time>
      </trkpt>
      <trkpt lat="47.879725" lon="21.986645">
        <ele>177.2</ele>
        <time>2025-07-07T11:48:21Z</time>
      </trkpt>
      <trkpt lat="47.87978333" lon="21.98675333">
        <ele>176.9</ele>
        <time>2025-07-07T11:48:22Z</time>
      </trkpt>
      <trkpt lat="47.87984833" lon="21.98687">
        <ele>176.1</ele>
        <time>2025-07-07T11:48:23Z</time>
      </trkpt>
      <trkpt lat="47.87991167" lon="21.986995">
        <ele>175.2</ele>
        <time>2025-07-07T11:48:24Z</time>
      </trkpt>
      <trkpt lat="47.87997167" lon="21.98712667">
        <ele>175.6</ele>
        <time>2025-07-07T11:48:25Z</time>
      </trkpt>
      <trkpt lat="47.88003667" lon="21.987265">
        <ele>175.8</ele>
        <time>2025-07-07T11:48:26Z</time>
      </trkpt>
      <trkpt lat="47.88008333" lon="21.98739">
        <ele>176.3</ele>
        <time>2025-07-07T11:48:27Z</time>
      </trkpt>
      <trkpt lat="47.88013" lon="21.98752833">
        <ele>176.9</ele>
        <time>2025-07-07T11:48:28Z</time>
      </trkpt>
      <trkpt lat="47.88017333" lon="21.98766833">
        <ele>176.9</ele>
        <time>2025-07-07T11:48:29Z</time>
      </trkpt>
      <trkpt lat="47.88021667" lon="21.98781833">
        <ele>176.5</ele>
        <time>2025-07-07T11:48:30Z</time>
      </trkpt>
      <trkpt lat="47.88025167" lon="21.987985">
        <ele>176.3</ele>
        <time>2025-07-07T11:48:31Z</time>
      </trkpt>
      <trkpt lat="47.88028" lon="21.988145">
        <ele>176.6</ele>
        <time>2025-07-07T11:48:32Z</time>
      </trkpt>
      <trkpt lat="47.88031667" lon="21.988315">
        <ele>176.8</ele>
        <time>2025-07-07T11:48:33Z</time>
      </trkpt>
      <trkpt lat="47.88035167" lon="21.98847833">
        <ele>176.2</ele>
        <time>2025-07-07T11:48:34Z</time>
      </trkpt>
      <trkpt lat="47.880385" lon="21.98864333">
        <ele>175.9</ele>
        <time>2025-07-07T11:48:35Z</time>
      </trkpt>
      <trkpt lat="47.88041667" lon="21.98880833">
        <ele>175.6</ele>
        <time>2025-07-07T11:48:36Z</time>
      </trkpt>
      <trkpt lat="47.88045" lon="21.98897667">
        <ele>174.9</ele>
        <time>2025-07-07T11:48:37Z</time>
      </trkpt>
      <trkpt lat="47.88047667" lon="21.98914833">
        <ele>170.9</ele>
        <time>2025-07-07T11:48:38Z</time>
      </trkpt>
      <trkpt lat="47.880505" lon="21.98930667">
        <ele>170.9</ele>
        <time>2025-07-07T11:48:39Z</time>
      </trkpt>
      <trkpt lat="47.88053667" lon="21.989455">
        <ele>170.6</ele>
        <time>2025-07-07T11:48:40Z</time>
      </trkpt>
      <trkpt lat="47.88057167" lon="21.989605">
        <ele>170.3</ele>
        <time>2025-07-07T11:48:41Z</time>
      </trkpt>
      <trkpt lat="47.88062167" lon="21.98974667">
        <ele>170</ele>
        <time>2025-07-07T11:48:42Z</time>
      </trkpt>
      <trkpt lat="47.880675" lon="21.98987667">
        <ele>169.9</ele>
        <time>2025-07-07T11:48:43Z</time>
      </trkpt>
      <trkpt lat="47.88073" lon="21.99001">
        <ele>169.1</ele>
        <time>2025-07-07T11:48:44Z</time>
      </trkpt>
      <trkpt lat="47.88079333" lon="21.99013167">
        <ele>168.4</ele>
        <time>2025-07-07T11:48:45Z</time>
      </trkpt>
      <trkpt lat="47.88084833" lon="21.99024833">
        <ele>167.9</ele>
        <time>2025-07-07T11:48:46Z</time>
      </trkpt>
      <trkpt lat="47.880935" lon="21.99043">
        <ele>166.9</ele>
        <time>2025-07-07T11:48:48Z</time>
      </trkpt>
      <trkpt lat="47.88102" lon="21.99052667">
        <ele>167.5</ele>
        <time>2025-07-07T11:48:50Z</time>
      </trkpt>
      <trkpt lat="47.88111833" lon="21.99058333">
        <ele>168.3</ele>
        <time>2025-07-07T11:48:52Z</time>
      </trkpt>
      <trkpt lat="47.88123333" lon="21.99061">
        <ele>168.7</ele>
        <time>2025-07-07T11:48:54Z</time>
      </trkpt>
      <trkpt lat="47.88134833" lon="21.99060833">
        <ele>168.9</ele>
        <time>2025-07-07T11:48:56Z</time>
      </trkpt>
      <trkpt lat="47.88147167" lon="21.99059667">
        <ele>169.6</ele>
        <time>2025-07-07T11:48:58Z</time>
      </trkpt>
      <trkpt lat="47.88159667" lon="21.99053833">
        <ele>169.9</ele>
        <time>2025-07-07T11:49:00Z</time>
      </trkpt>
      <trkpt lat="47.881725" lon="21.99049667">
        <ele>170.7</ele>
        <time>2025-07-07T11:49:02Z</time>
      </trkpt>
      <trkpt lat="47.88181667" lon="21.990465">
        <ele>172.7</ele>
        <time>2025-07-07T11:49:04Z</time>
      </trkpt>
      <trkpt lat="47.88190833" lon="21.99044667">
        <ele>174.6</ele>
        <time>2025-07-07T11:49:07Z</time>
      </trkpt>
      <trkpt lat="47.88200333" lon="21.99054167">
        <ele>175.4</ele>
        <time>2025-07-07T11:49:11Z</time>
      </trkpt>
      <trkpt lat="47.881995" lon="21.990735">
        <ele>175.4</ele>
        <time>2025-07-07T11:49:14Z</time>
      </trkpt>
      <trkpt lat="47.881955" lon="21.99089333">
        <ele>175.7</ele>
        <time>2025-07-07T11:49:16Z</time>
      </trkpt>
      <trkpt lat="47.8819" lon="21.99110333">
        <ele>175.3</ele>
        <time>2025-07-07T11:49:18Z</time>
      </trkpt>
      <trkpt lat="47.881835" lon="21.99135167">
        <ele>173.9</ele>
        <time>2025-07-07T11:49:20Z</time>
      </trkpt>
      <trkpt lat="47.8818" lon="21.99148333">
        <ele>175.1</ele>
        <time>2025-07-07T11:49:21Z</time>
      </trkpt>
      <trkpt lat="47.88175667" lon="21.991625">
        <ele>175.8</ele>
        <time>2025-07-07T11:49:22Z</time>
      </trkpt>
      <trkpt lat="47.88171333" lon="21.99176167">
        <ele>176.3</ele>
        <time>2025-07-07T11:49:23Z</time>
      </trkpt>
      <trkpt lat="47.881675" lon="21.99189667">
        <ele>176.4</ele>
        <time>2025-07-07T11:49:24Z</time>
      </trkpt>
      <trkpt lat="47.88163667" lon="21.99203">
        <ele>176.7</ele>
        <time>2025-07-07T11:49:25Z</time>
      </trkpt>
      <trkpt lat="47.88159667" lon="21.99216333">
        <ele>177.5</ele>
        <time>2025-07-07T11:49:26Z</time>
      </trkpt>
      <trkpt lat="47.88151167" lon="21.99238667">
        <ele>177.8</ele>
        <time>2025-07-07T11:49:28Z</time>
      </trkpt>
      <trkpt lat="47.88143" lon="21.99255667">
        <ele>178.5</ele>
        <time>2025-07-07T11:49:30Z</time>
      </trkpt>
      <trkpt lat="47.88136167" lon="21.99265833">
        <ele>178.5</ele>
        <time>2025-07-07T11:49:32Z</time>
      </trkpt>
      <trkpt lat="47.881315" lon="21.99279">
        <ele>178.5</ele>
        <time>2025-07-07T11:50:14Z</time>
      </trkpt>
      <trkpt lat="47.88122333" lon="21.99290667">
        <ele>178.5</ele>
        <time>2025-07-07T11:50:17Z</time>
      </trkpt>
      <trkpt lat="47.881155" lon="21.99301">
        <ele>178.3</ele>
        <time>2025-07-07T11:50:19Z</time>
      </trkpt>
      <trkpt lat="47.88108833" lon="21.99316167">
        <ele>177.7</ele>
        <time>2025-07-07T11:50:21Z</time>
      </trkpt>
      <trkpt lat="47.88102333" lon="21.99337667">
        <ele>177.1</ele>
        <time>2025-07-07T11:50:23Z</time>
      </trkpt>
      <trkpt lat="47.88096833" lon="21.99361833">
        <ele>177.1</ele>
        <time>2025-07-07T11:50:25Z</time>
      </trkpt>
      <trkpt lat="47.88092" lon="21.993885">
        <ele>176.8</ele>
        <time>2025-07-07T11:50:27Z</time>
      </trkpt>
      <trkpt lat="47.8809" lon="21.994025">
        <ele>176.4</ele>
        <time>2025-07-07T11:50:28Z</time>
      </trkpt>
      <trkpt lat="47.88087833" lon="21.99416167">
        <ele>176.3</ele>
        <time>2025-07-07T11:50:29Z</time>
      </trkpt>
      <trkpt lat="47.880865" lon="21.99429667">
        <ele>176.1</ele>
        <time>2025-07-07T11:50:30Z</time>
      </trkpt>
      <trkpt lat="47.88085833" lon="21.99443667">
        <ele>176.1</ele>
        <time>2025-07-07T11:50:31Z</time>
      </trkpt>
      <trkpt lat="47.88083833" lon="21.99459">
        <ele>175.1</ele>
        <time>2025-07-07T11:50:32Z</time>
      </trkpt>
      <trkpt lat="47.88083" lon="21.99475833">
        <ele>175</ele>
        <time>2025-07-07T11:50:33Z</time>
      </trkpt>
      <trkpt lat="47.880825" lon="21.99493167">
        <ele>175.1</ele>
        <time>2025-07-07T11:50:34Z</time>
      </trkpt>
      <trkpt lat="47.88082333" lon="21.99511333">
        <ele>175.2</ele>
        <time>2025-07-07T11:50:35Z</time>
      </trkpt>
      <trkpt lat="47.88082" lon="21.99529167">
        <ele>176.3</ele>
        <time>2025-07-07T11:50:36Z</time>
      </trkpt>
      <trkpt lat="47.88081667" lon="21.99548">
        <ele>177.4</ele>
        <time>2025-07-07T11:50:37Z</time>
      </trkpt>
      <trkpt lat="47.88081" lon="21.99566833">
        <ele>177.6</ele>
        <time>2025-07-07T11:50:38Z</time>
      </trkpt>
      <trkpt lat="47.88081667" lon="21.99585333">
        <ele>177.3</ele>
        <time>2025-07-07T11:50:39Z</time>
      </trkpt>
      <trkpt lat="47.88083" lon="21.99604">
        <ele>176.7</ele>
        <time>2025-07-07T11:50:40Z</time>
      </trkpt>
      <trkpt lat="47.88085333" lon="21.996225">
        <ele>176.4</ele>
        <time>2025-07-07T11:50:41Z</time>
      </trkpt>
      <trkpt lat="47.88088333" lon="21.99641">
        <ele>175.5</ele>
        <time>2025-07-07T11:50:42Z</time>
      </trkpt>
      <trkpt lat="47.88090667" lon="21.99658833">
        <ele>174.9</ele>
        <time>2025-07-07T11:50:43Z</time>
      </trkpt>
      <trkpt lat="47.880935" lon="21.99677667">
        <ele>174.1</ele>
        <time>2025-07-07T11:50:44Z</time>
      </trkpt>
      <trkpt lat="47.88096" lon="21.99696333">
        <ele>172.5</ele>
        <time>2025-07-07T11:50:45Z</time>
      </trkpt>
      <trkpt lat="47.88097833" lon="21.99715">
        <ele>172</ele>
        <time>2025-07-07T11:50:46Z</time>
      </trkpt>
      <trkpt lat="47.88099667" lon="21.99734167">
        <ele>172.5</ele>
        <time>2025-07-07T11:50:47Z</time>
      </trkpt>
      <trkpt lat="47.88101667" lon="21.997535">
        <ele>171.9</ele>
        <time>2025-07-07T11:50:48Z</time>
      </trkpt>
      <trkpt lat="47.88104333" lon="21.99773333">
        <ele>170.9</ele>
        <time>2025-07-07T11:50:49Z</time>
      </trkpt>
      <trkpt lat="47.88106333" lon="21.99791167">
        <ele>170.6</ele>
        <time>2025-07-07T11:50:50Z</time>
      </trkpt>
      <trkpt lat="47.88109167" lon="21.998095">
        <ele>170.7</ele>
        <time>2025-07-07T11:50:51Z</time>
      </trkpt>
      <trkpt lat="47.881125" lon="21.99826333">
        <ele>170.1</ele>
        <time>2025-07-07T11:50:52Z</time>
      </trkpt>
      <trkpt lat="47.88114667" lon="21.998455">
        <ele>169.7</ele>
        <time>2025-07-07T11:50:53Z</time>
      </trkpt>
      <trkpt lat="47.88117167" lon="21.99864333">
        <ele>169.1</ele>
        <time>2025-07-07T11:50:54Z</time>
      </trkpt>
      <trkpt lat="47.88120333" lon="21.99882833">
        <ele>168.5</ele>
        <time>2025-07-07T11:50:55Z</time>
      </trkpt>
      <trkpt lat="47.881235" lon="21.99902">
        <ele>167.9</ele>
        <time>2025-07-07T11:50:56Z</time>
      </trkpt>
      <trkpt lat="47.88126833" lon="21.99922">
        <ele>168.4</ele>
        <time>2025-07-07T11:50:57Z</time>
      </trkpt>
      <trkpt lat="47.88129167" lon="21.99942">
        <ele>168.5</ele>
        <time>2025-07-07T11:50:58Z</time>
      </trkpt>
      <trkpt lat="47.88132" lon="21.99960333">
        <ele>168.2</ele>
        <time>2025-07-07T11:50:59Z</time>
      </trkpt>
      <trkpt lat="47.88135167" lon="21.99978667">
        <ele>167.7</ele>
        <time>2025-07-07T11:51:00Z</time>
      </trkpt>
      <trkpt lat="47.88138333" lon="21.99998333">
        <ele>166.4</ele>
        <time>2025-07-07T11:51:01Z</time>
      </trkpt>
      <trkpt lat="47.88141667" lon="22.00017333">
        <ele>165.6</ele>
        <time>2025-07-07T11:51:02Z</time>
      </trkpt>
      <trkpt lat="47.88145167" lon="22.000365">
        <ele>165.3</ele>
        <time>2025-07-07T11:51:03Z</time>
      </trkpt>
      <trkpt lat="47.881485" lon="22.00057167">
        <ele>164.4</ele>
        <time>2025-07-07T11:51:04Z</time>
      </trkpt>
      <trkpt lat="47.88152" lon="22.00076333">
        <ele>163.6</ele>
        <time>2025-07-07T11:51:05Z</time>
      </trkpt>
      <trkpt lat="47.88154833" lon="22.00096333">
        <ele>163.9</ele>
        <time>2025-07-07T11:51:06Z</time>
      </trkpt>
      <trkpt lat="47.88158833" lon="22.00114333">
        <ele>163.7</ele>
        <time>2025-07-07T11:51:07Z</time>
      </trkpt>
      <trkpt lat="47.88162" lon="22.00133333">
        <ele>163.6</ele>
        <time>2025-07-07T11:51:08Z</time>
      </trkpt>
      <trkpt lat="47.88165833" lon="22.001525">
        <ele>163</ele>
        <time>2025-07-07T11:51:09Z</time>
      </trkpt>
      <trkpt lat="47.88168667" lon="22.00173333">
        <ele>166</ele>
        <time>2025-07-07T11:51:10Z</time>
      </trkpt>
      <trkpt lat="47.88172167" lon="22.00192333">
        <ele>166.1</ele>
        <time>2025-07-07T11:51:11Z</time>
      </trkpt>
      <trkpt lat="47.88175833" lon="22.00211">
        <ele>165.6</ele>
        <time>2025-07-07T11:51:12Z</time>
      </trkpt>
      <trkpt lat="47.88179" lon="22.00229333">
        <ele>165.1</ele>
        <time>2025-07-07T11:51:13Z</time>
      </trkpt>
      <trkpt lat="47.88182" lon="22.00247">
        <ele>165.2</ele>
        <time>2025-07-07T11:51:14Z</time>
      </trkpt>
      <trkpt lat="47.88184833" lon="22.00264667">
        <ele>164.8</ele>
        <time>2025-07-07T11:51:15Z</time>
      </trkpt>
      <trkpt lat="47.88187667" lon="22.00281333">
        <ele>164.3</ele>
        <time>2025-07-07T11:51:16Z</time>
      </trkpt>
      <trkpt lat="47.881905" lon="22.00297667">
        <ele>164</ele>
        <time>2025-07-07T11:51:17Z</time>
      </trkpt>
      <trkpt lat="47.88192667" lon="22.00313167">
        <ele>163.9</ele>
        <time>2025-07-07T11:51:18Z</time>
      </trkpt>
      <trkpt lat="47.88194833" lon="22.00327667">
        <ele>164.5</ele>
        <time>2025-07-07T11:51:19Z</time>
      </trkpt>
      <trkpt lat="47.88196667" lon="22.00341833">
        <ele>164.7</ele>
        <time>2025-07-07T11:51:20Z</time>
      </trkpt>
      <trkpt lat="47.88198667" lon="22.00355167">
        <ele>165.1</ele>
        <time>2025-07-07T11:51:21Z</time>
      </trkpt>
      <trkpt lat="47.88202" lon="22.00376167">
        <ele>166.1</ele>
        <time>2025-07-07T11:51:23Z</time>
      </trkpt>
      <trkpt lat="47.88206167" lon="22.00392667">
        <ele>167.5</ele>
        <time>2025-07-07T11:51:26Z</time>
      </trkpt>
      <trkpt lat="47.88207" lon="22.00406333">
        <ele>178.6</ele>
        <time>2025-07-07T11:51:42Z</time>
      </trkpt>
      <trkpt lat="47.882105" lon="22.00427167">
        <ele>180.3</ele>
        <time>2025-07-07T11:51:45Z</time>
      </trkpt>
      <trkpt lat="47.88213667" lon="22.004455">
        <ele>180.6</ele>
        <time>2025-07-07T11:51:47Z</time>
      </trkpt>
      <trkpt lat="47.88218167" lon="22.00468333">
        <ele>180.7</ele>
        <time>2025-07-07T11:51:49Z</time>
      </trkpt>
      <trkpt lat="47.88221" lon="22.00481167">
        <ele>180</ele>
        <time>2025-07-07T11:51:50Z</time>
      </trkpt>
      <trkpt lat="47.88223667" lon="22.00494167">
        <ele>180</ele>
        <time>2025-07-07T11:51:51Z</time>
      </trkpt>
      <trkpt lat="47.88226167" lon="22.00507667">
        <ele>179.6</ele>
        <time>2025-07-07T11:51:52Z</time>
      </trkpt>
      <trkpt lat="47.88227667" lon="22.00522833">
        <ele>178.8</ele>
        <time>2025-07-07T11:51:53Z</time>
      </trkpt>
      <trkpt lat="47.8823" lon="22.00537333">
        <ele>177.7</ele>
        <time>2025-07-07T11:51:54Z</time>
      </trkpt>
      <trkpt lat="47.882315" lon="22.00554333">
        <ele>177.2</ele>
        <time>2025-07-07T11:51:55Z</time>
      </trkpt>
      <trkpt lat="47.88233833" lon="22.00572167">
        <ele>176.8</ele>
        <time>2025-07-07T11:51:56Z</time>
      </trkpt>
      <trkpt lat="47.88235333" lon="22.005905">
        <ele>176.2</ele>
        <time>2025-07-07T11:51:57Z</time>
      </trkpt>
      <trkpt lat="47.88236167" lon="22.00609">
        <ele>176.2</ele>
        <time>2025-07-07T11:51:58Z</time>
      </trkpt>
      <trkpt lat="47.88236" lon="22.006265">
        <ele>176.9</ele>
        <time>2025-07-07T11:51:59Z</time>
      </trkpt>
      <trkpt lat="47.88235833" lon="22.00642667">
        <ele>175.8</ele>
        <time>2025-07-07T11:52:00Z</time>
      </trkpt>
      <trkpt lat="47.882335" lon="22.006605">
        <ele>177.7</ele>
        <time>2025-07-07T11:52:01Z</time>
      </trkpt>
      <trkpt lat="47.882305" lon="22.00678833">
        <ele>176.7</ele>
        <time>2025-07-07T11:52:02Z</time>
      </trkpt>
      <trkpt lat="47.88227667" lon="22.00696667">
        <ele>175.9</ele>
        <time>2025-07-07T11:52:03Z</time>
      </trkpt>
      <trkpt lat="47.88224333" lon="22.00713667">
        <ele>176.2</ele>
        <time>2025-07-07T11:52:04Z</time>
      </trkpt>
      <trkpt lat="47.882205" lon="22.00731833">
        <ele>176.6</ele>
        <time>2025-07-07T11:52:05Z</time>
      </trkpt>
      <trkpt lat="47.88217167" lon="22.0075">
        <ele>176.4</ele>
        <time>2025-07-07T11:52:06Z</time>
      </trkpt>
      <trkpt lat="47.88213167" lon="22.00769">
        <ele>178.5</ele>
        <time>2025-07-07T11:52:07Z</time>
      </trkpt>
      <trkpt lat="47.88210167" lon="22.007875">
        <ele>178.4</ele>
        <time>2025-07-07T11:52:08Z</time>
      </trkpt>
      <trkpt lat="47.88207167" lon="22.00806">
        <ele>178.5</ele>
        <time>2025-07-07T11:52:09Z</time>
      </trkpt>
      <trkpt lat="47.882035" lon="22.00826">
        <ele>178.7</ele>
        <time>2025-07-07T11:52:10Z</time>
      </trkpt>
      <trkpt lat="47.88199333" lon="22.00847">
        <ele>177.8</ele>
        <time>2025-07-07T11:52:11Z</time>
      </trkpt>
      <trkpt lat="47.881955" lon="22.00867833">
        <ele>177.2</ele>
        <time>2025-07-07T11:52:12Z</time>
      </trkpt>
      <trkpt lat="47.88191833" lon="22.008885">
        <ele>177.1</ele>
        <time>2025-07-07T11:52:13Z</time>
      </trkpt>
      <trkpt lat="47.88188667" lon="22.00908833">
        <ele>177</ele>
        <time>2025-07-07T11:52:14Z</time>
      </trkpt>
      <trkpt lat="47.88185" lon="22.00929667">
        <ele>176.7</ele>
        <time>2025-07-07T11:52:15Z</time>
      </trkpt>
      <trkpt lat="47.88181667" lon="22.009545">
        <ele>176.7</ele>
        <time>2025-07-07T11:52:16Z</time>
      </trkpt>
      <trkpt lat="47.88178333" lon="22.00977167">
        <ele>175.4</ele>
        <time>2025-07-07T11:52:17Z</time>
      </trkpt>
      <trkpt lat="47.88174" lon="22.00999">
        <ele>175.7</ele>
        <time>2025-07-07T11:52:18Z</time>
      </trkpt>
      <trkpt lat="47.881695" lon="22.010215">
        <ele>177</ele>
        <time>2025-07-07T11:52:19Z</time>
      </trkpt>
      <trkpt lat="47.88165" lon="22.01043833">
        <ele>177.7</ele>
        <time>2025-07-07T11:52:20Z</time>
      </trkpt>
      <trkpt lat="47.88159833" lon="22.010655">
        <ele>177.8</ele>
        <time>2025-07-07T11:52:21Z</time>
      </trkpt>
      <trkpt lat="47.88155333" lon="22.01087833">
        <ele>179.2</ele>
        <time>2025-07-07T11:52:22Z</time>
      </trkpt>
      <trkpt lat="47.88150333" lon="22.01110167">
        <ele>179.1</ele>
        <time>2025-07-07T11:52:23Z</time>
      </trkpt>
      <trkpt lat="47.88143833" lon="22.01131">
        <ele>181.7</ele>
        <time>2025-07-07T11:52:24Z</time>
      </trkpt>
      <trkpt lat="47.88138167" lon="22.01152167">
        <ele>181.4</ele>
        <time>2025-07-07T11:52:25Z</time>
      </trkpt>
      <trkpt lat="47.88131333" lon="22.01172833">
        <ele>182</ele>
        <time>2025-07-07T11:52:26Z</time>
      </trkpt>
      <trkpt lat="47.88124333" lon="22.01192667">
        <ele>182.2</ele>
        <time>2025-07-07T11:52:27Z</time>
      </trkpt>
      <trkpt lat="47.88117167" lon="22.01211833">
        <ele>182.6</ele>
        <time>2025-07-07T11:52:28Z</time>
      </trkpt>
      <trkpt lat="47.881105" lon="22.01230333">
        <ele>178.8</ele>
        <time>2025-07-07T11:52:29Z</time>
      </trkpt>
      <trkpt lat="47.88103833" lon="22.01249333">
        <ele>179</ele>
        <time>2025-07-07T11:52:30Z</time>
      </trkpt>
      <trkpt lat="47.88097833" lon="22.01267833">
        <ele>176.3</ele>
        <time>2025-07-07T11:52:31Z</time>
      </trkpt>
      <trkpt lat="47.88091167" lon="22.01285333">
        <ele>176</ele>
        <time>2025-07-07T11:52:32Z</time>
      </trkpt>
      <trkpt lat="47.880845" lon="22.01303333">
        <ele>176</ele>
        <time>2025-07-07T11:52:33Z</time>
      </trkpt>
      <trkpt lat="47.88077167" lon="22.013225">
        <ele>175.9</ele>
        <time>2025-07-07T11:52:34Z</time>
      </trkpt>
      <trkpt lat="47.880705" lon="22.01341333">
        <ele>176</ele>
        <time>2025-07-07T11:52:35Z</time>
      </trkpt>
      <trkpt lat="47.880635" lon="22.01361167">
        <ele>175.8</ele>
        <time>2025-07-07T11:52:36Z</time>
      </trkpt>
      <trkpt lat="47.88056" lon="22.01380833">
        <ele>175.3</ele>
        <time>2025-07-07T11:52:37Z</time>
      </trkpt>
      <trkpt lat="47.88048333" lon="22.01399833">
        <ele>175.1</ele>
        <time>2025-07-07T11:52:38Z</time>
      </trkpt>
      <trkpt lat="47.88041333" lon="22.01418167">
        <ele>174.8</ele>
        <time>2025-07-07T11:52:39Z</time>
      </trkpt>
      <trkpt lat="47.88033333" lon="22.01437">
        <ele>174.6</ele>
        <time>2025-07-07T11:52:40Z</time>
      </trkpt>
      <trkpt lat="47.88026333" lon="22.01453667">
        <ele>174.3</ele>
        <time>2025-07-07T11:52:41Z</time>
      </trkpt>
      <trkpt lat="47.88019167" lon="22.01469833">
        <ele>172.7</ele>
        <time>2025-07-07T11:52:42Z</time>
      </trkpt>
      <trkpt lat="47.88012167" lon="22.01487">
        <ele>171.8</ele>
        <time>2025-07-07T11:52:43Z</time>
      </trkpt>
      <trkpt lat="47.88005333" lon="22.01503667">
        <ele>172.6</ele>
        <time>2025-07-07T11:52:44Z</time>
      </trkpt>
      <trkpt lat="47.879985" lon="22.01519333">
        <ele>175.5</ele>
        <time>2025-07-07T11:52:45Z</time>
      </trkpt>
      <trkpt lat="47.879925" lon="22.01536167">
        <ele>177.6</ele>
        <time>2025-07-07T11:52:46Z</time>
      </trkpt>
      <trkpt lat="47.87986833" lon="22.015505">
        <ele>174.1</ele>
        <time>2025-07-07T11:52:47Z</time>
      </trkpt>
      <trkpt lat="47.879815" lon="22.01562667">
        <ele>173.5</ele>
        <time>2025-07-07T11:52:48Z</time>
      </trkpt>
      <trkpt lat="47.87976667" lon="22.015745">
        <ele>173.4</ele>
        <time>2025-07-07T11:52:49Z</time>
      </trkpt>
      <trkpt lat="47.87970667" lon="22.015845">
        <ele>172.8</ele>
        <time>2025-07-07T11:52:50Z</time>
      </trkpt>
      <trkpt lat="47.87965" lon="22.01603">
        <ele>172.6</ele>
        <time>2025-07-07T11:52:52Z</time>
      </trkpt>
      <trkpt lat="47.87961167" lon="22.01616167">
        <ele>172.3</ele>
        <time>2025-07-07T11:52:54Z</time>
      </trkpt>
      <trkpt lat="47.87957" lon="22.016305">
        <ele>171.1</ele>
        <time>2025-07-07T11:53:19Z</time>
      </trkpt>
      <trkpt lat="47.87951333" lon="22.016485">
        <ele>171.1</ele>
        <time>2025-07-07T11:53:22Z</time>
      </trkpt>
      <trkpt lat="47.87945167" lon="22.01664667">
        <ele>170.5</ele>
        <time>2025-07-07T11:53:24Z</time>
      </trkpt>
      <trkpt lat="47.87936333" lon="22.016865">
        <ele>170.2</ele>
        <time>2025-07-07T11:53:26Z</time>
      </trkpt>
      <trkpt lat="47.87928333" lon="22.01708667">
        <ele>169.3</ele>
        <time>2025-07-07T11:53:28Z</time>
      </trkpt>
      <trkpt lat="47.87923833" lon="22.01720333">
        <ele>169.2</ele>
        <time>2025-07-07T11:53:29Z</time>
      </trkpt>
      <trkpt lat="47.87915167" lon="22.01743333">
        <ele>171.1</ele>
        <time>2025-07-07T11:53:31Z</time>
      </trkpt>
      <trkpt lat="47.87909667" lon="22.01756333">
        <ele>171.6</ele>
        <time>2025-07-07T11:53:32Z</time>
      </trkpt>
      <trkpt lat="47.87903333" lon="22.01771833">
        <ele>171.5</ele>
        <time>2025-07-07T11:53:33Z</time>
      </trkpt>
      <trkpt lat="47.878945" lon="22.01799">
        <ele>171.8</ele>
        <time>2025-07-07T11:53:35Z</time>
      </trkpt>
      <trkpt lat="47.87890167" lon="22.01815833">
        <ele>173.2</ele>
        <time>2025-07-07T11:53:36Z</time>
      </trkpt>
      <trkpt lat="47.878865" lon="22.018335">
        <ele>174.9</ele>
        <time>2025-07-07T11:53:37Z</time>
      </trkpt>
      <trkpt lat="47.87884" lon="22.01850833">
        <ele>176.5</ele>
        <time>2025-07-07T11:53:38Z</time>
      </trkpt>
      <trkpt lat="47.87879667" lon="22.01868833">
        <ele>177.8</ele>
        <time>2025-07-07T11:53:39Z</time>
      </trkpt>
      <trkpt lat="47.87876333" lon="22.01887333">
        <ele>178.6</ele>
        <time>2025-07-07T11:53:40Z</time>
      </trkpt>
      <trkpt lat="47.87873667" lon="22.01905333">
        <ele>187</ele>
        <time>2025-07-07T11:53:41Z</time>
      </trkpt>
      <trkpt lat="47.87871" lon="22.01923667">
        <ele>187.6</ele>
        <time>2025-07-07T11:53:42Z</time>
      </trkpt>
      <trkpt lat="47.87868333" lon="22.01941833">
        <ele>188</ele>
        <time>2025-07-07T11:53:43Z</time>
      </trkpt>
      <trkpt lat="47.87865667" lon="22.01958833">
        <ele>187.6</ele>
        <time>2025-07-07T11:53:44Z</time>
      </trkpt>
      <trkpt lat="47.87863167" lon="22.01976333">
        <ele>187.1</ele>
        <time>2025-07-07T11:53:45Z</time>
      </trkpt>
      <trkpt lat="47.878615" lon="22.01994167">
        <ele>187.1</ele>
        <time>2025-07-07T11:53:46Z</time>
      </trkpt>
      <trkpt lat="47.87861167" lon="22.02009833">
        <ele>187.3</ele>
        <time>2025-07-07T11:53:47Z</time>
      </trkpt>
      <trkpt lat="47.87860667" lon="22.02024833">
        <ele>186.9</ele>
        <time>2025-07-07T11:53:48Z</time>
      </trkpt>
      <trkpt lat="47.878605" lon="22.02038667">
        <ele>186.3</ele>
        <time>2025-07-07T11:53:49Z</time>
      </trkpt>
      <trkpt lat="47.87860333" lon="22.020525">
        <ele>185.3</ele>
        <time>2025-07-07T11:53:50Z</time>
      </trkpt>
      <trkpt lat="47.878605" lon="22.02077">
        <ele>185.4</ele>
        <time>2025-07-07T11:53:52Z</time>
      </trkpt>
      <trkpt lat="47.8786" lon="22.02102">
        <ele>185.5</ele>
        <time>2025-07-07T11:53:54Z</time>
      </trkpt>
      <trkpt lat="47.87860333" lon="22.021295">
        <ele>184.4</ele>
        <time>2025-07-07T11:53:56Z</time>
      </trkpt>
      <trkpt lat="47.87861167" lon="22.02144833">
        <ele>184.2</ele>
        <time>2025-07-07T11:53:57Z</time>
      </trkpt>
      <trkpt lat="47.87861667" lon="22.02161">
        <ele>183.5</ele>
        <time>2025-07-07T11:53:58Z</time>
      </trkpt>
      <trkpt lat="47.87862333" lon="22.02178">
        <ele>182.7</ele>
        <time>2025-07-07T11:53:59Z</time>
      </trkpt>
      <trkpt lat="47.87862833" lon="22.02193833">
        <ele>182.2</ele>
        <time>2025-07-07T11:54:00Z</time>
      </trkpt>
      <trkpt lat="47.87863" lon="22.02210333">
        <ele>181.4</ele>
        <time>2025-07-07T11:54:01Z</time>
      </trkpt>
      <trkpt lat="47.87862167" lon="22.02227">
        <ele>180.7</ele>
        <time>2025-07-07T11:54:02Z</time>
      </trkpt>
      <trkpt lat="47.87862167" lon="22.022435">
        <ele>180.7</ele>
        <time>2025-07-07T11:54:03Z</time>
      </trkpt>
      <trkpt lat="47.87863167" lon="22.02259">
        <ele>180.8</ele>
        <time>2025-07-07T11:54:04Z</time>
      </trkpt>
      <trkpt lat="47.87863833" lon="22.02275833">
        <ele>180</ele>
        <time>2025-07-07T11:54:05Z</time>
      </trkpt>
      <trkpt lat="47.87865" lon="22.02292167">
        <ele>177.3</ele>
        <time>2025-07-07T11:54:06Z</time>
      </trkpt>
      <trkpt lat="47.87867333" lon="22.02308">
        <ele>177.7</ele>
        <time>2025-07-07T11:54:07Z</time>
      </trkpt>
      <trkpt lat="47.87869" lon="22.02324">
        <ele>177.9</ele>
        <time>2025-07-07T11:54:08Z</time>
      </trkpt>
      <trkpt lat="47.87871333" lon="22.023395">
        <ele>178</ele>
        <time>2025-07-07T11:54:09Z</time>
      </trkpt>
      <trkpt lat="47.87873333" lon="22.02353167">
        <ele>178.1</ele>
        <time>2025-07-07T11:54:10Z</time>
      </trkpt>
      <trkpt lat="47.87875667" lon="22.023665">
        <ele>178.3</ele>
        <time>2025-07-07T11:54:11Z</time>
      </trkpt>
      <trkpt lat="47.87878" lon="22.02380333">
        <ele>178.6</ele>
        <time>2025-07-07T11:54:12Z</time>
      </trkpt>
      <trkpt lat="47.87881" lon="22.02402167">
        <ele>178.2</ele>
        <time>2025-07-07T11:54:14Z</time>
      </trkpt>
      <trkpt lat="47.87884667" lon="22.02417">
        <ele>177.1</ele>
        <time>2025-07-07T11:54:16Z</time>
      </trkpt>
    </trkseg>
  </trk>
</gpx>