<?xml version='1.0' encoding='UTF-8' standalone='yes' ?>
<gpx xmlns="http://www.topografix.com/GPX/1/1" xmlns:geotracker="http://ilyabogdanovich.com/gpx/extensions/geotracker" xmlns:xsi="http://www.w3.org/2001/XMLSchema-instance" xsi:schemaLocation="http://www.topografix.com/GPX/1/1 http://www.topografix.com/GPX/1/1/gpx.xsd" version="1.1" creator="Recorded in Geo Tracker for Android from Ilya Bogdanovich">
  <metadata>
    <name>b_0709_02</name>
    <author>
      <name>Recorded in Geo Tracker for Android from Ilya Bogdanovich</name>
      <link href="https://play.google.com/store/apps/details?id=com.ilyabogdanovich.geotracker" />
    </author>
    <link href="https://play.google.com/store/apps/details?id=com.ilyabogdanovich.geotracker" />
    <time>2025-07-09T14:00:49Z</time>
  </metadata>
  <trk>
    <name>b_0709_02</name>
    <src>Recorded in Geo Tracker for Android from Ilya Bogdanovich</src>
    <link href="https://play.google.com/store/apps/details?id=com.ilyabogdanovich.geotracker" />
    <extensions>
      <geotracker:meta>
        <geotracker:length>1554.78</geotracker:length>
        <geotracker:duration>721680</geotracker:duration>
        <geotracker:creationtime>2025-07-09T14:00:49Z</geotracker:creationtime>
        <geotracker:activity>0</geotracker:activity>
      </geotracker:meta>
    </extensions>
    <trkseg>
      <trkpt lat="47.99022" lon="22.51527833">
        <ele>152.4</ele>
        <time>2025-07-09T14:00:58Z</time>
      </trkpt>
      <trkpt lat="47.990205" lon="22.51524833">
        <ele>152.4</ele>
        <time>2025-07-09T14:04:39Z</time>
      </trkpt>
      <trkpt lat="47.990205" lon="22.51524833">
        <ele>152.4</ele>
        <time>2025-07-09T14:06:40Z</time>
      </trkpt>
      <trkpt lat="47.99014333" lon="22.51538333">
        <ele>149.5</ele>
        <time>2025-07-09T14:07:54Z</time>
      </trkpt>
      <trkpt lat="47.99005833" lon="22.51552167">
        <ele>150.9</ele>
        <time>2025-07-09T14:07:57Z</time>
      </trkpt>
      <trkpt lat="47.98997667" lon="22.51566167">
        <ele>151.8</ele>
        <time>2025-07-09T14:08:00Z</time>
      </trkpt>
      <trkpt lat="47.98991" lon="22.51576333">
        <ele>151.9</ele>
        <time>2025-07-09T14:08:03Z</time>
      </trkpt>
      <trkpt lat="47.98981167" lon="22.51580167">
        <ele>151.7</ele>
        <time>2025-07-09T14:08:10Z</time>
      </trkpt>
      <trkpt lat="47.98972667" lon="22.51575333">
        <ele>151.3</ele>
        <time>2025-07-09T14:08:14Z</time>
      </trkpt>
      <trkpt lat="47.98967333" lon="22.51561">
        <ele>151.3</ele>
        <time>2025-07-09T14:08:17Z</time>
      </trkpt>
      <trkpt lat="47.98963833" lon="22.515485">
        <ele>151.8</ele>
        <time>2025-07-09T14:08:19Z</time>
      </trkpt>
      <trkpt lat="47.9896" lon="22.51535833">
        <ele>151.8</ele>
        <time>2025-07-09T14:08:21Z</time>
      </trkpt>
      <trkpt lat="47.98956" lon="22.515215">
        <ele>151.3</ele>
        <time>2025-07-09T14:08:23Z</time>
      </trkpt>
      <trkpt lat="47.98950833" lon="22.51506833">
        <ele>150.7</ele>
        <time>2025-07-09T14:08:25Z</time>
      </trkpt>
      <trkpt lat="47.98945333" lon="22.51493">
        <ele>150.4</ele>
        <time>2025-07-09T14:08:27Z</time>
      </trkpt>
      <trkpt lat="47.9894" lon="22.51479">
        <ele>150.9</ele>
        <time>2025-07-09T14:08:29Z</time>
      </trkpt>
      <trkpt lat="47.989345" lon="22.51466">
        <ele>151.8</ele>
        <time>2025-07-09T14:08:31Z</time>
      </trkpt>
      <trkpt lat="47.98929" lon="22.51453">
        <ele>152.6</ele>
        <time>2025-07-09T14:08:33Z</time>
      </trkpt>
      <trkpt lat="47.98923" lon="22.51440667">
        <ele>152.8</ele>
        <time>2025-07-09T14:08:35Z</time>
      </trkpt>
      <trkpt lat="47.98916667" lon="22.51428333">
        <ele>152.7</ele>
        <time>2025-07-09T14:08:37Z</time>
      </trkpt>
      <trkpt lat="47.989105" lon="22.51417667">
        <ele>152.1</ele>
        <time>2025-07-09T14:08:39Z</time>
      </trkpt>
      <trkpt lat="47.98905" lon="22.51404">
        <ele>151.9</ele>
        <time>2025-07-09T14:08:43Z</time>
      </trkpt>
      <trkpt lat="47.98900667" lon="22.513915">
        <ele>152.1</ele>
        <time>2025-07-09T14:08:53Z</time>
      </trkpt>
      <trkpt lat="47.98898667" lon="22.51377">
        <ele>151.2</ele>
        <time>2025-07-09T14:09:04Z</time>
      </trkpt>
      <trkpt lat="47.98892333" lon="22.51363833">
        <ele>152.3</ele>
        <time>2025-07-09T14:09:08Z</time>
      </trkpt>
      <trkpt lat="47.98881333" lon="22.513665">
        <ele>153.3</ele>
        <time>2025-07-09T14:09:12Z</time>
      </trkpt>
      <trkpt lat="47.98873667" lon="22.51373667">
        <ele>153.5</ele>
        <time>2025-07-09T14:09:14Z</time>
      </trkpt>
      <trkpt lat="47.98865" lon="22.51380833">
        <ele>153.2</ele>
        <time>2025-07-09T14:09:16Z</time>
      </trkpt>
      <trkpt lat="47.98855" lon="22.51387833">
        <ele>152.4</ele>
        <time>2025-07-09T14:09:18Z</time>
      </trkpt>
      <trkpt lat="47.98843333" lon="22.51394667">
        <ele>152.9</ele>
        <time>2025-07-09T14:09:20Z</time>
      </trkpt>
      <trkpt lat="47.98829833" lon="22.514025">
        <ele>153.3</ele>
        <time>2025-07-09T14:09:22Z</time>
      </trkpt>
      <trkpt lat="47.988175" lon="22.51412">
        <ele>153.2</ele>
        <time>2025-07-09T14:09:24Z</time>
      </trkpt>
      <trkpt lat="47.98805167" lon="22.51421333">
        <ele>151.2</ele>
        <time>2025-07-09T14:09:26Z</time>
      </trkpt>
      <trkpt lat="47.98793167" lon="22.514325">
        <ele>151.7</ele>
        <time>2025-07-09T14:09:28Z</time>
      </trkpt>
      <trkpt lat="47.98781" lon="22.514425">
        <ele>151.7</ele>
        <time>2025-07-09T14:09:30Z</time>
      </trkpt>
      <trkpt lat="47.98769833" lon="22.51452">
        <ele>151.2</ele>
        <time>2025-07-09T14:09:32Z</time>
      </trkpt>
      <trkpt lat="47.98758" lon="22.51461">
        <ele>151.9</ele>
        <time>2025-07-09T14:09:34Z</time>
      </trkpt>
      <trkpt lat="47.98745333" lon="22.51470833">
        <ele>152</ele>
        <time>2025-07-09T14:09:36Z</time>
      </trkpt>
      <trkpt lat="47.98732667" lon="22.51479833">
        <ele>151.8</ele>
        <time>2025-07-09T14:09:38Z</time>
      </trkpt>
      <trkpt lat="47.9872" lon="22.51490833">
        <ele>151.2</ele>
        <time>2025-07-09T14:09:40Z</time>
      </trkpt>
      <trkpt lat="47.98706833" lon="22.515015">
        <ele>151</ele>
        <time>2025-07-09T14:09:42Z</time>
      </trkpt>
      <trkpt lat="47.986935" lon="22.51512">
        <ele>151</ele>
        <time>2025-07-09T14:09:44Z</time>
      </trkpt>
      <trkpt lat="47.986805" lon="22.51522833">
        <ele>150.9</ele>
        <time>2025-07-09T14:09:46Z</time>
      </trkpt>
      <trkpt lat="47.98668167" lon="22.51534">
        <ele>150.4</ele>
        <time>2025-07-09T14:09:48Z</time>
      </trkpt>
      <trkpt lat="47.98655333" lon="22.51545333">
        <ele>151.1</ele>
        <time>2025-07-09T14:09:50Z</time>
      </trkpt>
      <trkpt lat="47.986425" lon="22.51555833">
        <ele>151.5</ele>
        <time>2025-07-09T14:09:52Z</time>
      </trkpt>
      <trkpt lat="47.986305" lon="22.51565833">
        <ele>151.5</ele>
        <time>2025-07-09T14:09:54Z</time>
      </trkpt>
      <trkpt lat="47.98621" lon="22.51574667">
        <ele>151.7</ele>
        <time>2025-07-09T14:09:56Z</time>
      </trkpt>
      <trkpt lat="47.98611333" lon="22.51583">
        <ele>153</ele>
        <time>2025-07-09T14:09:59Z</time>
      </trkpt>
      <trkpt lat="47.98602333" lon="22.515925">
        <ele>152.8</ele>
        <time>2025-07-09T14:10:02Z</time>
      </trkpt>
      <trkpt lat="47.98594" lon="22.51599167">
        <ele>152.4</ele>
        <time>2025-07-09T14:10:04Z</time>
      </trkpt>
      <trkpt lat="47.985855" lon="22.51606">
        <ele>151.9</ele>
        <time>2025-07-09T14:10:06Z</time>
      </trkpt>
      <trkpt lat="47.98574833" lon="22.516135">
        <ele>151.4</ele>
        <time>2025-07-09T14:10:09Z</time>
      </trkpt>
      <trkpt lat="47.98567333" lon="22.516245">
        <ele>150.7</ele>
        <time>2025-07-09T14:10:34Z</time>
      </trkpt>
      <trkpt lat="47.9856" lon="22.51636333">
        <ele>151.7</ele>
        <time>2025-07-09T14:10:37Z</time>
      </trkpt>
      <trkpt lat="47.985525" lon="22.51645333">
        <ele>151.7</ele>
        <time>2025-07-09T14:10:39Z</time>
      </trkpt>
      <trkpt lat="47.98543167" lon="22.51655833">
        <ele>151</ele>
        <time>2025-07-09T14:10:41Z</time>
      </trkpt>
      <trkpt lat="47.98534167" lon="22.51666667">
        <ele>151.4</ele>
        <time>2025-07-09T14:10:43Z</time>
      </trkpt>
      <trkpt lat="47.985245" lon="22.516765">
        <ele>151.3</ele>
        <time>2025-07-09T14:10:45Z</time>
      </trkpt>
      <trkpt lat="47.985165" lon="22.51684167">
        <ele>152.4</ele>
        <time>2025-07-09T14:10:47Z</time>
      </trkpt>
      <trkpt lat="47.98508167" lon="22.51694">
        <ele>155.4</ele>
        <time>2025-07-09T14:10:50Z</time>
      </trkpt>
      <trkpt lat="47.98497" lon="22.51700167">
        <ele>155.8</ele>
        <time>2025-07-09T14:10:54Z</time>
      </trkpt>
      <trkpt lat="47.98487167" lon="22.51711833">
        <ele>155.1</ele>
        <time>2025-07-09T14:10:57Z</time>
      </trkpt>
      <trkpt lat="47.98481167" lon="22.51731">
        <ele>152.1</ele>
        <time>2025-07-09T14:11:00Z</time>
      </trkpt>
      <trkpt lat="47.98473667" lon="22.51744167">
        <ele>150.9</ele>
        <time>2025-07-09T14:11:02Z</time>
      </trkpt>
      <trkpt lat="47.98464833" lon="22.517585">
        <ele>151.3</ele>
        <time>2025-07-09T14:11:04Z</time>
      </trkpt>
      <trkpt lat="47.98454167" lon="22.51772667">
        <ele>151.5</ele>
        <time>2025-07-09T14:11:06Z</time>
      </trkpt>
      <trkpt lat="47.98443833" lon="22.517885">
        <ele>152</ele>
        <time>2025-07-09T14:11:08Z</time>
      </trkpt>
      <trkpt lat="47.98432667" lon="22.51804667">
        <ele>151.5</ele>
        <time>2025-07-09T14:11:10Z</time>
      </trkpt>
      <trkpt lat="47.98422" lon="22.51819667">
        <ele>150.9</ele>
        <time>2025-07-09T14:11:12Z</time>
      </trkpt>
      <trkpt lat="47.98409333" lon="22.518355">
        <ele>149.9</ele>
        <time>2025-07-09T14:11:14Z</time>
      </trkpt>
      <trkpt lat="47.983975" lon="22.51852">
        <ele>149.9</ele>
        <time>2025-07-09T14:11:16Z</time>
      </trkpt>
      <trkpt lat="47.98385167" lon="22.51868167">
        <ele>150.2</ele>
        <time>2025-07-09T14:11:18Z</time>
      </trkpt>
      <trkpt lat="47.98372833" lon="22.51883667">
        <ele>150.8</ele>
        <time>2025-07-09T14:11:20Z</time>
      </trkpt>
      <trkpt lat="47.98361833" lon="22.51898167">
        <ele>151.5</ele>
        <time>2025-07-09T14:11:22Z</time>
      </trkpt>
      <trkpt lat="47.983515" lon="22.51909833">
        <ele>151.3</ele>
        <time>2025-07-09T14:11:24Z</time>
      </trkpt>
      <trkpt lat="47.98343" lon="22.51917333">
        <ele>151</ele>
        <time>2025-07-09T14:11:26Z</time>
      </trkpt>
      <trkpt lat="47.983335" lon="22.51923">
        <ele>151.3</ele>
        <time>2025-07-09T14:11:29Z</time>
      </trkpt>
      <trkpt lat="47.98325" lon="22.51929833">
        <ele>149.6</ele>
        <time>2025-07-09T14:11:50Z</time>
      </trkpt>
      <trkpt lat="47.98318167" lon="22.51938833">
        <ele>149.6</ele>
        <time>2025-07-09T14:11:53Z</time>
      </trkpt>
      <trkpt lat="47.98310667" lon="22.51946667">
        <ele>149.6</ele>
        <time>2025-07-09T14:11:55Z</time>
      </trkpt>
      <trkpt lat="47.98301333" lon="22.51957667">
        <ele>150.8</ele>
        <time>2025-07-09T14:11:57Z</time>
      </trkpt>
      <trkpt lat="47.98289167" lon="22.51966833">
        <ele>150.7</ele>
        <time>2025-07-09T14:11:59Z</time>
      </trkpt>
      <trkpt lat="47.98276833" lon="22.51974667">
        <ele>151.4</ele>
        <time>2025-07-09T14:12:01Z</time>
      </trkpt>
      <trkpt lat="47.982625" lon="22.51984333">
        <ele>152.1</ele>
        <time>2025-07-09T14:12:03Z</time>
      </trkpt>
      <trkpt lat="47.98247167" lon="22.51994">
        <ele>151.8</ele>
        <time>2025-07-09T14:12:05Z</time>
      </trkpt>
      <trkpt lat="47.98231" lon="22.520025">
        <ele>151.3</ele>
        <time>2025-07-09T14:12:07Z</time>
      </trkpt>
      <trkpt lat="47.982145" lon="22.52009667">
        <ele>152</ele>
        <time>2025-07-09T14:12:09Z</time>
      </trkpt>
      <trkpt lat="47.98205167" lon="22.52013333">
        <ele>152</ele>
        <time>2025-07-09T14:12:10Z</time>
      </trkpt>
      <trkpt lat="47.981955" lon="22.52016833">
        <ele>152.2</ele>
        <time>2025-07-09T14:12:11Z</time>
      </trkpt>
      <trkpt lat="47.98185667" lon="22.520195">
        <ele>151.5</ele>
        <time>2025-07-09T14:12:12Z</time>
      </trkpt>
      <trkpt lat="47.981765" lon="22.52022167">
        <ele>151.2</ele>
        <time>2025-07-09T14:12:13Z</time>
      </trkpt>
      <trkpt lat="47.98166" lon="22.52025">
        <ele>151.2</ele>
        <time>2025-07-09T14:12:14Z</time>
      </trkpt>
      <trkpt lat="47.98156333" lon="22.52026667">
        <ele>151.3</ele>
        <time>2025-07-09T14:12:15Z</time>
      </trkpt>
      <trkpt lat="47.98146333" lon="22.52029333">
        <ele>151.4</ele>
        <time>2025-07-09T14:12:16Z</time>
      </trkpt>
      <trkpt lat="47.98136333" lon="22.52031333">
        <ele>151.2</ele>
        <time>2025-07-09T14:12:17Z</time>
      </trkpt>
      <trkpt lat="47.981265" lon="22.520325">
        <ele>152</ele>
        <time>2025-07-09T14:12:18Z</time>
      </trkpt>
      <trkpt lat="47.98116167" lon="22.52033333">
        <ele>151.7</ele>
        <time>2025-07-09T14:12:19Z</time>
      </trkpt>
      <trkpt lat="47.98106" lon="22.52035167">
        <ele>151.6</ele>
        <time>2025-07-09T14:12:20Z</time>
      </trkpt>
      <trkpt lat="47.98095667" lon="22.52036167">
        <ele>152.1</ele>
        <time>2025-07-09T14:12:21Z</time>
      </trkpt>
      <trkpt lat="47.980855" lon="22.52036167">
        <ele>152.7</ele>
        <time>2025-07-09T14:12:22Z</time>
      </trkpt>
      <trkpt lat="47.980755" lon="22.52036833">
        <ele>152.7</ele>
        <time>2025-07-09T14:12:23Z</time>
      </trkpt>
      <trkpt lat="47.98065667" lon="22.520375">
        <ele>152.7</ele>
        <time>2025-07-09T14:12:24Z</time>
      </trkpt>
      <trkpt lat="47.98056" lon="22.52038">
        <ele>152</ele>
        <time>2025-07-09T14:12:25Z</time>
      </trkpt>
      <trkpt lat="47.98046667" lon="22.52038833">
        <ele>152</ele>
        <time>2025-07-09T14:12:26Z</time>
      </trkpt>
      <trkpt lat="47.980365" lon="22.52039">
        <ele>151.9</ele>
        <time>2025-07-09T14:12:27Z</time>
      </trkpt>
      <trkpt lat="47.980265" lon="22.52039167">
        <ele>151.6</ele>
        <time>2025-07-09T14:12:28Z</time>
      </trkpt>
      <trkpt lat="47.98016333" lon="22.52039167">
        <ele>151.3</ele>
        <time>2025-07-09T14:12:29Z</time>
      </trkpt>
      <trkpt lat="47.98005833" lon="22.52039667">
        <ele>150.7</ele>
        <time>2025-07-09T14:12:30Z</time>
      </trkpt>
      <trkpt lat="47.97995333" lon="22.52039667">
        <ele>150.4</ele>
        <time>2025-07-09T14:12:31Z</time>
      </trkpt>
      <trkpt lat="47.97985667" lon="22.5204">
        <ele>150.3</ele>
        <time>2025-07-09T14:12:32Z</time>
      </trkpt>
      <trkpt lat="47.97975833" lon="22.52040667">
        <ele>149.3</ele>
        <time>2025-07-09T14:12:33Z</time>
      </trkpt>
      <trkpt lat="47.97966" lon="22.52040667">
        <ele>150</ele>
        <time>2025-07-09T14:12:34Z</time>
      </trkpt>
      <trkpt lat="47.979565" lon="22.52041167">
        <ele>150.6</ele>
        <time>2025-07-09T14:12:35Z</time>
      </trkpt>
      <trkpt lat="47.97947" lon="22.520415">
        <ele>150.8</ele>
        <time>2025-07-09T14:12:36Z</time>
      </trkpt>
      <trkpt lat="47.97937667" lon="22.520415">
        <ele>151.2</ele>
        <time>2025-07-09T14:12:37Z</time>
      </trkpt>
      <trkpt lat="47.97928667" lon="22.52042333">
        <ele>151.4</ele>
        <time>2025-07-09T14:12:38Z</time>
      </trkpt>
      <trkpt lat="47.97919667" lon="22.52044333">
        <ele>151.9</ele>
        <time>2025-07-09T14:12:39Z</time>
      </trkpt>
      <trkpt lat="47.97902167" lon="22.52048833">
        <ele>151.2</ele>
        <time>2025-07-09T14:12:41Z</time>
      </trkpt>
      <trkpt lat="47.97888" lon="22.52052333">
        <ele>155.3</ele>
        <time>2025-07-09T14:12:43Z</time>
      </trkpt>
      <trkpt lat="47.97876667" lon="22.52055167">
        <ele>157.8</ele>
        <time>2025-07-09T14:12:45Z</time>
      </trkpt>
      <trkpt lat="47.978665" lon="22.520615">
        <ele>155</ele>
        <time>2025-07-09T14:12:48Z</time>
      </trkpt>
    </trkseg>
  </trk>
</gpx>