<?xml version='1.0' encoding='UTF-8' standalone='yes' ?>
<gpx xmlns="http://www.topografix.com/GPX/1/1" xmlns:geotracker="http://ilyabogdanovich.com/gpx/extensions/geotracker" xmlns:xsi="http://www.w3.org/2001/XMLSchema-instance" xsi:schemaLocation="http://www.topografix.com/GPX/1/1 http://www.topografix.com/GPX/1/1/gpx.xsd" version="1.1" creator="Recorded in Geo Tracker for Android from Ilya Bogdanovich">
  <metadata>
    <name>b_0716_02</name>
    <author>
      <name>Recorded in Geo Tracker for Android from Ilya Bogdanovich</name>
      <link href="https://play.google.com/store/apps/details?id=com.ilyabogdanovich.geotracker" />
    </author>
    <link href="https://play.google.com/store/apps/details?id=com.ilyabogdanovich.geotracker" />
    <time>2025-07-16T14:46:04Z</time>
  </metadata>
  <trk>
    <name>b_0716_02</name>
    <src>Recorded in Geo Tracker for Android from Ilya Bogdanovich</src>
    <link href="https://play.google.com/store/apps/details?id=com.ilyabogdanovich.geotracker" />
    <extensions>
      <geotracker:meta>
        <geotracker:length>5682.59</geotracker:length>
        <geotracker:duration>471472</geotracker:duration>
        <geotracker:creationtime>2025-07-16T14:46:04Z</geotracker:creationtime>
        <geotracker:activity>0</geotracker:activity>
      </geotracker:meta>
    </extensions>
    <trkseg>
      <trkpt lat="46.85083167" lon="16.77529667">
        <ele>207.3</ele>
        <time>2025-07-16T14:46:10Z</time>
      </trkpt>
      <trkpt lat="46.85063167" lon="16.775275">
        <ele>204.9</ele>
        <time>2025-07-16T14:46:41Z</time>
      </trkpt>
      <trkpt lat="46.85048333" lon="16.77525667">
        <ele>204.4</ele>
        <time>2025-07-16T14:46:43Z</time>
      </trkpt>
      <trkpt lat="46.85032833" lon="16.775245">
        <ele>206.8</ele>
        <time>2025-07-16T14:46:45Z</time>
      </trkpt>
      <trkpt lat="46.85016333" lon="16.77521167">
        <ele>212.2</ele>
        <time>2025-07-16T14:46:47Z</time>
      </trkpt>
      <trkpt lat="46.850065" lon="16.77518333">
        <ele>211</ele>
        <time>2025-07-16T14:46:48Z</time>
      </trkpt>
      <trkpt lat="46.84997333" lon="16.77513333">
        <ele>210.2</ele>
        <time>2025-07-16T14:46:49Z</time>
      </trkpt>
      <trkpt lat="46.84988167" lon="16.77507833">
        <ele>208.6</ele>
        <time>2025-07-16T14:46:50Z</time>
      </trkpt>
      <trkpt lat="46.84978" lon="16.77502667">
        <ele>207.7</ele>
        <time>2025-07-16T14:46:51Z</time>
      </trkpt>
      <trkpt lat="46.84967833" lon="16.77497167">
        <ele>207.2</ele>
        <time>2025-07-16T14:46:52Z</time>
      </trkpt>
      <trkpt lat="46.84957333" lon="16.774915">
        <ele>207.1</ele>
        <time>2025-07-16T14:46:53Z</time>
      </trkpt>
      <trkpt lat="46.84946667" lon="16.77485667">
        <ele>206.5</ele>
        <time>2025-07-16T14:46:54Z</time>
      </trkpt>
      <trkpt lat="46.84935833" lon="16.77480333">
        <ele>205.9</ele>
        <time>2025-07-16T14:46:55Z</time>
      </trkpt>
      <trkpt lat="46.84925" lon="16.77475167">
        <ele>205.1</ele>
        <time>2025-07-16T14:46:56Z</time>
      </trkpt>
      <trkpt lat="46.84913667" lon="16.774695">
        <ele>205.4</ele>
        <time>2025-07-16T14:46:57Z</time>
      </trkpt>
      <trkpt lat="46.84901833" lon="16.77462667">
        <ele>204.3</ele>
        <time>2025-07-16T14:46:58Z</time>
      </trkpt>
      <trkpt lat="46.84890167" lon="16.774565">
        <ele>204.8</ele>
        <time>2025-07-16T14:46:59Z</time>
      </trkpt>
      <trkpt lat="46.84878667" lon="16.77450833">
        <ele>205</ele>
        <time>2025-07-16T14:47:00Z</time>
      </trkpt>
      <trkpt lat="46.84867833" lon="16.77443333">
        <ele>205.1</ele>
        <time>2025-07-16T14:47:01Z</time>
      </trkpt>
      <trkpt lat="46.84857" lon="16.77434">
        <ele>205.1</ele>
        <time>2025-07-16T14:47:02Z</time>
      </trkpt>
      <trkpt lat="46.84847167" lon="16.774225">
        <ele>205.1</ele>
        <time>2025-07-16T14:47:03Z</time>
      </trkpt>
      <trkpt lat="46.84837" lon="16.7741">
        <ele>204.7</ele>
        <time>2025-07-16T14:47:04Z</time>
      </trkpt>
      <trkpt lat="46.84827333" lon="16.77397333">
        <ele>204.3</ele>
        <time>2025-07-16T14:47:05Z</time>
      </trkpt>
      <trkpt lat="46.848175" lon="16.77383333">
        <ele>204.4</ele>
        <time>2025-07-16T14:47:06Z</time>
      </trkpt>
      <trkpt lat="46.84807333" lon="16.77370833">
        <ele>204.4</ele>
        <time>2025-07-16T14:47:07Z</time>
      </trkpt>
      <trkpt lat="46.84797667" lon="16.77356333">
        <ele>204.3</ele>
        <time>2025-07-16T14:47:08Z</time>
      </trkpt>
      <trkpt lat="46.84788" lon="16.773425">
        <ele>203.7</ele>
        <time>2025-07-16T14:47:09Z</time>
      </trkpt>
      <trkpt lat="46.84778333" lon="16.77329667">
        <ele>203.1</ele>
        <time>2025-07-16T14:47:10Z</time>
      </trkpt>
      <trkpt lat="46.84769" lon="16.77315167">
        <ele>202.5</ele>
        <time>2025-07-16T14:47:11Z</time>
      </trkpt>
      <trkpt lat="46.8476" lon="16.77300833">
        <ele>202.5</ele>
        <time>2025-07-16T14:47:12Z</time>
      </trkpt>
      <trkpt lat="46.84750333" lon="16.772875">
        <ele>203</ele>
        <time>2025-07-16T14:47:13Z</time>
      </trkpt>
      <trkpt lat="46.84741333" lon="16.772725">
        <ele>203.6</ele>
        <time>2025-07-16T14:47:14Z</time>
      </trkpt>
      <trkpt lat="46.84732167" lon="16.772595">
        <ele>203.8</ele>
        <time>2025-07-16T14:47:15Z</time>
      </trkpt>
      <trkpt lat="46.84722833" lon="16.772455">
        <ele>204.3</ele>
        <time>2025-07-16T14:47:16Z</time>
      </trkpt>
      <trkpt lat="46.84712833" lon="16.77230667">
        <ele>204.9</ele>
        <time>2025-07-16T14:47:17Z</time>
      </trkpt>
      <trkpt lat="46.84703333" lon="16.77216">
        <ele>204.9</ele>
        <time>2025-07-16T14:47:18Z</time>
      </trkpt>
      <trkpt lat="46.84693167" lon="16.77202167">
        <ele>205.1</ele>
        <time>2025-07-16T14:47:19Z</time>
      </trkpt>
      <trkpt lat="46.846835" lon="16.771885">
        <ele>205.8</ele>
        <time>2025-07-16T14:47:20Z</time>
      </trkpt>
      <trkpt lat="46.84673833" lon="16.77175">
        <ele>205.9</ele>
        <time>2025-07-16T14:47:21Z</time>
      </trkpt>
      <trkpt lat="46.84663667" lon="16.77161667">
        <ele>205.9</ele>
        <time>2025-07-16T14:47:22Z</time>
      </trkpt>
      <trkpt lat="46.846535" lon="16.77147833">
        <ele>206.2</ele>
        <time>2025-07-16T14:47:23Z</time>
      </trkpt>
      <trkpt lat="46.84643" lon="16.77134167">
        <ele>205.5</ele>
        <time>2025-07-16T14:47:24Z</time>
      </trkpt>
      <trkpt lat="46.84632333" lon="16.77120167">
        <ele>205.3</ele>
        <time>2025-07-16T14:47:25Z</time>
      </trkpt>
      <trkpt lat="46.84620667" lon="16.77107">
        <ele>205.8</ele>
        <time>2025-07-16T14:47:26Z</time>
      </trkpt>
      <trkpt lat="46.84609667" lon="16.77094333">
        <ele>206.2</ele>
        <time>2025-07-16T14:47:27Z</time>
      </trkpt>
      <trkpt lat="46.845985" lon="16.77081667">
        <ele>205.9</ele>
        <time>2025-07-16T14:47:28Z</time>
      </trkpt>
      <trkpt lat="46.84585667" lon="16.77070167">
        <ele>204.7</ele>
        <time>2025-07-16T14:47:29Z</time>
      </trkpt>
      <trkpt lat="46.845735" lon="16.77059333">
        <ele>204.8</ele>
        <time>2025-07-16T14:47:30Z</time>
      </trkpt>
      <trkpt lat="46.84562167" lon="16.77048833">
        <ele>204.1</ele>
        <time>2025-07-16T14:47:31Z</time>
      </trkpt>
      <trkpt lat="46.84549833" lon="16.77038">
        <ele>203.9</ele>
        <time>2025-07-16T14:47:32Z</time>
      </trkpt>
      <trkpt lat="46.845375" lon="16.77029">
        <ele>204.1</ele>
        <time>2025-07-16T14:47:33Z</time>
      </trkpt>
      <trkpt lat="46.84524833" lon="16.77020667">
        <ele>204.5</ele>
        <time>2025-07-16T14:47:34Z</time>
      </trkpt>
      <trkpt lat="46.84511667" lon="16.77012667">
        <ele>204.7</ele>
        <time>2025-07-16T14:47:35Z</time>
      </trkpt>
      <trkpt lat="46.84499" lon="16.77004833">
        <ele>204.5</ele>
        <time>2025-07-16T14:47:36Z</time>
      </trkpt>
      <trkpt lat="46.84486333" lon="16.76997">
        <ele>204.7</ele>
        <time>2025-07-16T14:47:37Z</time>
      </trkpt>
      <trkpt lat="46.84474167" lon="16.76989">
        <ele>204.3</ele>
        <time>2025-07-16T14:47:38Z</time>
      </trkpt>
      <trkpt lat="46.84461" lon="16.76981667">
        <ele>204.6</ele>
        <time>2025-07-16T14:47:39Z</time>
      </trkpt>
      <trkpt lat="46.84447667" lon="16.76974333">
        <ele>206.3</ele>
        <time>2025-07-16T14:47:40Z</time>
      </trkpt>
      <trkpt lat="46.84435667" lon="16.76966333">
        <ele>206.5</ele>
        <time>2025-07-16T14:47:41Z</time>
      </trkpt>
      <trkpt lat="46.84423833" lon="16.76958833">
        <ele>206.4</ele>
        <time>2025-07-16T14:47:42Z</time>
      </trkpt>
      <trkpt lat="46.84411833" lon="16.769515">
        <ele>205.7</ele>
        <time>2025-07-16T14:47:43Z</time>
      </trkpt>
      <trkpt lat="46.84399667" lon="16.76943333">
        <ele>206</ele>
        <time>2025-07-16T14:47:44Z</time>
      </trkpt>
      <trkpt lat="46.84387333" lon="16.76935833">
        <ele>206</ele>
        <time>2025-07-16T14:47:45Z</time>
      </trkpt>
      <trkpt lat="46.84375" lon="16.76928833">
        <ele>206.8</ele>
        <time>2025-07-16T14:47:46Z</time>
      </trkpt>
      <trkpt lat="46.84362667" lon="16.76922">
        <ele>207.2</ele>
        <time>2025-07-16T14:47:47Z</time>
      </trkpt>
      <trkpt lat="46.84350667" lon="16.76914">
        <ele>207.1</ele>
        <time>2025-07-16T14:47:48Z</time>
      </trkpt>
      <trkpt lat="46.84337833" lon="16.76905667">
        <ele>207.1</ele>
        <time>2025-07-16T14:47:49Z</time>
      </trkpt>
      <trkpt lat="46.84326167" lon="16.768985">
        <ele>207</ele>
        <time>2025-07-16T14:47:50Z</time>
      </trkpt>
      <trkpt lat="46.843135" lon="16.76891">
        <ele>206.7</ele>
        <time>2025-07-16T14:47:51Z</time>
      </trkpt>
      <trkpt lat="46.843005" lon="16.76883167">
        <ele>207.1</ele>
        <time>2025-07-16T14:47:52Z</time>
      </trkpt>
      <trkpt lat="46.84287667" lon="16.76875167">
        <ele>207.4</ele>
        <time>2025-07-16T14:47:53Z</time>
      </trkpt>
      <trkpt lat="46.84275" lon="16.76865333">
        <ele>207.2</ele>
        <time>2025-07-16T14:47:54Z</time>
      </trkpt>
      <trkpt lat="46.842615" lon="16.76857833">
        <ele>208</ele>
        <time>2025-07-16T14:47:55Z</time>
      </trkpt>
      <trkpt lat="46.842485" lon="16.76851">
        <ele>208.9</ele>
        <time>2025-07-16T14:47:56Z</time>
      </trkpt>
      <trkpt lat="46.84235167" lon="16.768445">
        <ele>208.8</ele>
        <time>2025-07-16T14:47:57Z</time>
      </trkpt>
      <trkpt lat="46.84221167" lon="16.76839">
        <ele>209.7</ele>
        <time>2025-07-16T14:47:58Z</time>
      </trkpt>
      <trkpt lat="46.84206333" lon="16.768335">
        <ele>209.8</ele>
        <time>2025-07-16T14:47:59Z</time>
      </trkpt>
      <trkpt lat="46.84192667" lon="16.76827833">
        <ele>210.3</ele>
        <time>2025-07-16T14:48:00Z</time>
      </trkpt>
      <trkpt lat="46.84178167" lon="16.76823333">
        <ele>209.9</ele>
        <time>2025-07-16T14:48:01Z</time>
      </trkpt>
      <trkpt lat="46.84163167" lon="16.76819833">
        <ele>209.5</ele>
        <time>2025-07-16T14:48:02Z</time>
      </trkpt>
      <trkpt lat="46.84147667" lon="16.76818">
        <ele>209.6</ele>
        <time>2025-07-16T14:48:03Z</time>
      </trkpt>
      <trkpt lat="46.84132" lon="16.768145">
        <ele>208.6</ele>
        <time>2025-07-16T14:48:04Z</time>
      </trkpt>
      <trkpt lat="46.84117" lon="16.76810833">
        <ele>208.3</ele>
        <time>2025-07-16T14:48:05Z</time>
      </trkpt>
      <trkpt lat="46.84102" lon="16.76807">
        <ele>207.2</ele>
        <time>2025-07-16T14:48:06Z</time>
      </trkpt>
      <trkpt lat="46.840865" lon="16.768035">
        <ele>206.9</ele>
        <time>2025-07-16T14:48:07Z</time>
      </trkpt>
      <trkpt lat="46.840705" lon="16.767995">
        <ele>208</ele>
        <time>2025-07-16T14:48:08Z</time>
      </trkpt>
      <trkpt lat="46.840555" lon="16.76795667">
        <ele>208.8</ele>
        <time>2025-07-16T14:48:09Z</time>
      </trkpt>
      <trkpt lat="46.840395" lon="16.767925">
        <ele>209.3</ele>
        <time>2025-07-16T14:48:10Z</time>
      </trkpt>
      <trkpt lat="46.84023833" lon="16.76788833">
        <ele>209.6</ele>
        <time>2025-07-16T14:48:11Z</time>
      </trkpt>
      <trkpt lat="46.84008" lon="16.76786">
        <ele>209.8</ele>
        <time>2025-07-16T14:48:12Z</time>
      </trkpt>
      <trkpt lat="46.83994" lon="16.76782667">
        <ele>209.7</ele>
        <time>2025-07-16T14:48:13Z</time>
      </trkpt>
      <trkpt lat="46.83979" lon="16.76779">
        <ele>209.5</ele>
        <time>2025-07-16T14:48:14Z</time>
      </trkpt>
      <trkpt lat="46.83962333" lon="16.767755">
        <ele>210.3</ele>
        <time>2025-07-16T14:48:15Z</time>
      </trkpt>
      <trkpt lat="46.83946" lon="16.76772667">
        <ele>210.3</ele>
        <time>2025-07-16T14:48:16Z</time>
      </trkpt>
      <trkpt lat="46.83930167" lon="16.76768833">
        <ele>210.2</ele>
        <time>2025-07-16T14:48:17Z</time>
      </trkpt>
      <trkpt lat="46.839145" lon="16.767655">
        <ele>210.3</ele>
        <time>2025-07-16T14:48:18Z</time>
      </trkpt>
      <trkpt lat="46.83899667" lon="16.76760833">
        <ele>210.3</ele>
        <time>2025-07-16T14:48:19Z</time>
      </trkpt>
      <trkpt lat="46.83884833" lon="16.76755167">
        <ele>210.2</ele>
        <time>2025-07-16T14:48:20Z</time>
      </trkpt>
      <trkpt lat="46.83870167" lon="16.76748333">
        <ele>211</ele>
        <time>2025-07-16T14:48:21Z</time>
      </trkpt>
      <trkpt lat="46.838555" lon="16.76738333">
        <ele>209.7</ele>
        <time>2025-07-16T14:48:22Z</time>
      </trkpt>
      <trkpt lat="46.83842" lon="16.76727167">
        <ele>210.8</ele>
        <time>2025-07-16T14:48:23Z</time>
      </trkpt>
      <trkpt lat="46.83828167" lon="16.767145">
        <ele>211</ele>
        <time>2025-07-16T14:48:24Z</time>
      </trkpt>
      <trkpt lat="46.83814167" lon="16.76701">
        <ele>210.6</ele>
        <time>2025-07-16T14:48:25Z</time>
      </trkpt>
      <trkpt lat="46.838005" lon="16.766885">
        <ele>210.3</ele>
        <time>2025-07-16T14:48:26Z</time>
      </trkpt>
      <trkpt lat="46.83786667" lon="16.76677667">
        <ele>210.5</ele>
        <time>2025-07-16T14:48:27Z</time>
      </trkpt>
      <trkpt lat="46.83772" lon="16.76668167">
        <ele>209.2</ele>
        <time>2025-07-16T14:48:28Z</time>
      </trkpt>
      <trkpt lat="46.83756167" lon="16.76660833">
        <ele>208.8</ele>
        <time>2025-07-16T14:48:29Z</time>
      </trkpt>
      <trkpt lat="46.83739833" lon="16.766545">
        <ele>208.5</ele>
        <time>2025-07-16T14:48:30Z</time>
      </trkpt>
      <trkpt lat="46.83723667" lon="16.766505">
        <ele>208.3</ele>
        <time>2025-07-16T14:48:31Z</time>
      </trkpt>
      <trkpt lat="46.837065" lon="16.766475">
        <ele>208.4</ele>
        <time>2025-07-16T14:48:32Z</time>
      </trkpt>
      <trkpt lat="46.836895" lon="16.76644333">
        <ele>208.9</ele>
        <time>2025-07-16T14:48:33Z</time>
      </trkpt>
      <trkpt lat="46.83672667" lon="16.76641833">
        <ele>209</ele>
        <time>2025-07-16T14:48:34Z</time>
      </trkpt>
      <trkpt lat="46.83655667" lon="16.766395">
        <ele>209.1</ele>
        <time>2025-07-16T14:48:35Z</time>
      </trkpt>
      <trkpt lat="46.8364" lon="16.76636333">
        <ele>208.7</ele>
        <time>2025-07-16T14:48:36Z</time>
      </trkpt>
      <trkpt lat="46.83623" lon="16.766335">
        <ele>209</ele>
        <time>2025-07-16T14:48:37Z</time>
      </trkpt>
      <trkpt lat="46.83606" lon="16.76630167">
        <ele>208.9</ele>
        <time>2025-07-16T14:48:38Z</time>
      </trkpt>
      <trkpt lat="46.83589167" lon="16.76627167">
        <ele>209.3</ele>
        <time>2025-07-16T14:48:39Z</time>
      </trkpt>
      <trkpt lat="46.83573" lon="16.76624333">
        <ele>209.8</ele>
        <time>2025-07-16T14:48:40Z</time>
      </trkpt>
      <trkpt lat="46.83556" lon="16.76621333">
        <ele>211.5</ele>
        <time>2025-07-16T14:48:41Z</time>
      </trkpt>
      <trkpt lat="46.83539333" lon="16.76619">
        <ele>212.2</ele>
        <time>2025-07-16T14:48:42Z</time>
      </trkpt>
      <trkpt lat="46.83523333" lon="16.766165">
        <ele>212.4</ele>
        <time>2025-07-16T14:48:43Z</time>
      </trkpt>
      <trkpt lat="46.835065" lon="16.76612333">
        <ele>212.2</ele>
        <time>2025-07-16T14:48:44Z</time>
      </trkpt>
      <trkpt lat="46.834895" lon="16.76608">
        <ele>210.3</ele>
        <time>2025-07-16T14:48:45Z</time>
      </trkpt>
      <trkpt lat="46.83473" lon="16.76601">
        <ele>209.6</ele>
        <time>2025-07-16T14:48:46Z</time>
      </trkpt>
      <trkpt lat="46.83457" lon="16.76592833">
        <ele>208.7</ele>
        <time>2025-07-16T14:48:47Z</time>
      </trkpt>
      <trkpt lat="46.83442" lon="16.76582">
        <ele>208.3</ele>
        <time>2025-07-16T14:48:48Z</time>
      </trkpt>
      <trkpt lat="46.83427167" lon="16.765695">
        <ele>208.4</ele>
        <time>2025-07-16T14:48:49Z</time>
      </trkpt>
      <trkpt lat="46.83413667" lon="16.76555667">
        <ele>208.4</ele>
        <time>2025-07-16T14:48:50Z</time>
      </trkpt>
      <trkpt lat="46.833995" lon="16.76541167">
        <ele>208.5</ele>
        <time>2025-07-16T14:48:51Z</time>
      </trkpt>
      <trkpt lat="46.833865" lon="16.76526833">
        <ele>209.8</ele>
        <time>2025-07-16T14:48:52Z</time>
      </trkpt>
      <trkpt lat="46.833735" lon="16.76513333">
        <ele>209.6</ele>
        <time>2025-07-16T14:48:53Z</time>
      </trkpt>
      <trkpt lat="46.83360167" lon="16.76504667">
        <ele>211</ele>
        <time>2025-07-16T14:48:54Z</time>
      </trkpt>
      <trkpt lat="46.833445" lon="16.76496333">
        <ele>210.8</ele>
        <time>2025-07-16T14:48:55Z</time>
      </trkpt>
      <trkpt lat="46.83329167" lon="16.76492">
        <ele>209.3</ele>
        <time>2025-07-16T14:48:56Z</time>
      </trkpt>
      <trkpt lat="46.83312833" lon="16.76491833">
        <ele>209.2</ele>
        <time>2025-07-16T14:48:57Z</time>
      </trkpt>
      <trkpt lat="46.83295667" lon="16.764925">
        <ele>209.6</ele>
        <time>2025-07-16T14:48:58Z</time>
      </trkpt>
      <trkpt lat="46.832785" lon="16.76493167">
        <ele>210.1</ele>
        <time>2025-07-16T14:48:59Z</time>
      </trkpt>
      <trkpt lat="46.83261667" lon="16.764935">
        <ele>210.4</ele>
        <time>2025-07-16T14:49:00Z</time>
      </trkpt>
      <trkpt lat="46.83244667" lon="16.764935">
        <ele>210.2</ele>
        <time>2025-07-16T14:49:01Z</time>
      </trkpt>
      <trkpt lat="46.83228" lon="16.76492833">
        <ele>210.4</ele>
        <time>2025-07-16T14:49:02Z</time>
      </trkpt>
      <trkpt lat="46.83211333" lon="16.764935">
        <ele>210.4</ele>
        <time>2025-07-16T14:49:03Z</time>
      </trkpt>
      <trkpt lat="46.83195333" lon="16.76492667">
        <ele>209.5</ele>
        <time>2025-07-16T14:49:04Z</time>
      </trkpt>
      <trkpt lat="46.83178833" lon="16.76492833">
        <ele>209.2</ele>
        <time>2025-07-16T14:49:05Z</time>
      </trkpt>
      <trkpt lat="46.83161333" lon="16.76492167">
        <ele>209.2</ele>
        <time>2025-07-16T14:49:06Z</time>
      </trkpt>
      <trkpt lat="46.83144833" lon="16.76490667">
        <ele>209.5</ele>
        <time>2025-07-16T14:49:07Z</time>
      </trkpt>
      <trkpt lat="46.83129" lon="16.76489333">
        <ele>209.6</ele>
        <time>2025-07-16T14:49:08Z</time>
      </trkpt>
      <trkpt lat="46.83113" lon="16.764845">
        <ele>208.6</ele>
        <time>2025-07-16T14:49:09Z</time>
      </trkpt>
      <trkpt lat="46.83095667" lon="16.76480167">
        <ele>208.9</ele>
        <time>2025-07-16T14:49:10Z</time>
      </trkpt>
      <trkpt lat="46.83079167" lon="16.76476">
        <ele>207.3</ele>
        <time>2025-07-16T14:49:11Z</time>
      </trkpt>
      <trkpt lat="46.830625" lon="16.76472">
        <ele>206.6</ele>
        <time>2025-07-16T14:49:12Z</time>
      </trkpt>
      <trkpt lat="46.83046" lon="16.76466833">
        <ele>206.5</ele>
        <time>2025-07-16T14:49:13Z</time>
      </trkpt>
      <trkpt lat="46.83029333" lon="16.76461667">
        <ele>206</ele>
        <time>2025-07-16T14:49:14Z</time>
      </trkpt>
      <trkpt lat="46.83013333" lon="16.76454667">
        <ele>206.5</ele>
        <time>2025-07-16T14:49:15Z</time>
      </trkpt>
      <trkpt lat="46.82996667" lon="16.76447333">
        <ele>206.4</ele>
        <time>2025-07-16T14:49:16Z</time>
      </trkpt>
      <trkpt lat="46.829815" lon="16.76438667">
        <ele>206.9</ele>
        <time>2025-07-16T14:49:17Z</time>
      </trkpt>
      <trkpt lat="46.82966" lon="16.764285">
        <ele>207.2</ele>
        <time>2025-07-16T14:49:18Z</time>
      </trkpt>
      <trkpt lat="46.82949667" lon="16.76419">
        <ele>207.5</ele>
        <time>2025-07-16T14:49:19Z</time>
      </trkpt>
      <trkpt lat="46.82934167" lon="16.76408667">
        <ele>207.1</ele>
        <time>2025-07-16T14:49:20Z</time>
      </trkpt>
      <trkpt lat="46.82919333" lon="16.763975">
        <ele>207.6</ele>
        <time>2025-07-16T14:49:21Z</time>
      </trkpt>
      <trkpt lat="46.82906833" lon="16.763835">
        <ele>207.9</ele>
        <time>2025-07-16T14:49:22Z</time>
      </trkpt>
      <trkpt lat="46.82893667" lon="16.76368667">
        <ele>208.1</ele>
        <time>2025-07-16T14:49:23Z</time>
      </trkpt>
      <trkpt lat="46.82881833" lon="16.76351833">
        <ele>208.6</ele>
        <time>2025-07-16T14:49:24Z</time>
      </trkpt>
      <trkpt lat="46.82870333" lon="16.76335">
        <ele>208.8</ele>
        <time>2025-07-16T14:49:25Z</time>
      </trkpt>
      <trkpt lat="46.828595" lon="16.76315333">
        <ele>208.8</ele>
        <time>2025-07-16T14:49:26Z</time>
      </trkpt>
      <trkpt lat="46.82849333" lon="16.76295167">
        <ele>209.6</ele>
        <time>2025-07-16T14:49:27Z</time>
      </trkpt>
      <trkpt lat="46.82839833" lon="16.76274333">
        <ele>210</ele>
        <time>2025-07-16T14:49:28Z</time>
      </trkpt>
      <trkpt lat="46.82831333" lon="16.762535">
        <ele>209.6</ele>
        <time>2025-07-16T14:49:29Z</time>
      </trkpt>
      <trkpt lat="46.82822167" lon="16.76234">
        <ele>208.8</ele>
        <time>2025-07-16T14:49:30Z</time>
      </trkpt>
      <trkpt lat="46.82812333" lon="16.76213167">
        <ele>208.7</ele>
        <time>2025-07-16T14:49:31Z</time>
      </trkpt>
      <trkpt lat="46.82803" lon="16.76192667">
        <ele>207.3</ele>
        <time>2025-07-16T14:49:32Z</time>
      </trkpt>
      <trkpt lat="46.827935" lon="16.76172167">
        <ele>207.3</ele>
        <time>2025-07-16T14:49:33Z</time>
      </trkpt>
      <trkpt lat="46.82784667" lon="16.76152167">
        <ele>206.8</ele>
        <time>2025-07-16T14:49:34Z</time>
      </trkpt>
      <trkpt lat="46.82775833" lon="16.76132833">
        <ele>205.6</ele>
        <time>2025-07-16T14:49:35Z</time>
      </trkpt>
      <trkpt lat="46.82765833" lon="16.76113">
        <ele>204.4</ele>
        <time>2025-07-16T14:49:36Z</time>
      </trkpt>
      <trkpt lat="46.82756167" lon="16.76093">
        <ele>204.6</ele>
        <time>2025-07-16T14:49:37Z</time>
      </trkpt>
      <trkpt lat="46.82746167" lon="16.76073167">
        <ele>204.8</ele>
        <time>2025-07-16T14:49:38Z</time>
      </trkpt>
      <trkpt lat="46.82737333" lon="16.76052833">
        <ele>203.9</ele>
        <time>2025-07-16T14:49:39Z</time>
      </trkpt>
      <trkpt lat="46.82727667" lon="16.760325">
        <ele>205.1</ele>
        <time>2025-07-16T14:49:40Z</time>
      </trkpt>
      <trkpt lat="46.827185" lon="16.76012167">
        <ele>204.9</ele>
        <time>2025-07-16T14:49:41Z</time>
      </trkpt>
      <trkpt lat="46.82708667" lon="16.75991833">
        <ele>205.4</ele>
        <time>2025-07-16T14:49:42Z</time>
      </trkpt>
      <trkpt lat="46.82699333" lon="16.75972667">
        <ele>205.8</ele>
        <time>2025-07-16T14:49:43Z</time>
      </trkpt>
      <trkpt lat="46.82688667" lon="16.75952333">
        <ele>208.6</ele>
        <time>2025-07-16T14:49:44Z</time>
      </trkpt>
      <trkpt lat="46.82678833" lon="16.75933167">
        <ele>208.8</ele>
        <time>2025-07-16T14:49:45Z</time>
      </trkpt>
      <trkpt lat="46.82669333" lon="16.75914">
        <ele>208.7</ele>
        <time>2025-07-16T14:49:46Z</time>
      </trkpt>
      <trkpt lat="46.82660667" lon="16.75895667">
        <ele>207.5</ele>
        <time>2025-07-16T14:49:47Z</time>
      </trkpt>
      <trkpt lat="46.82650667" lon="16.75875167">
        <ele>208.2</ele>
        <time>2025-07-16T14:49:48Z</time>
      </trkpt>
      <trkpt lat="46.82641333" lon="16.75855167">
        <ele>207.6</ele>
        <time>2025-07-16T14:49:49Z</time>
      </trkpt>
      <trkpt lat="46.826315" lon="16.75834667">
        <ele>207.6</ele>
        <time>2025-07-16T14:49:50Z</time>
      </trkpt>
      <trkpt lat="46.82622167" lon="16.75814333">
        <ele>208.1</ele>
        <time>2025-07-16T14:49:51Z</time>
      </trkpt>
      <trkpt lat="46.826125" lon="16.75794333">
        <ele>208.5</ele>
        <time>2025-07-16T14:49:52Z</time>
      </trkpt>
      <trkpt lat="46.82602833" lon="16.75775">
        <ele>209.1</ele>
        <time>2025-07-16T14:49:53Z</time>
      </trkpt>
      <trkpt lat="46.825935" lon="16.75755">
        <ele>209.1</ele>
        <time>2025-07-16T14:49:54Z</time>
      </trkpt>
      <trkpt lat="46.82584167" lon="16.75736">
        <ele>211.2</ele>
        <time>2025-07-16T14:49:55Z</time>
      </trkpt>
      <trkpt lat="46.82575667" lon="16.75716833">
        <ele>210.9</ele>
        <time>2025-07-16T14:49:56Z</time>
      </trkpt>
      <trkpt lat="46.82566333" lon="16.75697">
        <ele>210</ele>
        <time>2025-07-16T14:49:57Z</time>
      </trkpt>
      <trkpt lat="46.82557" lon="16.75677333">
        <ele>210.8</ele>
        <time>2025-07-16T14:49:58Z</time>
      </trkpt>
      <trkpt lat="46.82548667" lon="16.756575">
        <ele>211.4</ele>
        <time>2025-07-16T14:49:59Z</time>
      </trkpt>
      <trkpt lat="46.82540333" lon="16.75636833">
        <ele>211.8</ele>
        <time>2025-07-16T14:50:00Z</time>
      </trkpt>
      <trkpt lat="46.82533" lon="16.75615833">
        <ele>211.4</ele>
        <time>2025-07-16T14:50:01Z</time>
      </trkpt>
      <trkpt lat="46.82527" lon="16.755935">
        <ele>211.3</ele>
        <time>2025-07-16T14:50:02Z</time>
      </trkpt>
      <trkpt lat="46.82522167" lon="16.75571667">
        <ele>212</ele>
        <time>2025-07-16T14:50:03Z</time>
      </trkpt>
      <trkpt lat="46.82516333" lon="16.75548333">
        <ele>214.5</ele>
        <time>2025-07-16T14:50:04Z</time>
      </trkpt>
      <trkpt lat="46.8251" lon="16.75525833">
        <ele>214.3</ele>
        <time>2025-07-16T14:50:05Z</time>
      </trkpt>
      <trkpt lat="46.82504333" lon="16.75503667">
        <ele>213.7</ele>
        <time>2025-07-16T14:50:06Z</time>
      </trkpt>
      <trkpt lat="46.82498333" lon="16.75480833">
        <ele>213.2</ele>
        <time>2025-07-16T14:50:07Z</time>
      </trkpt>
      <trkpt lat="46.824925" lon="16.75458">
        <ele>213.2</ele>
        <time>2025-07-16T14:50:08Z</time>
      </trkpt>
      <trkpt lat="46.824865" lon="16.75436167">
        <ele>212.8</ele>
        <time>2025-07-16T14:50:09Z</time>
      </trkpt>
      <trkpt lat="46.82479333" lon="16.75416">
        <ele>212.5</ele>
        <time>2025-07-16T14:50:10Z</time>
      </trkpt>
      <trkpt lat="46.82470833" lon="16.75397833">
        <ele>213</ele>
        <time>2025-07-16T14:50:11Z</time>
      </trkpt>
      <trkpt lat="46.82460667" lon="16.75381">
        <ele>212.6</ele>
        <time>2025-07-16T14:50:12Z</time>
      </trkpt>
      <trkpt lat="46.824485" lon="16.75365167">
        <ele>213.3</ele>
        <time>2025-07-16T14:50:13Z</time>
      </trkpt>
      <trkpt lat="46.82436667" lon="16.75350333">
        <ele>213.8</ele>
        <time>2025-07-16T14:50:14Z</time>
      </trkpt>
      <trkpt lat="46.82424333" lon="16.75337667">
        <ele>215.9</ele>
        <time>2025-07-16T14:50:15Z</time>
      </trkpt>
      <trkpt lat="46.82409" lon="16.75326">
        <ele>216.3</ele>
        <time>2025-07-16T14:50:16Z</time>
      </trkpt>
      <trkpt lat="46.82393167" lon="16.753165">
        <ele>216.8</ele>
        <time>2025-07-16T14:50:17Z</time>
      </trkpt>
      <trkpt lat="46.82378833" lon="16.75307667">
        <ele>218</ele>
        <time>2025-07-16T14:50:18Z</time>
      </trkpt>
      <trkpt lat="46.82364333" lon="16.75299667">
        <ele>217.3</ele>
        <time>2025-07-16T14:50:19Z</time>
      </trkpt>
      <trkpt lat="46.823485" lon="16.75292333">
        <ele>218</ele>
        <time>2025-07-16T14:50:20Z</time>
      </trkpt>
      <trkpt lat="46.82332667" lon="16.75285">
        <ele>219.5</ele>
        <time>2025-07-16T14:50:21Z</time>
      </trkpt>
      <trkpt lat="46.823175" lon="16.75278167">
        <ele>219</ele>
        <time>2025-07-16T14:50:22Z</time>
      </trkpt>
      <trkpt lat="46.82302833" lon="16.75268667">
        <ele>218.4</ele>
        <time>2025-07-16T14:50:23Z</time>
      </trkpt>
      <trkpt lat="46.82288167" lon="16.75260833">
        <ele>218.8</ele>
        <time>2025-07-16T14:50:24Z</time>
      </trkpt>
      <trkpt lat="46.82275167" lon="16.75252667">
        <ele>218.4</ele>
        <time>2025-07-16T14:50:25Z</time>
      </trkpt>
      <trkpt lat="46.82260833" lon="16.75244667">
        <ele>218.4</ele>
        <time>2025-07-16T14:50:26Z</time>
      </trkpt>
      <trkpt lat="46.822475" lon="16.75236333">
        <ele>218.3</ele>
        <time>2025-07-16T14:50:27Z</time>
      </trkpt>
      <trkpt lat="46.82233" lon="16.75229333">
        <ele>220.3</ele>
        <time>2025-07-16T14:50:28Z</time>
      </trkpt>
      <trkpt lat="46.82219833" lon="16.75221333">
        <ele>222.8</ele>
        <time>2025-07-16T14:50:29Z</time>
      </trkpt>
      <trkpt lat="46.82207333" lon="16.75213667">
        <ele>222.2</ele>
        <time>2025-07-16T14:50:30Z</time>
      </trkpt>
      <trkpt lat="46.82194167" lon="16.752065">
        <ele>220.9</ele>
        <time>2025-07-16T14:50:31Z</time>
      </trkpt>
      <trkpt lat="46.82181167" lon="16.751995">
        <ele>220.2</ele>
        <time>2025-07-16T14:50:32Z</time>
      </trkpt>
      <trkpt lat="46.82168167" lon="16.75192667">
        <ele>219.8</ele>
        <time>2025-07-16T14:50:33Z</time>
      </trkpt>
      <trkpt lat="46.82155667" lon="16.75183667">
        <ele>220.8</ele>
        <time>2025-07-16T14:50:34Z</time>
      </trkpt>
      <trkpt lat="46.82143167" lon="16.75175667">
        <ele>220.3</ele>
        <time>2025-07-16T14:50:35Z</time>
      </trkpt>
      <trkpt lat="46.82130833" lon="16.75167333">
        <ele>219.5</ele>
        <time>2025-07-16T14:50:36Z</time>
      </trkpt>
      <trkpt lat="46.82119167" lon="16.75158167">
        <ele>219.1</ele>
        <time>2025-07-16T14:50:37Z</time>
      </trkpt>
      <trkpt lat="46.82108667" lon="16.751495">
        <ele>218.8</ele>
        <time>2025-07-16T14:50:38Z</time>
      </trkpt>
      <trkpt lat="46.82097667" lon="16.751395">
        <ele>218.6</ele>
        <time>2025-07-16T14:50:39Z</time>
      </trkpt>
      <trkpt lat="46.820875" lon="16.75130167">
        <ele>219.1</ele>
        <time>2025-07-16T14:50:40Z</time>
      </trkpt>
      <trkpt lat="46.82077333" lon="16.75120833">
        <ele>220.2</ele>
        <time>2025-07-16T14:50:41Z</time>
      </trkpt>
      <trkpt lat="46.82066833" lon="16.75112167">
        <ele>220.5</ele>
        <time>2025-07-16T14:50:42Z</time>
      </trkpt>
      <trkpt lat="46.82056667" lon="16.75103167">
        <ele>220.8</ele>
        <time>2025-07-16T14:50:43Z</time>
      </trkpt>
      <trkpt lat="46.82047667" lon="16.75094">
        <ele>220.2</ele>
        <time>2025-07-16T14:50:44Z</time>
      </trkpt>
      <trkpt lat="46.82038333" lon="16.75084667">
        <ele>221</ele>
        <time>2025-07-16T14:50:45Z</time>
      </trkpt>
      <trkpt lat="46.82030667" lon="16.75077167">
        <ele>221.3</ele>
        <time>2025-07-16T14:50:46Z</time>
      </trkpt>
      <trkpt lat="46.82022333" lon="16.75067333">
        <ele>221.6</ele>
        <time>2025-07-16T14:50:47Z</time>
      </trkpt>
      <trkpt lat="46.82015" lon="16.75058">
        <ele>221.3</ele>
        <time>2025-07-16T14:50:48Z</time>
      </trkpt>
      <trkpt lat="46.82007333" lon="16.750495">
        <ele>221.1</ele>
        <time>2025-07-16T14:50:49Z</time>
      </trkpt>
      <trkpt lat="46.81994833" lon="16.75034167">
        <ele>220.7</ele>
        <time>2025-07-16T14:50:51Z</time>
      </trkpt>
      <trkpt lat="46.81986" lon="16.75021667">
        <ele>220.7</ele>
        <time>2025-07-16T14:50:53Z</time>
      </trkpt>
      <trkpt lat="46.81978833" lon="16.75012167">
        <ele>222.6</ele>
        <time>2025-07-16T14:50:57Z</time>
      </trkpt>
      <trkpt lat="46.81969667" lon="16.75002167">
        <ele>222.4</ele>
        <time>2025-07-16T14:51:15Z</time>
      </trkpt>
      <trkpt lat="46.81961333" lon="16.74995333">
        <ele>223.2</ele>
        <time>2025-07-16T14:51:17Z</time>
      </trkpt>
      <trkpt lat="46.8195" lon="16.749865">
        <ele>224</ele>
        <time>2025-07-16T14:51:19Z</time>
      </trkpt>
      <trkpt lat="46.81937667" lon="16.749775">
        <ele>224.9</ele>
        <time>2025-07-16T14:51:21Z</time>
      </trkpt>
      <trkpt lat="46.81921833" lon="16.749675">
        <ele>225.3</ele>
        <time>2025-07-16T14:51:23Z</time>
      </trkpt>
      <trkpt lat="46.81912333" lon="16.74964">
        <ele>225.8</ele>
        <time>2025-07-16T14:51:24Z</time>
      </trkpt>
      <trkpt lat="46.81903333" lon="16.74959833">
        <ele>226.7</ele>
        <time>2025-07-16T14:51:25Z</time>
      </trkpt>
      <trkpt lat="46.818945" lon="16.74955167">
        <ele>227.9</ele>
        <time>2025-07-16T14:51:26Z</time>
      </trkpt>
      <trkpt lat="46.81885167" lon="16.749505">
        <ele>228.6</ele>
        <time>2025-07-16T14:51:27Z</time>
      </trkpt>
      <trkpt lat="46.81875" lon="16.74945167">
        <ele>229.3</ele>
        <time>2025-07-16T14:51:28Z</time>
      </trkpt>
      <trkpt lat="46.81865167" lon="16.74939833">
        <ele>230.7</ele>
        <time>2025-07-16T14:51:29Z</time>
      </trkpt>
      <trkpt lat="46.81855167" lon="16.749335">
        <ele>230.9</ele>
        <time>2025-07-16T14:51:30Z</time>
      </trkpt>
      <trkpt lat="46.81844833" lon="16.74928167">
        <ele>231.8</ele>
        <time>2025-07-16T14:51:31Z</time>
      </trkpt>
      <trkpt lat="46.81834167" lon="16.74922">
        <ele>232.5</ele>
        <time>2025-07-16T14:51:32Z</time>
      </trkpt>
      <trkpt lat="46.81823667" lon="16.74916167">
        <ele>232.6</ele>
        <time>2025-07-16T14:51:33Z</time>
      </trkpt>
      <trkpt lat="46.81812833" lon="16.74909667">
        <ele>232.7</ele>
        <time>2025-07-16T14:51:34Z</time>
      </trkpt>
      <trkpt lat="46.81802667" lon="16.74905167">
        <ele>231.5</ele>
        <time>2025-07-16T14:51:35Z</time>
      </trkpt>
      <trkpt lat="46.817915" lon="16.74898333">
        <ele>230.9</ele>
        <time>2025-07-16T14:51:36Z</time>
      </trkpt>
      <trkpt lat="46.81780667" lon="16.74893667">
        <ele>231.2</ele>
        <time>2025-07-16T14:51:37Z</time>
      </trkpt>
      <trkpt lat="46.817685" lon="16.74888">
        <ele>231.7</ele>
        <time>2025-07-16T14:51:38Z</time>
      </trkpt>
      <trkpt lat="46.81756167" lon="16.74881833">
        <ele>233.2</ele>
        <time>2025-07-16T14:51:39Z</time>
      </trkpt>
      <trkpt lat="46.81744667" lon="16.74876833">
        <ele>234.1</ele>
        <time>2025-07-16T14:51:40Z</time>
      </trkpt>
      <trkpt lat="46.81733667" lon="16.74871667">
        <ele>233.9</ele>
        <time>2025-07-16T14:51:41Z</time>
      </trkpt>
      <trkpt lat="46.81721167" lon="16.74864167">
        <ele>234.6</ele>
        <time>2025-07-16T14:51:42Z</time>
      </trkpt>
      <trkpt lat="46.81708667" lon="16.74858">
        <ele>236.2</ele>
        <time>2025-07-16T14:51:43Z</time>
      </trkpt>
      <trkpt lat="46.81697333" lon="16.74851">
        <ele>237.5</ele>
        <time>2025-07-16T14:51:44Z</time>
      </trkpt>
      <trkpt lat="46.81686833" lon="16.74846167">
        <ele>238.9</ele>
        <time>2025-07-16T14:51:45Z</time>
      </trkpt>
      <trkpt lat="46.81676667" lon="16.74840667">
        <ele>240.3</ele>
        <time>2025-07-16T14:51:46Z</time>
      </trkpt>
      <trkpt lat="46.816675" lon="16.748355">
        <ele>241.4</ele>
        <time>2025-07-16T14:51:47Z</time>
      </trkpt>
      <trkpt lat="46.81657833" lon="16.74831333">
        <ele>242.6</ele>
        <time>2025-07-16T14:51:48Z</time>
      </trkpt>
      <trkpt lat="46.81647667" lon="16.74827">
        <ele>243.6</ele>
        <time>2025-07-16T14:51:49Z</time>
      </trkpt>
      <trkpt lat="46.81637167" lon="16.748225">
        <ele>243.8</ele>
        <time>2025-07-16T14:51:50Z</time>
      </trkpt>
      <trkpt lat="46.81627667" lon="16.74817833">
        <ele>244.4</ele>
        <time>2025-07-16T14:51:51Z</time>
      </trkpt>
      <trkpt lat="46.816185" lon="16.74813833">
        <ele>245.6</ele>
        <time>2025-07-16T14:51:52Z</time>
      </trkpt>
      <trkpt lat="46.81609167" lon="16.74809167">
        <ele>245.8</ele>
        <time>2025-07-16T14:51:53Z</time>
      </trkpt>
      <trkpt lat="46.81599833" lon="16.74805167">
        <ele>245.9</ele>
        <time>2025-07-16T14:51:54Z</time>
      </trkpt>
      <trkpt lat="46.815905" lon="16.74801667">
        <ele>246.5</ele>
        <time>2025-07-16T14:51:55Z</time>
      </trkpt>
      <trkpt lat="46.81580333" lon="16.74795167">
        <ele>247.3</ele>
        <time>2025-07-16T14:51:56Z</time>
      </trkpt>
      <trkpt lat="46.81570833" lon="16.74790833">
        <ele>248.8</ele>
        <time>2025-07-16T14:51:57Z</time>
      </trkpt>
      <trkpt lat="46.81561167" lon="16.74785167">
        <ele>250.4</ele>
        <time>2025-07-16T14:51:58Z</time>
      </trkpt>
      <trkpt lat="46.81551167" lon="16.747805">
        <ele>252.1</ele>
        <time>2025-07-16T14:51:59Z</time>
      </trkpt>
      <trkpt lat="46.81541167" lon="16.74774667">
        <ele>253.7</ele>
        <time>2025-07-16T14:52:00Z</time>
      </trkpt>
      <trkpt lat="46.81532167" lon="16.74768">
        <ele>254.4</ele>
        <time>2025-07-16T14:52:01Z</time>
      </trkpt>
      <trkpt lat="46.81522" lon="16.747635">
        <ele>254.6</ele>
        <time>2025-07-16T14:52:02Z</time>
      </trkpt>
      <trkpt lat="46.81512" lon="16.7476">
        <ele>255.6</ele>
        <time>2025-07-16T14:52:03Z</time>
      </trkpt>
      <trkpt lat="46.81501667" lon="16.74755833">
        <ele>256.5</ele>
        <time>2025-07-16T14:52:04Z</time>
      </trkpt>
      <trkpt lat="46.814905" lon="16.74751167">
        <ele>257</ele>
        <time>2025-07-16T14:52:05Z</time>
      </trkpt>
      <trkpt lat="46.81480333" lon="16.74746833">
        <ele>256.8</ele>
        <time>2025-07-16T14:52:06Z</time>
      </trkpt>
      <trkpt lat="46.8147" lon="16.74741833">
        <ele>258.2</ele>
        <time>2025-07-16T14:52:07Z</time>
      </trkpt>
      <trkpt lat="46.81460333" lon="16.74738667">
        <ele>258.9</ele>
        <time>2025-07-16T14:52:08Z</time>
      </trkpt>
      <trkpt lat="46.814505" lon="16.74733833">
        <ele>260.5</ele>
        <time>2025-07-16T14:52:09Z</time>
      </trkpt>
      <trkpt lat="46.81440333" lon="16.74729833">
        <ele>261.3</ele>
        <time>2025-07-16T14:52:10Z</time>
      </trkpt>
      <trkpt lat="46.81430333" lon="16.74725667">
        <ele>260.4</ele>
        <time>2025-07-16T14:52:11Z</time>
      </trkpt>
      <trkpt lat="46.81420167" lon="16.74721333">
        <ele>261.1</ele>
        <time>2025-07-16T14:52:12Z</time>
      </trkpt>
      <trkpt lat="46.81410333" lon="16.747185">
        <ele>261.8</ele>
        <time>2025-07-16T14:52:13Z</time>
      </trkpt>
      <trkpt lat="46.813995" lon="16.74716167">
        <ele>262.4</ele>
        <time>2025-07-16T14:52:14Z</time>
      </trkpt>
      <trkpt lat="46.81388833" lon="16.74714333">
        <ele>262.8</ele>
        <time>2025-07-16T14:52:15Z</time>
      </trkpt>
      <trkpt lat="46.81378" lon="16.74712667">
        <ele>262.9</ele>
        <time>2025-07-16T14:52:16Z</time>
      </trkpt>
      <trkpt lat="46.81367167" lon="16.747115">
        <ele>262.9</ele>
        <time>2025-07-16T14:52:17Z</time>
      </trkpt>
      <trkpt lat="46.81358" lon="16.74710333">
        <ele>262.6</ele>
        <time>2025-07-16T14:52:18Z</time>
      </trkpt>
      <trkpt lat="46.81349" lon="16.74708">
        <ele>262.8</ele>
        <time>2025-07-16T14:52:19Z</time>
      </trkpt>
      <trkpt lat="46.81330167" lon="16.74705667">
        <ele>262.3</ele>
        <time>2025-07-16T14:52:21Z</time>
      </trkpt>
      <trkpt lat="46.81319333" lon="16.747035">
        <ele>261.8</ele>
        <time>2025-07-16T14:52:22Z</time>
      </trkpt>
      <trkpt lat="46.813095" lon="16.74702167">
        <ele>262</ele>
        <time>2025-07-16T14:52:23Z</time>
      </trkpt>
      <trkpt lat="46.812985" lon="16.74699833">
        <ele>262.8</ele>
        <time>2025-07-16T14:52:24Z</time>
      </trkpt>
      <trkpt lat="46.812885" lon="16.746985">
        <ele>263</ele>
        <time>2025-07-16T14:52:25Z</time>
      </trkpt>
      <trkpt lat="46.812785" lon="16.74696333">
        <ele>263.5</ele>
        <time>2025-07-16T14:52:26Z</time>
      </trkpt>
      <trkpt lat="46.812695" lon="16.74694667">
        <ele>264</ele>
        <time>2025-07-16T14:52:27Z</time>
      </trkpt>
      <trkpt lat="46.81251" lon="16.74690167">
        <ele>265.9</ele>
        <time>2025-07-16T14:52:29Z</time>
      </trkpt>
      <trkpt lat="46.81240667" lon="16.74687667">
        <ele>266.7</ele>
        <time>2025-07-16T14:52:30Z</time>
      </trkpt>
      <trkpt lat="46.81229" lon="16.74686667">
        <ele>268.2</ele>
        <time>2025-07-16T14:52:31Z</time>
      </trkpt>
      <trkpt lat="46.81218333" lon="16.74685167">
        <ele>270.1</ele>
        <time>2025-07-16T14:52:32Z</time>
      </trkpt>
      <trkpt lat="46.81206833" lon="16.74684667">
        <ele>271.6</ele>
        <time>2025-07-16T14:52:33Z</time>
      </trkpt>
      <trkpt lat="46.811955" lon="16.74684833">
        <ele>272.6</ele>
        <time>2025-07-16T14:52:34Z</time>
      </trkpt>
      <trkpt lat="46.81184" lon="16.74685">
        <ele>274.1</ele>
        <time>2025-07-16T14:52:35Z</time>
      </trkpt>
      <trkpt lat="46.81173333" lon="16.746845">
        <ele>274.4</ele>
        <time>2025-07-16T14:52:36Z</time>
      </trkpt>
      <trkpt lat="46.811635" lon="16.74685167">
        <ele>275.5</ele>
        <time>2025-07-16T14:52:37Z</time>
      </trkpt>
      <trkpt lat="46.811545" lon="16.74684167">
        <ele>275.5</ele>
        <time>2025-07-16T14:52:38Z</time>
      </trkpt>
      <trkpt lat="46.81145333" lon="16.74686167">
        <ele>276</ele>
        <time>2025-07-16T14:52:39Z</time>
      </trkpt>
      <trkpt lat="46.81126333" lon="16.746885">
        <ele>278.2</ele>
        <time>2025-07-16T14:52:41Z</time>
      </trkpt>
      <trkpt lat="46.81115667" lon="16.74689333">
        <ele>279.4</ele>
        <time>2025-07-16T14:52:42Z</time>
      </trkpt>
      <trkpt lat="46.81105667" lon="16.746895">
        <ele>280</ele>
        <time>2025-07-16T14:52:43Z</time>
      </trkpt>
      <trkpt lat="46.81088167" lon="16.74691">
        <ele>281</ele>
        <time>2025-07-16T14:52:45Z</time>
      </trkpt>
      <trkpt lat="46.81072" lon="16.74695167">
        <ele>281.8</ele>
        <time>2025-07-16T14:52:47Z</time>
      </trkpt>
      <trkpt lat="46.81057167" lon="16.74707333">
        <ele>284.1</ele>
        <time>2025-07-16T14:52:49Z</time>
      </trkpt>
      <trkpt lat="46.810485" lon="16.74727667">
        <ele>284.1</ele>
        <time>2025-07-16T14:52:51Z</time>
      </trkpt>
      <trkpt lat="46.81048" lon="16.747515">
        <ele>284.8</ele>
        <time>2025-07-16T14:52:53Z</time>
      </trkpt>
      <trkpt lat="46.810545" lon="16.74775833">
        <ele>285.8</ele>
        <time>2025-07-16T14:52:55Z</time>
      </trkpt>
      <trkpt lat="46.81058" lon="16.74788">
        <ele>285.8</ele>
        <time>2025-07-16T14:52:56Z</time>
      </trkpt>
      <trkpt lat="46.81063333" lon="16.74809333">
        <ele>286.9</ele>
        <time>2025-07-16T14:52:58Z</time>
      </trkpt>
      <trkpt lat="46.81066" lon="16.74827833">
        <ele>286.7</ele>
        <time>2025-07-16T14:53:00Z</time>
      </trkpt>
      <trkpt lat="46.81063667" lon="16.74846833">
        <ele>286.5</ele>
        <time>2025-07-16T14:53:02Z</time>
      </trkpt>
      <trkpt lat="46.81055" lon="16.74859667">
        <ele>287.7</ele>
        <time>2025-07-16T14:53:04Z</time>
      </trkpt>
      <trkpt lat="46.81042667" lon="16.74863333">
        <ele>287.4</ele>
        <time>2025-07-16T14:53:06Z</time>
      </trkpt>
      <trkpt lat="46.81029833" lon="16.748565">
        <ele>287.4</ele>
        <time>2025-07-16T14:53:08Z</time>
      </trkpt>
      <trkpt lat="46.8102" lon="16.74839833">
        <ele>287.2</ele>
        <time>2025-07-16T14:53:10Z</time>
      </trkpt>
      <trkpt lat="46.81015833" lon="16.748275">
        <ele>287.6</ele>
        <time>2025-07-16T14:53:11Z</time>
      </trkpt>
      <trkpt lat="46.81012333" lon="16.74815">
        <ele>287.9</ele>
        <time>2025-07-16T14:53:12Z</time>
      </trkpt>
      <trkpt lat="46.81003667" lon="16.74793333">
        <ele>289.2</ele>
        <time>2025-07-16T14:53:14Z</time>
      </trkpt>
      <trkpt lat="46.80995" lon="16.74772333">
        <ele>290.1</ele>
        <time>2025-07-16T14:53:16Z</time>
      </trkpt>
      <trkpt lat="46.80986167" lon="16.74751">
        <ele>291.4</ele>
        <time>2025-07-16T14:53:18Z</time>
      </trkpt>
      <trkpt lat="46.80977167" lon="16.74729167">
        <ele>291.1</ele>
        <time>2025-07-16T14:53:20Z</time>
      </trkpt>
      <trkpt lat="46.809675" lon="16.74706667">
        <ele>292.1</ele>
        <time>2025-07-16T14:53:22Z</time>
      </trkpt>
      <trkpt lat="46.80962667" lon="16.74694167">
        <ele>293</ele>
        <time>2025-07-16T14:53:23Z</time>
      </trkpt>
      <trkpt lat="46.80957667" lon="16.74681333">
        <ele>294.1</ele>
        <time>2025-07-16T14:53:24Z</time>
      </trkpt>
      <trkpt lat="46.80953167" lon="16.74667667">
        <ele>295.1</ele>
        <time>2025-07-16T14:53:25Z</time>
      </trkpt>
      <trkpt lat="46.80949167" lon="16.74654333">
        <ele>296.1</ele>
        <time>2025-07-16T14:53:26Z</time>
      </trkpt>
      <trkpt lat="46.80945833" lon="16.74641167">
        <ele>297.3</ele>
        <time>2025-07-16T14:53:27Z</time>
      </trkpt>
      <trkpt lat="46.80944" lon="16.74627333">
        <ele>298.4</ele>
        <time>2025-07-16T14:53:28Z</time>
      </trkpt>
      <trkpt lat="46.80943" lon="16.74614167">
        <ele>298.9</ele>
        <time>2025-07-16T14:53:29Z</time>
      </trkpt>
      <trkpt lat="46.80943167" lon="16.746005">
        <ele>299.1</ele>
        <time>2025-07-16T14:53:30Z</time>
      </trkpt>
      <trkpt lat="46.80942833" lon="16.74587333">
        <ele>300.3</ele>
        <time>2025-07-16T14:53:31Z</time>
      </trkpt>
      <trkpt lat="46.80944667" lon="16.74566833">
        <ele>301.3</ele>
        <time>2025-07-16T14:53:33Z</time>
      </trkpt>
      <trkpt lat="46.80948667" lon="16.74549833">
        <ele>303.5</ele>
        <time>2025-07-16T14:53:35Z</time>
      </trkpt>
      <trkpt lat="46.80954" lon="16.74536833">
        <ele>303.9</ele>
        <time>2025-07-16T14:53:37Z</time>
      </trkpt>
      <trkpt lat="46.8096" lon="16.74523833">
        <ele>305.9</ele>
        <time>2025-07-16T14:53:40Z</time>
      </trkpt>
    </trkseg>
  </trk>
</gpx>