<?xml version='1.0' encoding='UTF-8' standalone='yes' ?>
<gpx xmlns="http://www.topografix.com/GPX/1/1" xmlns:geotracker="http://ilyabogdanovich.com/gpx/extensions/geotracker" xmlns:xsi="http://www.w3.org/2001/XMLSchema-instance" xsi:schemaLocation="http://www.topografix.com/GPX/1/1 http://www.topografix.com/GPX/1/1/gpx.xsd" version="1.1" creator="Recorded in Geo Tracker for Android from Ilya Bogdanovich">
  <metadata>
    <name>b_0716_03</name>
    <author>
      <name>Recorded in Geo Tracker for Android from Ilya Bogdanovich</name>
      <link href="https://play.google.com/store/apps/details?id=com.ilyabogdanovich.geotracker" />
    </author>
    <link href="https://play.google.com/store/apps/details?id=com.ilyabogdanovich.geotracker" />
    <time>2025-07-16T18:55:20Z</time>
  </metadata>
  <trk>
    <name>b_0716_03</name>
    <src>Recorded in Geo Tracker for Android from Ilya Bogdanovich</src>
    <link href="https://play.google.com/store/apps/details?id=com.ilyabogdanovich.geotracker" />
    <extensions>
      <geotracker:meta>
        <geotracker:length>10658.51</geotracker:length>
        <geotracker:duration>1272224</geotracker:duration>
        <geotracker:creationtime>2025-07-16T18:55:20Z</geotracker:creationtime>
        <geotracker:activity>0</geotracker:activity>
      </geotracker:meta>
    </extensions>
    <trkseg>
      <trkpt lat="46.80806167" lon="16.74960833">
        <ele>320.5</ele>
        <time>2025-07-16T18:57:34Z</time>
      </trkpt>
      <trkpt lat="46.80803333" lon="16.749605">
        <ele>321.5</ele>
        <time>2025-07-16T18:59:35Z</time>
      </trkpt>
      <trkpt lat="46.808145" lon="16.74959667">
        <ele>319.9</ele>
        <time>2025-07-16T19:00:14Z</time>
      </trkpt>
      <trkpt lat="46.80824333" lon="16.74962333">
        <ele>319.9</ele>
        <time>2025-07-16T19:00:16Z</time>
      </trkpt>
      <trkpt lat="46.808365" lon="16.74967167">
        <ele>319.5</ele>
        <time>2025-07-16T19:00:18Z</time>
      </trkpt>
      <trkpt lat="46.808525" lon="16.74973667">
        <ele>320</ele>
        <time>2025-07-16T19:00:20Z</time>
      </trkpt>
      <trkpt lat="46.808665" lon="16.74977">
        <ele>319.3</ele>
        <time>2025-07-16T19:00:22Z</time>
      </trkpt>
      <trkpt lat="46.80881" lon="16.74976667">
        <ele>319.5</ele>
        <time>2025-07-16T19:00:24Z</time>
      </trkpt>
      <trkpt lat="46.80896" lon="16.74975">
        <ele>319.7</ele>
        <time>2025-07-16T19:00:26Z</time>
      </trkpt>
      <trkpt lat="46.809095" lon="16.74967833">
        <ele>320.2</ele>
        <time>2025-07-16T19:00:28Z</time>
      </trkpt>
      <trkpt lat="46.80921167" lon="16.749565">
        <ele>319.1</ele>
        <time>2025-07-16T19:00:30Z</time>
      </trkpt>
      <trkpt lat="46.80930833" lon="16.74940167">
        <ele>318.8</ele>
        <time>2025-07-16T19:00:32Z</time>
      </trkpt>
      <trkpt lat="46.80938833" lon="16.74918167">
        <ele>318.4</ele>
        <time>2025-07-16T19:00:34Z</time>
      </trkpt>
      <trkpt lat="46.809415" lon="16.74904667">
        <ele>317.9</ele>
        <time>2025-07-16T19:00:35Z</time>
      </trkpt>
      <trkpt lat="46.80943833" lon="16.74878667">
        <ele>317.3</ele>
        <time>2025-07-16T19:00:37Z</time>
      </trkpt>
      <trkpt lat="46.80943" lon="16.74863667">
        <ele>316.1</ele>
        <time>2025-07-16T19:00:38Z</time>
      </trkpt>
      <trkpt lat="46.809415" lon="16.74849667">
        <ele>315.8</ele>
        <time>2025-07-16T19:00:39Z</time>
      </trkpt>
      <trkpt lat="46.80939667" lon="16.74835167">
        <ele>313.8</ele>
        <time>2025-07-16T19:00:40Z</time>
      </trkpt>
      <trkpt lat="46.80936833" lon="16.74820833">
        <ele>313.3</ele>
        <time>2025-07-16T19:00:41Z</time>
      </trkpt>
      <trkpt lat="46.80934833" lon="16.74806833">
        <ele>312.6</ele>
        <time>2025-07-16T19:00:42Z</time>
      </trkpt>
      <trkpt lat="46.80932333" lon="16.74792833">
        <ele>312.7</ele>
        <time>2025-07-16T19:00:43Z</time>
      </trkpt>
      <trkpt lat="46.80929833" lon="16.74778833">
        <ele>312.4</ele>
        <time>2025-07-16T19:00:44Z</time>
      </trkpt>
      <trkpt lat="46.80927167" lon="16.747655">
        <ele>310.9</ele>
        <time>2025-07-16T19:00:45Z</time>
      </trkpt>
      <trkpt lat="46.80925" lon="16.74752667">
        <ele>310.3</ele>
        <time>2025-07-16T19:00:46Z</time>
      </trkpt>
      <trkpt lat="46.80922667" lon="16.74739">
        <ele>309.6</ele>
        <time>2025-07-16T19:00:47Z</time>
      </trkpt>
      <trkpt lat="46.8092" lon="16.74724667">
        <ele>309.4</ele>
        <time>2025-07-16T19:00:48Z</time>
      </trkpt>
      <trkpt lat="46.80917" lon="16.74711667">
        <ele>308.4</ele>
        <time>2025-07-16T19:00:49Z</time>
      </trkpt>
      <trkpt lat="46.80914667" lon="16.74698">
        <ele>308.4</ele>
        <time>2025-07-16T19:00:50Z</time>
      </trkpt>
      <trkpt lat="46.80912167" lon="16.74684333">
        <ele>308.5</ele>
        <time>2025-07-16T19:00:51Z</time>
      </trkpt>
      <trkpt lat="46.809095" lon="16.74669667">
        <ele>307.9</ele>
        <time>2025-07-16T19:00:52Z</time>
      </trkpt>
      <trkpt lat="46.80906667" lon="16.74656667">
        <ele>307.1</ele>
        <time>2025-07-16T19:00:53Z</time>
      </trkpt>
      <trkpt lat="46.80904" lon="16.74643">
        <ele>307</ele>
        <time>2025-07-16T19:00:54Z</time>
      </trkpt>
      <trkpt lat="46.80899333" lon="16.74618167">
        <ele>305.4</ele>
        <time>2025-07-16T19:00:56Z</time>
      </trkpt>
      <trkpt lat="46.808985" lon="16.745975">
        <ele>305.2</ele>
        <time>2025-07-16T19:00:58Z</time>
      </trkpt>
      <trkpt lat="46.80902333" lon="16.74581833">
        <ele>305.9</ele>
        <time>2025-07-16T19:01:00Z</time>
      </trkpt>
      <trkpt lat="46.80908" lon="16.74570333">
        <ele>305.2</ele>
        <time>2025-07-16T19:01:02Z</time>
      </trkpt>
      <trkpt lat="46.809205" lon="16.74561667">
        <ele>303.8</ele>
        <time>2025-07-16T19:01:05Z</time>
      </trkpt>
      <trkpt lat="46.80931167" lon="16.74562167">
        <ele>303.6</ele>
        <time>2025-07-16T19:01:09Z</time>
      </trkpt>
      <trkpt lat="46.809365" lon="16.745775">
        <ele>301.9</ele>
        <time>2025-07-16T19:01:13Z</time>
      </trkpt>
      <trkpt lat="46.80933167" lon="16.74591667">
        <ele>302</ele>
        <time>2025-07-16T19:01:16Z</time>
      </trkpt>
      <trkpt lat="46.80932667" lon="16.74606">
        <ele>303.1</ele>
        <time>2025-07-16T19:01:20Z</time>
      </trkpt>
      <trkpt lat="46.80934667" lon="16.74622667">
        <ele>303.4</ele>
        <time>2025-07-16T19:01:40Z</time>
      </trkpt>
      <trkpt lat="46.80937333" lon="16.74638667">
        <ele>301.5</ele>
        <time>2025-07-16T19:01:42Z</time>
      </trkpt>
      <trkpt lat="46.80941167" lon="16.74657667">
        <ele>301.4</ele>
        <time>2025-07-16T19:01:44Z</time>
      </trkpt>
      <trkpt lat="46.80947333" lon="16.74677667">
        <ele>300.8</ele>
        <time>2025-07-16T19:01:46Z</time>
      </trkpt>
      <trkpt lat="46.80956167" lon="16.74700333">
        <ele>299.1</ele>
        <time>2025-07-16T19:01:48Z</time>
      </trkpt>
      <trkpt lat="46.80962333" lon="16.74712">
        <ele>297.5</ele>
        <time>2025-07-16T19:01:49Z</time>
      </trkpt>
      <trkpt lat="46.80967833" lon="16.74724167">
        <ele>296.3</ele>
        <time>2025-07-16T19:01:50Z</time>
      </trkpt>
      <trkpt lat="46.80973167" lon="16.74736667">
        <ele>295.3</ele>
        <time>2025-07-16T19:01:51Z</time>
      </trkpt>
      <trkpt lat="46.80978" lon="16.747495">
        <ele>294</ele>
        <time>2025-07-16T19:01:52Z</time>
      </trkpt>
      <trkpt lat="46.80982667" lon="16.74762833">
        <ele>293.2</ele>
        <time>2025-07-16T19:01:53Z</time>
      </trkpt>
      <trkpt lat="46.80987833" lon="16.74775667">
        <ele>292.3</ele>
        <time>2025-07-16T19:01:54Z</time>
      </trkpt>
      <trkpt lat="46.80993" lon="16.74788833">
        <ele>291.6</ele>
        <time>2025-07-16T19:01:55Z</time>
      </trkpt>
      <trkpt lat="46.80999" lon="16.74802333">
        <ele>290.2</ele>
        <time>2025-07-16T19:01:56Z</time>
      </trkpt>
      <trkpt lat="46.810035" lon="16.74813833">
        <ele>288.9</ele>
        <time>2025-07-16T19:01:57Z</time>
      </trkpt>
      <trkpt lat="46.81012" lon="16.74836">
        <ele>287.2</ele>
        <time>2025-07-16T19:01:59Z</time>
      </trkpt>
      <trkpt lat="46.81019" lon="16.74852833">
        <ele>286.5</ele>
        <time>2025-07-16T19:02:01Z</time>
      </trkpt>
      <trkpt lat="46.81029333" lon="16.74865833">
        <ele>285.5</ele>
        <time>2025-07-16T19:02:03Z</time>
      </trkpt>
      <trkpt lat="46.81042167" lon="16.74869333">
        <ele>285.2</ele>
        <time>2025-07-16T19:02:05Z</time>
      </trkpt>
      <trkpt lat="46.81053333" lon="16.74865">
        <ele>285</ele>
        <time>2025-07-16T19:02:07Z</time>
      </trkpt>
      <trkpt lat="46.81064" lon="16.74854">
        <ele>286.2</ele>
        <time>2025-07-16T19:02:09Z</time>
      </trkpt>
      <trkpt lat="46.81068667" lon="16.74836667">
        <ele>285.9</ele>
        <time>2025-07-16T19:02:11Z</time>
      </trkpt>
      <trkpt lat="46.81067" lon="16.74812333">
        <ele>284.9</ele>
        <time>2025-07-16T19:02:13Z</time>
      </trkpt>
      <trkpt lat="46.81064167" lon="16.74798833">
        <ele>284.2</ele>
        <time>2025-07-16T19:02:14Z</time>
      </trkpt>
      <trkpt lat="46.810615" lon="16.747845">
        <ele>284.5</ele>
        <time>2025-07-16T19:02:15Z</time>
      </trkpt>
      <trkpt lat="46.81055833" lon="16.74761667">
        <ele>284.1</ele>
        <time>2025-07-16T19:02:17Z</time>
      </trkpt>
      <trkpt lat="46.81053167" lon="16.74741833">
        <ele>283.6</ele>
        <time>2025-07-16T19:02:19Z</time>
      </trkpt>
      <trkpt lat="46.81055" lon="16.74723833">
        <ele>281.6</ele>
        <time>2025-07-16T19:02:21Z</time>
      </trkpt>
      <trkpt lat="46.81063833" lon="16.74708167">
        <ele>280.1</ele>
        <time>2025-07-16T19:02:23Z</time>
      </trkpt>
      <trkpt lat="46.81078" lon="16.74697333">
        <ele>279.1</ele>
        <time>2025-07-16T19:02:25Z</time>
      </trkpt>
      <trkpt lat="46.81087" lon="16.74695333">
        <ele>278.9</ele>
        <time>2025-07-16T19:02:26Z</time>
      </trkpt>
      <trkpt lat="46.81097" lon="16.74693833">
        <ele>278.9</ele>
        <time>2025-07-16T19:02:27Z</time>
      </trkpt>
      <trkpt lat="46.81108167" lon="16.746935">
        <ele>279.1</ele>
        <time>2025-07-16T19:02:28Z</time>
      </trkpt>
      <trkpt lat="46.81119667" lon="16.74694333">
        <ele>279.5</ele>
        <time>2025-07-16T19:02:29Z</time>
      </trkpt>
      <trkpt lat="46.81131833" lon="16.74694333">
        <ele>279.6</ele>
        <time>2025-07-16T19:02:30Z</time>
      </trkpt>
      <trkpt lat="46.81144167" lon="16.74695">
        <ele>279.8</ele>
        <time>2025-07-16T19:02:31Z</time>
      </trkpt>
      <trkpt lat="46.81156333" lon="16.74696167">
        <ele>281.6</ele>
        <time>2025-07-16T19:02:32Z</time>
      </trkpt>
      <trkpt lat="46.81168" lon="16.74697333">
        <ele>282</ele>
        <time>2025-07-16T19:02:33Z</time>
      </trkpt>
      <trkpt lat="46.81180167" lon="16.74696833">
        <ele>281.9</ele>
        <time>2025-07-16T19:02:34Z</time>
      </trkpt>
      <trkpt lat="46.81192833" lon="16.74696167">
        <ele>281.1</ele>
        <time>2025-07-16T19:02:35Z</time>
      </trkpt>
      <trkpt lat="46.812065" lon="16.746945">
        <ele>278.1</ele>
        <time>2025-07-16T19:02:36Z</time>
      </trkpt>
      <trkpt lat="46.81220333" lon="16.74694333">
        <ele>273.1</ele>
        <time>2025-07-16T19:02:37Z</time>
      </trkpt>
      <trkpt lat="46.81235833" lon="16.74695167">
        <ele>272</ele>
        <time>2025-07-16T19:02:38Z</time>
      </trkpt>
      <trkpt lat="46.81252167" lon="16.74697">
        <ele>272.1</ele>
        <time>2025-07-16T19:02:39Z</time>
      </trkpt>
      <trkpt lat="46.81267833" lon="16.74699667">
        <ele>272.3</ele>
        <time>2025-07-16T19:02:40Z</time>
      </trkpt>
      <trkpt lat="46.81282667" lon="16.74702333">
        <ele>272.2</ele>
        <time>2025-07-16T19:02:41Z</time>
      </trkpt>
      <trkpt lat="46.81298" lon="16.74705667">
        <ele>271.9</ele>
        <time>2025-07-16T19:02:42Z</time>
      </trkpt>
      <trkpt lat="46.81312833" lon="16.74709">
        <ele>272.3</ele>
        <time>2025-07-16T19:02:43Z</time>
      </trkpt>
      <trkpt lat="46.81327167" lon="16.74712333">
        <ele>272.1</ele>
        <time>2025-07-16T19:02:44Z</time>
      </trkpt>
      <trkpt lat="46.81342833" lon="16.747155">
        <ele>272.8</ele>
        <time>2025-07-16T19:02:45Z</time>
      </trkpt>
      <trkpt lat="46.813585" lon="16.74718">
        <ele>272.8</ele>
        <time>2025-07-16T19:02:46Z</time>
      </trkpt>
      <trkpt lat="46.81374333" lon="16.74720333">
        <ele>271.9</ele>
        <time>2025-07-16T19:02:47Z</time>
      </trkpt>
      <trkpt lat="46.8139" lon="16.74723">
        <ele>270.9</ele>
        <time>2025-07-16T19:02:48Z</time>
      </trkpt>
      <trkpt lat="46.81406833" lon="16.747265">
        <ele>269</ele>
        <time>2025-07-16T19:02:49Z</time>
      </trkpt>
      <trkpt lat="46.81422333" lon="16.74731667">
        <ele>267.3</ele>
        <time>2025-07-16T19:02:50Z</time>
      </trkpt>
      <trkpt lat="46.814385" lon="16.74737">
        <ele>265.8</ele>
        <time>2025-07-16T19:02:51Z</time>
      </trkpt>
      <trkpt lat="46.81454" lon="16.74744333">
        <ele>263.6</ele>
        <time>2025-07-16T19:02:52Z</time>
      </trkpt>
      <trkpt lat="46.81469167" lon="16.74751">
        <ele>259.5</ele>
        <time>2025-07-16T19:02:53Z</time>
      </trkpt>
      <trkpt lat="46.81484333" lon="16.747575">
        <ele>258.7</ele>
        <time>2025-07-16T19:02:54Z</time>
      </trkpt>
      <trkpt lat="46.81499167" lon="16.74764">
        <ele>258.4</ele>
        <time>2025-07-16T19:02:55Z</time>
      </trkpt>
      <trkpt lat="46.81515" lon="16.747715">
        <ele>258.1</ele>
        <time>2025-07-16T19:02:56Z</time>
      </trkpt>
      <trkpt lat="46.815305" lon="16.74779167">
        <ele>257</ele>
        <time>2025-07-16T19:02:57Z</time>
      </trkpt>
      <trkpt lat="46.81545667" lon="16.74785833">
        <ele>255.9</ele>
        <time>2025-07-16T19:02:58Z</time>
      </trkpt>
      <trkpt lat="46.81561" lon="16.74793333">
        <ele>254.6</ele>
        <time>2025-07-16T19:02:59Z</time>
      </trkpt>
      <trkpt lat="46.81576333" lon="16.748005">
        <ele>253</ele>
        <time>2025-07-16T19:03:00Z</time>
      </trkpt>
      <trkpt lat="46.81591667" lon="16.74808167">
        <ele>251.8</ele>
        <time>2025-07-16T19:03:01Z</time>
      </trkpt>
      <trkpt lat="46.81607167" lon="16.748155">
        <ele>250.5</ele>
        <time>2025-07-16T19:03:02Z</time>
      </trkpt>
      <trkpt lat="46.81622667" lon="16.74823167">
        <ele>248.7</ele>
        <time>2025-07-16T19:03:03Z</time>
      </trkpt>
      <trkpt lat="46.81638667" lon="16.74831667">
        <ele>246.2</ele>
        <time>2025-07-16T19:03:04Z</time>
      </trkpt>
      <trkpt lat="46.816535" lon="16.74839667">
        <ele>244.5</ele>
        <time>2025-07-16T19:03:05Z</time>
      </trkpt>
      <trkpt lat="46.816695" lon="16.74848167">
        <ele>243.2</ele>
        <time>2025-07-16T19:03:06Z</time>
      </trkpt>
      <trkpt lat="46.81685833" lon="16.74857167">
        <ele>242.4</ele>
        <time>2025-07-16T19:03:07Z</time>
      </trkpt>
      <trkpt lat="46.817035" lon="16.74865">
        <ele>241.8</ele>
        <time>2025-07-16T19:03:08Z</time>
      </trkpt>
      <trkpt lat="46.81720667" lon="16.748735">
        <ele>241.1</ele>
        <time>2025-07-16T19:03:09Z</time>
      </trkpt>
      <trkpt lat="46.81737833" lon="16.74881333">
        <ele>240.6</ele>
        <time>2025-07-16T19:03:10Z</time>
      </trkpt>
      <trkpt lat="46.817545" lon="16.74889667">
        <ele>239.5</ele>
        <time>2025-07-16T19:03:11Z</time>
      </trkpt>
      <trkpt lat="46.81771" lon="16.74898167">
        <ele>238</ele>
        <time>2025-07-16T19:03:12Z</time>
      </trkpt>
      <trkpt lat="46.817865" lon="16.74907167">
        <ele>236.2</ele>
        <time>2025-07-16T19:03:13Z</time>
      </trkpt>
      <trkpt lat="46.81802333" lon="16.74915">
        <ele>234.5</ele>
        <time>2025-07-16T19:03:14Z</time>
      </trkpt>
      <trkpt lat="46.81818167" lon="16.74922333">
        <ele>232.1</ele>
        <time>2025-07-16T19:03:15Z</time>
      </trkpt>
      <trkpt lat="46.81833833" lon="16.74930667">
        <ele>230.7</ele>
        <time>2025-07-16T19:03:16Z</time>
      </trkpt>
      <trkpt lat="46.818515" lon="16.74939833">
        <ele>230.5</ele>
        <time>2025-07-16T19:03:17Z</time>
      </trkpt>
      <trkpt lat="46.81867833" lon="16.74949">
        <ele>229.8</ele>
        <time>2025-07-16T19:03:18Z</time>
      </trkpt>
      <trkpt lat="46.81884333" lon="16.74957333">
        <ele>227.9</ele>
        <time>2025-07-16T19:03:19Z</time>
      </trkpt>
      <trkpt lat="46.819" lon="16.74965667">
        <ele>228.2</ele>
        <time>2025-07-16T19:03:20Z</time>
      </trkpt>
      <trkpt lat="46.81916" lon="16.74973333">
        <ele>228.1</ele>
        <time>2025-07-16T19:03:21Z</time>
      </trkpt>
      <trkpt lat="46.8193" lon="16.74981833">
        <ele>227.6</ele>
        <time>2025-07-16T19:03:22Z</time>
      </trkpt>
      <trkpt lat="46.81943833" lon="16.74990833">
        <ele>227.4</ele>
        <time>2025-07-16T19:03:23Z</time>
      </trkpt>
      <trkpt lat="46.81956167" lon="16.75002">
        <ele>225</ele>
        <time>2025-07-16T19:03:24Z</time>
      </trkpt>
      <trkpt lat="46.81967667" lon="16.750125">
        <ele>223.7</ele>
        <time>2025-07-16T19:03:25Z</time>
      </trkpt>
      <trkpt lat="46.81979" lon="16.75024833">
        <ele>223.5</ele>
        <time>2025-07-16T19:03:26Z</time>
      </trkpt>
      <trkpt lat="46.8199" lon="16.75037333">
        <ele>222.5</ele>
        <time>2025-07-16T19:03:27Z</time>
      </trkpt>
      <trkpt lat="46.820005" lon="16.75050833">
        <ele>222.6</ele>
        <time>2025-07-16T19:03:28Z</time>
      </trkpt>
      <trkpt lat="46.820115" lon="16.75063833">
        <ele>221.9</ele>
        <time>2025-07-16T19:03:29Z</time>
      </trkpt>
      <trkpt lat="46.82022333" lon="16.75076167">
        <ele>221.3</ele>
        <time>2025-07-16T19:03:30Z</time>
      </trkpt>
      <trkpt lat="46.82032667" lon="16.75088667">
        <ele>220.7</ele>
        <time>2025-07-16T19:03:31Z</time>
      </trkpt>
      <trkpt lat="46.82044" lon="16.75100833">
        <ele>219.2</ele>
        <time>2025-07-16T19:03:32Z</time>
      </trkpt>
      <trkpt lat="46.82055833" lon="16.75113">
        <ele>219.2</ele>
        <time>2025-07-16T19:03:33Z</time>
      </trkpt>
      <trkpt lat="46.82068167" lon="16.75125167">
        <ele>221.1</ele>
        <time>2025-07-16T19:03:34Z</time>
      </trkpt>
      <trkpt lat="46.82081167" lon="16.751365">
        <ele>221.6</ele>
        <time>2025-07-16T19:03:35Z</time>
      </trkpt>
      <trkpt lat="46.82094667" lon="16.75148667">
        <ele>221.2</ele>
        <time>2025-07-16T19:03:36Z</time>
      </trkpt>
      <trkpt lat="46.82108833" lon="16.75160667">
        <ele>220.8</ele>
        <time>2025-07-16T19:03:37Z</time>
      </trkpt>
      <trkpt lat="46.82123667" lon="16.751715">
        <ele>220.1</ele>
        <time>2025-07-16T19:03:38Z</time>
      </trkpt>
      <trkpt lat="46.82139167" lon="16.75182833">
        <ele>219.9</ele>
        <time>2025-07-16T19:03:39Z</time>
      </trkpt>
      <trkpt lat="46.821555" lon="16.75193333">
        <ele>219.2</ele>
        <time>2025-07-16T19:03:40Z</time>
      </trkpt>
      <trkpt lat="46.82172" lon="16.75203167">
        <ele>218.9</ele>
        <time>2025-07-16T19:03:41Z</time>
      </trkpt>
      <trkpt lat="46.821885" lon="16.75212167">
        <ele>219.5</ele>
        <time>2025-07-16T19:03:42Z</time>
      </trkpt>
      <trkpt lat="46.822055" lon="16.75222">
        <ele>219.7</ele>
        <time>2025-07-16T19:03:43Z</time>
      </trkpt>
      <trkpt lat="46.82221833" lon="16.75232833">
        <ele>219.3</ele>
        <time>2025-07-16T19:03:44Z</time>
      </trkpt>
      <trkpt lat="46.822385" lon="16.75242667">
        <ele>218.9</ele>
        <time>2025-07-16T19:03:45Z</time>
      </trkpt>
      <trkpt lat="46.82255667" lon="16.752515">
        <ele>218.6</ele>
        <time>2025-07-16T19:03:46Z</time>
      </trkpt>
      <trkpt lat="46.82272333" lon="16.752595">
        <ele>216.3</ele>
        <time>2025-07-16T19:03:47Z</time>
      </trkpt>
      <trkpt lat="46.82289" lon="16.75269167">
        <ele>216.4</ele>
        <time>2025-07-16T19:03:48Z</time>
      </trkpt>
      <trkpt lat="46.823055" lon="16.75279">
        <ele>217</ele>
        <time>2025-07-16T19:03:49Z</time>
      </trkpt>
      <trkpt lat="46.823225" lon="16.75287833">
        <ele>216.6</ele>
        <time>2025-07-16T19:03:50Z</time>
      </trkpt>
      <trkpt lat="46.823385" lon="16.75296167">
        <ele>215.7</ele>
        <time>2025-07-16T19:03:51Z</time>
      </trkpt>
      <trkpt lat="46.82354" lon="16.75307333">
        <ele>215.6</ele>
        <time>2025-07-16T19:03:52Z</time>
      </trkpt>
      <trkpt lat="46.823705" lon="16.753175">
        <ele>215.5</ele>
        <time>2025-07-16T19:03:53Z</time>
      </trkpt>
      <trkpt lat="46.82386" lon="16.75327">
        <ele>216.4</ele>
        <time>2025-07-16T19:03:54Z</time>
      </trkpt>
      <trkpt lat="46.82401833" lon="16.75336667">
        <ele>216.8</ele>
        <time>2025-07-16T19:03:55Z</time>
      </trkpt>
      <trkpt lat="46.82416833" lon="16.753475">
        <ele>218</ele>
        <time>2025-07-16T19:03:56Z</time>
      </trkpt>
      <trkpt lat="46.82431667" lon="16.75358667">
        <ele>219.7</ele>
        <time>2025-07-16T19:03:57Z</time>
      </trkpt>
      <trkpt lat="46.82444833" lon="16.75372833">
        <ele>220.3</ele>
        <time>2025-07-16T19:03:58Z</time>
      </trkpt>
      <trkpt lat="46.82456667" lon="16.75389">
        <ele>219.4</ele>
        <time>2025-07-16T19:03:59Z</time>
      </trkpt>
      <trkpt lat="46.82467667" lon="16.75406667">
        <ele>217.8</ele>
        <time>2025-07-16T19:04:00Z</time>
      </trkpt>
      <trkpt lat="46.82475833" lon="16.75425833">
        <ele>215.3</ele>
        <time>2025-07-16T19:04:01Z</time>
      </trkpt>
      <trkpt lat="46.82483333" lon="16.75447833">
        <ele>213.7</ele>
        <time>2025-07-16T19:04:02Z</time>
      </trkpt>
      <trkpt lat="46.82490667" lon="16.75470333">
        <ele>213.6</ele>
        <time>2025-07-16T19:04:03Z</time>
      </trkpt>
      <trkpt lat="46.82496" lon="16.75493833">
        <ele>213.5</ele>
        <time>2025-07-16T19:04:04Z</time>
      </trkpt>
      <trkpt lat="46.82501167" lon="16.75518">
        <ele>213.5</ele>
        <time>2025-07-16T19:04:05Z</time>
      </trkpt>
      <trkpt lat="46.82507167" lon="16.75542">
        <ele>213.2</ele>
        <time>2025-07-16T19:04:06Z</time>
      </trkpt>
      <trkpt lat="46.82512667" lon="16.75565167">
        <ele>212.9</ele>
        <time>2025-07-16T19:04:07Z</time>
      </trkpt>
      <trkpt lat="46.825185" lon="16.75588333">
        <ele>212.4</ele>
        <time>2025-07-16T19:04:08Z</time>
      </trkpt>
      <trkpt lat="46.82524667" lon="16.75612">
        <ele>212.2</ele>
        <time>2025-07-16T19:04:09Z</time>
      </trkpt>
      <trkpt lat="46.82533167" lon="16.75636167">
        <ele>213.1</ele>
        <time>2025-07-16T19:04:10Z</time>
      </trkpt>
      <trkpt lat="46.82542167" lon="16.75658833">
        <ele>212.8</ele>
        <time>2025-07-16T19:04:11Z</time>
      </trkpt>
      <trkpt lat="46.82551333" lon="16.75678833">
        <ele>214.2</ele>
        <time>2025-07-16T19:04:12Z</time>
      </trkpt>
      <trkpt lat="46.825605" lon="16.75699333">
        <ele>214.4</ele>
        <time>2025-07-16T19:04:13Z</time>
      </trkpt>
      <trkpt lat="46.82570667" lon="16.75720167">
        <ele>214.4</ele>
        <time>2025-07-16T19:04:14Z</time>
      </trkpt>
      <trkpt lat="46.82581167" lon="16.75741167">
        <ele>212.2</ele>
        <time>2025-07-16T19:04:15Z</time>
      </trkpt>
      <trkpt lat="46.82592" lon="16.75763833">
        <ele>210.5</ele>
        <time>2025-07-16T19:04:16Z</time>
      </trkpt>
      <trkpt lat="46.82600667" lon="16.75783833">
        <ele>209.8</ele>
        <time>2025-07-16T19:04:17Z</time>
      </trkpt>
      <trkpt lat="46.8261" lon="16.75806">
        <ele>209.8</ele>
        <time>2025-07-16T19:04:18Z</time>
      </trkpt>
      <trkpt lat="46.82619833" lon="16.75828">
        <ele>210.1</ele>
        <time>2025-07-16T19:04:19Z</time>
      </trkpt>
      <trkpt lat="46.82629667" lon="16.75848333">
        <ele>209.9</ele>
        <time>2025-07-16T19:04:20Z</time>
      </trkpt>
      <trkpt lat="46.826415" lon="16.75870167">
        <ele>209.5</ele>
        <time>2025-07-16T19:04:21Z</time>
      </trkpt>
      <trkpt lat="46.82652167" lon="16.75892833">
        <ele>209.2</ele>
        <time>2025-07-16T19:04:22Z</time>
      </trkpt>
      <trkpt lat="46.82663333" lon="16.759135">
        <ele>209.2</ele>
        <time>2025-07-16T19:04:23Z</time>
      </trkpt>
      <trkpt lat="46.82673667" lon="16.759335">
        <ele>209.9</ele>
        <time>2025-07-16T19:04:24Z</time>
      </trkpt>
      <trkpt lat="46.82683833" lon="16.75954833">
        <ele>211.6</ele>
        <time>2025-07-16T19:04:25Z</time>
      </trkpt>
      <trkpt lat="46.82693833" lon="16.75975667">
        <ele>211.8</ele>
        <time>2025-07-16T19:04:26Z</time>
      </trkpt>
      <trkpt lat="46.82704" lon="16.75996667">
        <ele>211.7</ele>
        <time>2025-07-16T19:04:27Z</time>
      </trkpt>
      <trkpt lat="46.82713667" lon="16.76017333">
        <ele>211.3</ele>
        <time>2025-07-16T19:04:28Z</time>
      </trkpt>
      <trkpt lat="46.827235" lon="16.76037667">
        <ele>211</ele>
        <time>2025-07-16T19:04:29Z</time>
      </trkpt>
      <trkpt lat="46.82732833" lon="16.76057167">
        <ele>209.8</ele>
        <time>2025-07-16T19:04:30Z</time>
      </trkpt>
      <trkpt lat="46.82742333" lon="16.76076167">
        <ele>209.3</ele>
        <time>2025-07-16T19:04:31Z</time>
      </trkpt>
      <trkpt lat="46.82750833" lon="16.76093833">
        <ele>209.6</ele>
        <time>2025-07-16T19:04:32Z</time>
      </trkpt>
      <trkpt lat="46.82760167" lon="16.76111">
        <ele>211.4</ele>
        <time>2025-07-16T19:04:33Z</time>
      </trkpt>
      <trkpt lat="46.82768833" lon="16.761285">
        <ele>211.9</ele>
        <time>2025-07-16T19:04:34Z</time>
      </trkpt>
      <trkpt lat="46.82776" lon="16.76145833">
        <ele>212.5</ele>
        <time>2025-07-16T19:04:35Z</time>
      </trkpt>
      <trkpt lat="46.82784333" lon="16.761615">
        <ele>213.5</ele>
        <time>2025-07-16T19:04:36Z</time>
      </trkpt>
      <trkpt lat="46.82792333" lon="16.76176667">
        <ele>213.4</ele>
        <time>2025-07-16T19:04:37Z</time>
      </trkpt>
      <trkpt lat="46.82798833" lon="16.76191833">
        <ele>212.5</ele>
        <time>2025-07-16T19:04:38Z</time>
      </trkpt>
      <trkpt lat="46.82805333" lon="16.76205833">
        <ele>211.5</ele>
        <time>2025-07-16T19:04:39Z</time>
      </trkpt>
      <trkpt lat="46.82810833" lon="16.762185">
        <ele>210.3</ele>
        <time>2025-07-16T19:04:40Z</time>
      </trkpt>
      <trkpt lat="46.82817167" lon="16.76230167">
        <ele>209.9</ele>
        <time>2025-07-16T19:04:41Z</time>
      </trkpt>
      <trkpt lat="46.82824333" lon="16.76249667">
        <ele>209.9</ele>
        <time>2025-07-16T19:04:43Z</time>
      </trkpt>
      <trkpt lat="46.82828833" lon="16.76264">
        <ele>209.2</ele>
        <time>2025-07-16T19:04:45Z</time>
      </trkpt>
      <trkpt lat="46.82834" lon="16.762765">
        <ele>210.6</ele>
        <time>2025-07-16T19:04:48Z</time>
      </trkpt>
      <trkpt lat="46.82841167" lon="16.762885">
        <ele>210.9</ele>
        <time>2025-07-16T19:05:14Z</time>
      </trkpt>
      <trkpt lat="46.8285" lon="16.76303667">
        <ele>210.2</ele>
        <time>2025-07-16T19:05:17Z</time>
      </trkpt>
      <trkpt lat="46.828585" lon="16.763195">
        <ele>209.7</ele>
        <time>2025-07-16T19:05:19Z</time>
      </trkpt>
      <trkpt lat="46.82867667" lon="16.76337">
        <ele>209.1</ele>
        <time>2025-07-16T19:05:21Z</time>
      </trkpt>
      <trkpt lat="46.82879667" lon="16.76355167">
        <ele>207.6</ele>
        <time>2025-07-16T19:05:23Z</time>
      </trkpt>
      <trkpt lat="46.82887167" lon="16.76365333">
        <ele>206.9</ele>
        <time>2025-07-16T19:05:24Z</time>
      </trkpt>
      <trkpt lat="46.828955" lon="16.76376">
        <ele>207.4</ele>
        <time>2025-07-16T19:05:25Z</time>
      </trkpt>
      <trkpt lat="46.82904" lon="16.76386">
        <ele>208.1</ele>
        <time>2025-07-16T19:05:26Z</time>
      </trkpt>
      <trkpt lat="46.82913333" lon="16.76395833">
        <ele>208.9</ele>
        <time>2025-07-16T19:05:27Z</time>
      </trkpt>
      <trkpt lat="46.82922833" lon="16.76405">
        <ele>209</ele>
        <time>2025-07-16T19:05:28Z</time>
      </trkpt>
      <trkpt lat="46.82932" lon="16.764135">
        <ele>209.2</ele>
        <time>2025-07-16T19:05:29Z</time>
      </trkpt>
      <trkpt lat="46.82942833" lon="16.76421333">
        <ele>208.1</ele>
        <time>2025-07-16T19:05:30Z</time>
      </trkpt>
      <trkpt lat="46.82953667" lon="16.76429">
        <ele>207.5</ele>
        <time>2025-07-16T19:05:31Z</time>
      </trkpt>
      <trkpt lat="46.82965" lon="16.76435833">
        <ele>207.3</ele>
        <time>2025-07-16T19:05:32Z</time>
      </trkpt>
      <trkpt lat="46.82976833" lon="16.76442333">
        <ele>206.4</ele>
        <time>2025-07-16T19:05:33Z</time>
      </trkpt>
      <trkpt lat="46.82988667" lon="16.76448333">
        <ele>206.6</ele>
        <time>2025-07-16T19:05:34Z</time>
      </trkpt>
      <trkpt lat="46.83001333" lon="16.76454833">
        <ele>206.3</ele>
        <time>2025-07-16T19:05:35Z</time>
      </trkpt>
      <trkpt lat="46.830145" lon="16.76462333">
        <ele>207.4</ele>
        <time>2025-07-16T19:05:36Z</time>
      </trkpt>
      <trkpt lat="46.83028667" lon="16.76468">
        <ele>207.4</ele>
        <time>2025-07-16T19:05:37Z</time>
      </trkpt>
      <trkpt lat="46.83043" lon="16.76473167">
        <ele>208</ele>
        <time>2025-07-16T19:05:38Z</time>
      </trkpt>
      <trkpt lat="46.830585" lon="16.76476833">
        <ele>207.8</ele>
        <time>2025-07-16T19:05:39Z</time>
      </trkpt>
      <trkpt lat="46.830745" lon="16.76481167">
        <ele>206.8</ele>
        <time>2025-07-16T19:05:40Z</time>
      </trkpt>
      <trkpt lat="46.83090167" lon="16.76485667">
        <ele>206.9</ele>
        <time>2025-07-16T19:05:41Z</time>
      </trkpt>
      <trkpt lat="46.83106167" lon="16.76490667">
        <ele>208.5</ele>
        <time>2025-07-16T19:05:42Z</time>
      </trkpt>
      <trkpt lat="46.83121333" lon="16.76494333">
        <ele>208.4</ele>
        <time>2025-07-16T19:05:43Z</time>
      </trkpt>
      <trkpt lat="46.83136833" lon="16.76496667">
        <ele>208.4</ele>
        <time>2025-07-16T19:05:44Z</time>
      </trkpt>
      <trkpt lat="46.83152333" lon="16.76496833">
        <ele>208.4</ele>
        <time>2025-07-16T19:05:45Z</time>
      </trkpt>
      <trkpt lat="46.83169333" lon="16.76499">
        <ele>208.4</ele>
        <time>2025-07-16T19:05:46Z</time>
      </trkpt>
      <trkpt lat="46.83186667" lon="16.765">
        <ele>209.4</ele>
        <time>2025-07-16T19:05:47Z</time>
      </trkpt>
      <trkpt lat="46.83203667" lon="16.76500167">
        <ele>209.7</ele>
        <time>2025-07-16T19:05:48Z</time>
      </trkpt>
      <trkpt lat="46.83220167" lon="16.765">
        <ele>209.5</ele>
        <time>2025-07-16T19:05:49Z</time>
      </trkpt>
      <trkpt lat="46.832365" lon="16.76500333">
        <ele>209.5</ele>
        <time>2025-07-16T19:05:50Z</time>
      </trkpt>
      <trkpt lat="46.83251833" lon="16.765015">
        <ele>208.9</ele>
        <time>2025-07-16T19:05:51Z</time>
      </trkpt>
      <trkpt lat="46.83267667" lon="16.76501167">
        <ele>209</ele>
        <time>2025-07-16T19:05:52Z</time>
      </trkpt>
      <trkpt lat="46.83283833" lon="16.765005">
        <ele>210.1</ele>
        <time>2025-07-16T19:05:53Z</time>
      </trkpt>
      <trkpt lat="46.83299" lon="16.76499667">
        <ele>210.5</ele>
        <time>2025-07-16T19:05:54Z</time>
      </trkpt>
      <trkpt lat="46.83313667" lon="16.76498833">
        <ele>210.5</ele>
        <time>2025-07-16T19:05:55Z</time>
      </trkpt>
      <trkpt lat="46.833275" lon="16.76500167">
        <ele>209.8</ele>
        <time>2025-07-16T19:05:56Z</time>
      </trkpt>
      <trkpt lat="46.833415" lon="16.765025">
        <ele>211.2</ele>
        <time>2025-07-16T19:05:57Z</time>
      </trkpt>
      <trkpt lat="46.83355167" lon="16.765065">
        <ele>211.4</ele>
        <time>2025-07-16T19:05:58Z</time>
      </trkpt>
      <trkpt lat="46.83368" lon="16.76513">
        <ele>210.9</ele>
        <time>2025-07-16T19:05:59Z</time>
      </trkpt>
      <trkpt lat="46.83379667" lon="16.76522833">
        <ele>211.1</ele>
        <time>2025-07-16T19:06:00Z</time>
      </trkpt>
      <trkpt lat="46.83391" lon="16.76534167">
        <ele>211</ele>
        <time>2025-07-16T19:06:01Z</time>
      </trkpt>
      <trkpt lat="46.83402667" lon="16.76548167">
        <ele>209.5</ele>
        <time>2025-07-16T19:06:02Z</time>
      </trkpt>
      <trkpt lat="46.83415167" lon="16.76561833">
        <ele>209.5</ele>
        <time>2025-07-16T19:06:03Z</time>
      </trkpt>
      <trkpt lat="46.83428167" lon="16.76574">
        <ele>207.6</ele>
        <time>2025-07-16T19:06:04Z</time>
      </trkpt>
      <trkpt lat="46.834405" lon="16.76585167">
        <ele>205.3</ele>
        <time>2025-07-16T19:06:05Z</time>
      </trkpt>
      <trkpt lat="46.83454" lon="16.76595">
        <ele>205.4</ele>
        <time>2025-07-16T19:06:06Z</time>
      </trkpt>
      <trkpt lat="46.83468667" lon="16.766035">
        <ele>206.7</ele>
        <time>2025-07-16T19:06:07Z</time>
      </trkpt>
      <trkpt lat="46.83484" lon="16.76611">
        <ele>207.3</ele>
        <time>2025-07-16T19:06:08Z</time>
      </trkpt>
      <trkpt lat="46.835005" lon="16.76617833">
        <ele>208.7</ele>
        <time>2025-07-16T19:06:09Z</time>
      </trkpt>
      <trkpt lat="46.83516833" lon="16.76621667">
        <ele>208.3</ele>
        <time>2025-07-16T19:06:10Z</time>
      </trkpt>
      <trkpt lat="46.835325" lon="16.76624667">
        <ele>208.6</ele>
        <time>2025-07-16T19:06:11Z</time>
      </trkpt>
      <trkpt lat="46.8355" lon="16.76629">
        <ele>207.9</ele>
        <time>2025-07-16T19:06:12Z</time>
      </trkpt>
      <trkpt lat="46.83568167" lon="16.76632167">
        <ele>207.9</ele>
        <time>2025-07-16T19:06:13Z</time>
      </trkpt>
      <trkpt lat="46.83585667" lon="16.76636">
        <ele>210.3</ele>
        <time>2025-07-16T19:06:14Z</time>
      </trkpt>
      <trkpt lat="46.83603333" lon="16.766395">
        <ele>209.6</ele>
        <time>2025-07-16T19:06:15Z</time>
      </trkpt>
      <trkpt lat="46.83620167" lon="16.76642167">
        <ele>210.1</ele>
        <time>2025-07-16T19:06:16Z</time>
      </trkpt>
      <trkpt lat="46.836375" lon="16.76644833">
        <ele>210.2</ele>
        <time>2025-07-16T19:06:17Z</time>
      </trkpt>
      <trkpt lat="46.83655" lon="16.76647">
        <ele>211.1</ele>
        <time>2025-07-16T19:06:18Z</time>
      </trkpt>
      <trkpt lat="46.836715" lon="16.76649167">
        <ele>210.8</ele>
        <time>2025-07-16T19:06:19Z</time>
      </trkpt>
      <trkpt lat="46.83688333" lon="16.76652">
        <ele>211.2</ele>
        <time>2025-07-16T19:06:20Z</time>
      </trkpt>
      <trkpt lat="46.83704667" lon="16.766545">
        <ele>210.6</ele>
        <time>2025-07-16T19:06:21Z</time>
      </trkpt>
      <trkpt lat="46.83721333" lon="16.766585">
        <ele>210.3</ele>
        <time>2025-07-16T19:06:22Z</time>
      </trkpt>
      <trkpt lat="46.837375" lon="16.766625">
        <ele>211</ele>
        <time>2025-07-16T19:06:23Z</time>
      </trkpt>
      <trkpt lat="46.83755" lon="16.76667333">
        <ele>211.7</ele>
        <time>2025-07-16T19:06:24Z</time>
      </trkpt>
      <trkpt lat="46.837715" lon="16.76675">
        <ele>212.1</ele>
        <time>2025-07-16T19:06:25Z</time>
      </trkpt>
      <trkpt lat="46.83787167" lon="16.766855">
        <ele>213.7</ele>
        <time>2025-07-16T19:06:26Z</time>
      </trkpt>
      <trkpt lat="46.838025" lon="16.76696">
        <ele>213.1</ele>
        <time>2025-07-16T19:06:27Z</time>
      </trkpt>
      <trkpt lat="46.83816333" lon="16.76709333">
        <ele>211.4</ele>
        <time>2025-07-16T19:06:28Z</time>
      </trkpt>
      <trkpt lat="46.83829667" lon="16.76722167">
        <ele>211.7</ele>
        <time>2025-07-16T19:06:29Z</time>
      </trkpt>
      <trkpt lat="46.83842833" lon="16.76734833">
        <ele>211</ele>
        <time>2025-07-16T19:06:30Z</time>
      </trkpt>
      <trkpt lat="46.838575" lon="16.767455">
        <ele>210</ele>
        <time>2025-07-16T19:06:31Z</time>
      </trkpt>
      <trkpt lat="46.83872333" lon="16.76755833">
        <ele>212.2</ele>
        <time>2025-07-16T19:06:32Z</time>
      </trkpt>
      <trkpt lat="46.83888167" lon="16.76764333">
        <ele>212.2</ele>
        <time>2025-07-16T19:06:33Z</time>
      </trkpt>
      <trkpt lat="46.83904333" lon="16.7677">
        <ele>212</ele>
        <time>2025-07-16T19:06:34Z</time>
      </trkpt>
      <trkpt lat="46.83921167" lon="16.76774667">
        <ele>212.2</ele>
        <time>2025-07-16T19:06:35Z</time>
      </trkpt>
      <trkpt lat="46.83938333" lon="16.76778333">
        <ele>211.9</ele>
        <time>2025-07-16T19:06:36Z</time>
      </trkpt>
      <trkpt lat="46.83955833" lon="16.76781">
        <ele>210.8</ele>
        <time>2025-07-16T19:06:37Z</time>
      </trkpt>
      <trkpt lat="46.83973333" lon="16.767845">
        <ele>210.8</ele>
        <time>2025-07-16T19:06:38Z</time>
      </trkpt>
      <trkpt lat="46.83990167" lon="16.76788">
        <ele>210.1</ele>
        <time>2025-07-16T19:06:39Z</time>
      </trkpt>
      <trkpt lat="46.84007" lon="16.76790333">
        <ele>208.7</ele>
        <time>2025-07-16T19:06:40Z</time>
      </trkpt>
      <trkpt lat="46.84023167" lon="16.76793333">
        <ele>206.2</ele>
        <time>2025-07-16T19:06:41Z</time>
      </trkpt>
      <trkpt lat="46.84039333" lon="16.76797">
        <ele>205.2</ele>
        <time>2025-07-16T19:06:42Z</time>
      </trkpt>
      <trkpt lat="46.84056833" lon="16.76801">
        <ele>206.7</ele>
        <time>2025-07-16T19:06:43Z</time>
      </trkpt>
      <trkpt lat="46.84073667" lon="16.76806333">
        <ele>205.9</ele>
        <time>2025-07-16T19:06:44Z</time>
      </trkpt>
      <trkpt lat="46.84090833" lon="16.76810167">
        <ele>205.7</ele>
        <time>2025-07-16T19:06:45Z</time>
      </trkpt>
      <trkpt lat="46.84107667" lon="16.768135">
        <ele>205.8</ele>
        <time>2025-07-16T19:06:46Z</time>
      </trkpt>
      <trkpt lat="46.841235" lon="16.768175">
        <ele>204.9</ele>
        <time>2025-07-16T19:06:47Z</time>
      </trkpt>
      <trkpt lat="46.84140667" lon="16.76822333">
        <ele>204.4</ele>
        <time>2025-07-16T19:06:48Z</time>
      </trkpt>
      <trkpt lat="46.84157667" lon="16.76827167">
        <ele>203.7</ele>
        <time>2025-07-16T19:06:49Z</time>
      </trkpt>
      <trkpt lat="46.84173833" lon="16.76832167">
        <ele>204.2</ele>
        <time>2025-07-16T19:06:50Z</time>
      </trkpt>
      <trkpt lat="46.84189833" lon="16.76837">
        <ele>205.9</ele>
        <time>2025-07-16T19:06:51Z</time>
      </trkpt>
      <trkpt lat="46.84204167" lon="16.76843167">
        <ele>204.6</ele>
        <time>2025-07-16T19:06:52Z</time>
      </trkpt>
      <trkpt lat="46.84218" lon="16.768495">
        <ele>204.6</ele>
        <time>2025-07-16T19:06:53Z</time>
      </trkpt>
      <trkpt lat="46.84231833" lon="16.76856167">
        <ele>204.7</ele>
        <time>2025-07-16T19:06:54Z</time>
      </trkpt>
      <trkpt lat="46.84245833" lon="16.76863333">
        <ele>205.4</ele>
        <time>2025-07-16T19:06:55Z</time>
      </trkpt>
      <trkpt lat="46.84259667" lon="16.76870667">
        <ele>204.6</ele>
        <time>2025-07-16T19:06:56Z</time>
      </trkpt>
      <trkpt lat="46.84274167" lon="16.76876833">
        <ele>205.1</ele>
        <time>2025-07-16T19:06:57Z</time>
      </trkpt>
      <trkpt lat="46.84288667" lon="16.768855">
        <ele>205.4</ele>
        <time>2025-07-16T19:06:58Z</time>
      </trkpt>
      <trkpt lat="46.84302833" lon="16.76893167">
        <ele>206.3</ele>
        <time>2025-07-16T19:06:59Z</time>
      </trkpt>
      <trkpt lat="46.84317167" lon="16.76901667">
        <ele>206.9</ele>
        <time>2025-07-16T19:07:00Z</time>
      </trkpt>
      <trkpt lat="46.84329833" lon="16.76910667">
        <ele>207.5</ele>
        <time>2025-07-16T19:07:01Z</time>
      </trkpt>
      <trkpt lat="46.84342167" lon="16.769185">
        <ele>207.4</ele>
        <time>2025-07-16T19:07:02Z</time>
      </trkpt>
      <trkpt lat="46.84355" lon="16.769265">
        <ele>207</ele>
        <time>2025-07-16T19:07:03Z</time>
      </trkpt>
      <trkpt lat="46.84368" lon="16.76935">
        <ele>206.6</ele>
        <time>2025-07-16T19:07:04Z</time>
      </trkpt>
      <trkpt lat="46.84381667" lon="16.76943667">
        <ele>206.3</ele>
        <time>2025-07-16T19:07:05Z</time>
      </trkpt>
      <trkpt lat="46.84395" lon="16.76951">
        <ele>206.1</ele>
        <time>2025-07-16T19:07:06Z</time>
      </trkpt>
      <trkpt lat="46.84408667" lon="16.76959333">
        <ele>206.2</ele>
        <time>2025-07-16T19:07:07Z</time>
      </trkpt>
      <trkpt lat="46.84422" lon="16.76967">
        <ele>205.7</ele>
        <time>2025-07-16T19:07:08Z</time>
      </trkpt>
      <trkpt lat="46.844345" lon="16.76975667">
        <ele>205.3</ele>
        <time>2025-07-16T19:07:09Z</time>
      </trkpt>
      <trkpt lat="46.84447167" lon="16.769835">
        <ele>205</ele>
        <time>2025-07-16T19:07:10Z</time>
      </trkpt>
      <trkpt lat="46.84459833" lon="16.76991167">
        <ele>204.9</ele>
        <time>2025-07-16T19:07:11Z</time>
      </trkpt>
      <trkpt lat="46.84472" lon="16.76998333">
        <ele>203.8</ele>
        <time>2025-07-16T19:07:12Z</time>
      </trkpt>
      <trkpt lat="46.84485167" lon="16.77007333">
        <ele>204</ele>
        <time>2025-07-16T19:07:13Z</time>
      </trkpt>
      <trkpt lat="46.84498167" lon="16.770155">
        <ele>205.8</ele>
        <time>2025-07-16T19:07:14Z</time>
      </trkpt>
      <trkpt lat="46.84511333" lon="16.77023333">
        <ele>206.6</ele>
        <time>2025-07-16T19:07:15Z</time>
      </trkpt>
      <trkpt lat="46.84523833" lon="16.77030667">
        <ele>207.2</ele>
        <time>2025-07-16T19:07:16Z</time>
      </trkpt>
      <trkpt lat="46.845355" lon="16.77038833">
        <ele>206.7</ele>
        <time>2025-07-16T19:07:17Z</time>
      </trkpt>
      <trkpt lat="46.84547" lon="16.77047667">
        <ele>205.8</ele>
        <time>2025-07-16T19:07:18Z</time>
      </trkpt>
      <trkpt lat="46.84558833" lon="16.77057167">
        <ele>205.9</ele>
        <time>2025-07-16T19:07:19Z</time>
      </trkpt>
      <trkpt lat="46.84571333" lon="16.77066333">
        <ele>204.8</ele>
        <time>2025-07-16T19:07:20Z</time>
      </trkpt>
      <trkpt lat="46.84582833" lon="16.77076667">
        <ele>204.9</ele>
        <time>2025-07-16T19:07:21Z</time>
      </trkpt>
      <trkpt lat="46.845945" lon="16.77088333">
        <ele>206.3</ele>
        <time>2025-07-16T19:07:22Z</time>
      </trkpt>
      <trkpt lat="46.846065" lon="16.771005">
        <ele>206.4</ele>
        <time>2025-07-16T19:07:23Z</time>
      </trkpt>
      <trkpt lat="46.84617333" lon="16.771125">
        <ele>205.4</ele>
        <time>2025-07-16T19:07:24Z</time>
      </trkpt>
      <trkpt lat="46.84627833" lon="16.77125333">
        <ele>205.5</ele>
        <time>2025-07-16T19:07:25Z</time>
      </trkpt>
      <trkpt lat="46.84638667" lon="16.77138">
        <ele>205.6</ele>
        <time>2025-07-16T19:07:26Z</time>
      </trkpt>
      <trkpt lat="46.84649" lon="16.771495">
        <ele>205.3</ele>
        <time>2025-07-16T19:07:27Z</time>
      </trkpt>
      <trkpt lat="46.84659333" lon="16.77162333">
        <ele>206.3</ele>
        <time>2025-07-16T19:07:28Z</time>
      </trkpt>
      <trkpt lat="46.84669667" lon="16.77176333">
        <ele>206.4</ele>
        <time>2025-07-16T19:07:29Z</time>
      </trkpt>
      <trkpt lat="46.846795" lon="16.77191333">
        <ele>206.5</ele>
        <time>2025-07-16T19:07:30Z</time>
      </trkpt>
      <trkpt lat="46.846895" lon="16.77205667">
        <ele>206.5</ele>
        <time>2025-07-16T19:07:31Z</time>
      </trkpt>
      <trkpt lat="46.846985" lon="16.77220167">
        <ele>206</ele>
        <time>2025-07-16T19:07:32Z</time>
      </trkpt>
      <trkpt lat="46.847085" lon="16.77234333">
        <ele>205.8</ele>
        <time>2025-07-16T19:07:33Z</time>
      </trkpt>
      <trkpt lat="46.84718667" lon="16.77249667">
        <ele>205.5</ele>
        <time>2025-07-16T19:07:34Z</time>
      </trkpt>
      <trkpt lat="46.84728333" lon="16.77264333">
        <ele>204.7</ele>
        <time>2025-07-16T19:07:35Z</time>
      </trkpt>
      <trkpt lat="46.84737833" lon="16.77279333">
        <ele>204.9</ele>
        <time>2025-07-16T19:07:36Z</time>
      </trkpt>
      <trkpt lat="46.84747833" lon="16.77294833">
        <ele>207.2</ele>
        <time>2025-07-16T19:07:37Z</time>
      </trkpt>
      <trkpt lat="46.84758333" lon="16.77309167">
        <ele>207.2</ele>
        <time>2025-07-16T19:07:38Z</time>
      </trkpt>
      <trkpt lat="46.84767667" lon="16.77323167">
        <ele>206.8</ele>
        <time>2025-07-16T19:07:39Z</time>
      </trkpt>
      <trkpt lat="46.84777333" lon="16.77338167">
        <ele>206.6</ele>
        <time>2025-07-16T19:07:40Z</time>
      </trkpt>
      <trkpt lat="46.84787" lon="16.77352833">
        <ele>206</ele>
        <time>2025-07-16T19:07:41Z</time>
      </trkpt>
      <trkpt lat="46.84797167" lon="16.773675">
        <ele>205.4</ele>
        <time>2025-07-16T19:07:42Z</time>
      </trkpt>
      <trkpt lat="46.84807" lon="16.77381667">
        <ele>205.2</ele>
        <time>2025-07-16T19:07:43Z</time>
      </trkpt>
      <trkpt lat="46.84817" lon="16.77395333">
        <ele>205.2</ele>
        <time>2025-07-16T19:07:44Z</time>
      </trkpt>
      <trkpt lat="46.84827667" lon="16.77409167">
        <ele>205.1</ele>
        <time>2025-07-16T19:07:45Z</time>
      </trkpt>
      <trkpt lat="46.84838" lon="16.77422833">
        <ele>205.2</ele>
        <time>2025-07-16T19:07:46Z</time>
      </trkpt>
      <trkpt lat="46.84848333" lon="16.77434833">
        <ele>204.9</ele>
        <time>2025-07-16T19:07:47Z</time>
      </trkpt>
      <trkpt lat="46.84859333" lon="16.774455">
        <ele>204</ele>
        <time>2025-07-16T19:07:48Z</time>
      </trkpt>
      <trkpt lat="46.84871167" lon="16.774545">
        <ele>203.8</ele>
        <time>2025-07-16T19:07:49Z</time>
      </trkpt>
      <trkpt lat="46.84883833" lon="16.77463167">
        <ele>204.6</ele>
        <time>2025-07-16T19:07:50Z</time>
      </trkpt>
      <trkpt lat="46.848955" lon="16.7747">
        <ele>204.6</ele>
        <time>2025-07-16T19:07:51Z</time>
      </trkpt>
      <trkpt lat="46.84907833" lon="16.77476333">
        <ele>204.6</ele>
        <time>2025-07-16T19:07:52Z</time>
      </trkpt>
      <trkpt lat="46.849195" lon="16.77482333">
        <ele>204.7</ele>
        <time>2025-07-16T19:07:53Z</time>
      </trkpt>
      <trkpt lat="46.84930333" lon="16.77487833">
        <ele>204.3</ele>
        <time>2025-07-16T19:07:54Z</time>
      </trkpt>
      <trkpt lat="46.8494" lon="16.77493167">
        <ele>204.6</ele>
        <time>2025-07-16T19:07:55Z</time>
      </trkpt>
      <trkpt lat="46.84949" lon="16.77498">
        <ele>204.8</ele>
        <time>2025-07-16T19:07:56Z</time>
      </trkpt>
      <trkpt lat="46.84957667" lon="16.775025">
        <ele>204.9</ele>
        <time>2025-07-16T19:07:57Z</time>
      </trkpt>
      <trkpt lat="46.84966667" lon="16.77506833">
        <ele>204.7</ele>
        <time>2025-07-16T19:07:58Z</time>
      </trkpt>
      <trkpt lat="46.84981667" lon="16.77514">
        <ele>205.1</ele>
        <time>2025-07-16T19:08:00Z</time>
      </trkpt>
      <trkpt lat="46.84993833" lon="16.77519667">
        <ele>206.3</ele>
        <time>2025-07-16T19:08:02Z</time>
      </trkpt>
      <trkpt lat="46.85004333" lon="16.77524167">
        <ele>206.7</ele>
        <time>2025-07-16T19:08:04Z</time>
      </trkpt>
      <trkpt lat="46.85013833" lon="16.77527">
        <ele>208.3</ele>
        <time>2025-07-16T19:08:06Z</time>
      </trkpt>
      <trkpt lat="46.85023167" lon="16.7752">
        <ele>206</ele>
        <time>2025-07-16T19:08:10Z</time>
      </trkpt>
      <trkpt lat="46.85024" lon="16.775015">
        <ele>205.8</ele>
        <time>2025-07-16T19:08:13Z</time>
      </trkpt>
      <trkpt lat="46.85023833" lon="16.77483167">
        <ele>204.9</ele>
        <time>2025-07-16T19:08:15Z</time>
      </trkpt>
      <trkpt lat="46.85023333" lon="16.77463333">
        <ele>203.6</ele>
        <time>2025-07-16T19:08:17Z</time>
      </trkpt>
      <trkpt lat="46.85023333" lon="16.774405">
        <ele>202.7</ele>
        <time>2025-07-16T19:08:19Z</time>
      </trkpt>
      <trkpt lat="46.85023" lon="16.77427">
        <ele>202.6</ele>
        <time>2025-07-16T19:08:20Z</time>
      </trkpt>
      <trkpt lat="46.85022667" lon="16.77413667">
        <ele>202.3</ele>
        <time>2025-07-16T19:08:21Z</time>
      </trkpt>
      <trkpt lat="46.85022833" lon="16.77399333">
        <ele>203.3</ele>
        <time>2025-07-16T19:08:22Z</time>
      </trkpt>
      <trkpt lat="46.85023" lon="16.77384833">
        <ele>203.3</ele>
        <time>2025-07-16T19:08:23Z</time>
      </trkpt>
      <trkpt lat="46.85022667" lon="16.77370333">
        <ele>203.9</ele>
        <time>2025-07-16T19:08:24Z</time>
      </trkpt>
      <trkpt lat="46.85022667" lon="16.773565">
        <ele>204.4</ele>
        <time>2025-07-16T19:08:25Z</time>
      </trkpt>
      <trkpt lat="46.85022" lon="16.77342333">
        <ele>203.9</ele>
        <time>2025-07-16T19:08:26Z</time>
      </trkpt>
      <trkpt lat="46.85022" lon="16.77327833">
        <ele>203.8</ele>
        <time>2025-07-16T19:08:27Z</time>
      </trkpt>
      <trkpt lat="46.85021833" lon="16.77312333">
        <ele>204.2</ele>
        <time>2025-07-16T19:08:28Z</time>
      </trkpt>
      <trkpt lat="46.85021667" lon="16.772975">
        <ele>205.5</ele>
        <time>2025-07-16T19:08:29Z</time>
      </trkpt>
      <trkpt lat="46.850215" lon="16.77281667">
        <ele>205.7</ele>
        <time>2025-07-16T19:08:30Z</time>
      </trkpt>
      <trkpt lat="46.85022167" lon="16.77265167">
        <ele>206.4</ele>
        <time>2025-07-16T19:08:31Z</time>
      </trkpt>
      <trkpt lat="46.85023167" lon="16.7725">
        <ele>206.8</ele>
        <time>2025-07-16T19:08:32Z</time>
      </trkpt>
      <trkpt lat="46.85025167" lon="16.77233667">
        <ele>208.1</ele>
        <time>2025-07-16T19:08:33Z</time>
      </trkpt>
      <trkpt lat="46.85026333" lon="16.77218167">
        <ele>209.6</ele>
        <time>2025-07-16T19:08:34Z</time>
      </trkpt>
      <trkpt lat="46.85028167" lon="16.772025">
        <ele>210.1</ele>
        <time>2025-07-16T19:08:35Z</time>
      </trkpt>
      <trkpt lat="46.85030167" lon="16.771865">
        <ele>210.5</ele>
        <time>2025-07-16T19:08:36Z</time>
      </trkpt>
      <trkpt lat="46.85031833" lon="16.77171333">
        <ele>210.9</ele>
        <time>2025-07-16T19:08:37Z</time>
      </trkpt>
      <trkpt lat="46.85033833" lon="16.77156333">
        <ele>211.8</ele>
        <time>2025-07-16T19:08:38Z</time>
      </trkpt>
      <trkpt lat="46.85035167" lon="16.77141333">
        <ele>212</ele>
        <time>2025-07-16T19:08:39Z</time>
      </trkpt>
      <trkpt lat="46.850365" lon="16.77126167">
        <ele>211.6</ele>
        <time>2025-07-16T19:08:40Z</time>
      </trkpt>
      <trkpt lat="46.85038667" lon="16.77110833">
        <ele>212.3</ele>
        <time>2025-07-16T19:08:41Z</time>
      </trkpt>
      <trkpt lat="46.850405" lon="16.77095833">
        <ele>212.4</ele>
        <time>2025-07-16T19:08:42Z</time>
      </trkpt>
      <trkpt lat="46.85041" lon="16.77078667">
        <ele>213.3</ele>
        <time>2025-07-16T19:08:43Z</time>
      </trkpt>
      <trkpt lat="46.85041167" lon="16.77061667">
        <ele>214.3</ele>
        <time>2025-07-16T19:08:44Z</time>
      </trkpt>
      <trkpt lat="46.85042167" lon="16.77047833">
        <ele>214</ele>
        <time>2025-07-16T19:08:45Z</time>
      </trkpt>
      <trkpt lat="46.85043833" lon="16.77026">
        <ele>213.1</ele>
        <time>2025-07-16T19:08:47Z</time>
      </trkpt>
      <trkpt lat="46.85043833" lon="16.77012333">
        <ele>212.9</ele>
        <time>2025-07-16T19:08:48Z</time>
      </trkpt>
      <trkpt lat="46.85043167" lon="16.769985">
        <ele>213</ele>
        <time>2025-07-16T19:08:49Z</time>
      </trkpt>
      <trkpt lat="46.85042833" lon="16.76984333">
        <ele>212.9</ele>
        <time>2025-07-16T19:08:50Z</time>
      </trkpt>
      <trkpt lat="46.85042833" lon="16.76969833">
        <ele>213.5</ele>
        <time>2025-07-16T19:08:51Z</time>
      </trkpt>
      <trkpt lat="46.85043" lon="16.769555">
        <ele>213.6</ele>
        <time>2025-07-16T19:08:52Z</time>
      </trkpt>
      <trkpt lat="46.85042667" lon="16.769415">
        <ele>214.6</ele>
        <time>2025-07-16T19:08:53Z</time>
      </trkpt>
      <trkpt lat="46.85042167" lon="16.76927167">
        <ele>215.4</ele>
        <time>2025-07-16T19:08:54Z</time>
      </trkpt>
      <trkpt lat="46.85041833" lon="16.769135">
        <ele>217.1</ele>
        <time>2025-07-16T19:08:55Z</time>
      </trkpt>
      <trkpt lat="46.850415" lon="16.76900333">
        <ele>218.8</ele>
        <time>2025-07-16T19:08:56Z</time>
      </trkpt>
      <trkpt lat="46.85040167" lon="16.76878">
        <ele>222.1</ele>
        <time>2025-07-16T19:08:58Z</time>
      </trkpt>
      <trkpt lat="46.850355" lon="16.76854167">
        <ele>224.1</ele>
        <time>2025-07-16T19:09:00Z</time>
      </trkpt>
      <trkpt lat="46.85026833" lon="16.76833667">
        <ele>225.5</ele>
        <time>2025-07-16T19:09:02Z</time>
      </trkpt>
      <trkpt lat="46.85017167" lon="16.76816833">
        <ele>228.4</ele>
        <time>2025-07-16T19:09:04Z</time>
      </trkpt>
      <trkpt lat="46.85006333" lon="16.76809167">
        <ele>229.6</ele>
        <time>2025-07-16T19:09:06Z</time>
      </trkpt>
      <trkpt lat="46.84994667" lon="16.76804833">
        <ele>229.9</ele>
        <time>2025-07-16T19:09:08Z</time>
      </trkpt>
      <trkpt lat="46.84980333" lon="16.76801667">
        <ele>232.3</ele>
        <time>2025-07-16T19:09:10Z</time>
      </trkpt>
      <trkpt lat="46.849655" lon="16.76802667">
        <ele>234.9</ele>
        <time>2025-07-16T19:09:12Z</time>
      </trkpt>
      <trkpt lat="46.84952333" lon="16.76808833">
        <ele>236.8</ele>
        <time>2025-07-16T19:09:14Z</time>
      </trkpt>
      <trkpt lat="46.849395" lon="16.76815667">
        <ele>238.3</ele>
        <time>2025-07-16T19:09:16Z</time>
      </trkpt>
      <trkpt lat="46.84927" lon="16.768205">
        <ele>239.6</ele>
        <time>2025-07-16T19:09:18Z</time>
      </trkpt>
      <trkpt lat="46.84912833" lon="16.76820333">
        <ele>241.1</ele>
        <time>2025-07-16T19:09:20Z</time>
      </trkpt>
      <trkpt lat="46.84896333" lon="16.76816667">
        <ele>243.3</ele>
        <time>2025-07-16T19:09:22Z</time>
      </trkpt>
      <trkpt lat="46.84883" lon="16.76807">
        <ele>245.3</ele>
        <time>2025-07-16T19:09:24Z</time>
      </trkpt>
      <trkpt lat="46.84871" lon="16.76790333">
        <ele>246.8</ele>
        <time>2025-07-16T19:09:26Z</time>
      </trkpt>
      <trkpt lat="46.84861833" lon="16.767675">
        <ele>246.4</ele>
        <time>2025-07-16T19:09:28Z</time>
      </trkpt>
      <trkpt lat="46.84862333" lon="16.76739667">
        <ele>247.2</ele>
        <time>2025-07-16T19:09:30Z</time>
      </trkpt>
      <trkpt lat="46.84864833" lon="16.76725167">
        <ele>247</ele>
        <time>2025-07-16T19:09:31Z</time>
      </trkpt>
      <trkpt lat="46.84868" lon="16.76710167">
        <ele>246.5</ele>
        <time>2025-07-16T19:09:32Z</time>
      </trkpt>
      <trkpt lat="46.84871833" lon="16.76694333">
        <ele>245.9</ele>
        <time>2025-07-16T19:09:33Z</time>
      </trkpt>
      <trkpt lat="46.84876" lon="16.76677333">
        <ele>245.4</ele>
        <time>2025-07-16T19:09:34Z</time>
      </trkpt>
      <trkpt lat="46.84879333" lon="16.76662333">
        <ele>245.5</ele>
        <time>2025-07-16T19:09:35Z</time>
      </trkpt>
      <trkpt lat="46.84884833" lon="16.76649">
        <ele>244.9</ele>
        <time>2025-07-16T19:09:36Z</time>
      </trkpt>
      <trkpt lat="46.84887833" lon="16.76634667">
        <ele>245.6</ele>
        <time>2025-07-16T19:09:37Z</time>
      </trkpt>
      <trkpt lat="46.848945" lon="16.766115">
        <ele>245.2</ele>
        <time>2025-07-16T19:09:39Z</time>
      </trkpt>
      <trkpt lat="46.84896667" lon="16.76598167">
        <ele>245.6</ele>
        <time>2025-07-16T19:09:40Z</time>
      </trkpt>
      <trkpt lat="46.84899167" lon="16.76585">
        <ele>246</ele>
        <time>2025-07-16T19:09:41Z</time>
      </trkpt>
      <trkpt lat="46.84901833" lon="16.76571167">
        <ele>246</ele>
        <time>2025-07-16T19:09:42Z</time>
      </trkpt>
      <trkpt lat="46.84904833" lon="16.76557">
        <ele>245.7</ele>
        <time>2025-07-16T19:09:43Z</time>
      </trkpt>
      <trkpt lat="46.84908833" lon="16.76543">
        <ele>245.8</ele>
        <time>2025-07-16T19:09:44Z</time>
      </trkpt>
      <trkpt lat="46.84914" lon="16.765305">
        <ele>243</ele>
        <time>2025-07-16T19:09:45Z</time>
      </trkpt>
      <trkpt lat="46.84918333" lon="16.765175">
        <ele>241.5</ele>
        <time>2025-07-16T19:09:46Z</time>
      </trkpt>
      <trkpt lat="46.84921333" lon="16.76503833">
        <ele>240.6</ele>
        <time>2025-07-16T19:09:47Z</time>
      </trkpt>
      <trkpt lat="46.84924167" lon="16.76480833">
        <ele>242.9</ele>
        <time>2025-07-16T19:09:49Z</time>
      </trkpt>
      <trkpt lat="46.849255" lon="16.76460833">
        <ele>243.2</ele>
        <time>2025-07-16T19:09:51Z</time>
      </trkpt>
      <trkpt lat="46.84924833" lon="16.76436667">
        <ele>243.9</ele>
        <time>2025-07-16T19:09:53Z</time>
      </trkpt>
      <trkpt lat="46.84923833" lon="16.76421667">
        <ele>245.3</ele>
        <time>2025-07-16T19:09:54Z</time>
      </trkpt>
      <trkpt lat="46.84922333" lon="16.76407667">
        <ele>245.5</ele>
        <time>2025-07-16T19:09:55Z</time>
      </trkpt>
      <trkpt lat="46.84921" lon="16.76394333">
        <ele>246.8</ele>
        <time>2025-07-16T19:09:56Z</time>
      </trkpt>
      <trkpt lat="46.8492" lon="16.76380833">
        <ele>248.1</ele>
        <time>2025-07-16T19:09:57Z</time>
      </trkpt>
      <trkpt lat="46.84918667" lon="16.76365667">
        <ele>249.4</ele>
        <time>2025-07-16T19:09:58Z</time>
      </trkpt>
      <trkpt lat="46.84916833" lon="16.7635">
        <ele>251</ele>
        <time>2025-07-16T19:09:59Z</time>
      </trkpt>
      <trkpt lat="46.84914" lon="16.76333833">
        <ele>252.3</ele>
        <time>2025-07-16T19:10:00Z</time>
      </trkpt>
      <trkpt lat="46.84910167" lon="16.76318">
        <ele>253.2</ele>
        <time>2025-07-16T19:10:01Z</time>
      </trkpt>
      <trkpt lat="46.84906667" lon="16.76301667">
        <ele>254</ele>
        <time>2025-07-16T19:10:02Z</time>
      </trkpt>
      <trkpt lat="46.84902" lon="16.76284167">
        <ele>254.7</ele>
        <time>2025-07-16T19:10:03Z</time>
      </trkpt>
      <trkpt lat="46.84898333" lon="16.76268333">
        <ele>255.3</ele>
        <time>2025-07-16T19:10:04Z</time>
      </trkpt>
      <trkpt lat="46.84894833" lon="16.76253667">
        <ele>255.6</ele>
        <time>2025-07-16T19:10:05Z</time>
      </trkpt>
      <trkpt lat="46.84891167" lon="16.7624">
        <ele>255.9</ele>
        <time>2025-07-16T19:10:06Z</time>
      </trkpt>
      <trkpt lat="46.84887333" lon="16.762265">
        <ele>255.5</ele>
        <time>2025-07-16T19:10:07Z</time>
      </trkpt>
      <trkpt lat="46.84882333" lon="16.76212167">
        <ele>254.7</ele>
        <time>2025-07-16T19:10:08Z</time>
      </trkpt>
      <trkpt lat="46.84877167" lon="16.76196">
        <ele>254.6</ele>
        <time>2025-07-16T19:10:09Z</time>
      </trkpt>
      <trkpt lat="46.848705" lon="16.76180333">
        <ele>252.8</ele>
        <time>2025-07-16T19:10:10Z</time>
      </trkpt>
      <trkpt lat="46.84863" lon="16.76163333">
        <ele>252.6</ele>
        <time>2025-07-16T19:10:11Z</time>
      </trkpt>
      <trkpt lat="46.84854667" lon="16.76146833">
        <ele>251</ele>
        <time>2025-07-16T19:10:12Z</time>
      </trkpt>
      <trkpt lat="46.84847333" lon="16.76131">
        <ele>251.4</ele>
        <time>2025-07-16T19:10:13Z</time>
      </trkpt>
      <trkpt lat="46.84839667" lon="16.76115333">
        <ele>252.9</ele>
        <time>2025-07-16T19:10:14Z</time>
      </trkpt>
      <trkpt lat="46.84832667" lon="16.76100833">
        <ele>253.3</ele>
        <time>2025-07-16T19:10:15Z</time>
      </trkpt>
      <trkpt lat="46.848255" lon="16.760865">
        <ele>254.2</ele>
        <time>2025-07-16T19:10:16Z</time>
      </trkpt>
      <trkpt lat="46.84818167" lon="16.76072333">
        <ele>253.7</ele>
        <time>2025-07-16T19:10:17Z</time>
      </trkpt>
      <trkpt lat="46.84811" lon="16.76059167">
        <ele>252.8</ele>
        <time>2025-07-16T19:10:18Z</time>
      </trkpt>
      <trkpt lat="46.848035" lon="16.76044667">
        <ele>252.7</ele>
        <time>2025-07-16T19:10:19Z</time>
      </trkpt>
      <trkpt lat="46.84796833" lon="16.760295">
        <ele>251.9</ele>
        <time>2025-07-16T19:10:20Z</time>
      </trkpt>
      <trkpt lat="46.84789833" lon="16.76014333">
        <ele>252.3</ele>
        <time>2025-07-16T19:10:21Z</time>
      </trkpt>
      <trkpt lat="46.84784667" lon="16.759985">
        <ele>253.7</ele>
        <time>2025-07-16T19:10:22Z</time>
      </trkpt>
      <trkpt lat="46.84780167" lon="16.75981167">
        <ele>253.9</ele>
        <time>2025-07-16T19:10:23Z</time>
      </trkpt>
      <trkpt lat="46.84776333" lon="16.759645">
        <ele>254.7</ele>
        <time>2025-07-16T19:10:24Z</time>
      </trkpt>
      <trkpt lat="46.84773833" lon="16.75945833">
        <ele>255.4</ele>
        <time>2025-07-16T19:10:25Z</time>
      </trkpt>
      <trkpt lat="46.84771" lon="16.75927">
        <ele>256.1</ele>
        <time>2025-07-16T19:10:26Z</time>
      </trkpt>
      <trkpt lat="46.84768667" lon="16.75908333">
        <ele>256.3</ele>
        <time>2025-07-16T19:10:27Z</time>
      </trkpt>
      <trkpt lat="46.847665" lon="16.75889667">
        <ele>255.7</ele>
        <time>2025-07-16T19:10:28Z</time>
      </trkpt>
      <trkpt lat="46.84763833" lon="16.75871167">
        <ele>255.3</ele>
        <time>2025-07-16T19:10:29Z</time>
      </trkpt>
      <trkpt lat="46.84762" lon="16.75852833">
        <ele>253.9</ele>
        <time>2025-07-16T19:10:30Z</time>
      </trkpt>
      <trkpt lat="46.84759167" lon="16.758335">
        <ele>252.1</ele>
        <time>2025-07-16T19:10:31Z</time>
      </trkpt>
      <trkpt lat="46.847565" lon="16.75813833">
        <ele>250.5</ele>
        <time>2025-07-16T19:10:32Z</time>
      </trkpt>
      <trkpt lat="46.84753667" lon="16.75793833">
        <ele>249.4</ele>
        <time>2025-07-16T19:10:33Z</time>
      </trkpt>
      <trkpt lat="46.84751667" lon="16.75776833">
        <ele>249.5</ele>
        <time>2025-07-16T19:10:34Z</time>
      </trkpt>
      <trkpt lat="46.847485" lon="16.75758833">
        <ele>248.9</ele>
        <time>2025-07-16T19:10:35Z</time>
      </trkpt>
      <trkpt lat="46.84744833" lon="16.75739333">
        <ele>248.7</ele>
        <time>2025-07-16T19:10:36Z</time>
      </trkpt>
      <trkpt lat="46.847405" lon="16.75721167">
        <ele>248</ele>
        <time>2025-07-16T19:10:37Z</time>
      </trkpt>
      <trkpt lat="46.84736667" lon="16.75703833">
        <ele>247.2</ele>
        <time>2025-07-16T19:10:38Z</time>
      </trkpt>
      <trkpt lat="46.84732667" lon="16.75687167">
        <ele>246</ele>
        <time>2025-07-16T19:10:39Z</time>
      </trkpt>
      <trkpt lat="46.84728833" lon="16.75670833">
        <ele>244.5</ele>
        <time>2025-07-16T19:10:40Z</time>
      </trkpt>
      <trkpt lat="46.84725667" lon="16.756545">
        <ele>242.8</ele>
        <time>2025-07-16T19:10:41Z</time>
      </trkpt>
      <trkpt lat="46.84722" lon="16.75638333">
        <ele>240.2</ele>
        <time>2025-07-16T19:10:42Z</time>
      </trkpt>
      <trkpt lat="46.84719167" lon="16.756215">
        <ele>238.7</ele>
        <time>2025-07-16T19:10:43Z</time>
      </trkpt>
      <trkpt lat="46.84715667" lon="16.756045">
        <ele>238.8</ele>
        <time>2025-07-16T19:10:44Z</time>
      </trkpt>
      <trkpt lat="46.84712" lon="16.75587667">
        <ele>238.7</ele>
        <time>2025-07-16T19:10:45Z</time>
      </trkpt>
      <trkpt lat="46.84708333" lon="16.755715">
        <ele>238.5</ele>
        <time>2025-07-16T19:10:46Z</time>
      </trkpt>
      <trkpt lat="46.84705333" lon="16.75554833">
        <ele>238.1</ele>
        <time>2025-07-16T19:10:47Z</time>
      </trkpt>
      <trkpt lat="46.84701833" lon="16.75540167">
        <ele>237.4</ele>
        <time>2025-07-16T19:10:48Z</time>
      </trkpt>
      <trkpt lat="46.846985" lon="16.755245">
        <ele>236</ele>
        <time>2025-07-16T19:10:49Z</time>
      </trkpt>
      <trkpt lat="46.846935" lon="16.75511167">
        <ele>235.6</ele>
        <time>2025-07-16T19:10:50Z</time>
      </trkpt>
      <trkpt lat="46.846875" lon="16.75498167">
        <ele>234.4</ele>
        <time>2025-07-16T19:10:51Z</time>
      </trkpt>
      <trkpt lat="46.84681167" lon="16.754855">
        <ele>233.5</ele>
        <time>2025-07-16T19:10:52Z</time>
      </trkpt>
      <trkpt lat="46.84675167" lon="16.75473167">
        <ele>232.3</ele>
        <time>2025-07-16T19:10:53Z</time>
      </trkpt>
      <trkpt lat="46.84667667" lon="16.75450333">
        <ele>230.7</ele>
        <time>2025-07-16T19:10:55Z</time>
      </trkpt>
      <trkpt lat="46.84662833" lon="16.75429">
        <ele>230.3</ele>
        <time>2025-07-16T19:10:57Z</time>
      </trkpt>
      <trkpt lat="46.84660167" lon="16.75410167">
        <ele>230.5</ele>
        <time>2025-07-16T19:10:59Z</time>
      </trkpt>
      <trkpt lat="46.846565" lon="16.75391667">
        <ele>231.4</ele>
        <time>2025-07-16T19:11:01Z</time>
      </trkpt>
      <trkpt lat="46.846555" lon="16.75376833">
        <ele>231.5</ele>
        <time>2025-07-16T19:11:03Z</time>
      </trkpt>
      <trkpt lat="46.846565" lon="16.75359">
        <ele>228.8</ele>
        <time>2025-07-16T19:11:06Z</time>
      </trkpt>
      <trkpt lat="46.84656333" lon="16.75341833">
        <ele>228.4</ele>
        <time>2025-07-16T19:11:09Z</time>
      </trkpt>
      <trkpt lat="46.84649833" lon="16.75332167">
        <ele>229.4</ele>
        <time>2025-07-16T19:11:14Z</time>
      </trkpt>
      <trkpt lat="46.84650167" lon="16.75349833">
        <ele>229.8</ele>
        <time>2025-07-16T19:11:38Z</time>
      </trkpt>
      <trkpt lat="46.846505" lon="16.75377333">
        <ele>229.7</ele>
        <time>2025-07-16T19:11:42Z</time>
      </trkpt>
      <trkpt lat="46.84653333" lon="16.75395167">
        <ele>229.8</ele>
        <time>2025-07-16T19:11:44Z</time>
      </trkpt>
      <trkpt lat="46.846565" lon="16.75414667">
        <ele>229.8</ele>
        <time>2025-07-16T19:11:46Z</time>
      </trkpt>
      <trkpt lat="46.84661833" lon="16.75436167">
        <ele>230.1</ele>
        <time>2025-07-16T19:11:48Z</time>
      </trkpt>
      <trkpt lat="46.84667833" lon="16.75457667">
        <ele>229.5</ele>
        <time>2025-07-16T19:11:50Z</time>
      </trkpt>
      <trkpt lat="46.84677" lon="16.75481667">
        <ele>232.4</ele>
        <time>2025-07-16T19:11:52Z</time>
      </trkpt>
      <trkpt lat="46.84683333" lon="16.75493167">
        <ele>232.9</ele>
        <time>2025-07-16T19:11:53Z</time>
      </trkpt>
      <trkpt lat="46.84689833" lon="16.75506833">
        <ele>234.5</ele>
        <time>2025-07-16T19:11:54Z</time>
      </trkpt>
      <trkpt lat="46.846945" lon="16.75520667">
        <ele>236.3</ele>
        <time>2025-07-16T19:11:55Z</time>
      </trkpt>
      <trkpt lat="46.84698333" lon="16.75535667">
        <ele>237.1</ele>
        <time>2025-07-16T19:11:56Z</time>
      </trkpt>
      <trkpt lat="46.84701667" lon="16.755515">
        <ele>237.7</ele>
        <time>2025-07-16T19:11:57Z</time>
      </trkpt>
      <trkpt lat="46.84704667" lon="16.75568667">
        <ele>238.5</ele>
        <time>2025-07-16T19:11:58Z</time>
      </trkpt>
      <trkpt lat="46.84708333" lon="16.75586833">
        <ele>239.5</ele>
        <time>2025-07-16T19:11:59Z</time>
      </trkpt>
      <trkpt lat="46.84711667" lon="16.75605">
        <ele>240.3</ele>
        <time>2025-07-16T19:12:00Z</time>
      </trkpt>
      <trkpt lat="46.84715333" lon="16.75622833">
        <ele>241.3</ele>
        <time>2025-07-16T19:12:01Z</time>
      </trkpt>
      <trkpt lat="46.84718667" lon="16.75640167">
        <ele>242</ele>
        <time>2025-07-16T19:12:02Z</time>
      </trkpt>
      <trkpt lat="46.84721667" lon="16.75658167">
        <ele>242.3</ele>
        <time>2025-07-16T19:12:03Z</time>
      </trkpt>
      <trkpt lat="46.84725" lon="16.75674333">
        <ele>242.4</ele>
        <time>2025-07-16T19:12:04Z</time>
      </trkpt>
      <trkpt lat="46.84728333" lon="16.756915">
        <ele>242.9</ele>
        <time>2025-07-16T19:12:05Z</time>
      </trkpt>
      <trkpt lat="46.847315" lon="16.75707667">
        <ele>243.4</ele>
        <time>2025-07-16T19:12:06Z</time>
      </trkpt>
      <trkpt lat="46.847345" lon="16.757255">
        <ele>243.1</ele>
        <time>2025-07-16T19:12:07Z</time>
      </trkpt>
      <trkpt lat="46.84738333" lon="16.75743167">
        <ele>242.4</ele>
        <time>2025-07-16T19:12:08Z</time>
      </trkpt>
      <trkpt lat="46.847425" lon="16.757625">
        <ele>242.5</ele>
        <time>2025-07-16T19:12:09Z</time>
      </trkpt>
      <trkpt lat="46.84746" lon="16.757825">
        <ele>242.8</ele>
        <time>2025-07-16T19:12:10Z</time>
      </trkpt>
      <trkpt lat="46.8475" lon="16.75804167">
        <ele>244</ele>
        <time>2025-07-16T19:12:11Z</time>
      </trkpt>
      <trkpt lat="46.84753333" lon="16.75825333">
        <ele>244.2</ele>
        <time>2025-07-16T19:12:12Z</time>
      </trkpt>
      <trkpt lat="46.84756667" lon="16.75847667">
        <ele>246.5</ele>
        <time>2025-07-16T19:12:13Z</time>
      </trkpt>
      <trkpt lat="46.84759" lon="16.75867">
        <ele>246.6</ele>
        <time>2025-07-16T19:12:14Z</time>
      </trkpt>
      <trkpt lat="46.84760833" lon="16.75885833">
        <ele>247.2</ele>
        <time>2025-07-16T19:12:15Z</time>
      </trkpt>
      <trkpt lat="46.84762667" lon="16.75904">
        <ele>247.6</ele>
        <time>2025-07-16T19:12:16Z</time>
      </trkpt>
      <trkpt lat="46.84766167" lon="16.75923">
        <ele>247.5</ele>
        <time>2025-07-16T19:12:17Z</time>
      </trkpt>
      <trkpt lat="46.84770333" lon="16.75941667">
        <ele>248.1</ele>
        <time>2025-07-16T19:12:18Z</time>
      </trkpt>
      <trkpt lat="46.84773167" lon="16.759605">
        <ele>248.5</ele>
        <time>2025-07-16T19:12:19Z</time>
      </trkpt>
      <trkpt lat="46.84777" lon="16.75979167">
        <ele>250.1</ele>
        <time>2025-07-16T19:12:20Z</time>
      </trkpt>
      <trkpt lat="46.84782167" lon="16.75998333">
        <ele>251.2</ele>
        <time>2025-07-16T19:12:21Z</time>
      </trkpt>
      <trkpt lat="46.84788" lon="16.76015">
        <ele>252.2</ele>
        <time>2025-07-16T19:12:22Z</time>
      </trkpt>
      <trkpt lat="46.84795" lon="16.76031333">
        <ele>252.5</ele>
        <time>2025-07-16T19:12:23Z</time>
      </trkpt>
      <trkpt lat="46.84803167" lon="16.76047">
        <ele>253</ele>
        <time>2025-07-16T19:12:24Z</time>
      </trkpt>
      <trkpt lat="46.84811" lon="16.76062">
        <ele>253.1</ele>
        <time>2025-07-16T19:12:25Z</time>
      </trkpt>
      <trkpt lat="46.84819" lon="16.76076167">
        <ele>253.3</ele>
        <time>2025-07-16T19:12:26Z</time>
      </trkpt>
      <trkpt lat="46.848265" lon="16.76089">
        <ele>254.1</ele>
        <time>2025-07-16T19:12:27Z</time>
      </trkpt>
      <trkpt lat="46.84834667" lon="16.76103833">
        <ele>254.9</ele>
        <time>2025-07-16T19:12:28Z</time>
      </trkpt>
      <trkpt lat="46.84842" lon="16.76118167">
        <ele>254.7</ele>
        <time>2025-07-16T19:12:29Z</time>
      </trkpt>
      <trkpt lat="46.84849667" lon="16.76132167">
        <ele>255.3</ele>
        <time>2025-07-16T19:12:30Z</time>
      </trkpt>
      <trkpt lat="46.84857167" lon="16.76146333">
        <ele>256</ele>
        <time>2025-07-16T19:12:31Z</time>
      </trkpt>
      <trkpt lat="46.848655" lon="16.76160333">
        <ele>257</ele>
        <time>2025-07-16T19:12:32Z</time>
      </trkpt>
      <trkpt lat="46.84873" lon="16.76174167">
        <ele>257.9</ele>
        <time>2025-07-16T19:12:33Z</time>
      </trkpt>
      <trkpt lat="46.848805" lon="16.761885">
        <ele>256.5</ele>
        <time>2025-07-16T19:12:34Z</time>
      </trkpt>
      <trkpt lat="46.848865" lon="16.762035">
        <ele>256.5</ele>
        <time>2025-07-16T19:12:35Z</time>
      </trkpt>
      <trkpt lat="46.848905" lon="16.76218167">
        <ele>256.5</ele>
        <time>2025-07-16T19:12:36Z</time>
      </trkpt>
      <trkpt lat="46.84894333" lon="16.76234">
        <ele>257.6</ele>
        <time>2025-07-16T19:12:37Z</time>
      </trkpt>
      <trkpt lat="46.848975" lon="16.76249167">
        <ele>258.2</ele>
        <time>2025-07-16T19:12:38Z</time>
      </trkpt>
      <trkpt lat="46.84900333" lon="16.76264833">
        <ele>258.4</ele>
        <time>2025-07-16T19:12:39Z</time>
      </trkpt>
      <trkpt lat="46.84902833" lon="16.76279833">
        <ele>258.5</ele>
        <time>2025-07-16T19:12:40Z</time>
      </trkpt>
      <trkpt lat="46.84905" lon="16.76295167">
        <ele>258.3</ele>
        <time>2025-07-16T19:12:41Z</time>
      </trkpt>
      <trkpt lat="46.849065" lon="16.763095">
        <ele>258</ele>
        <time>2025-07-16T19:12:42Z</time>
      </trkpt>
      <trkpt lat="46.84908667" lon="16.76325">
        <ele>257.9</ele>
        <time>2025-07-16T19:12:43Z</time>
      </trkpt>
      <trkpt lat="46.84911333" lon="16.76340833">
        <ele>257.3</ele>
        <time>2025-07-16T19:12:44Z</time>
      </trkpt>
      <trkpt lat="46.84914" lon="16.76356833">
        <ele>257.5</ele>
        <time>2025-07-16T19:12:45Z</time>
      </trkpt>
      <trkpt lat="46.84916" lon="16.76372833">
        <ele>257.5</ele>
        <time>2025-07-16T19:12:46Z</time>
      </trkpt>
      <trkpt lat="46.84918333" lon="16.763895">
        <ele>257.4</ele>
        <time>2025-07-16T19:12:47Z</time>
      </trkpt>
      <trkpt lat="46.8492" lon="16.76405833">
        <ele>257.5</ele>
        <time>2025-07-16T19:12:48Z</time>
      </trkpt>
      <trkpt lat="46.84921667" lon="16.76422333">
        <ele>257.6</ele>
        <time>2025-07-16T19:12:49Z</time>
      </trkpt>
      <trkpt lat="46.849225" lon="16.76439667">
        <ele>257.6</ele>
        <time>2025-07-16T19:12:50Z</time>
      </trkpt>
      <trkpt lat="46.84922333" lon="16.76454833">
        <ele>257.8</ele>
        <time>2025-07-16T19:12:51Z</time>
      </trkpt>
      <trkpt lat="46.84921" lon="16.76469833">
        <ele>258.3</ele>
        <time>2025-07-16T19:12:52Z</time>
      </trkpt>
      <trkpt lat="46.849165" lon="16.76494667">
        <ele>259</ele>
        <time>2025-07-16T19:12:54Z</time>
      </trkpt>
      <trkpt lat="46.84913333" lon="16.76507833">
        <ele>259.1</ele>
        <time>2025-07-16T19:12:55Z</time>
      </trkpt>
      <trkpt lat="46.84910167" lon="16.765205">
        <ele>259.1</ele>
        <time>2025-07-16T19:12:56Z</time>
      </trkpt>
      <trkpt lat="46.84907333" lon="16.76533833">
        <ele>259</ele>
        <time>2025-07-16T19:12:57Z</time>
      </trkpt>
      <trkpt lat="46.84904333" lon="16.76546667">
        <ele>259.4</ele>
        <time>2025-07-16T19:12:58Z</time>
      </trkpt>
      <trkpt lat="46.84901" lon="16.765595">
        <ele>258</ele>
        <time>2025-07-16T19:12:59Z</time>
      </trkpt>
      <trkpt lat="46.84897" lon="16.76573333">
        <ele>257.4</ele>
        <time>2025-07-16T19:13:00Z</time>
      </trkpt>
      <trkpt lat="46.84893833" lon="16.76586167">
        <ele>256.4</ele>
        <time>2025-07-16T19:13:01Z</time>
      </trkpt>
      <trkpt lat="46.84889833" lon="16.766">
        <ele>255.8</ele>
        <time>2025-07-16T19:13:02Z</time>
      </trkpt>
      <trkpt lat="46.848855" lon="16.76614667">
        <ele>255.4</ele>
        <time>2025-07-16T19:13:03Z</time>
      </trkpt>
      <trkpt lat="46.84881333" lon="16.76629167">
        <ele>254.6</ele>
        <time>2025-07-16T19:13:04Z</time>
      </trkpt>
      <trkpt lat="46.84876333" lon="16.76644">
        <ele>254.3</ele>
        <time>2025-07-16T19:13:05Z</time>
      </trkpt>
      <trkpt lat="46.84872333" lon="16.766595">
        <ele>253.6</ele>
        <time>2025-07-16T19:13:06Z</time>
      </trkpt>
      <trkpt lat="46.84868667" lon="16.76674167">
        <ele>253.1</ele>
        <time>2025-07-16T19:13:07Z</time>
      </trkpt>
      <trkpt lat="46.84865167" lon="16.76687833">
        <ele>252</ele>
        <time>2025-07-16T19:13:08Z</time>
      </trkpt>
      <trkpt lat="46.84862333" lon="16.76700833">
        <ele>251</ele>
        <time>2025-07-16T19:13:09Z</time>
      </trkpt>
      <trkpt lat="46.84856333" lon="16.76724167">
        <ele>250.2</ele>
        <time>2025-07-16T19:13:11Z</time>
      </trkpt>
      <trkpt lat="46.84853" lon="16.767475">
        <ele>249.5</ele>
        <time>2025-07-16T19:13:13Z</time>
      </trkpt>
      <trkpt lat="46.84854" lon="16.76768833">
        <ele>248.8</ele>
        <time>2025-07-16T19:13:15Z</time>
      </trkpt>
      <trkpt lat="46.84858167" lon="16.76786667">
        <ele>248.1</ele>
        <time>2025-07-16T19:13:17Z</time>
      </trkpt>
      <trkpt lat="46.84864333" lon="16.76800167">
        <ele>247.2</ele>
        <time>2025-07-16T19:13:19Z</time>
      </trkpt>
      <trkpt lat="46.848735" lon="16.76812167">
        <ele>246.2</ele>
        <time>2025-07-16T19:13:21Z</time>
      </trkpt>
      <trkpt lat="46.84885333" lon="16.76820167">
        <ele>244.3</ele>
        <time>2025-07-16T19:13:23Z</time>
      </trkpt>
      <trkpt lat="46.84900167" lon="16.76820833">
        <ele>241.7</ele>
        <time>2025-07-16T19:13:25Z</time>
      </trkpt>
      <trkpt lat="46.84913833" lon="16.7682">
        <ele>239.3</ele>
        <time>2025-07-16T19:13:27Z</time>
      </trkpt>
      <trkpt lat="46.84925333" lon="16.768145">
        <ele>237.3</ele>
        <time>2025-07-16T19:13:29Z</time>
      </trkpt>
      <trkpt lat="46.84936167" lon="16.76806833">
        <ele>234.7</ele>
        <time>2025-07-16T19:13:31Z</time>
      </trkpt>
      <trkpt lat="46.84948833" lon="16.76799333">
        <ele>231.2</ele>
        <time>2025-07-16T19:13:33Z</time>
      </trkpt>
      <trkpt lat="46.84963333" lon="16.76796667">
        <ele>227.7</ele>
        <time>2025-07-16T19:13:35Z</time>
      </trkpt>
      <trkpt lat="46.849765" lon="16.76800167">
        <ele>223.3</ele>
        <time>2025-07-16T19:13:37Z</time>
      </trkpt>
      <trkpt lat="46.84987167" lon="16.76808667">
        <ele>217.4</ele>
        <time>2025-07-16T19:13:39Z</time>
      </trkpt>
      <trkpt lat="46.84998167" lon="16.76818833">
        <ele>213.5</ele>
        <time>2025-07-16T19:13:41Z</time>
      </trkpt>
      <trkpt lat="46.85007833" lon="16.76835333">
        <ele>210.8</ele>
        <time>2025-07-16T19:13:43Z</time>
      </trkpt>
      <trkpt lat="46.85015833" lon="16.76857667">
        <ele>209.5</ele>
        <time>2025-07-16T19:13:45Z</time>
      </trkpt>
      <trkpt lat="46.85021333" lon="16.76879">
        <ele>209.1</ele>
        <time>2025-07-16T19:13:47Z</time>
      </trkpt>
      <trkpt lat="46.85024" lon="16.76902167">
        <ele>208.3</ele>
        <time>2025-07-16T19:13:49Z</time>
      </trkpt>
      <trkpt lat="46.85024667" lon="16.76924167">
        <ele>206.2</ele>
        <time>2025-07-16T19:13:51Z</time>
      </trkpt>
      <trkpt lat="46.85025333" lon="16.76947667">
        <ele>205.5</ele>
        <time>2025-07-16T19:13:53Z</time>
      </trkpt>
      <trkpt lat="46.85024833" lon="16.76971667">
        <ele>204.3</ele>
        <time>2025-07-16T19:13:55Z</time>
      </trkpt>
      <trkpt lat="46.850245" lon="16.76992167">
        <ele>203.7</ele>
        <time>2025-07-16T19:13:57Z</time>
      </trkpt>
      <trkpt lat="46.85024667" lon="16.77011">
        <ele>202.9</ele>
        <time>2025-07-16T19:13:59Z</time>
      </trkpt>
      <trkpt lat="46.85025667" lon="16.77032667">
        <ele>202.8</ele>
        <time>2025-07-16T19:14:01Z</time>
      </trkpt>
      <trkpt lat="46.85026" lon="16.77056667">
        <ele>201.7</ele>
        <time>2025-07-16T19:14:03Z</time>
      </trkpt>
      <trkpt lat="46.85026333" lon="16.77070667">
        <ele>201.4</ele>
        <time>2025-07-16T19:14:04Z</time>
      </trkpt>
      <trkpt lat="46.85026667" lon="16.77089333">
        <ele>201.9</ele>
        <time>2025-07-16T19:14:05Z</time>
      </trkpt>
      <trkpt lat="46.85026167" lon="16.77105333">
        <ele>202.5</ele>
        <time>2025-07-16T19:14:06Z</time>
      </trkpt>
      <trkpt lat="46.85025167" lon="16.771215">
        <ele>203.2</ele>
        <time>2025-07-16T19:14:07Z</time>
      </trkpt>
      <trkpt lat="46.850255" lon="16.771375">
        <ele>203.9</ele>
        <time>2025-07-16T19:14:08Z</time>
      </trkpt>
      <trkpt lat="46.85025833" lon="16.771535">
        <ele>204.3</ele>
        <time>2025-07-16T19:14:09Z</time>
      </trkpt>
      <trkpt lat="46.85026" lon="16.77168333">
        <ele>205.4</ele>
        <time>2025-07-16T19:14:10Z</time>
      </trkpt>
      <trkpt lat="46.85025667" lon="16.77194833">
        <ele>208.2</ele>
        <time>2025-07-16T19:14:12Z</time>
      </trkpt>
      <trkpt lat="46.85025" lon="16.77208167">
        <ele>209.3</ele>
        <time>2025-07-16T19:14:13Z</time>
      </trkpt>
      <trkpt lat="46.850235" lon="16.77235167">
        <ele>210</ele>
        <time>2025-07-16T19:14:15Z</time>
      </trkpt>
      <trkpt lat="46.85021667" lon="16.772485">
        <ele>209.8</ele>
        <time>2025-07-16T19:14:16Z</time>
      </trkpt>
      <trkpt lat="46.85020333" lon="16.77263167">
        <ele>209.7</ele>
        <time>2025-07-16T19:14:17Z</time>
      </trkpt>
      <trkpt lat="46.850205" lon="16.77277">
        <ele>210</ele>
        <time>2025-07-16T19:14:18Z</time>
      </trkpt>
      <trkpt lat="46.85021" lon="16.77291">
        <ele>209.3</ele>
        <time>2025-07-16T19:14:19Z</time>
      </trkpt>
      <trkpt lat="46.85021" lon="16.77305667">
        <ele>208.5</ele>
        <time>2025-07-16T19:14:20Z</time>
      </trkpt>
      <trkpt lat="46.85022" lon="16.77318833">
        <ele>207.3</ele>
        <time>2025-07-16T19:14:21Z</time>
      </trkpt>
      <trkpt lat="46.85022333" lon="16.77333">
        <ele>206.6</ele>
        <time>2025-07-16T19:14:22Z</time>
      </trkpt>
      <trkpt lat="46.85022833" lon="16.77346667">
        <ele>205.9</ele>
        <time>2025-07-16T19:14:23Z</time>
      </trkpt>
      <trkpt lat="46.85023333" lon="16.7736">
        <ele>205.3</ele>
        <time>2025-07-16T19:14:24Z</time>
      </trkpt>
      <trkpt lat="46.85022833" lon="16.77373667">
        <ele>205</ele>
        <time>2025-07-16T19:14:25Z</time>
      </trkpt>
      <trkpt lat="46.85022667" lon="16.77386833">
        <ele>204.5</ele>
        <time>2025-07-16T19:14:26Z</time>
      </trkpt>
      <trkpt lat="46.85022167" lon="16.774115">
        <ele>205.2</ele>
        <time>2025-07-16T19:14:28Z</time>
      </trkpt>
      <trkpt lat="46.850225" lon="16.77434833">
        <ele>205.5</ele>
        <time>2025-07-16T19:14:30Z</time>
      </trkpt>
      <trkpt lat="46.85022333" lon="16.77454833">
        <ele>205.5</ele>
        <time>2025-07-16T19:14:32Z</time>
      </trkpt>
      <trkpt lat="46.85022333" lon="16.774715">
        <ele>205.9</ele>
        <time>2025-07-16T19:14:34Z</time>
      </trkpt>
      <trkpt lat="46.85021833" lon="16.77487">
        <ele>206.5</ele>
        <time>2025-07-16T19:14:36Z</time>
      </trkpt>
      <trkpt lat="46.850205" lon="16.77501833">
        <ele>206.4</ele>
        <time>2025-07-16T19:14:39Z</time>
      </trkpt>
      <trkpt lat="46.85019167" lon="16.77515667">
        <ele>207.2</ele>
        <time>2025-07-16T19:14:44Z</time>
      </trkpt>
      <trkpt lat="46.85026333" lon="16.77527833">
        <ele>205.9</ele>
        <time>2025-07-16T19:14:49Z</time>
      </trkpt>
      <trkpt lat="46.850405" lon="16.77533167">
        <ele>206.1</ele>
        <time>2025-07-16T19:14:52Z</time>
      </trkpt>
      <trkpt lat="46.85052333" lon="16.77537">
        <ele>206.5</ele>
        <time>2025-07-16T19:14:54Z</time>
      </trkpt>
      <trkpt lat="46.85064" lon="16.77539833">
        <ele>210.3</ele>
        <time>2025-07-16T19:14:56Z</time>
      </trkpt>
      <trkpt lat="46.85074" lon="16.77544667">
        <ele>209.5</ele>
        <time>2025-07-16T19:14:59Z</time>
      </trkpt>
      <trkpt lat="46.850845" lon="16.77544667">
        <ele>208.1</ele>
        <time>2025-07-16T19:15:19Z</time>
      </trkpt>
      <trkpt lat="46.85097333" lon="16.77545833">
        <ele>206.6</ele>
        <time>2025-07-16T19:15:22Z</time>
      </trkpt>
      <trkpt lat="46.851085" lon="16.77549">
        <ele>206.9</ele>
        <time>2025-07-16T19:15:24Z</time>
      </trkpt>
      <trkpt lat="46.85121667" lon="16.77555167">
        <ele>206.9</ele>
        <time>2025-07-16T19:15:26Z</time>
      </trkpt>
      <trkpt lat="46.85136667" lon="16.77563333">
        <ele>206.9</ele>
        <time>2025-07-16T19:15:28Z</time>
      </trkpt>
      <trkpt lat="46.85152" lon="16.77573833">
        <ele>205.5</ele>
        <time>2025-07-16T19:15:30Z</time>
      </trkpt>
      <trkpt lat="46.85159667" lon="16.77580833">
        <ele>204</ele>
        <time>2025-07-16T19:15:31Z</time>
      </trkpt>
      <trkpt lat="46.85167333" lon="16.77588">
        <ele>203.1</ele>
        <time>2025-07-16T19:15:32Z</time>
      </trkpt>
      <trkpt lat="46.85181833" lon="16.77604667">
        <ele>203.7</ele>
        <time>2025-07-16T19:15:34Z</time>
      </trkpt>
      <trkpt lat="46.85190167" lon="16.77613333">
        <ele>203.4</ele>
        <time>2025-07-16T19:15:35Z</time>
      </trkpt>
      <trkpt lat="46.85198167" lon="16.77621">
        <ele>204.6</ele>
        <time>2025-07-16T19:15:36Z</time>
      </trkpt>
      <trkpt lat="46.85207" lon="16.77629333">
        <ele>205.5</ele>
        <time>2025-07-16T19:15:37Z</time>
      </trkpt>
      <trkpt lat="46.85216" lon="16.77638">
        <ele>205.9</ele>
        <time>2025-07-16T19:15:38Z</time>
      </trkpt>
      <trkpt lat="46.85225167" lon="16.77645167">
        <ele>205.4</ele>
        <time>2025-07-16T19:15:39Z</time>
      </trkpt>
      <trkpt lat="46.85235167" lon="16.77650833">
        <ele>205.6</ele>
        <time>2025-07-16T19:15:40Z</time>
      </trkpt>
      <trkpt lat="46.852445" lon="16.77656833">
        <ele>205.5</ele>
        <time>2025-07-16T19:15:41Z</time>
      </trkpt>
      <trkpt lat="46.852545" lon="16.776625">
        <ele>205.1</ele>
        <time>2025-07-16T19:15:42Z</time>
      </trkpt>
      <trkpt lat="46.85264333" lon="16.776675">
        <ele>205.2</ele>
        <time>2025-07-16T19:15:43Z</time>
      </trkpt>
      <trkpt lat="46.85274333" lon="16.77672333">
        <ele>204.9</ele>
        <time>2025-07-16T19:15:44Z</time>
      </trkpt>
      <trkpt lat="46.85284167" lon="16.77677333">
        <ele>204.5</ele>
        <time>2025-07-16T19:15:45Z</time>
      </trkpt>
      <trkpt lat="46.85293833" lon="16.77682">
        <ele>203.5</ele>
        <time>2025-07-16T19:15:46Z</time>
      </trkpt>
      <trkpt lat="46.853025" lon="16.77687167">
        <ele>203</ele>
        <time>2025-07-16T19:15:47Z</time>
      </trkpt>
      <trkpt lat="46.853115" lon="16.77692333">
        <ele>203.3</ele>
        <time>2025-07-16T19:15:48Z</time>
      </trkpt>
      <trkpt lat="46.85319833" lon="16.776975">
        <ele>205.2</ele>
        <time>2025-07-16T19:15:49Z</time>
      </trkpt>
      <trkpt lat="46.85335" lon="16.77714333">
        <ele>203.7</ele>
        <time>2025-07-16T19:15:51Z</time>
      </trkpt>
      <trkpt lat="46.85341833" lon="16.777245">
        <ele>203.4</ele>
        <time>2025-07-16T19:15:52Z</time>
      </trkpt>
      <trkpt lat="46.85349" lon="16.77735333">
        <ele>203.6</ele>
        <time>2025-07-16T19:15:53Z</time>
      </trkpt>
      <trkpt lat="46.85355667" lon="16.77746667">
        <ele>203.1</ele>
        <time>2025-07-16T19:15:54Z</time>
      </trkpt>
      <trkpt lat="46.85363167" lon="16.77759167">
        <ele>202.2</ele>
        <time>2025-07-16T19:15:55Z</time>
      </trkpt>
      <trkpt lat="46.85371167" lon="16.777725">
        <ele>202.6</ele>
        <time>2025-07-16T19:15:56Z</time>
      </trkpt>
      <trkpt lat="46.85379667" lon="16.77785333">
        <ele>202.9</ele>
        <time>2025-07-16T19:15:57Z</time>
      </trkpt>
      <trkpt lat="46.85387667" lon="16.77799667">
        <ele>203.8</ele>
        <time>2025-07-16T19:15:58Z</time>
      </trkpt>
      <trkpt lat="46.85395833" lon="16.77813667">
        <ele>202.8</ele>
        <time>2025-07-16T19:15:59Z</time>
      </trkpt>
      <trkpt lat="46.854035" lon="16.77827833">
        <ele>202.2</ele>
        <time>2025-07-16T19:16:00Z</time>
      </trkpt>
      <trkpt lat="46.85411333" lon="16.77841">
        <ele>202.6</ele>
        <time>2025-07-16T19:16:01Z</time>
      </trkpt>
      <trkpt lat="46.854195" lon="16.77854333">
        <ele>202.3</ele>
        <time>2025-07-16T19:16:02Z</time>
      </trkpt>
      <trkpt lat="46.85427833" lon="16.77867333">
        <ele>201.5</ele>
        <time>2025-07-16T19:16:03Z</time>
      </trkpt>
      <trkpt lat="46.85436333" lon="16.77880167">
        <ele>201.5</ele>
        <time>2025-07-16T19:16:04Z</time>
      </trkpt>
      <trkpt lat="46.85444833" lon="16.778925">
        <ele>201.5</ele>
        <time>2025-07-16T19:16:05Z</time>
      </trkpt>
      <trkpt lat="46.85452833" lon="16.779045">
        <ele>202.2</ele>
        <time>2025-07-16T19:16:06Z</time>
      </trkpt>
      <trkpt lat="46.85460667" lon="16.779165">
        <ele>202.8</ele>
        <time>2025-07-16T19:16:07Z</time>
      </trkpt>
      <trkpt lat="46.85467833" lon="16.77928333">
        <ele>202.7</ele>
        <time>2025-07-16T19:16:08Z</time>
      </trkpt>
      <trkpt lat="46.85475667" lon="16.77941167">
        <ele>202.7</ele>
        <time>2025-07-16T19:16:09Z</time>
      </trkpt>
      <trkpt lat="46.85484" lon="16.77953167">
        <ele>202.5</ele>
        <time>2025-07-16T19:16:10Z</time>
      </trkpt>
      <trkpt lat="46.85491667" lon="16.77964667">
        <ele>202.4</ele>
        <time>2025-07-16T19:16:11Z</time>
      </trkpt>
      <trkpt lat="46.854995" lon="16.779765">
        <ele>201.5</ele>
        <time>2025-07-16T19:16:12Z</time>
      </trkpt>
      <trkpt lat="46.85506833" lon="16.77987833">
        <ele>201.7</ele>
        <time>2025-07-16T19:16:13Z</time>
      </trkpt>
      <trkpt lat="46.85515333" lon="16.77999333">
        <ele>201.1</ele>
        <time>2025-07-16T19:16:14Z</time>
      </trkpt>
      <trkpt lat="46.85522167" lon="16.78010333">
        <ele>201.8</ele>
        <time>2025-07-16T19:16:15Z</time>
      </trkpt>
      <trkpt lat="46.85528667" lon="16.780225">
        <ele>202.1</ele>
        <time>2025-07-16T19:16:16Z</time>
      </trkpt>
      <trkpt lat="46.85534333" lon="16.78035167">
        <ele>202.2</ele>
        <time>2025-07-16T19:16:17Z</time>
      </trkpt>
      <trkpt lat="46.85538333" lon="16.78047333">
        <ele>202.9</ele>
        <time>2025-07-16T19:16:18Z</time>
      </trkpt>
      <trkpt lat="46.855415" lon="16.780605">
        <ele>202.4</ele>
        <time>2025-07-16T19:16:19Z</time>
      </trkpt>
      <trkpt lat="46.85544667" lon="16.78082833">
        <ele>202.1</ele>
        <time>2025-07-16T19:16:21Z</time>
      </trkpt>
      <trkpt lat="46.855455" lon="16.78100167">
        <ele>200.5</ele>
        <time>2025-07-16T19:16:23Z</time>
      </trkpt>
    </trkseg>
  </trk>
</gpx>