<?xml version='1.0' encoding='UTF-8' standalone='yes' ?>
<gpx xmlns="http://www.topografix.com/GPX/1/1" xmlns:geotracker="http://ilyabogdanovich.com/gpx/extensions/geotracker" xmlns:xsi="http://www.w3.org/2001/XMLSchema-instance" xsi:schemaLocation="http://www.topografix.com/GPX/1/1 http://www.topografix.com/GPX/1/1/gpx.xsd" version="1.1" creator="Recorded in Geo Tracker for Android from Ilya Bogdanovich">
  <metadata>
    <name>b_0707_07</name>
    <author>
      <name>Recorded in Geo Tracker for Android from Ilya Bogdanovich</name>
      <link href="https://play.google.com/store/apps/details?id=com.ilyabogdanovich.geotracker" />
    </author>
    <link href="https://play.google.com/store/apps/details?id=com.ilyabogdanovich.geotracker" />
    <time>2025-07-07T17:34:06Z</time>
  </metadata>
  <trk>
    <name>b_0707_07</name>
    <src>Recorded in Geo Tracker for Android from Ilya Bogdanovich</src>
    <link href="https://play.google.com/store/apps/details?id=com.ilyabogdanovich.geotracker" />
    <extensions>
      <geotracker:meta>
        <geotracker:length>8710.88</geotracker:length>
        <geotracker:duration>981741</geotracker:duration>
        <geotracker:creationtime>2025-07-07T17:34:06Z</geotracker:creationtime>
        <geotracker:activity>0</geotracker:activity>
      </geotracker:meta>
    </extensions>
    <trkseg>
      <trkpt lat="47.84095" lon="22.66907833">
        <ele>162</ele>
        <time>2025-07-07T17:34:12Z</time>
      </trkpt>
      <trkpt lat="47.84109" lon="22.66872167">
        <ele>162.2</ele>
        <time>2025-07-07T17:34:56Z</time>
      </trkpt>
      <trkpt lat="47.84117667" lon="22.668555">
        <ele>163.6</ele>
        <time>2025-07-07T17:34:58Z</time>
      </trkpt>
      <trkpt lat="47.84128167" lon="22.668365">
        <ele>164.9</ele>
        <time>2025-07-07T17:35:00Z</time>
      </trkpt>
      <trkpt lat="47.841395" lon="22.66816833">
        <ele>165.3</ele>
        <time>2025-07-07T17:35:02Z</time>
      </trkpt>
      <trkpt lat="47.841455" lon="22.66805167">
        <ele>165.8</ele>
        <time>2025-07-07T17:35:03Z</time>
      </trkpt>
      <trkpt lat="47.84152333" lon="22.66793333">
        <ele>164.9</ele>
        <time>2025-07-07T17:35:04Z</time>
      </trkpt>
      <trkpt lat="47.84159667" lon="22.66782">
        <ele>163.8</ele>
        <time>2025-07-07T17:35:05Z</time>
      </trkpt>
      <trkpt lat="47.84166333" lon="22.66769667">
        <ele>163</ele>
        <time>2025-07-07T17:35:06Z</time>
      </trkpt>
      <trkpt lat="47.84172667" lon="22.667585">
        <ele>162.7</ele>
        <time>2025-07-07T17:35:07Z</time>
      </trkpt>
      <trkpt lat="47.84179667" lon="22.66746333">
        <ele>162.7</ele>
        <time>2025-07-07T17:35:08Z</time>
      </trkpt>
      <trkpt lat="47.84186333" lon="22.66732833">
        <ele>161.4</ele>
        <time>2025-07-07T17:35:09Z</time>
      </trkpt>
      <trkpt lat="47.84193" lon="22.66720167">
        <ele>161.2</ele>
        <time>2025-07-07T17:35:10Z</time>
      </trkpt>
      <trkpt lat="47.842005" lon="22.66707833">
        <ele>160.4</ele>
        <time>2025-07-07T17:35:11Z</time>
      </trkpt>
      <trkpt lat="47.842075" lon="22.66695167">
        <ele>159.6</ele>
        <time>2025-07-07T17:35:12Z</time>
      </trkpt>
      <trkpt lat="47.84213833" lon="22.66682833">
        <ele>159.8</ele>
        <time>2025-07-07T17:35:13Z</time>
      </trkpt>
      <trkpt lat="47.84224833" lon="22.66664">
        <ele>160.1</ele>
        <time>2025-07-07T17:35:15Z</time>
      </trkpt>
      <trkpt lat="47.842325" lon="22.66652667">
        <ele>159.3</ele>
        <time>2025-07-07T17:35:17Z</time>
      </trkpt>
      <trkpt lat="47.842445" lon="22.66650333">
        <ele>157.7</ele>
        <time>2025-07-07T17:35:20Z</time>
      </trkpt>
      <trkpt lat="47.84254167" lon="22.66659">
        <ele>157</ele>
        <time>2025-07-07T17:35:22Z</time>
      </trkpt>
      <trkpt lat="47.842645" lon="22.66674">
        <ele>157</ele>
        <time>2025-07-07T17:35:24Z</time>
      </trkpt>
      <trkpt lat="47.84275167" lon="22.66690167">
        <ele>156.4</ele>
        <time>2025-07-07T17:35:26Z</time>
      </trkpt>
      <trkpt lat="47.84288833" lon="22.66707333">
        <ele>156.4</ele>
        <time>2025-07-07T17:35:28Z</time>
      </trkpt>
      <trkpt lat="47.842965" lon="22.66715">
        <ele>157.4</ele>
        <time>2025-07-07T17:35:29Z</time>
      </trkpt>
      <trkpt lat="47.84303833" lon="22.66724167">
        <ele>158.2</ele>
        <time>2025-07-07T17:35:30Z</time>
      </trkpt>
      <trkpt lat="47.84311833" lon="22.66733333">
        <ele>159.8</ele>
        <time>2025-07-07T17:35:31Z</time>
      </trkpt>
      <trkpt lat="47.84319833" lon="22.66743333">
        <ele>160.7</ele>
        <time>2025-07-07T17:35:32Z</time>
      </trkpt>
      <trkpt lat="47.843275" lon="22.66753667">
        <ele>160.8</ele>
        <time>2025-07-07T17:35:33Z</time>
      </trkpt>
      <trkpt lat="47.84335667" lon="22.66765">
        <ele>160.7</ele>
        <time>2025-07-07T17:35:34Z</time>
      </trkpt>
      <trkpt lat="47.84344333" lon="22.66775833">
        <ele>160.2</ele>
        <time>2025-07-07T17:35:35Z</time>
      </trkpt>
      <trkpt lat="47.84354" lon="22.667865">
        <ele>159.9</ele>
        <time>2025-07-07T17:35:36Z</time>
      </trkpt>
      <trkpt lat="47.84363333" lon="22.66797167">
        <ele>160.2</ele>
        <time>2025-07-07T17:35:37Z</time>
      </trkpt>
      <trkpt lat="47.843725" lon="22.668085">
        <ele>159.7</ele>
        <time>2025-07-07T17:35:38Z</time>
      </trkpt>
      <trkpt lat="47.84382" lon="22.66819667">
        <ele>159.1</ele>
        <time>2025-07-07T17:35:39Z</time>
      </trkpt>
      <trkpt lat="47.84391833" lon="22.66831167">
        <ele>159.5</ele>
        <time>2025-07-07T17:35:40Z</time>
      </trkpt>
      <trkpt lat="47.84402167" lon="22.66843667">
        <ele>160</ele>
        <time>2025-07-07T17:35:41Z</time>
      </trkpt>
      <trkpt lat="47.84412667" lon="22.66855833">
        <ele>160.1</ele>
        <time>2025-07-07T17:35:42Z</time>
      </trkpt>
      <trkpt lat="47.84422333" lon="22.66867667">
        <ele>160.9</ele>
        <time>2025-07-07T17:35:43Z</time>
      </trkpt>
      <trkpt lat="47.84432333" lon="22.6688">
        <ele>161.5</ele>
        <time>2025-07-07T17:35:44Z</time>
      </trkpt>
      <trkpt lat="47.84441833" lon="22.66891">
        <ele>161.8</ele>
        <time>2025-07-07T17:35:45Z</time>
      </trkpt>
      <trkpt lat="47.84451833" lon="22.66902833">
        <ele>161.6</ele>
        <time>2025-07-07T17:35:46Z</time>
      </trkpt>
      <trkpt lat="47.84460667" lon="22.66914333">
        <ele>162</ele>
        <time>2025-07-07T17:35:47Z</time>
      </trkpt>
      <trkpt lat="47.844705" lon="22.66925667">
        <ele>161.7</ele>
        <time>2025-07-07T17:35:48Z</time>
      </trkpt>
      <trkpt lat="47.844805" lon="22.669375">
        <ele>161</ele>
        <time>2025-07-07T17:35:49Z</time>
      </trkpt>
      <trkpt lat="47.844895" lon="22.66948667">
        <ele>160.8</ele>
        <time>2025-07-07T17:35:50Z</time>
      </trkpt>
      <trkpt lat="47.84499167" lon="22.66960667">
        <ele>161.3</ele>
        <time>2025-07-07T17:35:51Z</time>
      </trkpt>
      <trkpt lat="47.84508167" lon="22.66972">
        <ele>161.7</ele>
        <time>2025-07-07T17:35:52Z</time>
      </trkpt>
      <trkpt lat="47.84517" lon="22.66983">
        <ele>161.9</ele>
        <time>2025-07-07T17:35:53Z</time>
      </trkpt>
      <trkpt lat="47.84526833" lon="22.66994833">
        <ele>162.3</ele>
        <time>2025-07-07T17:35:54Z</time>
      </trkpt>
      <trkpt lat="47.84536667" lon="22.67005833">
        <ele>162.4</ele>
        <time>2025-07-07T17:35:55Z</time>
      </trkpt>
      <trkpt lat="47.84545167" lon="22.67017">
        <ele>161.7</ele>
        <time>2025-07-07T17:35:56Z</time>
      </trkpt>
      <trkpt lat="47.84554333" lon="22.67027833">
        <ele>162</ele>
        <time>2025-07-07T17:35:57Z</time>
      </trkpt>
      <trkpt lat="47.845625" lon="22.67037833">
        <ele>162</ele>
        <time>2025-07-07T17:35:58Z</time>
      </trkpt>
      <trkpt lat="47.84570833" lon="22.67048833">
        <ele>162.6</ele>
        <time>2025-07-07T17:35:59Z</time>
      </trkpt>
      <trkpt lat="47.84579167" lon="22.670595">
        <ele>162.7</ele>
        <time>2025-07-07T17:36:00Z</time>
      </trkpt>
      <trkpt lat="47.84587833" lon="22.67069333">
        <ele>162</ele>
        <time>2025-07-07T17:36:01Z</time>
      </trkpt>
      <trkpt lat="47.84595333" lon="22.67078833">
        <ele>159.9</ele>
        <time>2025-07-07T17:36:02Z</time>
      </trkpt>
      <trkpt lat="47.84603667" lon="22.670885">
        <ele>161.1</ele>
        <time>2025-07-07T17:36:03Z</time>
      </trkpt>
      <trkpt lat="47.84611667" lon="22.67098667">
        <ele>163.2</ele>
        <time>2025-07-07T17:36:04Z</time>
      </trkpt>
      <trkpt lat="47.8462" lon="22.67107833">
        <ele>166</ele>
        <time>2025-07-07T17:36:05Z</time>
      </trkpt>
      <trkpt lat="47.84627833" lon="22.67116167">
        <ele>165.6</ele>
        <time>2025-07-07T17:36:06Z</time>
      </trkpt>
      <trkpt lat="47.84635667" lon="22.67125">
        <ele>164.4</ele>
        <time>2025-07-07T17:36:07Z</time>
      </trkpt>
      <trkpt lat="47.84650333" lon="22.67142667">
        <ele>161.6</ele>
        <time>2025-07-07T17:36:09Z</time>
      </trkpt>
      <trkpt lat="47.84662833" lon="22.67160333">
        <ele>159.6</ele>
        <time>2025-07-07T17:36:11Z</time>
      </trkpt>
      <trkpt lat="47.84675667" lon="22.67177833">
        <ele>161.2</ele>
        <time>2025-07-07T17:36:13Z</time>
      </trkpt>
      <trkpt lat="47.84684833" lon="22.671915">
        <ele>162.1</ele>
        <time>2025-07-07T17:36:15Z</time>
      </trkpt>
      <trkpt lat="47.84693333" lon="22.672">
        <ele>162.3</ele>
        <time>2025-07-07T17:36:17Z</time>
      </trkpt>
      <trkpt lat="47.84704333" lon="22.67200833">
        <ele>161.9</ele>
        <time>2025-07-07T17:36:20Z</time>
      </trkpt>
      <trkpt lat="47.84713167" lon="22.67192167">
        <ele>161.4</ele>
        <time>2025-07-07T17:36:22Z</time>
      </trkpt>
      <trkpt lat="47.847215" lon="22.67178667">
        <ele>161.4</ele>
        <time>2025-07-07T17:36:24Z</time>
      </trkpt>
      <trkpt lat="47.84730167" lon="22.67163167">
        <ele>161.6</ele>
        <time>2025-07-07T17:36:26Z</time>
      </trkpt>
      <trkpt lat="47.8474" lon="22.67146167">
        <ele>160.5</ele>
        <time>2025-07-07T17:36:28Z</time>
      </trkpt>
      <trkpt lat="47.84751167" lon="22.67125833">
        <ele>158.4</ele>
        <time>2025-07-07T17:36:30Z</time>
      </trkpt>
      <trkpt lat="47.84757167" lon="22.671145">
        <ele>158.3</ele>
        <time>2025-07-07T17:36:31Z</time>
      </trkpt>
      <trkpt lat="47.847635" lon="22.67103333">
        <ele>158.1</ele>
        <time>2025-07-07T17:36:32Z</time>
      </trkpt>
      <trkpt lat="47.847695" lon="22.67092">
        <ele>158.2</ele>
        <time>2025-07-07T17:36:33Z</time>
      </trkpt>
      <trkpt lat="47.847765" lon="22.67080167">
        <ele>157.5</ele>
        <time>2025-07-07T17:36:34Z</time>
      </trkpt>
      <trkpt lat="47.84782833" lon="22.67068">
        <ele>157.2</ele>
        <time>2025-07-07T17:36:35Z</time>
      </trkpt>
      <trkpt lat="47.84789667" lon="22.67054333">
        <ele>157.5</ele>
        <time>2025-07-07T17:36:36Z</time>
      </trkpt>
      <trkpt lat="47.84797" lon="22.67040667">
        <ele>157.3</ele>
        <time>2025-07-07T17:36:37Z</time>
      </trkpt>
      <trkpt lat="47.84804333" lon="22.670265">
        <ele>157.2</ele>
        <time>2025-07-07T17:36:38Z</time>
      </trkpt>
      <trkpt lat="47.84811833" lon="22.67012667">
        <ele>157.2</ele>
        <time>2025-07-07T17:36:39Z</time>
      </trkpt>
      <trkpt lat="47.84819333" lon="22.66999333">
        <ele>156.5</ele>
        <time>2025-07-07T17:36:40Z</time>
      </trkpt>
      <trkpt lat="47.84828167" lon="22.66986167">
        <ele>156.8</ele>
        <time>2025-07-07T17:36:41Z</time>
      </trkpt>
      <trkpt lat="47.84835833" lon="22.669715">
        <ele>156.8</ele>
        <time>2025-07-07T17:36:42Z</time>
      </trkpt>
      <trkpt lat="47.84844" lon="22.66955667">
        <ele>155.7</ele>
        <time>2025-07-07T17:36:43Z</time>
      </trkpt>
      <trkpt lat="47.84853667" lon="22.6694">
        <ele>154.5</ele>
        <time>2025-07-07T17:36:44Z</time>
      </trkpt>
      <trkpt lat="47.848625" lon="22.66924833">
        <ele>154.4</ele>
        <time>2025-07-07T17:36:45Z</time>
      </trkpt>
      <trkpt lat="47.84871167" lon="22.669095">
        <ele>155.3</ele>
        <time>2025-07-07T17:36:46Z</time>
      </trkpt>
      <trkpt lat="47.84880167" lon="22.668935">
        <ele>156</ele>
        <time>2025-07-07T17:36:47Z</time>
      </trkpt>
      <trkpt lat="47.84889833" lon="22.66879667">
        <ele>156.3</ele>
        <time>2025-07-07T17:36:48Z</time>
      </trkpt>
      <trkpt lat="47.848995" lon="22.668655">
        <ele>156.8</ele>
        <time>2025-07-07T17:36:49Z</time>
      </trkpt>
      <trkpt lat="47.849105" lon="22.66853833">
        <ele>157.3</ele>
        <time>2025-07-07T17:36:50Z</time>
      </trkpt>
      <trkpt lat="47.84922333" lon="22.66841">
        <ele>157.9</ele>
        <time>2025-07-07T17:36:51Z</time>
      </trkpt>
      <trkpt lat="47.84933" lon="22.66828333">
        <ele>156.9</ele>
        <time>2025-07-07T17:36:52Z</time>
      </trkpt>
      <trkpt lat="47.84946" lon="22.66816667">
        <ele>156.7</ele>
        <time>2025-07-07T17:36:53Z</time>
      </trkpt>
      <trkpt lat="47.8496" lon="22.66805167">
        <ele>158</ele>
        <time>2025-07-07T17:36:54Z</time>
      </trkpt>
      <trkpt lat="47.84973667" lon="22.667965">
        <ele>157.8</ele>
        <time>2025-07-07T17:36:55Z</time>
      </trkpt>
      <trkpt lat="47.84987833" lon="22.66788333">
        <ele>158.1</ele>
        <time>2025-07-07T17:36:56Z</time>
      </trkpt>
      <trkpt lat="47.85002833" lon="22.66781667">
        <ele>158.5</ele>
        <time>2025-07-07T17:36:57Z</time>
      </trkpt>
      <trkpt lat="47.85018333" lon="22.66775667">
        <ele>159.2</ele>
        <time>2025-07-07T17:36:58Z</time>
      </trkpt>
      <trkpt lat="47.850345" lon="22.667715">
        <ele>159.3</ele>
        <time>2025-07-07T17:36:59Z</time>
      </trkpt>
      <trkpt lat="47.8505" lon="22.66768333">
        <ele>160</ele>
        <time>2025-07-07T17:37:00Z</time>
      </trkpt>
      <trkpt lat="47.85065833" lon="22.66767167">
        <ele>161.2</ele>
        <time>2025-07-07T17:37:01Z</time>
      </trkpt>
      <trkpt lat="47.85081667" lon="22.66765667">
        <ele>161.5</ele>
        <time>2025-07-07T17:37:02Z</time>
      </trkpt>
      <trkpt lat="47.85097667" lon="22.66767667">
        <ele>161</ele>
        <time>2025-07-07T17:37:03Z</time>
      </trkpt>
      <trkpt lat="47.85114167" lon="22.66771">
        <ele>159.7</ele>
        <time>2025-07-07T17:37:04Z</time>
      </trkpt>
      <trkpt lat="47.851305" lon="22.66774167">
        <ele>158.2</ele>
        <time>2025-07-07T17:37:05Z</time>
      </trkpt>
      <trkpt lat="47.85146667" lon="22.667785">
        <ele>158.7</ele>
        <time>2025-07-07T17:37:06Z</time>
      </trkpt>
      <trkpt lat="47.851635" lon="22.667825">
        <ele>158.9</ele>
        <time>2025-07-07T17:37:07Z</time>
      </trkpt>
      <trkpt lat="47.85180667" lon="22.66786667">
        <ele>159.1</ele>
        <time>2025-07-07T17:37:08Z</time>
      </trkpt>
      <trkpt lat="47.85198167" lon="22.6679">
        <ele>158.8</ele>
        <time>2025-07-07T17:37:09Z</time>
      </trkpt>
      <trkpt lat="47.85215" lon="22.66793833">
        <ele>159.3</ele>
        <time>2025-07-07T17:37:10Z</time>
      </trkpt>
      <trkpt lat="47.852325" lon="22.66797667">
        <ele>160.3</ele>
        <time>2025-07-07T17:37:11Z</time>
      </trkpt>
      <trkpt lat="47.85249333" lon="22.66801667">
        <ele>159.3</ele>
        <time>2025-07-07T17:37:12Z</time>
      </trkpt>
      <trkpt lat="47.85266833" lon="22.66805667">
        <ele>159.1</ele>
        <time>2025-07-07T17:37:13Z</time>
      </trkpt>
      <trkpt lat="47.85284" lon="22.66809167">
        <ele>158.6</ele>
        <time>2025-07-07T17:37:14Z</time>
      </trkpt>
      <trkpt lat="47.85301" lon="22.66813333">
        <ele>158.1</ele>
        <time>2025-07-07T17:37:15Z</time>
      </trkpt>
      <trkpt lat="47.85317667" lon="22.668185">
        <ele>158.6</ele>
        <time>2025-07-07T17:37:16Z</time>
      </trkpt>
      <trkpt lat="47.85334167" lon="22.66822">
        <ele>159.2</ele>
        <time>2025-07-07T17:37:17Z</time>
      </trkpt>
      <trkpt lat="47.85350167" lon="22.66826">
        <ele>159.9</ele>
        <time>2025-07-07T17:37:18Z</time>
      </trkpt>
      <trkpt lat="47.85365667" lon="22.668295">
        <ele>160.2</ele>
        <time>2025-07-07T17:37:19Z</time>
      </trkpt>
      <trkpt lat="47.85380667" lon="22.66833167">
        <ele>159.7</ele>
        <time>2025-07-07T17:37:20Z</time>
      </trkpt>
      <trkpt lat="47.85397167" lon="22.66837167">
        <ele>159.5</ele>
        <time>2025-07-07T17:37:21Z</time>
      </trkpt>
      <trkpt lat="47.85411833" lon="22.66840833">
        <ele>159.5</ele>
        <time>2025-07-07T17:37:22Z</time>
      </trkpt>
      <trkpt lat="47.85426167" lon="22.668435">
        <ele>159</ele>
        <time>2025-07-07T17:37:23Z</time>
      </trkpt>
      <trkpt lat="47.85438833" lon="22.66847">
        <ele>160.3</ele>
        <time>2025-07-07T17:37:24Z</time>
      </trkpt>
      <trkpt lat="47.854505" lon="22.66849667">
        <ele>159.4</ele>
        <time>2025-07-07T17:37:25Z</time>
      </trkpt>
      <trkpt lat="47.85460833" lon="22.66851667">
        <ele>159.9</ele>
        <time>2025-07-07T17:37:26Z</time>
      </trkpt>
      <trkpt lat="47.85476667" lon="22.668555">
        <ele>158.7</ele>
        <time>2025-07-07T17:37:28Z</time>
      </trkpt>
      <trkpt lat="47.85485667" lon="22.66856833">
        <ele>157.9</ele>
        <time>2025-07-07T17:37:30Z</time>
      </trkpt>
      <trkpt lat="47.85494667" lon="22.66860333">
        <ele>157.8</ele>
        <time>2025-07-07T17:37:38Z</time>
      </trkpt>
      <trkpt lat="47.85501167" lon="22.66875667">
        <ele>157.6</ele>
        <time>2025-07-07T17:37:41Z</time>
      </trkpt>
      <trkpt lat="47.855025" lon="22.668895">
        <ele>157.3</ele>
        <time>2025-07-07T17:37:43Z</time>
      </trkpt>
      <trkpt lat="47.855025" lon="22.66907167">
        <ele>158.9</ele>
        <time>2025-07-07T17:37:45Z</time>
      </trkpt>
      <trkpt lat="47.85504167" lon="22.66929333">
        <ele>158.4</ele>
        <time>2025-07-07T17:37:47Z</time>
      </trkpt>
      <trkpt lat="47.85506833" lon="22.66952333">
        <ele>158.9</ele>
        <time>2025-07-07T17:37:49Z</time>
      </trkpt>
      <trkpt lat="47.85510167" lon="22.66979167">
        <ele>159</ele>
        <time>2025-07-07T17:37:51Z</time>
      </trkpt>
      <trkpt lat="47.85512167" lon="22.66994167">
        <ele>159.4</ele>
        <time>2025-07-07T17:37:52Z</time>
      </trkpt>
      <trkpt lat="47.85514167" lon="22.67009667">
        <ele>160.1</ele>
        <time>2025-07-07T17:37:53Z</time>
      </trkpt>
      <trkpt lat="47.855165" lon="22.67024833">
        <ele>160.6</ele>
        <time>2025-07-07T17:37:54Z</time>
      </trkpt>
      <trkpt lat="47.85519" lon="22.6704">
        <ele>160.9</ele>
        <time>2025-07-07T17:37:55Z</time>
      </trkpt>
      <trkpt lat="47.855205" lon="22.67054333">
        <ele>162.6</ele>
        <time>2025-07-07T17:37:56Z</time>
      </trkpt>
      <trkpt lat="47.85522833" lon="22.67070333">
        <ele>161.9</ele>
        <time>2025-07-07T17:37:57Z</time>
      </trkpt>
      <trkpt lat="47.85525333" lon="22.67086667">
        <ele>161.5</ele>
        <time>2025-07-07T17:37:58Z</time>
      </trkpt>
      <trkpt lat="47.85527833" lon="22.67104167">
        <ele>161.3</ele>
        <time>2025-07-07T17:37:59Z</time>
      </trkpt>
      <trkpt lat="47.855305" lon="22.67122">
        <ele>161.8</ele>
        <time>2025-07-07T17:38:00Z</time>
      </trkpt>
      <trkpt lat="47.85533" lon="22.671405">
        <ele>162.5</ele>
        <time>2025-07-07T17:38:01Z</time>
      </trkpt>
      <trkpt lat="47.85535667" lon="22.67159833">
        <ele>162.2</ele>
        <time>2025-07-07T17:38:02Z</time>
      </trkpt>
      <trkpt lat="47.85538" lon="22.671795">
        <ele>162.1</ele>
        <time>2025-07-07T17:38:03Z</time>
      </trkpt>
      <trkpt lat="47.85539833" lon="22.67199167">
        <ele>162.3</ele>
        <time>2025-07-07T17:38:04Z</time>
      </trkpt>
      <trkpt lat="47.85542333" lon="22.672185">
        <ele>161.9</ele>
        <time>2025-07-07T17:38:05Z</time>
      </trkpt>
      <trkpt lat="47.855445" lon="22.67238">
        <ele>162.2</ele>
        <time>2025-07-07T17:38:06Z</time>
      </trkpt>
      <trkpt lat="47.855475" lon="22.67259">
        <ele>162.4</ele>
        <time>2025-07-07T17:38:07Z</time>
      </trkpt>
      <trkpt lat="47.85550333" lon="22.67280667">
        <ele>163</ele>
        <time>2025-07-07T17:38:08Z</time>
      </trkpt>
      <trkpt lat="47.85553667" lon="22.67303">
        <ele>164</ele>
        <time>2025-07-07T17:38:09Z</time>
      </trkpt>
      <trkpt lat="47.85556333" lon="22.67325167">
        <ele>164.7</ele>
        <time>2025-07-07T17:38:10Z</time>
      </trkpt>
      <trkpt lat="47.855595" lon="22.67348">
        <ele>164.6</ele>
        <time>2025-07-07T17:38:11Z</time>
      </trkpt>
      <trkpt lat="47.85563167" lon="22.67370833">
        <ele>164.4</ele>
        <time>2025-07-07T17:38:12Z</time>
      </trkpt>
      <trkpt lat="47.855665" lon="22.67394167">
        <ele>164.6</ele>
        <time>2025-07-07T17:38:13Z</time>
      </trkpt>
      <trkpt lat="47.85569" lon="22.674175">
        <ele>165.8</ele>
        <time>2025-07-07T17:38:14Z</time>
      </trkpt>
      <trkpt lat="47.85572333" lon="22.67441">
        <ele>164</ele>
        <time>2025-07-07T17:38:15Z</time>
      </trkpt>
      <trkpt lat="47.85575" lon="22.67464667">
        <ele>163.7</ele>
        <time>2025-07-07T17:38:16Z</time>
      </trkpt>
      <trkpt lat="47.85577833" lon="22.67488333">
        <ele>163.2</ele>
        <time>2025-07-07T17:38:17Z</time>
      </trkpt>
      <trkpt lat="47.85581333" lon="22.67513">
        <ele>163.1</ele>
        <time>2025-07-07T17:38:18Z</time>
      </trkpt>
      <trkpt lat="47.85584833" lon="22.67538833">
        <ele>163.1</ele>
        <time>2025-07-07T17:38:19Z</time>
      </trkpt>
      <trkpt lat="47.85588667" lon="22.67565333">
        <ele>163.3</ele>
        <time>2025-07-07T17:38:20Z</time>
      </trkpt>
      <trkpt lat="47.85592333" lon="22.67589667">
        <ele>163.5</ele>
        <time>2025-07-07T17:38:21Z</time>
      </trkpt>
      <trkpt lat="47.85595333" lon="22.67614333">
        <ele>164.2</ele>
        <time>2025-07-07T17:38:22Z</time>
      </trkpt>
      <trkpt lat="47.85598667" lon="22.67638667">
        <ele>164.2</ele>
        <time>2025-07-07T17:38:23Z</time>
      </trkpt>
      <trkpt lat="47.85602" lon="22.67663667">
        <ele>164.6</ele>
        <time>2025-07-07T17:38:24Z</time>
      </trkpt>
      <trkpt lat="47.85605667" lon="22.67689">
        <ele>164.9</ele>
        <time>2025-07-07T17:38:25Z</time>
      </trkpt>
      <trkpt lat="47.856095" lon="22.67714833">
        <ele>165.3</ele>
        <time>2025-07-07T17:38:26Z</time>
      </trkpt>
      <trkpt lat="47.85611667" lon="22.67740333">
        <ele>165.4</ele>
        <time>2025-07-07T17:38:27Z</time>
      </trkpt>
      <trkpt lat="47.856145" lon="22.67765833">
        <ele>165.9</ele>
        <time>2025-07-07T17:38:28Z</time>
      </trkpt>
      <trkpt lat="47.85619" lon="22.677925">
        <ele>167.1</ele>
        <time>2025-07-07T17:38:29Z</time>
      </trkpt>
      <trkpt lat="47.856225" lon="22.678175">
        <ele>167.4</ele>
        <time>2025-07-07T17:38:30Z</time>
      </trkpt>
      <trkpt lat="47.85626333" lon="22.67842333">
        <ele>168.2</ele>
        <time>2025-07-07T17:38:31Z</time>
      </trkpt>
      <trkpt lat="47.8563" lon="22.678665">
        <ele>167.9</ele>
        <time>2025-07-07T17:38:32Z</time>
      </trkpt>
      <trkpt lat="47.85633333" lon="22.67891">
        <ele>167.4</ele>
        <time>2025-07-07T17:38:33Z</time>
      </trkpt>
      <trkpt lat="47.85636167" lon="22.679135">
        <ele>166.7</ele>
        <time>2025-07-07T17:38:34Z</time>
      </trkpt>
      <trkpt lat="47.85638167" lon="22.67936667">
        <ele>167</ele>
        <time>2025-07-07T17:38:35Z</time>
      </trkpt>
      <trkpt lat="47.856405" lon="22.67957">
        <ele>167.8</ele>
        <time>2025-07-07T17:38:36Z</time>
      </trkpt>
      <trkpt lat="47.85643167" lon="22.67976833">
        <ele>167.5</ele>
        <time>2025-07-07T17:38:37Z</time>
      </trkpt>
      <trkpt lat="47.85645667" lon="22.67997">
        <ele>166.5</ele>
        <time>2025-07-07T17:38:38Z</time>
      </trkpt>
      <trkpt lat="47.85647667" lon="22.68015333">
        <ele>165.6</ele>
        <time>2025-07-07T17:38:39Z</time>
      </trkpt>
      <trkpt lat="47.85649833" lon="22.68033333">
        <ele>165.4</ele>
        <time>2025-07-07T17:38:40Z</time>
      </trkpt>
      <trkpt lat="47.85652333" lon="22.68051833">
        <ele>164.7</ele>
        <time>2025-07-07T17:38:41Z</time>
      </trkpt>
      <trkpt lat="47.85655333" lon="22.680715">
        <ele>164.2</ele>
        <time>2025-07-07T17:38:42Z</time>
      </trkpt>
      <trkpt lat="47.85657833" lon="22.68090167">
        <ele>164.5</ele>
        <time>2025-07-07T17:38:43Z</time>
      </trkpt>
      <trkpt lat="47.85659833" lon="22.68110333">
        <ele>163.6</ele>
        <time>2025-07-07T17:38:44Z</time>
      </trkpt>
      <trkpt lat="47.85662167" lon="22.681305">
        <ele>162.7</ele>
        <time>2025-07-07T17:38:45Z</time>
      </trkpt>
      <trkpt lat="47.85665" lon="22.681505">
        <ele>162.5</ele>
        <time>2025-07-07T17:38:46Z</time>
      </trkpt>
      <trkpt lat="47.856675" lon="22.68171">
        <ele>161.9</ele>
        <time>2025-07-07T17:38:47Z</time>
      </trkpt>
      <trkpt lat="47.85670167" lon="22.681905">
        <ele>161.7</ele>
        <time>2025-07-07T17:38:48Z</time>
      </trkpt>
      <trkpt lat="47.85673" lon="22.682105">
        <ele>161.4</ele>
        <time>2025-07-07T17:38:49Z</time>
      </trkpt>
      <trkpt lat="47.85676" lon="22.682295">
        <ele>160.8</ele>
        <time>2025-07-07T17:38:50Z</time>
      </trkpt>
      <trkpt lat="47.856785" lon="22.68247833">
        <ele>160.8</ele>
        <time>2025-07-07T17:38:51Z</time>
      </trkpt>
      <trkpt lat="47.85681" lon="22.68266167">
        <ele>161.6</ele>
        <time>2025-07-07T17:38:52Z</time>
      </trkpt>
      <trkpt lat="47.856835" lon="22.68284167">
        <ele>161.5</ele>
        <time>2025-07-07T17:38:53Z</time>
      </trkpt>
      <trkpt lat="47.85687167" lon="22.68301333">
        <ele>163.6</ele>
        <time>2025-07-07T17:38:54Z</time>
      </trkpt>
      <trkpt lat="47.85689" lon="22.683185">
        <ele>163.9</ele>
        <time>2025-07-07T17:38:55Z</time>
      </trkpt>
      <trkpt lat="47.85690833" lon="22.683335">
        <ele>165</ele>
        <time>2025-07-07T17:38:56Z</time>
      </trkpt>
      <trkpt lat="47.85693833" lon="22.683485">
        <ele>164.8</ele>
        <time>2025-07-07T17:38:57Z</time>
      </trkpt>
      <trkpt lat="47.85696167" lon="22.68362833">
        <ele>164.2</ele>
        <time>2025-07-07T17:38:58Z</time>
      </trkpt>
      <trkpt lat="47.85698167" lon="22.68376833">
        <ele>162.9</ele>
        <time>2025-07-07T17:38:59Z</time>
      </trkpt>
      <trkpt lat="47.857" lon="22.68400833">
        <ele>160.1</ele>
        <time>2025-07-07T17:39:01Z</time>
      </trkpt>
      <trkpt lat="47.85702167" lon="22.68419667">
        <ele>158.5</ele>
        <time>2025-07-07T17:39:03Z</time>
      </trkpt>
      <trkpt lat="47.85704833" lon="22.68435167">
        <ele>157.7</ele>
        <time>2025-07-07T17:39:05Z</time>
      </trkpt>
      <trkpt lat="47.85706333" lon="22.684505">
        <ele>157.4</ele>
        <time>2025-07-07T17:39:08Z</time>
      </trkpt>
      <trkpt lat="47.85705167" lon="22.68463833">
        <ele>156.1</ele>
        <time>2025-07-07T17:39:39Z</time>
      </trkpt>
      <trkpt lat="47.85698167" lon="22.68475">
        <ele>156.8</ele>
        <time>2025-07-07T17:39:42Z</time>
      </trkpt>
      <trkpt lat="47.85688833" lon="22.68485">
        <ele>157.2</ele>
        <time>2025-07-07T17:39:45Z</time>
      </trkpt>
      <trkpt lat="47.85681833" lon="22.68494833">
        <ele>156.9</ele>
        <time>2025-07-07T17:39:47Z</time>
      </trkpt>
      <trkpt lat="47.85674667" lon="22.68505667">
        <ele>157.2</ele>
        <time>2025-07-07T17:39:49Z</time>
      </trkpt>
      <trkpt lat="47.85666" lon="22.68519667">
        <ele>156.8</ele>
        <time>2025-07-07T17:39:52Z</time>
      </trkpt>
      <trkpt lat="47.856585" lon="22.68529167">
        <ele>157.3</ele>
        <time>2025-07-07T17:39:54Z</time>
      </trkpt>
      <trkpt lat="47.8565" lon="22.68540667">
        <ele>155.8</ele>
        <time>2025-07-07T17:39:56Z</time>
      </trkpt>
      <trkpt lat="47.85641833" lon="22.68554833">
        <ele>156.5</ele>
        <time>2025-07-07T17:39:58Z</time>
      </trkpt>
      <trkpt lat="47.85633833" lon="22.68569">
        <ele>157</ele>
        <time>2025-07-07T17:40:00Z</time>
      </trkpt>
      <trkpt lat="47.856265" lon="22.68582833">
        <ele>158.8</ele>
        <time>2025-07-07T17:40:02Z</time>
      </trkpt>
      <trkpt lat="47.85619833" lon="22.68595833">
        <ele>158.9</ele>
        <time>2025-07-07T17:40:04Z</time>
      </trkpt>
      <trkpt lat="47.85611333" lon="22.68607833">
        <ele>158.8</ele>
        <time>2025-07-07T17:40:06Z</time>
      </trkpt>
      <trkpt lat="47.85604833" lon="22.686205">
        <ele>159.9</ele>
        <time>2025-07-07T17:40:08Z</time>
      </trkpt>
      <trkpt lat="47.855985" lon="22.68630667">
        <ele>160.6</ele>
        <time>2025-07-07T17:40:10Z</time>
      </trkpt>
      <trkpt lat="47.85595333" lon="22.686435">
        <ele>160.4</ele>
        <time>2025-07-07T17:40:12Z</time>
      </trkpt>
      <trkpt lat="47.85593667" lon="22.686625">
        <ele>160.5</ele>
        <time>2025-07-07T17:40:15Z</time>
      </trkpt>
      <trkpt lat="47.85592667" lon="22.68677667">
        <ele>160.2</ele>
        <time>2025-07-07T17:40:17Z</time>
      </trkpt>
      <trkpt lat="47.855925" lon="22.68692333">
        <ele>159.8</ele>
        <time>2025-07-07T17:40:19Z</time>
      </trkpt>
      <trkpt lat="47.85594" lon="22.68706333">
        <ele>161</ele>
        <time>2025-07-07T17:40:22Z</time>
      </trkpt>
      <trkpt lat="47.85593333" lon="22.68721167">
        <ele>161.7</ele>
        <time>2025-07-07T17:40:25Z</time>
      </trkpt>
      <trkpt lat="47.85592833" lon="22.68734833">
        <ele>161.9</ele>
        <time>2025-07-07T17:40:27Z</time>
      </trkpt>
      <trkpt lat="47.85592167" lon="22.687495">
        <ele>161.9</ele>
        <time>2025-07-07T17:40:29Z</time>
      </trkpt>
      <trkpt lat="47.85589667" lon="22.68768333">
        <ele>160.5</ele>
        <time>2025-07-07T17:40:31Z</time>
      </trkpt>
      <trkpt lat="47.85586167" lon="22.68788833">
        <ele>159</ele>
        <time>2025-07-07T17:40:33Z</time>
      </trkpt>
      <trkpt lat="47.85583833" lon="22.688075">
        <ele>159</ele>
        <time>2025-07-07T17:40:35Z</time>
      </trkpt>
      <trkpt lat="47.85580833" lon="22.68825">
        <ele>158.7</ele>
        <time>2025-07-07T17:40:37Z</time>
      </trkpt>
      <trkpt lat="47.85579333" lon="22.68843333">
        <ele>158.4</ele>
        <time>2025-07-07T17:40:39Z</time>
      </trkpt>
      <trkpt lat="47.85577167" lon="22.68861">
        <ele>158.7</ele>
        <time>2025-07-07T17:40:41Z</time>
      </trkpt>
      <trkpt lat="47.85578667" lon="22.68875167">
        <ele>158.6</ele>
        <time>2025-07-07T17:40:43Z</time>
      </trkpt>
      <trkpt lat="47.855845" lon="22.68893667">
        <ele>158.6</ele>
        <time>2025-07-07T17:40:46Z</time>
      </trkpt>
      <trkpt lat="47.85588833" lon="22.68906833">
        <ele>159.4</ele>
        <time>2025-07-07T17:40:48Z</time>
      </trkpt>
      <trkpt lat="47.855935" lon="22.689195">
        <ele>159.3</ele>
        <time>2025-07-07T17:40:50Z</time>
      </trkpt>
      <trkpt lat="47.85598" lon="22.68931167">
        <ele>158.5</ele>
        <time>2025-07-07T17:40:52Z</time>
      </trkpt>
      <trkpt lat="47.85603833" lon="22.68946667">
        <ele>158.2</ele>
        <time>2025-07-07T17:40:55Z</time>
      </trkpt>
      <trkpt lat="47.85609333" lon="22.689605">
        <ele>157.9</ele>
        <time>2025-07-07T17:40:58Z</time>
      </trkpt>
      <trkpt lat="47.85615167" lon="22.689735">
        <ele>156.5</ele>
        <time>2025-07-07T17:41:03Z</time>
      </trkpt>
      <trkpt lat="47.856225" lon="22.68986333">
        <ele>157.1</ele>
        <time>2025-07-07T17:41:07Z</time>
      </trkpt>
      <trkpt lat="47.856285" lon="22.690015">
        <ele>158.3</ele>
        <time>2025-07-07T17:41:10Z</time>
      </trkpt>
      <trkpt lat="47.85632167" lon="22.69014">
        <ele>158.1</ele>
        <time>2025-07-07T17:41:12Z</time>
      </trkpt>
      <trkpt lat="47.85637" lon="22.69025833">
        <ele>158</ele>
        <time>2025-07-07T17:41:14Z</time>
      </trkpt>
      <trkpt lat="47.85641833" lon="22.69039333">
        <ele>157.4</ele>
        <time>2025-07-07T17:41:16Z</time>
      </trkpt>
      <trkpt lat="47.85646667" lon="22.69054333">
        <ele>156.2</ele>
        <time>2025-07-07T17:41:18Z</time>
      </trkpt>
      <trkpt lat="47.85652667" lon="22.69068667">
        <ele>155.1</ele>
        <time>2025-07-07T17:41:20Z</time>
      </trkpt>
      <trkpt lat="47.856585" lon="22.69084">
        <ele>154.5</ele>
        <time>2025-07-07T17:41:22Z</time>
      </trkpt>
      <trkpt lat="47.85663833" lon="22.690985">
        <ele>154.2</ele>
        <time>2025-07-07T17:41:24Z</time>
      </trkpt>
      <trkpt lat="47.85670833" lon="22.691155">
        <ele>154.4</ele>
        <time>2025-07-07T17:41:26Z</time>
      </trkpt>
      <trkpt lat="47.85677" lon="22.691345">
        <ele>155.9</ele>
        <time>2025-07-07T17:41:28Z</time>
      </trkpt>
      <trkpt lat="47.85682833" lon="22.69150167">
        <ele>156.4</ele>
        <time>2025-07-07T17:41:30Z</time>
      </trkpt>
      <trkpt lat="47.85687667" lon="22.691635">
        <ele>157.6</ele>
        <time>2025-07-07T17:41:32Z</time>
      </trkpt>
      <trkpt lat="47.85692333" lon="22.69180833">
        <ele>158</ele>
        <time>2025-07-07T17:41:35Z</time>
      </trkpt>
      <trkpt lat="47.856985" lon="22.69196">
        <ele>157.1</ele>
        <time>2025-07-07T17:41:38Z</time>
      </trkpt>
      <trkpt lat="47.857045" lon="22.69209667">
        <ele>156.8</ele>
        <time>2025-07-07T17:41:40Z</time>
      </trkpt>
      <trkpt lat="47.85711167" lon="22.692275">
        <ele>157.2</ele>
        <time>2025-07-07T17:41:42Z</time>
      </trkpt>
      <trkpt lat="47.85717167" lon="22.69244333">
        <ele>157.3</ele>
        <time>2025-07-07T17:41:44Z</time>
      </trkpt>
      <trkpt lat="47.85724" lon="22.69261667">
        <ele>157.7</ele>
        <time>2025-07-07T17:41:46Z</time>
      </trkpt>
      <trkpt lat="47.85729833" lon="22.69279">
        <ele>157.9</ele>
        <time>2025-07-07T17:41:48Z</time>
      </trkpt>
      <trkpt lat="47.85734667" lon="22.69294167">
        <ele>158.3</ele>
        <time>2025-07-07T17:41:50Z</time>
      </trkpt>
      <trkpt lat="47.85739" lon="22.69307167">
        <ele>158.1</ele>
        <time>2025-07-07T17:41:52Z</time>
      </trkpt>
      <trkpt lat="47.85743667" lon="22.693215">
        <ele>158.6</ele>
        <time>2025-07-07T17:41:55Z</time>
      </trkpt>
      <trkpt lat="47.857475" lon="22.69334833">
        <ele>160.5</ele>
        <time>2025-07-07T17:42:01Z</time>
      </trkpt>
      <trkpt lat="47.857445" lon="22.693485">
        <ele>160</ele>
        <time>2025-07-07T17:42:07Z</time>
      </trkpt>
      <trkpt lat="47.85735333" lon="22.693625">
        <ele>159.9</ele>
        <time>2025-07-07T17:42:10Z</time>
      </trkpt>
      <trkpt lat="47.857235" lon="22.69377167">
        <ele>156.4</ele>
        <time>2025-07-07T17:42:13Z</time>
      </trkpt>
      <trkpt lat="47.85713333" lon="22.69390167">
        <ele>155.8</ele>
        <time>2025-07-07T17:42:15Z</time>
      </trkpt>
      <trkpt lat="47.85701667" lon="22.69404833">
        <ele>156.2</ele>
        <time>2025-07-07T17:42:17Z</time>
      </trkpt>
      <trkpt lat="47.856885" lon="22.69421833">
        <ele>156.8</ele>
        <time>2025-07-07T17:42:19Z</time>
      </trkpt>
      <trkpt lat="47.85681833" lon="22.69431667">
        <ele>157.7</ele>
        <time>2025-07-07T17:42:20Z</time>
      </trkpt>
      <trkpt lat="47.85675" lon="22.69441">
        <ele>158.8</ele>
        <time>2025-07-07T17:42:21Z</time>
      </trkpt>
      <trkpt lat="47.85668333" lon="22.69450667">
        <ele>160</ele>
        <time>2025-07-07T17:42:22Z</time>
      </trkpt>
      <trkpt lat="47.856555" lon="22.69468">
        <ele>160.7</ele>
        <time>2025-07-07T17:42:24Z</time>
      </trkpt>
      <trkpt lat="47.856435" lon="22.69485">
        <ele>161.4</ele>
        <time>2025-07-07T17:42:26Z</time>
      </trkpt>
      <trkpt lat="47.85632833" lon="22.69505667">
        <ele>161.8</ele>
        <time>2025-07-07T17:42:28Z</time>
      </trkpt>
      <trkpt lat="47.85627833" lon="22.69517">
        <ele>161.6</ele>
        <time>2025-07-07T17:42:29Z</time>
      </trkpt>
      <trkpt lat="47.85623833" lon="22.69530667">
        <ele>161.3</ele>
        <time>2025-07-07T17:42:30Z</time>
      </trkpt>
      <trkpt lat="47.85620167" lon="22.69543833">
        <ele>160.3</ele>
        <time>2025-07-07T17:42:31Z</time>
      </trkpt>
      <trkpt lat="47.85616333" lon="22.69558">
        <ele>159.7</ele>
        <time>2025-07-07T17:42:32Z</time>
      </trkpt>
      <trkpt lat="47.85613167" lon="22.69574333">
        <ele>158.8</ele>
        <time>2025-07-07T17:42:33Z</time>
      </trkpt>
      <trkpt lat="47.856095" lon="22.69589833">
        <ele>158.6</ele>
        <time>2025-07-07T17:42:34Z</time>
      </trkpt>
      <trkpt lat="47.85605333" lon="22.69605333">
        <ele>158.4</ele>
        <time>2025-07-07T17:42:35Z</time>
      </trkpt>
      <trkpt lat="47.85601333" lon="22.69622167">
        <ele>157.8</ele>
        <time>2025-07-07T17:42:36Z</time>
      </trkpt>
      <trkpt lat="47.855975" lon="22.69639333">
        <ele>159.2</ele>
        <time>2025-07-07T17:42:37Z</time>
      </trkpt>
      <trkpt lat="47.855935" lon="22.69657">
        <ele>158.9</ele>
        <time>2025-07-07T17:42:38Z</time>
      </trkpt>
      <trkpt lat="47.85585667" lon="22.69693667">
        <ele>159.7</ele>
        <time>2025-07-07T17:42:40Z</time>
      </trkpt>
      <trkpt lat="47.85581667" lon="22.69711833">
        <ele>159.5</ele>
        <time>2025-07-07T17:42:41Z</time>
      </trkpt>
      <trkpt lat="47.85577" lon="22.69731833">
        <ele>158.5</ele>
        <time>2025-07-07T17:42:42Z</time>
      </trkpt>
      <trkpt lat="47.85567" lon="22.69771333">
        <ele>157.3</ele>
        <time>2025-07-07T17:42:44Z</time>
      </trkpt>
      <trkpt lat="47.85562167" lon="22.69791167">
        <ele>157.3</ele>
        <time>2025-07-07T17:42:45Z</time>
      </trkpt>
      <trkpt lat="47.855545" lon="22.69829833">
        <ele>157.6</ele>
        <time>2025-07-07T17:42:47Z</time>
      </trkpt>
      <trkpt lat="47.855505" lon="22.69849">
        <ele>158.5</ele>
        <time>2025-07-07T17:42:48Z</time>
      </trkpt>
      <trkpt lat="47.85546333" lon="22.69868">
        <ele>158.7</ele>
        <time>2025-07-07T17:42:49Z</time>
      </trkpt>
      <trkpt lat="47.85538167" lon="22.69903667">
        <ele>159.8</ele>
        <time>2025-07-07T17:42:51Z</time>
      </trkpt>
      <trkpt lat="47.85534833" lon="22.699215">
        <ele>159.8</ele>
        <time>2025-07-07T17:42:52Z</time>
      </trkpt>
      <trkpt lat="47.855315" lon="22.699375">
        <ele>158.9</ele>
        <time>2025-07-07T17:42:53Z</time>
      </trkpt>
      <trkpt lat="47.85524167" lon="22.69965667">
        <ele>158.8</ele>
        <time>2025-07-07T17:42:55Z</time>
      </trkpt>
      <trkpt lat="47.85520167" lon="22.69978333">
        <ele>158.2</ele>
        <time>2025-07-07T17:42:56Z</time>
      </trkpt>
      <trkpt lat="47.855165" lon="22.69991333">
        <ele>157.6</ele>
        <time>2025-07-07T17:42:57Z</time>
      </trkpt>
      <trkpt lat="47.85511667" lon="22.70017">
        <ele>156</ele>
        <time>2025-07-07T17:42:59Z</time>
      </trkpt>
      <trkpt lat="47.85507833" lon="22.7003">
        <ele>155.8</ele>
        <time>2025-07-07T17:43:00Z</time>
      </trkpt>
      <trkpt lat="47.85505333" lon="22.70044833">
        <ele>155.9</ele>
        <time>2025-07-07T17:43:01Z</time>
      </trkpt>
      <trkpt lat="47.85503333" lon="22.70059833">
        <ele>156.4</ele>
        <time>2025-07-07T17:43:02Z</time>
      </trkpt>
      <trkpt lat="47.85499333" lon="22.70074667">
        <ele>157.4</ele>
        <time>2025-07-07T17:43:03Z</time>
      </trkpt>
      <trkpt lat="47.85496333" lon="22.70091167">
        <ele>157.2</ele>
        <time>2025-07-07T17:43:04Z</time>
      </trkpt>
      <trkpt lat="47.85492333" lon="22.70107833">
        <ele>156.6</ele>
        <time>2025-07-07T17:43:05Z</time>
      </trkpt>
      <trkpt lat="47.85489" lon="22.70124333">
        <ele>156.7</ele>
        <time>2025-07-07T17:43:06Z</time>
      </trkpt>
      <trkpt lat="47.85486" lon="22.70141167">
        <ele>157.3</ele>
        <time>2025-07-07T17:43:07Z</time>
      </trkpt>
      <trkpt lat="47.85483333" lon="22.70157167">
        <ele>157.6</ele>
        <time>2025-07-07T17:43:08Z</time>
      </trkpt>
      <trkpt lat="47.85481" lon="22.70172333">
        <ele>158.1</ele>
        <time>2025-07-07T17:43:09Z</time>
      </trkpt>
      <trkpt lat="47.85476667" lon="22.70198">
        <ele>158.7</ele>
        <time>2025-07-07T17:43:11Z</time>
      </trkpt>
      <trkpt lat="47.854725" lon="22.70217833">
        <ele>158.6</ele>
        <time>2025-07-07T17:43:13Z</time>
      </trkpt>
      <trkpt lat="47.85469" lon="22.70236667">
        <ele>158.1</ele>
        <time>2025-07-07T17:43:15Z</time>
      </trkpt>
      <trkpt lat="47.85466333" lon="22.70258667">
        <ele>158</ele>
        <time>2025-07-07T17:43:17Z</time>
      </trkpt>
      <trkpt lat="47.854615" lon="22.70281667">
        <ele>156.6</ele>
        <time>2025-07-07T17:43:19Z</time>
      </trkpt>
      <trkpt lat="47.85456" lon="22.703075">
        <ele>156.5</ele>
        <time>2025-07-07T17:43:21Z</time>
      </trkpt>
      <trkpt lat="47.85452" lon="22.70319833">
        <ele>156.9</ele>
        <time>2025-07-07T17:43:22Z</time>
      </trkpt>
      <trkpt lat="47.85447333" lon="22.703325">
        <ele>156.9</ele>
        <time>2025-07-07T17:43:23Z</time>
      </trkpt>
      <trkpt lat="47.85442667" lon="22.70345333">
        <ele>157.9</ele>
        <time>2025-07-07T17:43:24Z</time>
      </trkpt>
      <trkpt lat="47.85438" lon="22.70358667">
        <ele>158.7</ele>
        <time>2025-07-07T17:43:25Z</time>
      </trkpt>
      <trkpt lat="47.854325" lon="22.70374">
        <ele>158.5</ele>
        <time>2025-07-07T17:43:26Z</time>
      </trkpt>
      <trkpt lat="47.85419167" lon="22.70403667">
        <ele>158.1</ele>
        <time>2025-07-07T17:43:28Z</time>
      </trkpt>
      <trkpt lat="47.85412333" lon="22.704205">
        <ele>157.6</ele>
        <time>2025-07-07T17:43:29Z</time>
      </trkpt>
      <trkpt lat="47.85403833" lon="22.70434667">
        <ele>157.5</ele>
        <time>2025-07-07T17:43:30Z</time>
      </trkpt>
      <trkpt lat="47.853955" lon="22.70447833">
        <ele>157.1</ele>
        <time>2025-07-07T17:43:31Z</time>
      </trkpt>
      <trkpt lat="47.85386833" lon="22.70461833">
        <ele>156.3</ele>
        <time>2025-07-07T17:43:32Z</time>
      </trkpt>
      <trkpt lat="47.85368" lon="22.70484333">
        <ele>157</ele>
        <time>2025-07-07T17:43:34Z</time>
      </trkpt>
      <trkpt lat="47.85358167" lon="22.70493333">
        <ele>157.5</ele>
        <time>2025-07-07T17:43:35Z</time>
      </trkpt>
      <trkpt lat="47.853485" lon="22.70501167">
        <ele>158.2</ele>
        <time>2025-07-07T17:43:36Z</time>
      </trkpt>
      <trkpt lat="47.85339333" lon="22.70508167">
        <ele>158.9</ele>
        <time>2025-07-07T17:43:37Z</time>
      </trkpt>
      <trkpt lat="47.853305" lon="22.70515667">
        <ele>159.1</ele>
        <time>2025-07-07T17:43:38Z</time>
      </trkpt>
      <trkpt lat="47.85321" lon="22.70523">
        <ele>159.5</ele>
        <time>2025-07-07T17:43:39Z</time>
      </trkpt>
      <trkpt lat="47.85312167" lon="22.70529833">
        <ele>160.1</ele>
        <time>2025-07-07T17:43:40Z</time>
      </trkpt>
      <trkpt lat="47.853015" lon="22.70536">
        <ele>159.9</ele>
        <time>2025-07-07T17:43:41Z</time>
      </trkpt>
      <trkpt lat="47.852915" lon="22.70541333">
        <ele>159.7</ele>
        <time>2025-07-07T17:43:42Z</time>
      </trkpt>
      <trkpt lat="47.85282667" lon="22.70546333">
        <ele>159.9</ele>
        <time>2025-07-07T17:43:43Z</time>
      </trkpt>
      <trkpt lat="47.85265667" lon="22.70556167">
        <ele>160.4</ele>
        <time>2025-07-07T17:43:45Z</time>
      </trkpt>
      <trkpt lat="47.85256333" lon="22.70561833">
        <ele>160.2</ele>
        <time>2025-07-07T17:43:46Z</time>
      </trkpt>
      <trkpt lat="47.85248" lon="22.70567">
        <ele>159.5</ele>
        <time>2025-07-07T17:43:47Z</time>
      </trkpt>
      <trkpt lat="47.85234667" lon="22.705775">
        <ele>159.4</ele>
        <time>2025-07-07T17:43:49Z</time>
      </trkpt>
      <trkpt lat="47.85227333" lon="22.70590667">
        <ele>160.1</ele>
        <time>2025-07-07T17:43:52Z</time>
      </trkpt>
      <trkpt lat="47.852245" lon="22.70608667">
        <ele>161.9</ele>
        <time>2025-07-07T17:43:56Z</time>
      </trkpt>
      <trkpt lat="47.85224" lon="22.70624833">
        <ele>161.3</ele>
        <time>2025-07-07T17:43:58Z</time>
      </trkpt>
      <trkpt lat="47.85223667" lon="22.70646">
        <ele>159.7</ele>
        <time>2025-07-07T17:44:00Z</time>
      </trkpt>
      <trkpt lat="47.85224" lon="22.706705">
        <ele>159.2</ele>
        <time>2025-07-07T17:44:02Z</time>
      </trkpt>
      <trkpt lat="47.85224167" lon="22.70684333">
        <ele>158.9</ele>
        <time>2025-07-07T17:44:03Z</time>
      </trkpt>
      <trkpt lat="47.85223833" lon="22.70698">
        <ele>158.6</ele>
        <time>2025-07-07T17:44:04Z</time>
      </trkpt>
      <trkpt lat="47.85222833" lon="22.70711667">
        <ele>158.7</ele>
        <time>2025-07-07T17:44:05Z</time>
      </trkpt>
      <trkpt lat="47.85221333" lon="22.70726167">
        <ele>158.7</ele>
        <time>2025-07-07T17:44:06Z</time>
      </trkpt>
      <trkpt lat="47.85219167" lon="22.70741167">
        <ele>158.4</ele>
        <time>2025-07-07T17:44:07Z</time>
      </trkpt>
      <trkpt lat="47.852165" lon="22.70755667">
        <ele>158.5</ele>
        <time>2025-07-07T17:44:08Z</time>
      </trkpt>
      <trkpt lat="47.852135" lon="22.707695">
        <ele>158.2</ele>
        <time>2025-07-07T17:44:09Z</time>
      </trkpt>
      <trkpt lat="47.85211" lon="22.70783">
        <ele>158.2</ele>
        <time>2025-07-07T17:44:10Z</time>
      </trkpt>
      <trkpt lat="47.85207333" lon="22.70805667">
        <ele>157.3</ele>
        <time>2025-07-07T17:44:12Z</time>
      </trkpt>
      <trkpt lat="47.85203833" lon="22.70823167">
        <ele>156.7</ele>
        <time>2025-07-07T17:44:14Z</time>
      </trkpt>
      <trkpt lat="47.852015" lon="22.70837167">
        <ele>156.2</ele>
        <time>2025-07-07T17:44:16Z</time>
      </trkpt>
      <trkpt lat="47.852" lon="22.70855333">
        <ele>155.7</ele>
        <time>2025-07-07T17:44:18Z</time>
      </trkpt>
      <trkpt lat="47.85196167" lon="22.70876167">
        <ele>154.8</ele>
        <time>2025-07-07T17:44:20Z</time>
      </trkpt>
      <trkpt lat="47.851915" lon="22.70898">
        <ele>154.8</ele>
        <time>2025-07-07T17:44:22Z</time>
      </trkpt>
      <trkpt lat="47.85186667" lon="22.70923167">
        <ele>155</ele>
        <time>2025-07-07T17:44:24Z</time>
      </trkpt>
      <trkpt lat="47.85181667" lon="22.70948833">
        <ele>154.8</ele>
        <time>2025-07-07T17:44:26Z</time>
      </trkpt>
      <trkpt lat="47.851755" lon="22.709725">
        <ele>154.8</ele>
        <time>2025-07-07T17:44:28Z</time>
      </trkpt>
      <trkpt lat="47.85169667" lon="22.70994">
        <ele>154.8</ele>
        <time>2025-07-07T17:44:30Z</time>
      </trkpt>
      <trkpt lat="47.85164333" lon="22.71013167">
        <ele>155.5</ele>
        <time>2025-07-07T17:44:32Z</time>
      </trkpt>
      <trkpt lat="47.85159333" lon="22.71026">
        <ele>156.1</ele>
        <time>2025-07-07T17:44:34Z</time>
      </trkpt>
      <trkpt lat="47.85154167" lon="22.71038333">
        <ele>156.5</ele>
        <time>2025-07-07T17:44:43Z</time>
      </trkpt>
      <trkpt lat="47.85157833" lon="22.71055333">
        <ele>156.6</ele>
        <time>2025-07-07T17:44:46Z</time>
      </trkpt>
      <trkpt lat="47.85164667" lon="22.71068">
        <ele>157.5</ele>
        <time>2025-07-07T17:44:48Z</time>
      </trkpt>
      <trkpt lat="47.85172333" lon="22.71080333">
        <ele>159.3</ele>
        <time>2025-07-07T17:44:50Z</time>
      </trkpt>
      <trkpt lat="47.85182667" lon="22.71096833">
        <ele>162.1</ele>
        <time>2025-07-07T17:44:52Z</time>
      </trkpt>
      <trkpt lat="47.85193" lon="22.71115333">
        <ele>164</ele>
        <time>2025-07-07T17:44:54Z</time>
      </trkpt>
      <trkpt lat="47.852045" lon="22.71134">
        <ele>164.9</ele>
        <time>2025-07-07T17:44:56Z</time>
      </trkpt>
      <trkpt lat="47.85210667" lon="22.71144667">
        <ele>164.1</ele>
        <time>2025-07-07T17:44:57Z</time>
      </trkpt>
      <trkpt lat="47.85216667" lon="22.71156167">
        <ele>163.2</ele>
        <time>2025-07-07T17:44:58Z</time>
      </trkpt>
      <trkpt lat="47.85223333" lon="22.71167333">
        <ele>161.7</ele>
        <time>2025-07-07T17:44:59Z</time>
      </trkpt>
      <trkpt lat="47.85228833" lon="22.71179">
        <ele>161.5</ele>
        <time>2025-07-07T17:45:00Z</time>
      </trkpt>
      <trkpt lat="47.85235667" lon="22.71191833">
        <ele>161.9</ele>
        <time>2025-07-07T17:45:01Z</time>
      </trkpt>
      <trkpt lat="47.85242833" lon="22.71204">
        <ele>162.5</ele>
        <time>2025-07-07T17:45:02Z</time>
      </trkpt>
      <trkpt lat="47.85249833" lon="22.71215667">
        <ele>163.3</ele>
        <time>2025-07-07T17:45:03Z</time>
      </trkpt>
      <trkpt lat="47.85257167" lon="22.71228">
        <ele>163.7</ele>
        <time>2025-07-07T17:45:04Z</time>
      </trkpt>
      <trkpt lat="47.85264833" lon="22.71241333">
        <ele>164.1</ele>
        <time>2025-07-07T17:45:05Z</time>
      </trkpt>
      <trkpt lat="47.85273333" lon="22.712555">
        <ele>164.5</ele>
        <time>2025-07-07T17:45:06Z</time>
      </trkpt>
      <trkpt lat="47.852815" lon="22.71269833">
        <ele>164.6</ele>
        <time>2025-07-07T17:45:07Z</time>
      </trkpt>
      <trkpt lat="47.85289833" lon="22.71284">
        <ele>164.8</ele>
        <time>2025-07-07T17:45:08Z</time>
      </trkpt>
      <trkpt lat="47.85298" lon="22.71299">
        <ele>164.9</ele>
        <time>2025-07-07T17:45:09Z</time>
      </trkpt>
      <trkpt lat="47.85306833" lon="22.71313333">
        <ele>164.2</ele>
        <time>2025-07-07T17:45:10Z</time>
      </trkpt>
      <trkpt lat="47.853155" lon="22.713285">
        <ele>163.8</ele>
        <time>2025-07-07T17:45:11Z</time>
      </trkpt>
      <trkpt lat="47.85322667" lon="22.713435">
        <ele>163.3</ele>
        <time>2025-07-07T17:45:12Z</time>
      </trkpt>
      <trkpt lat="47.853295" lon="22.713585">
        <ele>162.9</ele>
        <time>2025-07-07T17:45:13Z</time>
      </trkpt>
      <trkpt lat="47.85336" lon="22.71371167">
        <ele>162.7</ele>
        <time>2025-07-07T17:45:14Z</time>
      </trkpt>
      <trkpt lat="47.853415" lon="22.71385167">
        <ele>162.1</ele>
        <time>2025-07-07T17:45:15Z</time>
      </trkpt>
      <trkpt lat="47.85346" lon="22.71398333">
        <ele>162.2</ele>
        <time>2025-07-07T17:45:16Z</time>
      </trkpt>
      <trkpt lat="47.853515" lon="22.71411333">
        <ele>162.7</ele>
        <time>2025-07-07T17:45:17Z</time>
      </trkpt>
      <trkpt lat="47.85357167" lon="22.71425333">
        <ele>163.2</ele>
        <time>2025-07-07T17:45:18Z</time>
      </trkpt>
      <trkpt lat="47.85364167" lon="22.71437833">
        <ele>162.1</ele>
        <time>2025-07-07T17:45:19Z</time>
      </trkpt>
      <trkpt lat="47.85372667" lon="22.7145">
        <ele>162</ele>
        <time>2025-07-07T17:45:20Z</time>
      </trkpt>
      <trkpt lat="47.85381167" lon="22.71460833">
        <ele>161.4</ele>
        <time>2025-07-07T17:45:21Z</time>
      </trkpt>
      <trkpt lat="47.85390333" lon="22.71473">
        <ele>160</ele>
        <time>2025-07-07T17:45:22Z</time>
      </trkpt>
      <trkpt lat="47.85399667" lon="22.71484667">
        <ele>160.5</ele>
        <time>2025-07-07T17:45:23Z</time>
      </trkpt>
      <trkpt lat="47.85408667" lon="22.714965">
        <ele>161.5</ele>
        <time>2025-07-07T17:45:24Z</time>
      </trkpt>
      <trkpt lat="47.85417" lon="22.71507833">
        <ele>163.1</ele>
        <time>2025-07-07T17:45:25Z</time>
      </trkpt>
      <trkpt lat="47.85425" lon="22.71517667">
        <ele>163.6</ele>
        <time>2025-07-07T17:45:26Z</time>
      </trkpt>
      <trkpt lat="47.85437167" lon="22.71534667">
        <ele>164.5</ele>
        <time>2025-07-07T17:45:28Z</time>
      </trkpt>
      <trkpt lat="47.85446" lon="22.7155">
        <ele>164.9</ele>
        <time>2025-07-07T17:45:30Z</time>
      </trkpt>
      <trkpt lat="47.85453" lon="22.71568833">
        <ele>165.5</ele>
        <time>2025-07-07T17:45:32Z</time>
      </trkpt>
      <trkpt lat="47.854605" lon="22.71591333">
        <ele>164.9</ele>
        <time>2025-07-07T17:45:34Z</time>
      </trkpt>
      <trkpt lat="47.85463333" lon="22.71605">
        <ele>164.1</ele>
        <time>2025-07-07T17:45:35Z</time>
      </trkpt>
      <trkpt lat="47.85466333" lon="22.716185">
        <ele>163.9</ele>
        <time>2025-07-07T17:45:36Z</time>
      </trkpt>
      <trkpt lat="47.85469" lon="22.716325">
        <ele>163.5</ele>
        <time>2025-07-07T17:45:37Z</time>
      </trkpt>
      <trkpt lat="47.85472167" lon="22.71646667">
        <ele>163.3</ele>
        <time>2025-07-07T17:45:38Z</time>
      </trkpt>
      <trkpt lat="47.85474667" lon="22.71661">
        <ele>162.6</ele>
        <time>2025-07-07T17:45:39Z</time>
      </trkpt>
      <trkpt lat="47.85477" lon="22.71675333">
        <ele>162.3</ele>
        <time>2025-07-07T17:45:40Z</time>
      </trkpt>
      <trkpt lat="47.85478333" lon="22.71690333">
        <ele>162.3</ele>
        <time>2025-07-07T17:45:41Z</time>
      </trkpt>
      <trkpt lat="47.85479667" lon="22.717045">
        <ele>162.3</ele>
        <time>2025-07-07T17:45:42Z</time>
      </trkpt>
      <trkpt lat="47.85482833" lon="22.71729833">
        <ele>161.7</ele>
        <time>2025-07-07T17:45:44Z</time>
      </trkpt>
      <trkpt lat="47.85488833" lon="22.71751167">
        <ele>160.6</ele>
        <time>2025-07-07T17:45:46Z</time>
      </trkpt>
      <trkpt lat="47.85495667" lon="22.71768">
        <ele>159.9</ele>
        <time>2025-07-07T17:45:48Z</time>
      </trkpt>
      <trkpt lat="47.855035" lon="22.71778167">
        <ele>158.8</ele>
        <time>2025-07-07T17:45:50Z</time>
      </trkpt>
      <trkpt lat="47.85515167" lon="22.717815">
        <ele>157.7</ele>
        <time>2025-07-07T17:45:53Z</time>
      </trkpt>
      <trkpt lat="47.85524167" lon="22.71776333">
        <ele>158.3</ele>
        <time>2025-07-07T17:46:00Z</time>
      </trkpt>
      <trkpt lat="47.85533333" lon="22.717785">
        <ele>160.8</ele>
        <time>2025-07-07T17:46:08Z</time>
      </trkpt>
      <trkpt lat="47.85539" lon="22.71789">
        <ele>159.5</ele>
        <time>2025-07-07T17:46:19Z</time>
      </trkpt>
      <trkpt lat="47.85542667" lon="22.71805">
        <ele>159.7</ele>
        <time>2025-07-07T17:46:22Z</time>
      </trkpt>
      <trkpt lat="47.85545167" lon="22.71818333">
        <ele>159</ele>
        <time>2025-07-07T17:46:24Z</time>
      </trkpt>
      <trkpt lat="47.85548333" lon="22.718345">
        <ele>159.7</ele>
        <time>2025-07-07T17:46:26Z</time>
      </trkpt>
      <trkpt lat="47.855535" lon="22.71853333">
        <ele>161</ele>
        <time>2025-07-07T17:46:28Z</time>
      </trkpt>
      <trkpt lat="47.855585" lon="22.718745">
        <ele>161.6</ele>
        <time>2025-07-07T17:46:30Z</time>
      </trkpt>
      <trkpt lat="47.855645" lon="22.71897">
        <ele>161.2</ele>
        <time>2025-07-07T17:46:32Z</time>
      </trkpt>
      <trkpt lat="47.85567667" lon="22.71909833">
        <ele>161.6</ele>
        <time>2025-07-07T17:46:33Z</time>
      </trkpt>
      <trkpt lat="47.85571833" lon="22.71923333">
        <ele>162.2</ele>
        <time>2025-07-07T17:46:34Z</time>
      </trkpt>
      <trkpt lat="47.855765" lon="22.71936833">
        <ele>162.4</ele>
        <time>2025-07-07T17:46:35Z</time>
      </trkpt>
      <trkpt lat="47.85581167" lon="22.71951333">
        <ele>162.5</ele>
        <time>2025-07-07T17:46:36Z</time>
      </trkpt>
      <trkpt lat="47.85586167" lon="22.71965667">
        <ele>162.1</ele>
        <time>2025-07-07T17:46:37Z</time>
      </trkpt>
      <trkpt lat="47.85590833" lon="22.71980667">
        <ele>161.2</ele>
        <time>2025-07-07T17:46:38Z</time>
      </trkpt>
      <trkpt lat="47.85595833" lon="22.71996">
        <ele>160.9</ele>
        <time>2025-07-07T17:46:39Z</time>
      </trkpt>
      <trkpt lat="47.85600333" lon="22.720115">
        <ele>160.8</ele>
        <time>2025-07-07T17:46:40Z</time>
      </trkpt>
      <trkpt lat="47.856055" lon="22.72027333">
        <ele>161.1</ele>
        <time>2025-07-07T17:46:41Z</time>
      </trkpt>
      <trkpt lat="47.85611833" lon="22.72045">
        <ele>161.6</ele>
        <time>2025-07-07T17:46:42Z</time>
      </trkpt>
      <trkpt lat="47.85618167" lon="22.72062833">
        <ele>162</ele>
        <time>2025-07-07T17:46:43Z</time>
      </trkpt>
      <trkpt lat="47.85624833" lon="22.72079667">
        <ele>161.9</ele>
        <time>2025-07-07T17:46:44Z</time>
      </trkpt>
      <trkpt lat="47.85631833" lon="22.72097833">
        <ele>161.5</ele>
        <time>2025-07-07T17:46:45Z</time>
      </trkpt>
      <trkpt lat="47.8564" lon="22.721165">
        <ele>161.6</ele>
        <time>2025-07-07T17:46:46Z</time>
      </trkpt>
      <trkpt lat="47.85647" lon="22.72135667">
        <ele>162</ele>
        <time>2025-07-07T17:46:47Z</time>
      </trkpt>
      <trkpt lat="47.85654333" lon="22.721535">
        <ele>161.9</ele>
        <time>2025-07-07T17:46:48Z</time>
      </trkpt>
      <trkpt lat="47.85662333" lon="22.72172">
        <ele>162.7</ele>
        <time>2025-07-07T17:46:49Z</time>
      </trkpt>
      <trkpt lat="47.85669" lon="22.72189833">
        <ele>163.6</ele>
        <time>2025-07-07T17:46:50Z</time>
      </trkpt>
      <trkpt lat="47.85676167" lon="22.72208167">
        <ele>163.9</ele>
        <time>2025-07-07T17:46:51Z</time>
      </trkpt>
      <trkpt lat="47.856835" lon="22.72228333">
        <ele>163.2</ele>
        <time>2025-07-07T17:46:52Z</time>
      </trkpt>
      <trkpt lat="47.85691333" lon="22.722475">
        <ele>162.1</ele>
        <time>2025-07-07T17:46:53Z</time>
      </trkpt>
      <trkpt lat="47.857" lon="22.72267333">
        <ele>161.2</ele>
        <time>2025-07-07T17:46:54Z</time>
      </trkpt>
      <trkpt lat="47.857085" lon="22.722865">
        <ele>160.7</ele>
        <time>2025-07-07T17:46:55Z</time>
      </trkpt>
      <trkpt lat="47.85717333" lon="22.723055">
        <ele>160.9</ele>
        <time>2025-07-07T17:46:56Z</time>
      </trkpt>
      <trkpt lat="47.85726333" lon="22.723255">
        <ele>161.3</ele>
        <time>2025-07-07T17:46:57Z</time>
      </trkpt>
      <trkpt lat="47.85734667" lon="22.723455">
        <ele>161.9</ele>
        <time>2025-07-07T17:46:58Z</time>
      </trkpt>
      <trkpt lat="47.85743667" lon="22.72365">
        <ele>162.1</ele>
        <time>2025-07-07T17:46:59Z</time>
      </trkpt>
      <trkpt lat="47.857525" lon="22.72384833">
        <ele>161</ele>
        <time>2025-07-07T17:47:00Z</time>
      </trkpt>
      <trkpt lat="47.85761167" lon="22.72405333">
        <ele>161</ele>
        <time>2025-07-07T17:47:01Z</time>
      </trkpt>
      <trkpt lat="47.85770167" lon="22.724245">
        <ele>160.4</ele>
        <time>2025-07-07T17:47:02Z</time>
      </trkpt>
      <trkpt lat="47.85779333" lon="22.724435">
        <ele>160.9</ele>
        <time>2025-07-07T17:47:03Z</time>
      </trkpt>
      <trkpt lat="47.85789333" lon="22.724655">
        <ele>160.4</ele>
        <time>2025-07-07T17:47:04Z</time>
      </trkpt>
      <trkpt lat="47.85797333" lon="22.72486667">
        <ele>159.8</ele>
        <time>2025-07-07T17:47:05Z</time>
      </trkpt>
      <trkpt lat="47.85806833" lon="22.72507667">
        <ele>159.8</ele>
        <time>2025-07-07T17:47:06Z</time>
      </trkpt>
      <trkpt lat="47.85815333" lon="22.72528">
        <ele>160.6</ele>
        <time>2025-07-07T17:47:07Z</time>
      </trkpt>
      <trkpt lat="47.85824667" lon="22.72549833">
        <ele>160.3</ele>
        <time>2025-07-07T17:47:08Z</time>
      </trkpt>
      <trkpt lat="47.85833333" lon="22.72571167">
        <ele>159.2</ele>
        <time>2025-07-07T17:47:09Z</time>
      </trkpt>
      <trkpt lat="47.85842167" lon="22.72592667">
        <ele>158.3</ele>
        <time>2025-07-07T17:47:10Z</time>
      </trkpt>
      <trkpt lat="47.858515" lon="22.72613833">
        <ele>158.7</ele>
        <time>2025-07-07T17:47:11Z</time>
      </trkpt>
      <trkpt lat="47.858605" lon="22.72636833">
        <ele>158.8</ele>
        <time>2025-07-07T17:47:12Z</time>
      </trkpt>
      <trkpt lat="47.85869167" lon="22.72657667">
        <ele>159.9</ele>
        <time>2025-07-07T17:47:13Z</time>
      </trkpt>
      <trkpt lat="47.85878167" lon="22.72678667">
        <ele>160.2</ele>
        <time>2025-07-07T17:47:14Z</time>
      </trkpt>
      <trkpt lat="47.85887833" lon="22.727">
        <ele>159.8</ele>
        <time>2025-07-07T17:47:15Z</time>
      </trkpt>
      <trkpt lat="47.85896833" lon="22.72720833">
        <ele>159.8</ele>
        <time>2025-07-07T17:47:16Z</time>
      </trkpt>
      <trkpt lat="47.85905" lon="22.72741833">
        <ele>159.1</ele>
        <time>2025-07-07T17:47:17Z</time>
      </trkpt>
      <trkpt lat="47.85914833" lon="22.72763833">
        <ele>159.3</ele>
        <time>2025-07-07T17:47:18Z</time>
      </trkpt>
      <trkpt lat="47.859245" lon="22.72786333">
        <ele>159.3</ele>
        <time>2025-07-07T17:47:19Z</time>
      </trkpt>
      <trkpt lat="47.85934833" lon="22.728085">
        <ele>159.9</ele>
        <time>2025-07-07T17:47:20Z</time>
      </trkpt>
      <trkpt lat="47.85944167" lon="22.72831167">
        <ele>158.8</ele>
        <time>2025-07-07T17:47:21Z</time>
      </trkpt>
      <trkpt lat="47.85954" lon="22.72853167">
        <ele>157.6</ele>
        <time>2025-07-07T17:47:22Z</time>
      </trkpt>
      <trkpt lat="47.85964167" lon="22.72875833">
        <ele>158.2</ele>
        <time>2025-07-07T17:47:23Z</time>
      </trkpt>
      <trkpt lat="47.85973667" lon="22.72898667">
        <ele>158</ele>
        <time>2025-07-07T17:47:24Z</time>
      </trkpt>
      <trkpt lat="47.85983833" lon="22.72920333">
        <ele>158.3</ele>
        <time>2025-07-07T17:47:25Z</time>
      </trkpt>
      <trkpt lat="47.85994" lon="22.72943167">
        <ele>158.1</ele>
        <time>2025-07-07T17:47:26Z</time>
      </trkpt>
      <trkpt lat="47.86002667" lon="22.72965833">
        <ele>159.2</ele>
        <time>2025-07-07T17:47:27Z</time>
      </trkpt>
      <trkpt lat="47.86012" lon="22.72988167">
        <ele>160.6</ele>
        <time>2025-07-07T17:47:28Z</time>
      </trkpt>
      <trkpt lat="47.860215" lon="22.73010833">
        <ele>161.6</ele>
        <time>2025-07-07T17:47:29Z</time>
      </trkpt>
      <trkpt lat="47.86031333" lon="22.73033333">
        <ele>161.2</ele>
        <time>2025-07-07T17:47:30Z</time>
      </trkpt>
      <trkpt lat="47.86040667" lon="22.73056667">
        <ele>161</ele>
        <time>2025-07-07T17:47:31Z</time>
      </trkpt>
      <trkpt lat="47.86050833" lon="22.73078667">
        <ele>161.7</ele>
        <time>2025-07-07T17:47:32Z</time>
      </trkpt>
      <trkpt lat="47.860605" lon="22.73101333">
        <ele>161.8</ele>
        <time>2025-07-07T17:47:33Z</time>
      </trkpt>
      <trkpt lat="47.86070333" lon="22.73124167">
        <ele>161.1</ele>
        <time>2025-07-07T17:47:34Z</time>
      </trkpt>
      <trkpt lat="47.86079833" lon="22.731465">
        <ele>160.3</ele>
        <time>2025-07-07T17:47:35Z</time>
      </trkpt>
      <trkpt lat="47.860895" lon="22.73168667">
        <ele>160.6</ele>
        <time>2025-07-07T17:47:36Z</time>
      </trkpt>
      <trkpt lat="47.86099167" lon="22.73191833">
        <ele>160.2</ele>
        <time>2025-07-07T17:47:37Z</time>
      </trkpt>
      <trkpt lat="47.86109167" lon="22.73215167">
        <ele>160.8</ele>
        <time>2025-07-07T17:47:38Z</time>
      </trkpt>
      <trkpt lat="47.86119" lon="22.73237833">
        <ele>161.2</ele>
        <time>2025-07-07T17:47:39Z</time>
      </trkpt>
      <trkpt lat="47.86128833" lon="22.73261333">
        <ele>160.5</ele>
        <time>2025-07-07T17:47:40Z</time>
      </trkpt>
      <trkpt lat="47.86137833" lon="22.73283833">
        <ele>159.7</ele>
        <time>2025-07-07T17:47:41Z</time>
      </trkpt>
      <trkpt lat="47.86147333" lon="22.73306">
        <ele>159.5</ele>
        <time>2025-07-07T17:47:42Z</time>
      </trkpt>
      <trkpt lat="47.86156" lon="22.73328333">
        <ele>159.2</ele>
        <time>2025-07-07T17:47:43Z</time>
      </trkpt>
      <trkpt lat="47.86165333" lon="22.73350333">
        <ele>159.8</ele>
        <time>2025-07-07T17:47:44Z</time>
      </trkpt>
      <trkpt lat="47.86175333" lon="22.73372">
        <ele>160</ele>
        <time>2025-07-07T17:47:45Z</time>
      </trkpt>
      <trkpt lat="47.86185167" lon="22.73393667">
        <ele>160.1</ele>
        <time>2025-07-07T17:47:46Z</time>
      </trkpt>
      <trkpt lat="47.86195167" lon="22.734145">
        <ele>159.9</ele>
        <time>2025-07-07T17:47:47Z</time>
      </trkpt>
      <trkpt lat="47.86204167" lon="22.73434833">
        <ele>160.3</ele>
        <time>2025-07-07T17:47:48Z</time>
      </trkpt>
      <trkpt lat="47.86213667" lon="22.73456">
        <ele>159.7</ele>
        <time>2025-07-07T17:47:49Z</time>
      </trkpt>
      <trkpt lat="47.862235" lon="22.73476833">
        <ele>160</ele>
        <time>2025-07-07T17:47:50Z</time>
      </trkpt>
      <trkpt lat="47.86233" lon="22.73497833">
        <ele>159.5</ele>
        <time>2025-07-07T17:47:51Z</time>
      </trkpt>
      <trkpt lat="47.862425" lon="22.73518333">
        <ele>159.9</ele>
        <time>2025-07-07T17:47:52Z</time>
      </trkpt>
      <trkpt lat="47.86251167" lon="22.73537667">
        <ele>160</ele>
        <time>2025-07-07T17:47:53Z</time>
      </trkpt>
      <trkpt lat="47.86259167" lon="22.73557333">
        <ele>160.3</ele>
        <time>2025-07-07T17:47:54Z</time>
      </trkpt>
      <trkpt lat="47.86267" lon="22.73577">
        <ele>160.6</ele>
        <time>2025-07-07T17:47:55Z</time>
      </trkpt>
      <trkpt lat="47.86274667" lon="22.73597">
        <ele>160.1</ele>
        <time>2025-07-07T17:47:56Z</time>
      </trkpt>
      <trkpt lat="47.86281333" lon="22.73616">
        <ele>159.2</ele>
        <time>2025-07-07T17:47:57Z</time>
      </trkpt>
      <trkpt lat="47.86288667" lon="22.73633333">
        <ele>159.4</ele>
        <time>2025-07-07T17:47:58Z</time>
      </trkpt>
      <trkpt lat="47.86296667" lon="22.73651167">
        <ele>159.3</ele>
        <time>2025-07-07T17:47:59Z</time>
      </trkpt>
      <trkpt lat="47.86304667" lon="22.73668833">
        <ele>158.6</ele>
        <time>2025-07-07T17:48:00Z</time>
      </trkpt>
      <trkpt lat="47.86312167" lon="22.736865">
        <ele>158.9</ele>
        <time>2025-07-07T17:48:01Z</time>
      </trkpt>
      <trkpt lat="47.86319333" lon="22.73703667">
        <ele>159.5</ele>
        <time>2025-07-07T17:48:02Z</time>
      </trkpt>
      <trkpt lat="47.86326333" lon="22.73719">
        <ele>159.4</ele>
        <time>2025-07-07T17:48:03Z</time>
      </trkpt>
      <trkpt lat="47.86333167" lon="22.73733167">
        <ele>159.3</ele>
        <time>2025-07-07T17:48:04Z</time>
      </trkpt>
      <trkpt lat="47.86339167" lon="22.73745167">
        <ele>160</ele>
        <time>2025-07-07T17:48:05Z</time>
      </trkpt>
      <trkpt lat="47.86344167" lon="22.73758333">
        <ele>160.6</ele>
        <time>2025-07-07T17:48:06Z</time>
      </trkpt>
      <trkpt lat="47.86348833" lon="22.73771">
        <ele>160.8</ele>
        <time>2025-07-07T17:48:07Z</time>
      </trkpt>
      <trkpt lat="47.86355167" lon="22.7379">
        <ele>160.5</ele>
        <time>2025-07-07T17:48:09Z</time>
      </trkpt>
      <trkpt lat="47.86361333" lon="22.73804833">
        <ele>160.1</ele>
        <time>2025-07-07T17:48:12Z</time>
      </trkpt>
      <trkpt lat="47.86371833" lon="22.73807167">
        <ele>160.3</ele>
        <time>2025-07-07T17:48:16Z</time>
      </trkpt>
      <trkpt lat="47.86381" lon="22.73798667">
        <ele>159.5</ele>
        <time>2025-07-07T17:48:19Z</time>
      </trkpt>
      <trkpt lat="47.86390333" lon="22.737835">
        <ele>159</ele>
        <time>2025-07-07T17:48:22Z</time>
      </trkpt>
      <trkpt lat="47.863965" lon="22.73767833">
        <ele>158.2</ele>
        <time>2025-07-07T17:48:24Z</time>
      </trkpt>
      <trkpt lat="47.864015" lon="22.7375">
        <ele>158</ele>
        <time>2025-07-07T17:48:26Z</time>
      </trkpt>
      <trkpt lat="47.86406167" lon="22.73732833">
        <ele>158.1</ele>
        <time>2025-07-07T17:48:28Z</time>
      </trkpt>
      <trkpt lat="47.86410667" lon="22.73718833">
        <ele>157.4</ele>
        <time>2025-07-07T17:48:30Z</time>
      </trkpt>
      <trkpt lat="47.86414833" lon="22.73702833">
        <ele>157.3</ele>
        <time>2025-07-07T17:48:33Z</time>
      </trkpt>
      <trkpt lat="47.86422333" lon="22.73689667">
        <ele>155.8</ele>
        <time>2025-07-07T17:49:15Z</time>
      </trkpt>
      <trkpt lat="47.86427" lon="22.73672333">
        <ele>156.6</ele>
        <time>2025-07-07T17:49:18Z</time>
      </trkpt>
      <trkpt lat="47.86432167" lon="22.736525">
        <ele>156.9</ele>
        <time>2025-07-07T17:49:21Z</time>
      </trkpt>
      <trkpt lat="47.86437" lon="22.736355">
        <ele>157.9</ele>
        <time>2025-07-07T17:49:23Z</time>
      </trkpt>
      <trkpt lat="47.86442167" lon="22.73617167">
        <ele>158.3</ele>
        <time>2025-07-07T17:49:25Z</time>
      </trkpt>
      <trkpt lat="47.86447833" lon="22.73598333">
        <ele>159.3</ele>
        <time>2025-07-07T17:49:27Z</time>
      </trkpt>
      <trkpt lat="47.86453667" lon="22.73577833">
        <ele>159.9</ele>
        <time>2025-07-07T17:49:29Z</time>
      </trkpt>
      <trkpt lat="47.86460167" lon="22.73555333">
        <ele>159.8</ele>
        <time>2025-07-07T17:49:31Z</time>
      </trkpt>
      <trkpt lat="47.86467167" lon="22.73530667">
        <ele>159.4</ele>
        <time>2025-07-07T17:49:33Z</time>
      </trkpt>
      <trkpt lat="47.864715" lon="22.73517167">
        <ele>158.7</ele>
        <time>2025-07-07T17:49:34Z</time>
      </trkpt>
      <trkpt lat="47.86475333" lon="22.73504">
        <ele>157.8</ele>
        <time>2025-07-07T17:49:35Z</time>
      </trkpt>
      <trkpt lat="47.86478667" lon="22.73490833">
        <ele>157.2</ele>
        <time>2025-07-07T17:49:36Z</time>
      </trkpt>
      <trkpt lat="47.86482333" lon="22.73476833">
        <ele>155.8</ele>
        <time>2025-07-07T17:49:37Z</time>
      </trkpt>
      <trkpt lat="47.864865" lon="22.73462833">
        <ele>155.3</ele>
        <time>2025-07-07T17:49:38Z</time>
      </trkpt>
      <trkpt lat="47.86491" lon="22.73448667">
        <ele>155.5</ele>
        <time>2025-07-07T17:49:39Z</time>
      </trkpt>
      <trkpt lat="47.86494333" lon="22.734345">
        <ele>156.7</ele>
        <time>2025-07-07T17:49:40Z</time>
      </trkpt>
      <trkpt lat="47.86498167" lon="22.7342">
        <ele>157.4</ele>
        <time>2025-07-07T17:49:41Z</time>
      </trkpt>
      <trkpt lat="47.86502167" lon="22.73405667">
        <ele>158.1</ele>
        <time>2025-07-07T17:49:42Z</time>
      </trkpt>
      <trkpt lat="47.86506333" lon="22.73390833">
        <ele>157.4</ele>
        <time>2025-07-07T17:49:43Z</time>
      </trkpt>
      <trkpt lat="47.86510667" lon="22.733765">
        <ele>158.3</ele>
        <time>2025-07-07T17:49:44Z</time>
      </trkpt>
      <trkpt lat="47.86514833" lon="22.73361333">
        <ele>158</ele>
        <time>2025-07-07T17:49:45Z</time>
      </trkpt>
      <trkpt lat="47.86519333" lon="22.73346167">
        <ele>158</ele>
        <time>2025-07-07T17:49:46Z</time>
      </trkpt>
      <trkpt lat="47.86523833" lon="22.73330333">
        <ele>158.8</ele>
        <time>2025-07-07T17:49:47Z</time>
      </trkpt>
      <trkpt lat="47.86528333" lon="22.73314667">
        <ele>158.4</ele>
        <time>2025-07-07T17:49:48Z</time>
      </trkpt>
      <trkpt lat="47.86532333" lon="22.73298833">
        <ele>157.8</ele>
        <time>2025-07-07T17:49:49Z</time>
      </trkpt>
      <trkpt lat="47.865375" lon="22.73282833">
        <ele>158.1</ele>
        <time>2025-07-07T17:49:50Z</time>
      </trkpt>
      <trkpt lat="47.86542167" lon="22.732665">
        <ele>158.6</ele>
        <time>2025-07-07T17:49:51Z</time>
      </trkpt>
      <trkpt lat="47.86546667" lon="22.73250167">
        <ele>158.7</ele>
        <time>2025-07-07T17:49:52Z</time>
      </trkpt>
      <trkpt lat="47.86551333" lon="22.73233667">
        <ele>158.5</ele>
        <time>2025-07-07T17:49:53Z</time>
      </trkpt>
      <trkpt lat="47.86555833" lon="22.73217833">
        <ele>158.6</ele>
        <time>2025-07-07T17:49:54Z</time>
      </trkpt>
      <trkpt lat="47.86560333" lon="22.73202">
        <ele>157.8</ele>
        <time>2025-07-07T17:49:55Z</time>
      </trkpt>
      <trkpt lat="47.865655" lon="22.73186167">
        <ele>158.5</ele>
        <time>2025-07-07T17:49:56Z</time>
      </trkpt>
      <trkpt lat="47.86570333" lon="22.73169833">
        <ele>159.1</ele>
        <time>2025-07-07T17:49:57Z</time>
      </trkpt>
      <trkpt lat="47.86574833" lon="22.731535">
        <ele>158.7</ele>
        <time>2025-07-07T17:49:58Z</time>
      </trkpt>
      <trkpt lat="47.86579833" lon="22.73138">
        <ele>158.7</ele>
        <time>2025-07-07T17:49:59Z</time>
      </trkpt>
      <trkpt lat="47.865845" lon="22.73122333">
        <ele>158.3</ele>
        <time>2025-07-07T17:50:00Z</time>
      </trkpt>
      <trkpt lat="47.86588833" lon="22.731075">
        <ele>157.8</ele>
        <time>2025-07-07T17:50:01Z</time>
      </trkpt>
      <trkpt lat="47.86592833" lon="22.73092667">
        <ele>157.7</ele>
        <time>2025-07-07T17:50:02Z</time>
      </trkpt>
      <trkpt lat="47.86596333" lon="22.73078">
        <ele>157.7</ele>
        <time>2025-07-07T17:50:03Z</time>
      </trkpt>
      <trkpt lat="47.86600167" lon="22.730635">
        <ele>157.7</ele>
        <time>2025-07-07T17:50:04Z</time>
      </trkpt>
      <trkpt lat="47.86603833" lon="22.73049667">
        <ele>157.4</ele>
        <time>2025-07-07T17:50:05Z</time>
      </trkpt>
      <trkpt lat="47.866075" lon="22.73036167">
        <ele>157.2</ele>
        <time>2025-07-07T17:50:06Z</time>
      </trkpt>
      <trkpt lat="47.86611" lon="22.73022167">
        <ele>157.3</ele>
        <time>2025-07-07T17:50:07Z</time>
      </trkpt>
      <trkpt lat="47.86615833" lon="22.730085">
        <ele>157.1</ele>
        <time>2025-07-07T17:50:08Z</time>
      </trkpt>
      <trkpt lat="47.86619833" lon="22.72994667">
        <ele>157.2</ele>
        <time>2025-07-07T17:50:09Z</time>
      </trkpt>
      <trkpt lat="47.866245" lon="22.729815">
        <ele>157.4</ele>
        <time>2025-07-07T17:50:10Z</time>
      </trkpt>
      <trkpt lat="47.86628667" lon="22.72968333">
        <ele>156.9</ele>
        <time>2025-07-07T17:50:11Z</time>
      </trkpt>
      <trkpt lat="47.86632833" lon="22.72956">
        <ele>156.9</ele>
        <time>2025-07-07T17:50:12Z</time>
      </trkpt>
      <trkpt lat="47.86637333" lon="22.72944333">
        <ele>156.3</ele>
        <time>2025-07-07T17:50:13Z</time>
      </trkpt>
      <trkpt lat="47.86646167" lon="22.72921667">
        <ele>156.1</ele>
        <time>2025-07-07T17:50:15Z</time>
      </trkpt>
      <trkpt lat="47.86654667" lon="22.729005">
        <ele>156.7</ele>
        <time>2025-07-07T17:50:17Z</time>
      </trkpt>
      <trkpt lat="47.866615" lon="22.72883167">
        <ele>155.6</ele>
        <time>2025-07-07T17:50:19Z</time>
      </trkpt>
      <trkpt lat="47.866665" lon="22.72871167">
        <ele>156</ele>
        <time>2025-07-07T17:50:21Z</time>
      </trkpt>
    </trkseg>
  </trk>
</gpx>