<?xml version='1.0' encoding='UTF-8' standalone='yes' ?>
<gpx xmlns="http://www.topografix.com/GPX/1/1" xmlns:geotracker="http://ilyabogdanovich.com/gpx/extensions/geotracker" xmlns:xsi="http://www.w3.org/2001/XMLSchema-instance" xsi:schemaLocation="http://www.topografix.com/GPX/1/1 http://www.topografix.com/GPX/1/1/gpx.xsd" version="1.1" creator="Recorded in Geo Tracker for Android from Ilya Bogdanovich">
  <metadata>
    <name>w_0725_02</name>
    <author>
      <name>Recorded in Geo Tracker for Android from Ilya Bogdanovich</name>
      <link href="https://play.google.com/store/apps/details?id=com.ilyabogdanovich.geotracker" />
    </author>
    <link href="https://play.google.com/store/apps/details?id=com.ilyabogdanovich.geotracker" />
    <time>2025-07-25T06:25:33Z</time>
  </metadata>
  <wpt lat="46.35654" lon="17.79238">
    <ele>187.8</ele>
    <time>2025-07-25T06:44:16Z</time>
    <name>Stop for ~2 min</name>
    <desc>Elevation: 188 m
Time from start: 00:18:42
Distance from start: 1,16 km</desc>
    <extensions>
      <geotracker:meta visited="1" />
    </extensions>
  </wpt>
  <wpt lat="46.35660667" lon="17.79352667">
    <ele>192.2</ele>
    <time>2025-07-25T06:48:29Z</time>
    <name>Stop for ~13 min</name>
    <desc>Elevation: 192 m
Time from start: 00:22:55
Distance from start: 1,27 km</desc>
    <extensions>
      <geotracker:meta visited="1" />
    </extensions>
  </wpt>
  <wpt lat="46.35660667" lon="17.79352667">
    <ele>192.2</ele>
    <time>2025-07-25T06:48:29Z</time>
    <name>Stop for ~13 min</name>
    <desc>Elevation: 192 m
Time from start: 00:22:55
Distance from start: 1,27 km</desc>
    <extensions>
      <geotracker:meta visited="1" />
    </extensions>
  </wpt>
  <trk>
    <name>w_0725_02</name>
    <src>Recorded in Geo Tracker for Android from Ilya Bogdanovich</src>
    <link href="https://play.google.com/store/apps/details?id=com.ilyabogdanovich.geotracker" />
    <extensions>
      <geotracker:meta>
        <geotracker:length>1698.4</geotracker:length>
        <geotracker:duration>2488370</geotracker:duration>
        <geotracker:creationtime>2025-07-25T06:25:33Z</geotracker:creationtime>
        <geotracker:activity>0</geotracker:activity>
      </geotracker:meta>
    </extensions>
    <trkseg>
      <trkpt lat="46.355125" lon="17.785735">
        <ele>234.9</ele>
        <time>2025-07-25T06:25:39Z</time>
      </trkpt>
      <trkpt lat="46.355215" lon="17.78566333">
        <ele>237.4</ele>
        <time>2025-07-25T06:25:50Z</time>
      </trkpt>
      <trkpt lat="46.35530167" lon="17.78570667">
        <ele>235.6</ele>
        <time>2025-07-25T06:25:57Z</time>
      </trkpt>
      <trkpt lat="46.35538833" lon="17.78566167">
        <ele>233.6</ele>
        <time>2025-07-25T06:26:04Z</time>
      </trkpt>
      <trkpt lat="46.35548833" lon="17.78569833">
        <ele>220.2</ele>
        <time>2025-07-25T06:26:10Z</time>
      </trkpt>
      <trkpt lat="46.35552167" lon="17.78582667">
        <ele>196.1</ele>
        <time>2025-07-25T06:26:22Z</time>
      </trkpt>
      <trkpt lat="46.35561667" lon="17.78584167">
        <ele>186.7</ele>
        <time>2025-07-25T06:26:31Z</time>
      </trkpt>
      <trkpt lat="46.35570833" lon="17.785845">
        <ele>184.6</ele>
        <time>2025-07-25T06:26:38Z</time>
      </trkpt>
      <trkpt lat="46.35580667" lon="17.785825">
        <ele>182.1</ele>
        <time>2025-07-25T06:26:46Z</time>
      </trkpt>
      <trkpt lat="46.355895" lon="17.78578667">
        <ele>179.5</ele>
        <time>2025-07-25T06:26:54Z</time>
      </trkpt>
      <trkpt lat="46.35598667" lon="17.785765">
        <ele>174.7</ele>
        <time>2025-07-25T06:27:07Z</time>
      </trkpt>
      <trkpt lat="46.35608167" lon="17.78581">
        <ele>176.1</ele>
        <time>2025-07-25T06:27:22Z</time>
      </trkpt>
      <trkpt lat="46.35618833" lon="17.78584">
        <ele>181.1</ele>
        <time>2025-07-25T06:27:27Z</time>
      </trkpt>
      <trkpt lat="46.35619" lon="17.785985">
        <ele>182.4</ele>
        <time>2025-07-25T06:27:35Z</time>
      </trkpt>
      <trkpt lat="46.35621667" lon="17.78612">
        <ele>180</ele>
        <time>2025-07-25T06:27:44Z</time>
      </trkpt>
      <trkpt lat="46.356185" lon="17.78626">
        <ele>177.7</ele>
        <time>2025-07-25T06:27:53Z</time>
      </trkpt>
      <trkpt lat="46.35618167" lon="17.78639167">
        <ele>174.6</ele>
        <time>2025-07-25T06:28:08Z</time>
      </trkpt>
      <trkpt lat="46.35623333" lon="17.78649833">
        <ele>173.4</ele>
        <time>2025-07-25T06:28:18Z</time>
      </trkpt>
      <trkpt lat="46.35628" lon="17.78661667">
        <ele>175.1</ele>
        <time>2025-07-25T06:28:28Z</time>
      </trkpt>
      <trkpt lat="46.35627" lon="17.78674667">
        <ele>176.4</ele>
        <time>2025-07-25T06:28:58Z</time>
      </trkpt>
      <trkpt lat="46.35627167" lon="17.78688667">
        <ele>176.2</ele>
        <time>2025-07-25T06:29:06Z</time>
      </trkpt>
      <trkpt lat="46.35631" lon="17.787015">
        <ele>178.1</ele>
        <time>2025-07-25T06:29:15Z</time>
      </trkpt>
      <trkpt lat="46.35633667" lon="17.78714333">
        <ele>178.9</ele>
        <time>2025-07-25T06:29:23Z</time>
      </trkpt>
      <trkpt lat="46.35635167" lon="17.78728167">
        <ele>180.2</ele>
        <time>2025-07-25T06:29:32Z</time>
      </trkpt>
      <trkpt lat="46.35637" lon="17.78741167">
        <ele>180.6</ele>
        <time>2025-07-25T06:29:39Z</time>
      </trkpt>
      <trkpt lat="46.35638167" lon="17.787555">
        <ele>180.3</ele>
        <time>2025-07-25T06:29:47Z</time>
      </trkpt>
      <trkpt lat="46.35639" lon="17.78769333">
        <ele>179.2</ele>
        <time>2025-07-25T06:29:55Z</time>
      </trkpt>
      <trkpt lat="46.356365" lon="17.78782833">
        <ele>178.6</ele>
        <time>2025-07-25T06:30:02Z</time>
      </trkpt>
      <trkpt lat="46.35635" lon="17.78796333">
        <ele>181.8</ele>
        <time>2025-07-25T06:30:09Z</time>
      </trkpt>
      <trkpt lat="46.35634" lon="17.78810167">
        <ele>180.5</ele>
        <time>2025-07-25T06:30:20Z</time>
      </trkpt>
      <trkpt lat="46.35631333" lon="17.78823">
        <ele>178.9</ele>
        <time>2025-07-25T06:30:33Z</time>
      </trkpt>
      <trkpt lat="46.35624833" lon="17.78812833">
        <ele>178.2</ele>
        <time>2025-07-25T06:30:50Z</time>
      </trkpt>
      <trkpt lat="46.35615667" lon="17.78796">
        <ele>178.3</ele>
        <time>2025-07-25T06:30:55Z</time>
      </trkpt>
      <trkpt lat="46.35612333" lon="17.78783667">
        <ele>178.3</ele>
        <time>2025-07-25T06:30:57Z</time>
      </trkpt>
      <trkpt lat="46.356065" lon="17.78772667">
        <ele>178.4</ele>
        <time>2025-07-25T06:31:00Z</time>
      </trkpt>
      <trkpt lat="46.35596667" lon="17.78767833">
        <ele>178.5</ele>
        <time>2025-07-25T06:31:03Z</time>
      </trkpt>
      <trkpt lat="46.355885" lon="17.78760167">
        <ele>178.7</ele>
        <time>2025-07-25T06:31:08Z</time>
      </trkpt>
      <trkpt lat="46.35586667" lon="17.78773167">
        <ele>178.7</ele>
        <time>2025-07-25T06:31:15Z</time>
      </trkpt>
      <trkpt lat="46.35592167" lon="17.78783667">
        <ele>178.9</ele>
        <time>2025-07-25T06:31:22Z</time>
      </trkpt>
      <trkpt lat="46.35581833" lon="17.787785">
        <ele>179.1</ele>
        <time>2025-07-25T06:31:29Z</time>
      </trkpt>
      <trkpt lat="46.35589333" lon="17.787885">
        <ele>178.9</ele>
        <time>2025-07-25T06:31:45Z</time>
      </trkpt>
      <trkpt lat="46.35596667" lon="17.787965">
        <ele>178.9</ele>
        <time>2025-07-25T06:31:48Z</time>
      </trkpt>
      <trkpt lat="46.35606667" lon="17.78801333">
        <ele>179.3</ele>
        <time>2025-07-25T06:31:59Z</time>
      </trkpt>
      <trkpt lat="46.35618333" lon="17.78802833">
        <ele>179.3</ele>
        <time>2025-07-25T06:32:02Z</time>
      </trkpt>
      <trkpt lat="46.356295" lon="17.78813833">
        <ele>179.4</ele>
        <time>2025-07-25T06:32:04Z</time>
      </trkpt>
      <trkpt lat="46.35620833" lon="17.788195">
        <ele>180.4</ele>
        <time>2025-07-25T06:32:24Z</time>
      </trkpt>
      <trkpt lat="46.35611833" lon="17.78815667">
        <ele>181</ele>
        <time>2025-07-25T06:32:36Z</time>
      </trkpt>
      <trkpt lat="46.35601833" lon="17.78807333">
        <ele>181.1</ele>
        <time>2025-07-25T06:32:41Z</time>
      </trkpt>
      <trkpt lat="46.35617667" lon="17.788125">
        <ele>155.8</ele>
        <time>2025-07-25T06:32:59Z</time>
      </trkpt>
      <trkpt lat="46.35626167" lon="17.78801833">
        <ele>161.1</ele>
        <time>2025-07-25T06:33:04Z</time>
      </trkpt>
      <trkpt lat="46.35627667" lon="17.78814667">
        <ele>157</ele>
        <time>2025-07-25T06:33:16Z</time>
      </trkpt>
      <trkpt lat="46.35615833" lon="17.78799667">
        <ele>172.4</ele>
        <time>2025-07-25T06:33:49Z</time>
      </trkpt>
      <trkpt lat="46.35611333" lon="17.78786333">
        <ele>168.5</ele>
        <time>2025-07-25T06:33:57Z</time>
      </trkpt>
      <trkpt lat="46.356055" lon="17.78775833">
        <ele>167.9</ele>
        <time>2025-07-25T06:34:20Z</time>
      </trkpt>
      <trkpt lat="46.356" lon="17.78764833">
        <ele>166.8</ele>
        <time>2025-07-25T06:34:30Z</time>
      </trkpt>
      <trkpt lat="46.35604" lon="17.78783167">
        <ele>167.5</ele>
        <time>2025-07-25T06:34:38Z</time>
      </trkpt>
      <trkpt lat="46.356125" lon="17.78803">
        <ele>167.9</ele>
        <time>2025-07-25T06:34:41Z</time>
      </trkpt>
      <trkpt lat="46.35617167" lon="17.78814833">
        <ele>169.8</ele>
        <time>2025-07-25T06:34:52Z</time>
      </trkpt>
      <trkpt lat="46.356265" lon="17.788125">
        <ele>170.9</ele>
        <time>2025-07-25T06:34:59Z</time>
      </trkpt>
      <trkpt lat="46.356355" lon="17.78818167">
        <ele>172.6</ele>
        <time>2025-07-25T06:35:06Z</time>
      </trkpt>
      <trkpt lat="46.356265" lon="17.78821167">
        <ele>174.2</ele>
        <time>2025-07-25T06:35:11Z</time>
      </trkpt>
      <trkpt lat="46.35636667" lon="17.78826667">
        <ele>175.2</ele>
        <time>2025-07-25T06:35:21Z</time>
      </trkpt>
      <trkpt lat="46.35648167" lon="17.788355">
        <ele>175.7</ele>
        <time>2025-07-25T06:35:23Z</time>
      </trkpt>
      <trkpt lat="46.35633667" lon="17.78836833">
        <ele>177.7</ele>
        <time>2025-07-25T06:35:30Z</time>
      </trkpt>
      <trkpt lat="46.35629667" lon="17.788485">
        <ele>181.3</ele>
        <time>2025-07-25T06:35:47Z</time>
      </trkpt>
      <trkpt lat="46.35637167" lon="17.78855833">
        <ele>181.4</ele>
        <time>2025-07-25T06:35:53Z</time>
      </trkpt>
      <trkpt lat="46.356475" lon="17.78857">
        <ele>180</ele>
        <time>2025-07-25T06:36:07Z</time>
      </trkpt>
      <trkpt lat="46.35633" lon="17.78825333">
        <ele>180.1</ele>
        <time>2025-07-25T06:36:18Z</time>
      </trkpt>
      <trkpt lat="46.356295" lon="17.78837333">
        <ele>180.6</ele>
        <time>2025-07-25T06:36:27Z</time>
      </trkpt>
      <trkpt lat="46.35624833" lon="17.78849167">
        <ele>178.3</ele>
        <time>2025-07-25T06:36:34Z</time>
      </trkpt>
      <trkpt lat="46.356195" lon="17.78860667">
        <ele>179.3</ele>
        <time>2025-07-25T06:36:46Z</time>
      </trkpt>
      <trkpt lat="46.35609667" lon="17.78864">
        <ele>178.5</ele>
        <time>2025-07-25T06:36:56Z</time>
      </trkpt>
      <trkpt lat="46.35603167" lon="17.78874667">
        <ele>178.1</ele>
        <time>2025-07-25T06:37:12Z</time>
      </trkpt>
      <trkpt lat="46.35610833" lon="17.78883667">
        <ele>177.5</ele>
        <time>2025-07-25T06:38:15Z</time>
      </trkpt>
      <trkpt lat="46.35623667" lon="17.788945">
        <ele>178.7</ele>
        <time>2025-07-25T06:38:27Z</time>
      </trkpt>
      <trkpt lat="46.35633" lon="17.78896667">
        <ele>180.1</ele>
        <time>2025-07-25T06:38:32Z</time>
      </trkpt>
      <trkpt lat="46.35641833" lon="17.78900167">
        <ele>181.8</ele>
        <time>2025-07-25T06:38:38Z</time>
      </trkpt>
      <trkpt lat="46.356495" lon="17.78907667">
        <ele>182.2</ele>
        <time>2025-07-25T06:39:06Z</time>
      </trkpt>
      <trkpt lat="46.35652333" lon="17.789215">
        <ele>182.3</ele>
        <time>2025-07-25T06:39:18Z</time>
      </trkpt>
      <trkpt lat="46.35652833" lon="17.78934667">
        <ele>182.9</ele>
        <time>2025-07-25T06:39:25Z</time>
      </trkpt>
      <trkpt lat="46.35652333" lon="17.789485">
        <ele>183.5</ele>
        <time>2025-07-25T06:39:33Z</time>
      </trkpt>
      <trkpt lat="46.35653333" lon="17.78961667">
        <ele>183.4</ele>
        <time>2025-07-25T06:39:40Z</time>
      </trkpt>
      <trkpt lat="46.35651333" lon="17.78974667">
        <ele>182.9</ele>
        <time>2025-07-25T06:39:48Z</time>
      </trkpt>
      <trkpt lat="46.35649" lon="17.789875">
        <ele>181.9</ele>
        <time>2025-07-25T06:39:56Z</time>
      </trkpt>
      <trkpt lat="46.35648833" lon="17.79001333">
        <ele>181.7</ele>
        <time>2025-07-25T06:40:05Z</time>
      </trkpt>
      <trkpt lat="46.35650333" lon="17.79014333">
        <ele>183.5</ele>
        <time>2025-07-25T06:40:13Z</time>
      </trkpt>
      <trkpt lat="46.3565" lon="17.79028667">
        <ele>184.2</ele>
        <time>2025-07-25T06:40:21Z</time>
      </trkpt>
      <trkpt lat="46.356525" lon="17.79042">
        <ele>184.7</ele>
        <time>2025-07-25T06:40:29Z</time>
      </trkpt>
      <trkpt lat="46.35652833" lon="17.79056333">
        <ele>184.6</ele>
        <time>2025-07-25T06:40:37Z</time>
      </trkpt>
      <trkpt lat="46.356475" lon="17.79068833">
        <ele>183.6</ele>
        <time>2025-07-25T06:40:45Z</time>
      </trkpt>
      <trkpt lat="46.35646167" lon="17.79082833">
        <ele>183.2</ele>
        <time>2025-07-25T06:40:52Z</time>
      </trkpt>
      <trkpt lat="46.35646667" lon="17.79096333">
        <ele>184.1</ele>
        <time>2025-07-25T06:40:59Z</time>
      </trkpt>
      <trkpt lat="46.35646333" lon="17.79109333">
        <ele>184.5</ele>
        <time>2025-07-25T06:41:08Z</time>
      </trkpt>
      <trkpt lat="46.356455" lon="17.79123333">
        <ele>184.8</ele>
        <time>2025-07-25T06:41:16Z</time>
      </trkpt>
      <trkpt lat="46.35648667" lon="17.791355">
        <ele>186</ele>
        <time>2025-07-25T06:41:22Z</time>
      </trkpt>
      <trkpt lat="46.35650167" lon="17.79149333">
        <ele>185.7</ele>
        <time>2025-07-25T06:41:29Z</time>
      </trkpt>
      <trkpt lat="46.35650833" lon="17.79162833">
        <ele>186.1</ele>
        <time>2025-07-25T06:41:37Z</time>
      </trkpt>
      <trkpt lat="46.35652333" lon="17.79177333">
        <ele>187.2</ele>
        <time>2025-07-25T06:41:47Z</time>
      </trkpt>
      <trkpt lat="46.35650667" lon="17.79190833">
        <ele>187.6</ele>
        <time>2025-07-25T06:41:55Z</time>
      </trkpt>
      <trkpt lat="46.35646667" lon="17.79204167">
        <ele>185.5</ele>
        <time>2025-07-25T06:42:03Z</time>
      </trkpt>
      <trkpt lat="46.356485" lon="17.79217167">
        <ele>183.5</ele>
        <time>2025-07-25T06:42:11Z</time>
      </trkpt>
      <trkpt lat="46.356565" lon="17.79224167">
        <ele>184.3</ele>
        <time>2025-07-25T06:42:25Z</time>
      </trkpt>
      <trkpt lat="46.35654" lon="17.79238">
        <ele>187.8</ele>
        <time>2025-07-25T06:44:16Z</time>
      </trkpt>
      <trkpt lat="46.35651833" lon="17.79251333">
        <ele>186.2</ele>
        <time>2025-07-25T06:44:30Z</time>
      </trkpt>
      <trkpt lat="46.35655333" lon="17.79266167">
        <ele>186.6</ele>
        <time>2025-07-25T06:44:48Z</time>
      </trkpt>
      <trkpt lat="46.35656333" lon="17.79279333">
        <ele>186.3</ele>
        <time>2025-07-25T06:44:56Z</time>
      </trkpt>
      <trkpt lat="46.35657833" lon="17.79293167">
        <ele>186.5</ele>
        <time>2025-07-25T06:45:03Z</time>
      </trkpt>
      <trkpt lat="46.35659" lon="17.79306333">
        <ele>186.3</ele>
        <time>2025-07-25T06:45:11Z</time>
      </trkpt>
      <trkpt lat="46.35660833" lon="17.79320333">
        <ele>187.2</ele>
        <time>2025-07-25T06:45:21Z</time>
      </trkpt>
      <trkpt lat="46.35662333" lon="17.79334667">
        <ele>185.7</ele>
        <time>2025-07-25T06:45:34Z</time>
      </trkpt>
      <trkpt lat="46.35660833" lon="17.79348333">
        <ele>184.9</ele>
        <time>2025-07-25T06:45:46Z</time>
      </trkpt>
      <trkpt lat="46.35669333" lon="17.79357">
        <ele>192.8</ele>
        <time>2025-07-25T06:46:54Z</time>
      </trkpt>
      <trkpt lat="46.35660667" lon="17.79352667">
        <ele>192.2</ele>
        <time>2025-07-25T06:48:29Z</time>
      </trkpt>
      <trkpt lat="46.356615" lon="17.79352833">
        <ele>192.4</ele>
        <time>2025-07-25T06:52:11Z</time>
      </trkpt>
      <trkpt lat="46.35667" lon="17.79363667">
        <ele>191.7</ele>
        <time>2025-07-25T06:53:44Z</time>
      </trkpt>
      <trkpt lat="46.35663" lon="17.79352">
        <ele>187.5</ele>
        <time>2025-07-25T06:54:09Z</time>
      </trkpt>
      <trkpt lat="46.35665667" lon="17.793525">
        <ele>189.3</ele>
        <time>2025-07-25T06:56:10Z</time>
      </trkpt>
      <trkpt lat="46.35665333" lon="17.79353833">
        <ele>193.7</ele>
        <time>2025-07-25T06:58:11Z</time>
      </trkpt>
      <trkpt lat="46.35668333" lon="17.79368333">
        <ele>194.2</ele>
        <time>2025-07-25T07:00:00Z</time>
      </trkpt>
      <trkpt lat="46.35673667" lon="17.79382333">
        <ele>201.1</ele>
        <time>2025-07-25T07:00:12Z</time>
      </trkpt>
      <trkpt lat="46.356695" lon="17.793945">
        <ele>202.5</ele>
        <time>2025-07-25T07:00:16Z</time>
      </trkpt>
      <trkpt lat="46.35666833" lon="17.79408">
        <ele>196.6</ele>
        <time>2025-07-25T07:00:26Z</time>
      </trkpt>
      <trkpt lat="46.35661333" lon="17.79419667">
        <ele>193.6</ele>
        <time>2025-07-25T07:00:38Z</time>
      </trkpt>
      <trkpt lat="46.35657667" lon="17.79431667">
        <ele>191.7</ele>
        <time>2025-07-25T07:00:51Z</time>
      </trkpt>
      <trkpt lat="46.35661167" lon="17.79444">
        <ele>189.6</ele>
        <time>2025-07-25T07:00:57Z</time>
      </trkpt>
      <trkpt lat="46.35661833" lon="17.79457167">
        <ele>189.1</ele>
        <time>2025-07-25T07:01:07Z</time>
      </trkpt>
      <trkpt lat="46.35666" lon="17.79470167">
        <ele>189</ele>
        <time>2025-07-25T07:01:14Z</time>
      </trkpt>
      <trkpt lat="46.35666167" lon="17.794835">
        <ele>187.2</ele>
        <time>2025-07-25T07:01:22Z</time>
      </trkpt>
      <trkpt lat="46.35668667" lon="17.79496667">
        <ele>184.5</ele>
        <time>2025-07-25T07:01:29Z</time>
      </trkpt>
      <trkpt lat="46.356635" lon="17.79508667">
        <ele>183.4</ele>
        <time>2025-07-25T07:01:36Z</time>
      </trkpt>
      <trkpt lat="46.35662667" lon="17.79522333">
        <ele>183</ele>
        <time>2025-07-25T07:01:43Z</time>
      </trkpt>
      <trkpt lat="46.356575" lon="17.79533167">
        <ele>182.5</ele>
        <time>2025-07-25T07:01:51Z</time>
      </trkpt>
      <trkpt lat="46.35662167" lon="17.79544333">
        <ele>185.3</ele>
        <time>2025-07-25T07:02:05Z</time>
      </trkpt>
      <trkpt lat="46.35663333" lon="17.795585">
        <ele>187.6</ele>
        <time>2025-07-25T07:02:12Z</time>
      </trkpt>
      <trkpt lat="46.35661333" lon="17.79572">
        <ele>189.6</ele>
        <time>2025-07-25T07:02:19Z</time>
      </trkpt>
      <trkpt lat="46.35665667" lon="17.795845">
        <ele>190.7</ele>
        <time>2025-07-25T07:02:26Z</time>
      </trkpt>
      <trkpt lat="46.35668" lon="17.79598333">
        <ele>193.4</ele>
        <time>2025-07-25T07:02:34Z</time>
      </trkpt>
      <trkpt lat="46.35668167" lon="17.796125">
        <ele>194.5</ele>
        <time>2025-07-25T07:02:43Z</time>
      </trkpt>
      <trkpt lat="46.356685" lon="17.79625833">
        <ele>194.8</ele>
        <time>2025-07-25T07:02:50Z</time>
      </trkpt>
      <trkpt lat="46.356685" lon="17.79639667">
        <ele>195.3</ele>
        <time>2025-07-25T07:02:58Z</time>
      </trkpt>
      <trkpt lat="46.35669333" lon="17.79653833">
        <ele>196.5</ele>
        <time>2025-07-25T07:03:08Z</time>
      </trkpt>
      <trkpt lat="46.35672667" lon="17.79666333">
        <ele>197.3</ele>
        <time>2025-07-25T07:03:17Z</time>
      </trkpt>
      <trkpt lat="46.35674333" lon="17.7968">
        <ele>197.3</ele>
        <time>2025-07-25T07:03:25Z</time>
      </trkpt>
      <trkpt lat="46.35671833" lon="17.796945">
        <ele>196.8</ele>
        <time>2025-07-25T07:03:32Z</time>
      </trkpt>
      <trkpt lat="46.35668833" lon="17.79708333">
        <ele>198</ele>
        <time>2025-07-25T07:03:39Z</time>
      </trkpt>
      <trkpt lat="46.35662333" lon="17.79721167">
        <ele>197.5</ele>
        <time>2025-07-25T07:03:46Z</time>
      </trkpt>
      <trkpt lat="46.35662" lon="17.79735833">
        <ele>197.8</ele>
        <time>2025-07-25T07:03:55Z</time>
      </trkpt>
      <trkpt lat="46.35666167" lon="17.79748167">
        <ele>197.4</ele>
        <time>2025-07-25T07:04:05Z</time>
      </trkpt>
      <trkpt lat="46.35677167" lon="17.79741333">
        <ele>196.8</ele>
        <time>2025-07-25T07:04:34Z</time>
      </trkpt>
      <trkpt lat="46.35680333" lon="17.79754333">
        <ele>197.9</ele>
        <time>2025-07-25T07:04:57Z</time>
      </trkpt>
      <trkpt lat="46.35685" lon="17.797655">
        <ele>199.3</ele>
        <time>2025-07-25T07:05:05Z</time>
      </trkpt>
      <trkpt lat="46.35687667" lon="17.79779667">
        <ele>202.2</ele>
        <time>2025-07-25T07:05:13Z</time>
      </trkpt>
      <trkpt lat="46.356905" lon="17.79792833">
        <ele>206.1</ele>
        <time>2025-07-25T07:05:24Z</time>
      </trkpt>
      <trkpt lat="46.35689167" lon="17.79805833">
        <ele>202</ele>
        <time>2025-07-25T07:06:02Z</time>
      </trkpt>
      <trkpt lat="46.356845" lon="17.79817833">
        <ele>203.8</ele>
        <time>2025-07-25T07:06:11Z</time>
      </trkpt>
    </trkseg>
  </trk>
</gpx>