<?xml version='1.0' encoding='UTF-8' standalone='yes' ?>
<gpx xmlns="http://www.topografix.com/GPX/1/1" xmlns:geotracker="http://ilyabogdanovich.com/gpx/extensions/geotracker" xmlns:xsi="http://www.w3.org/2001/XMLSchema-instance" xsi:schemaLocation="http://www.topografix.com/GPX/1/1 http://www.topografix.com/GPX/1/1/gpx.xsd" version="1.1" creator="Recorded in Geo Tracker for Android from Ilya Bogdanovich">
  <metadata>
    <name>w_0721_06</name>
    <author>
      <name>Recorded in Geo Tracker for Android from Ilya Bogdanovich</name>
      <link href="https://play.google.com/store/apps/details?id=com.ilyabogdanovich.geotracker" />
    </author>
    <link href="https://play.google.com/store/apps/details?id=com.ilyabogdanovich.geotracker" />
    <time>2025-07-21T16:00:32Z</time>
  </metadata>
  <wpt lat="45.87447833" lon="17.84276833">
    <ele>152.8</ele>
    <time>2025-07-21T16:10:14Z</time>
    <name>Stop for ~8 min</name>
    <desc>Elevation: 153 m
Time from start: 00:09:41
Distance from start: 475 m</desc>
    <extensions>
      <geotracker:meta visited="1" />
    </extensions>
  </wpt>
  <wpt lat="45.87447833" lon="17.84276833">
    <ele>152.8</ele>
    <time>2025-07-21T16:10:14Z</time>
    <name>Stop for ~8 min</name>
    <desc>Elevation: 153 m
Time from start: 00:09:41
Distance from start: 475 m</desc>
    <extensions>
      <geotracker:meta visited="1" />
    </extensions>
  </wpt>
  <trk>
    <name>w_0721_06</name>
    <src>Recorded in Geo Tracker for Android from Ilya Bogdanovich</src>
    <link href="https://play.google.com/store/apps/details?id=com.ilyabogdanovich.geotracker" />
    <extensions>
      <geotracker:meta>
        <geotracker:length>546.76</geotracker:length>
        <geotracker:duration>1149049</geotracker:duration>
        <geotracker:creationtime>2025-07-21T16:00:32Z</geotracker:creationtime>
        <geotracker:activity>0</geotracker:activity>
      </geotracker:meta>
    </extensions>
    <trkseg>
      <trkpt lat="45.87442833" lon="17.84265333">
        <ele>167.2</ele>
        <time>2025-07-21T16:00:40Z</time>
      </trkpt>
      <trkpt lat="45.87448667" lon="17.84275833">
        <ele>152.8</ele>
        <time>2025-07-21T16:01:10Z</time>
      </trkpt>
      <trkpt lat="45.874515" lon="17.84292667">
        <ele>151.3</ele>
        <time>2025-07-21T16:01:58Z</time>
      </trkpt>
      <trkpt lat="45.87453667" lon="17.843155">
        <ele>162.6</ele>
        <time>2025-07-21T16:02:50Z</time>
      </trkpt>
      <trkpt lat="45.87457667" lon="17.84328667">
        <ele>158.4</ele>
        <time>2025-07-21T16:03:01Z</time>
      </trkpt>
      <trkpt lat="45.87453667" lon="17.84341833">
        <ele>155.7</ele>
        <time>2025-07-21T16:03:11Z</time>
      </trkpt>
      <trkpt lat="45.87447833" lon="17.84353333">
        <ele>150</ele>
        <time>2025-07-21T16:03:20Z</time>
      </trkpt>
      <trkpt lat="45.87438333" lon="17.84353833">
        <ele>157.6</ele>
        <time>2025-07-21T16:03:27Z</time>
      </trkpt>
      <trkpt lat="45.87429" lon="17.84357">
        <ele>155.3</ele>
        <time>2025-07-21T16:03:34Z</time>
      </trkpt>
      <trkpt lat="45.87419167" lon="17.84357833">
        <ele>150.1</ele>
        <time>2025-07-21T16:03:45Z</time>
      </trkpt>
      <trkpt lat="45.87409833" lon="17.84361">
        <ele>147.9</ele>
        <time>2025-07-21T16:03:53Z</time>
      </trkpt>
      <trkpt lat="45.874005" lon="17.84361167">
        <ele>145.2</ele>
        <time>2025-07-21T16:04:03Z</time>
      </trkpt>
      <trkpt lat="45.87400667" lon="17.84374667">
        <ele>143.9</ele>
        <time>2025-07-21T16:04:11Z</time>
      </trkpt>
      <trkpt lat="45.87398667" lon="17.84387667">
        <ele>146.2</ele>
        <time>2025-07-21T16:04:19Z</time>
      </trkpt>
      <trkpt lat="45.87397833" lon="17.84401667">
        <ele>146.7</ele>
        <time>2025-07-21T16:04:27Z</time>
      </trkpt>
      <trkpt lat="45.87397667" lon="17.84414833">
        <ele>146.5</ele>
        <time>2025-07-21T16:04:34Z</time>
      </trkpt>
      <trkpt lat="45.87403333" lon="17.844255">
        <ele>146.2</ele>
        <time>2025-07-21T16:04:43Z</time>
      </trkpt>
      <trkpt lat="45.87412833" lon="17.84426">
        <ele>145.9</ele>
        <time>2025-07-21T16:04:52Z</time>
      </trkpt>
      <trkpt lat="45.87423" lon="17.84423333">
        <ele>146.3</ele>
        <time>2025-07-21T16:05:00Z</time>
      </trkpt>
      <trkpt lat="45.87430167" lon="17.84432333">
        <ele>148.8</ele>
        <time>2025-07-21T16:05:08Z</time>
      </trkpt>
      <trkpt lat="45.87438667" lon="17.84437333">
        <ele>149.4</ele>
        <time>2025-07-21T16:05:16Z</time>
      </trkpt>
      <trkpt lat="45.87447" lon="17.84430333">
        <ele>151.5</ele>
        <time>2025-07-21T16:05:23Z</time>
      </trkpt>
      <trkpt lat="45.87455833" lon="17.84427333">
        <ele>151.5</ele>
        <time>2025-07-21T16:05:37Z</time>
      </trkpt>
      <trkpt lat="45.87451333" lon="17.84438833">
        <ele>152.6</ele>
        <time>2025-07-21T16:06:56Z</time>
      </trkpt>
      <trkpt lat="45.87439833" lon="17.844305">
        <ele>150.6</ele>
        <time>2025-07-21T16:07:14Z</time>
      </trkpt>
      <trkpt lat="45.8743" lon="17.84432667">
        <ele>153.1</ele>
        <time>2025-07-21T16:07:23Z</time>
      </trkpt>
      <trkpt lat="45.87420167" lon="17.84431167">
        <ele>152.5</ele>
        <time>2025-07-21T16:07:32Z</time>
      </trkpt>
      <trkpt lat="45.87411167" lon="17.84427">
        <ele>150.6</ele>
        <time>2025-07-21T16:07:41Z</time>
      </trkpt>
      <trkpt lat="45.87402" lon="17.84422667">
        <ele>148.6</ele>
        <time>2025-07-21T16:07:50Z</time>
      </trkpt>
      <trkpt lat="45.874" lon="17.844085">
        <ele>145.4</ele>
        <time>2025-07-21T16:08:00Z</time>
      </trkpt>
      <trkpt lat="45.87401167" lon="17.843955">
        <ele>144.6</ele>
        <time>2025-07-21T16:08:10Z</time>
      </trkpt>
      <trkpt lat="45.87400333" lon="17.84382">
        <ele>145.6</ele>
        <time>2025-07-21T16:08:18Z</time>
      </trkpt>
      <trkpt lat="45.87399667" lon="17.84368833">
        <ele>146.5</ele>
        <time>2025-07-21T16:08:25Z</time>
      </trkpt>
      <trkpt lat="45.87405333" lon="17.84358167">
        <ele>149.4</ele>
        <time>2025-07-21T16:08:37Z</time>
      </trkpt>
      <trkpt lat="45.87415167" lon="17.84358167">
        <ele>150.1</ele>
        <time>2025-07-21T16:08:44Z</time>
      </trkpt>
      <trkpt lat="45.87425167" lon="17.84358167">
        <ele>149.7</ele>
        <time>2025-07-21T16:08:50Z</time>
      </trkpt>
      <trkpt lat="45.87434333" lon="17.84357">
        <ele>149.8</ele>
        <time>2025-07-21T16:08:56Z</time>
      </trkpt>
      <trkpt lat="45.87444333" lon="17.84354167">
        <ele>150.6</ele>
        <time>2025-07-21T16:09:06Z</time>
      </trkpt>
      <trkpt lat="45.87451667" lon="17.84345667">
        <ele>150.8</ele>
        <time>2025-07-21T16:09:12Z</time>
      </trkpt>
      <trkpt lat="45.87456167" lon="17.84334">
        <ele>152.1</ele>
        <time>2025-07-21T16:09:19Z</time>
      </trkpt>
      <trkpt lat="45.87456167" lon="17.8432">
        <ele>152.7</ele>
        <time>2025-07-21T16:09:28Z</time>
      </trkpt>
      <trkpt lat="45.87453333" lon="17.84306167">
        <ele>151.9</ele>
        <time>2025-07-21T16:09:37Z</time>
      </trkpt>
      <trkpt lat="45.87450167" lon="17.8429">
        <ele>151.7</ele>
        <time>2025-07-21T16:10:01Z</time>
      </trkpt>
      <trkpt lat="45.87447833" lon="17.84276833">
        <ele>152.8</ele>
        <time>2025-07-21T16:10:14Z</time>
      </trkpt>
      <trkpt lat="45.87447833" lon="17.84267333">
        <ele>156.6</ele>
        <time>2025-07-21T16:12:30Z</time>
      </trkpt>
      <trkpt lat="45.87455167" lon="17.84270333">
        <ele>158.6</ele>
        <time>2025-07-21T16:14:36Z</time>
      </trkpt>
      <trkpt lat="45.87450833" lon="17.84255">
        <ele>151.9</ele>
        <time>2025-07-21T16:16:12Z</time>
      </trkpt>
      <trkpt lat="45.874585" lon="17.84259">
        <ele>153.8</ele>
        <time>2025-07-21T16:18:30Z</time>
      </trkpt>
      <trkpt lat="45.87448333" lon="17.84267333">
        <ele>157.3</ele>
        <time>2025-07-21T16:18:48Z</time>
      </trkpt>
      <trkpt lat="45.87445" lon="17.84280833">
        <ele>153.7</ele>
        <time>2025-07-21T16:19:29Z</time>
      </trkpt>
      <trkpt lat="45.874495" lon="17.84292">
        <ele>152.3</ele>
        <time>2025-07-21T16:19:36Z</time>
      </trkpt>
    </trkseg>
  </trk>
</gpx>