<?xml version='1.0' encoding='UTF-8' standalone='yes' ?>
<gpx xmlns="http://www.topografix.com/GPX/1/1" xmlns:geotracker="http://ilyabogdanovich.com/gpx/extensions/geotracker" xmlns:xsi="http://www.w3.org/2001/XMLSchema-instance" xsi:schemaLocation="http://www.topografix.com/GPX/1/1 http://www.topografix.com/GPX/1/1/gpx.xsd" version="1.1" creator="Recorded in Geo Tracker for Android from Ilya Bogdanovich">
  <metadata>
    <name>w_0713_01</name>
    <author>
      <name>Recorded in Geo Tracker for Android from Ilya Bogdanovich</name>
      <link href="https://play.google.com/store/apps/details?id=com.ilyabogdanovich.geotracker" />
    </author>
    <link href="https://play.google.com/store/apps/details?id=com.ilyabogdanovich.geotracker" />
    <time>2025-07-13T08:11:54Z</time>
  </metadata>
  <wpt lat="47.33454833" lon="17.46624333">
    <ele>182.3</ele>
    <time>2025-07-13T08:31:28Z</time>
    <name>Stop for ~16 min</name>
    <desc>Elevation: 182 m
Time from start: 00:19:33
Distance from start: 1,2 km</desc>
    <extensions>
      <geotracker:meta visited="1" />
    </extensions>
  </wpt>
  <trk>
    <name>w_0713_01</name>
    <src>Recorded in Geo Tracker for Android from Ilya Bogdanovich</src>
    <link href="https://play.google.com/store/apps/details?id=com.ilyabogdanovich.geotracker" />
    <extensions>
      <geotracker:meta>
        <geotracker:length>3559.48</geotracker:length>
        <geotracker:duration>3528286</geotracker:duration>
        <geotracker:creationtime>2025-07-13T08:11:54Z</geotracker:creationtime>
        <geotracker:activity>0</geotracker:activity>
      </geotracker:meta>
    </extensions>
    <trkseg>
      <trkpt lat="47.32875833" lon="17.46714333">
        <ele>189.7</ele>
        <time>2025-07-13T08:12:02Z</time>
      </trkpt>
      <trkpt lat="47.328685" lon="17.46704">
        <ele>189.7</ele>
        <time>2025-07-13T08:12:03Z</time>
      </trkpt>
      <trkpt lat="47.32874167" lon="17.467165">
        <ele>189.6</ele>
        <time>2025-07-13T08:12:07Z</time>
      </trkpt>
      <trkpt lat="47.32879833" lon="17.46704">
        <ele>189.6</ele>
        <time>2025-07-13T08:12:09Z</time>
      </trkpt>
      <trkpt lat="47.32881" lon="17.46689333">
        <ele>189.6</ele>
        <time>2025-07-13T08:12:19Z</time>
      </trkpt>
      <trkpt lat="47.32892333" lon="17.46680667">
        <ele>190.2</ele>
        <time>2025-07-13T08:12:28Z</time>
      </trkpt>
      <trkpt lat="47.329025" lon="17.46680667">
        <ele>190.1</ele>
        <time>2025-07-13T08:12:33Z</time>
      </trkpt>
      <trkpt lat="47.32910167" lon="17.46688833">
        <ele>192.1</ele>
        <time>2025-07-13T08:12:39Z</time>
      </trkpt>
      <trkpt lat="47.329165" lon="17.46679333">
        <ele>194.7</ele>
        <time>2025-07-13T08:12:49Z</time>
      </trkpt>
      <trkpt lat="47.32922" lon="17.46668333">
        <ele>197.3</ele>
        <time>2025-07-13T08:12:57Z</time>
      </trkpt>
      <trkpt lat="47.32929333" lon="17.46660167">
        <ele>198.5</ele>
        <time>2025-07-13T08:13:03Z</time>
      </trkpt>
      <trkpt lat="47.32938167" lon="17.46656">
        <ele>200.4</ele>
        <time>2025-07-13T08:13:10Z</time>
      </trkpt>
      <trkpt lat="47.32947" lon="17.46650333">
        <ele>200.4</ele>
        <time>2025-07-13T08:13:21Z</time>
      </trkpt>
      <trkpt lat="47.32956667" lon="17.4665">
        <ele>201.4</ele>
        <time>2025-07-13T08:13:30Z</time>
      </trkpt>
      <trkpt lat="47.32964667" lon="17.46643167">
        <ele>202.6</ele>
        <time>2025-07-13T08:13:41Z</time>
      </trkpt>
      <trkpt lat="47.329735" lon="17.46637">
        <ele>204.4</ele>
        <time>2025-07-13T08:13:49Z</time>
      </trkpt>
      <trkpt lat="47.32980833" lon="17.466285">
        <ele>205.5</ele>
        <time>2025-07-13T08:13:56Z</time>
      </trkpt>
      <trkpt lat="47.32990333" lon="17.46625333">
        <ele>206.7</ele>
        <time>2025-07-13T08:14:06Z</time>
      </trkpt>
      <trkpt lat="47.33000167" lon="17.46622167">
        <ele>207.9</ele>
        <time>2025-07-13T08:14:15Z</time>
      </trkpt>
      <trkpt lat="47.33009333" lon="17.46619">
        <ele>207.4</ele>
        <time>2025-07-13T08:14:23Z</time>
      </trkpt>
      <trkpt lat="47.33017833" lon="17.46611167">
        <ele>207.9</ele>
        <time>2025-07-13T08:14:31Z</time>
      </trkpt>
      <trkpt lat="47.330275" lon="17.46608333">
        <ele>206.5</ele>
        <time>2025-07-13T08:14:38Z</time>
      </trkpt>
      <trkpt lat="47.33033333" lon="17.46598167">
        <ele>203.3</ele>
        <time>2025-07-13T08:14:44Z</time>
      </trkpt>
      <trkpt lat="47.330435" lon="17.46596667">
        <ele>199</ele>
        <time>2025-07-13T08:14:50Z</time>
      </trkpt>
      <trkpt lat="47.33053833" lon="17.46596667">
        <ele>198.2</ele>
        <time>2025-07-13T08:14:54Z</time>
      </trkpt>
      <trkpt lat="47.33062667" lon="17.465905">
        <ele>199.2</ele>
        <time>2025-07-13T08:15:00Z</time>
      </trkpt>
      <trkpt lat="47.33072" lon="17.46583667">
        <ele>204.2</ele>
        <time>2025-07-13T08:15:04Z</time>
      </trkpt>
      <trkpt lat="47.33082333" lon="17.46582833">
        <ele>204</ele>
        <time>2025-07-13T08:15:12Z</time>
      </trkpt>
      <trkpt lat="47.330915" lon="17.465805">
        <ele>202</ele>
        <time>2025-07-13T08:15:18Z</time>
      </trkpt>
      <trkpt lat="47.33096833" lon="17.46568167">
        <ele>193.6</ele>
        <time>2025-07-13T08:16:08Z</time>
      </trkpt>
      <trkpt lat="47.33098833" lon="17.46555167">
        <ele>194.9</ele>
        <time>2025-07-13T08:16:16Z</time>
      </trkpt>
      <trkpt lat="47.331055" lon="17.46545333">
        <ele>194.8</ele>
        <time>2025-07-13T08:16:25Z</time>
      </trkpt>
      <trkpt lat="47.33114167" lon="17.46541667">
        <ele>195.5</ele>
        <time>2025-07-13T08:16:33Z</time>
      </trkpt>
      <trkpt lat="47.33123667" lon="17.46539833">
        <ele>196.1</ele>
        <time>2025-07-13T08:16:43Z</time>
      </trkpt>
      <trkpt lat="47.33131333" lon="17.46531333">
        <ele>196.2</ele>
        <time>2025-07-13T08:16:51Z</time>
      </trkpt>
      <trkpt lat="47.33138" lon="17.46519833">
        <ele>198.3</ele>
        <time>2025-07-13T08:16:59Z</time>
      </trkpt>
      <trkpt lat="47.33147667" lon="17.46524167">
        <ele>197.4</ele>
        <time>2025-07-13T08:17:07Z</time>
      </trkpt>
      <trkpt lat="47.331575" lon="17.46525">
        <ele>195.2</ele>
        <time>2025-07-13T08:17:13Z</time>
      </trkpt>
      <trkpt lat="47.33166167" lon="17.46520833">
        <ele>194.2</ele>
        <time>2025-07-13T08:17:21Z</time>
      </trkpt>
      <trkpt lat="47.33175667" lon="17.46517833">
        <ele>192</ele>
        <time>2025-07-13T08:17:38Z</time>
      </trkpt>
      <trkpt lat="47.331835" lon="17.46511167">
        <ele>191.9</ele>
        <time>2025-07-13T08:17:43Z</time>
      </trkpt>
      <trkpt lat="47.33191" lon="17.46503667">
        <ele>192.4</ele>
        <time>2025-07-13T08:17:51Z</time>
      </trkpt>
      <trkpt lat="47.33198167" lon="17.46495">
        <ele>191.4</ele>
        <time>2025-07-13T08:18:04Z</time>
      </trkpt>
      <trkpt lat="47.33206167" lon="17.464875">
        <ele>190.2</ele>
        <time>2025-07-13T08:18:25Z</time>
      </trkpt>
      <trkpt lat="47.33215333" lon="17.46483667">
        <ele>191.7</ele>
        <time>2025-07-13T08:18:34Z</time>
      </trkpt>
      <trkpt lat="47.33221333" lon="17.46472333">
        <ele>190.3</ele>
        <time>2025-07-13T08:18:59Z</time>
      </trkpt>
      <trkpt lat="47.33218833" lon="17.46459333">
        <ele>192.8</ele>
        <time>2025-07-13T08:19:08Z</time>
      </trkpt>
      <trkpt lat="47.33213667" lon="17.464485">
        <ele>194.1</ele>
        <time>2025-07-13T08:19:16Z</time>
      </trkpt>
      <trkpt lat="47.33211833" lon="17.46435">
        <ele>194.2</ele>
        <time>2025-07-13T08:19:22Z</time>
      </trkpt>
      <trkpt lat="47.332135" lon="17.46421333">
        <ele>191.8</ele>
        <time>2025-07-13T08:19:32Z</time>
      </trkpt>
      <trkpt lat="47.33221333" lon="17.46411667">
        <ele>194.7</ele>
        <time>2025-07-13T08:19:41Z</time>
      </trkpt>
      <trkpt lat="47.33231167" lon="17.46406833">
        <ele>195.7</ele>
        <time>2025-07-13T08:19:48Z</time>
      </trkpt>
      <trkpt lat="47.3324" lon="17.46402333">
        <ele>195.5</ele>
        <time>2025-07-13T08:19:55Z</time>
      </trkpt>
      <trkpt lat="47.33248167" lon="17.46396">
        <ele>193.6</ele>
        <time>2025-07-13T08:20:04Z</time>
      </trkpt>
      <trkpt lat="47.33257" lon="17.46391">
        <ele>194.1</ele>
        <time>2025-07-13T08:20:11Z</time>
      </trkpt>
      <trkpt lat="47.33265833" lon="17.46387167">
        <ele>195.5</ele>
        <time>2025-07-13T08:20:19Z</time>
      </trkpt>
      <trkpt lat="47.33275" lon="17.46382167">
        <ele>194.7</ele>
        <time>2025-07-13T08:20:29Z</time>
      </trkpt>
      <trkpt lat="47.33283833" lon="17.46376167">
        <ele>195.8</ele>
        <time>2025-07-13T08:20:36Z</time>
      </trkpt>
      <trkpt lat="47.33292" lon="17.463685">
        <ele>195</ele>
        <time>2025-07-13T08:20:45Z</time>
      </trkpt>
      <trkpt lat="47.33295833" lon="17.46380667">
        <ele>192.4</ele>
        <time>2025-07-13T08:20:54Z</time>
      </trkpt>
      <trkpt lat="47.33298333" lon="17.46394167">
        <ele>193.1</ele>
        <time>2025-07-13T08:21:04Z</time>
      </trkpt>
      <trkpt lat="47.33301" lon="17.464085">
        <ele>192.1</ele>
        <time>2025-07-13T08:21:12Z</time>
      </trkpt>
      <trkpt lat="47.33303333" lon="17.464225">
        <ele>191.2</ele>
        <time>2025-07-13T08:21:21Z</time>
      </trkpt>
      <trkpt lat="47.333065" lon="17.46435667">
        <ele>191</ele>
        <time>2025-07-13T08:21:29Z</time>
      </trkpt>
      <trkpt lat="47.333125" lon="17.46447167">
        <ele>190.1</ele>
        <time>2025-07-13T08:21:41Z</time>
      </trkpt>
      <trkpt lat="47.33311167" lon="17.46460667">
        <ele>190.5</ele>
        <time>2025-07-13T08:21:50Z</time>
      </trkpt>
      <trkpt lat="47.33302833" lon="17.46467667">
        <ele>190.7</ele>
        <time>2025-07-13T08:21:59Z</time>
      </trkpt>
      <trkpt lat="47.332935" lon="17.464685">
        <ele>187.7</ele>
        <time>2025-07-13T08:22:07Z</time>
      </trkpt>
      <trkpt lat="47.332855" lon="17.46476">
        <ele>185.6</ele>
        <time>2025-07-13T08:22:15Z</time>
      </trkpt>
      <trkpt lat="47.33282667" lon="17.46489167">
        <ele>188.2</ele>
        <time>2025-07-13T08:22:24Z</time>
      </trkpt>
      <trkpt lat="47.33285333" lon="17.46503">
        <ele>187.5</ele>
        <time>2025-07-13T08:22:33Z</time>
      </trkpt>
      <trkpt lat="47.33288" lon="17.46516333">
        <ele>185.9</ele>
        <time>2025-07-13T08:22:40Z</time>
      </trkpt>
      <trkpt lat="47.33290167" lon="17.46529833">
        <ele>185.9</ele>
        <time>2025-07-13T08:22:45Z</time>
      </trkpt>
      <trkpt lat="47.332875" lon="17.465425">
        <ele>186.6</ele>
        <time>2025-07-13T08:22:50Z</time>
      </trkpt>
      <trkpt lat="47.33288833" lon="17.46556333">
        <ele>187.6</ele>
        <time>2025-07-13T08:22:57Z</time>
      </trkpt>
      <trkpt lat="47.33298167" lon="17.46556333">
        <ele>190.8</ele>
        <time>2025-07-13T08:23:17Z</time>
      </trkpt>
      <trkpt lat="47.33302" lon="17.4657">
        <ele>195.9</ele>
        <time>2025-07-13T08:23:23Z</time>
      </trkpt>
      <trkpt lat="47.33299833" lon="17.46583833">
        <ele>199.7</ele>
        <time>2025-07-13T08:23:31Z</time>
      </trkpt>
      <trkpt lat="47.33304833" lon="17.46595">
        <ele>195.4</ele>
        <time>2025-07-13T08:23:39Z</time>
      </trkpt>
      <trkpt lat="47.33313833" lon="17.46596833">
        <ele>189.7</ele>
        <time>2025-07-13T08:23:54Z</time>
      </trkpt>
      <trkpt lat="47.33321667" lon="17.46589">
        <ele>187.4</ele>
        <time>2025-07-13T08:24:02Z</time>
      </trkpt>
      <trkpt lat="47.33326167" lon="17.46576167">
        <ele>186.5</ele>
        <time>2025-07-13T08:24:10Z</time>
      </trkpt>
      <trkpt lat="47.33331833" lon="17.46564833">
        <ele>187.3</ele>
        <time>2025-07-13T08:24:19Z</time>
      </trkpt>
      <trkpt lat="47.33337667" lon="17.46554">
        <ele>187.6</ele>
        <time>2025-07-13T08:24:27Z</time>
      </trkpt>
      <trkpt lat="47.33344" lon="17.46543333">
        <ele>189.9</ele>
        <time>2025-07-13T08:24:35Z</time>
      </trkpt>
      <trkpt lat="47.33350833" lon="17.46532167">
        <ele>190.7</ele>
        <time>2025-07-13T08:24:44Z</time>
      </trkpt>
      <trkpt lat="47.333545" lon="17.4652">
        <ele>189.6</ele>
        <time>2025-07-13T08:24:51Z</time>
      </trkpt>
      <trkpt lat="47.33353" lon="17.46506667">
        <ele>188.8</ele>
        <time>2025-07-13T08:25:00Z</time>
      </trkpt>
      <trkpt lat="47.33358667" lon="17.46496">
        <ele>190.2</ele>
        <time>2025-07-13T08:25:41Z</time>
      </trkpt>
      <trkpt lat="47.33360833" lon="17.464815">
        <ele>190.9</ele>
        <time>2025-07-13T08:25:48Z</time>
      </trkpt>
      <trkpt lat="47.33363833" lon="17.46467">
        <ele>192.6</ele>
        <time>2025-07-13T08:25:56Z</time>
      </trkpt>
      <trkpt lat="47.33368" lon="17.464545">
        <ele>192.5</ele>
        <time>2025-07-13T08:26:05Z</time>
      </trkpt>
      <trkpt lat="47.33367" lon="17.46441167">
        <ele>188.4</ele>
        <time>2025-07-13T08:26:14Z</time>
      </trkpt>
      <trkpt lat="47.33371667" lon="17.46428333">
        <ele>185.8</ele>
        <time>2025-07-13T08:26:24Z</time>
      </trkpt>
      <trkpt lat="47.33381667" lon="17.46422833">
        <ele>184.5</ele>
        <time>2025-07-13T08:26:31Z</time>
      </trkpt>
      <trkpt lat="47.33385833" lon="17.46436">
        <ele>183.5</ele>
        <time>2025-07-13T08:26:39Z</time>
      </trkpt>
      <trkpt lat="47.33384167" lon="17.46449167">
        <ele>183.4</ele>
        <time>2025-07-13T08:26:45Z</time>
      </trkpt>
      <trkpt lat="47.33383833" lon="17.46463333">
        <ele>183.6</ele>
        <time>2025-07-13T08:26:53Z</time>
      </trkpt>
      <trkpt lat="47.33387833" lon="17.46477167">
        <ele>182.9</ele>
        <time>2025-07-13T08:27:02Z</time>
      </trkpt>
      <trkpt lat="47.33392" lon="17.46490833">
        <ele>181.2</ele>
        <time>2025-07-13T08:27:10Z</time>
      </trkpt>
      <trkpt lat="47.33395667" lon="17.46503333">
        <ele>180.6</ele>
        <time>2025-07-13T08:27:18Z</time>
      </trkpt>
      <trkpt lat="47.33401667" lon="17.46514667">
        <ele>179.9</ele>
        <time>2025-07-13T08:27:29Z</time>
      </trkpt>
      <trkpt lat="47.33410833" lon="17.465185">
        <ele>181.9</ele>
        <time>2025-07-13T08:28:03Z</time>
      </trkpt>
      <trkpt lat="47.33416667" lon="17.46528833">
        <ele>181.2</ele>
        <time>2025-07-13T08:28:10Z</time>
      </trkpt>
      <trkpt lat="47.33425167" lon="17.46535333">
        <ele>184.7</ele>
        <time>2025-07-13T08:28:19Z</time>
      </trkpt>
      <trkpt lat="47.33433167" lon="17.46542333">
        <ele>185.9</ele>
        <time>2025-07-13T08:28:27Z</time>
      </trkpt>
      <trkpt lat="47.33441667" lon="17.46550167">
        <ele>185.6</ele>
        <time>2025-07-13T08:28:34Z</time>
      </trkpt>
      <trkpt lat="47.33447167" lon="17.46561167">
        <ele>186.1</ele>
        <time>2025-07-13T08:28:43Z</time>
      </trkpt>
      <trkpt lat="47.334525" lon="17.46573167">
        <ele>183.6</ele>
        <time>2025-07-13T08:28:55Z</time>
      </trkpt>
      <trkpt lat="47.33459" lon="17.465835">
        <ele>185.3</ele>
        <time>2025-07-13T08:29:02Z</time>
      </trkpt>
      <trkpt lat="47.33458167" lon="17.46597">
        <ele>186.5</ele>
        <time>2025-07-13T08:29:10Z</time>
      </trkpt>
      <trkpt lat="47.33455167" lon="17.46609833">
        <ele>185.7</ele>
        <time>2025-07-13T08:29:18Z</time>
      </trkpt>
      <trkpt lat="47.33456" lon="17.466245">
        <ele>184.3</ele>
        <time>2025-07-13T08:29:27Z</time>
      </trkpt>
      <trkpt lat="47.33454833" lon="17.46624333">
        <ele>182.3</ele>
        <time>2025-07-13T08:31:28Z</time>
      </trkpt>
      <trkpt lat="47.33455" lon="17.466075">
        <ele>191.8</ele>
        <time>2025-07-13T08:32:48Z</time>
      </trkpt>
      <trkpt lat="47.334515" lon="17.466205">
        <ele>188</ele>
        <time>2025-07-13T08:33:37Z</time>
      </trkpt>
      <trkpt lat="47.33451167" lon="17.466205">
        <ele>186.2</ele>
        <time>2025-07-13T08:35:43Z</time>
      </trkpt>
      <trkpt lat="47.33456167" lon="17.466185">
        <ele>191</ele>
        <time>2025-07-13T08:38:13Z</time>
      </trkpt>
      <trkpt lat="47.334475" lon="17.46609">
        <ele>190.6</ele>
        <time>2025-07-13T08:40:17Z</time>
      </trkpt>
      <trkpt lat="47.33455667" lon="17.46614833">
        <ele>192.7</ele>
        <time>2025-07-13T08:40:36Z</time>
      </trkpt>
      <trkpt lat="47.33455" lon="17.4662">
        <ele>190.2</ele>
        <time>2025-07-13T08:42:37Z</time>
      </trkpt>
      <trkpt lat="47.334525" lon="17.466205">
        <ele>187.7</ele>
        <time>2025-07-13T08:46:18Z</time>
      </trkpt>
      <trkpt lat="47.33454833" lon="17.46607667">
        <ele>188.4</ele>
        <time>2025-07-13T08:47:42Z</time>
      </trkpt>
      <trkpt lat="47.33458167" lon="17.46594833">
        <ele>189</ele>
        <time>2025-07-13T08:47:52Z</time>
      </trkpt>
      <trkpt lat="47.33465167" lon="17.46585">
        <ele>188.3</ele>
        <time>2025-07-13T08:48:00Z</time>
      </trkpt>
      <trkpt lat="47.33470833" lon="17.46573167">
        <ele>189.4</ele>
        <time>2025-07-13T08:48:17Z</time>
      </trkpt>
      <trkpt lat="47.33479" lon="17.465665">
        <ele>188.9</ele>
        <time>2025-07-13T08:48:26Z</time>
      </trkpt>
      <trkpt lat="47.33487" lon="17.46558">
        <ele>184.1</ele>
        <time>2025-07-13T08:48:50Z</time>
      </trkpt>
      <trkpt lat="47.33492833" lon="17.46547667">
        <ele>184</ele>
        <time>2025-07-13T08:48:58Z</time>
      </trkpt>
      <trkpt lat="47.33499" lon="17.46537167">
        <ele>184.3</ele>
        <time>2025-07-13T08:49:08Z</time>
      </trkpt>
      <trkpt lat="47.33505333" lon="17.465265">
        <ele>183</ele>
        <time>2025-07-13T08:49:16Z</time>
      </trkpt>
      <trkpt lat="47.33513167" lon="17.46518667">
        <ele>184</ele>
        <time>2025-07-13T08:49:24Z</time>
      </trkpt>
      <trkpt lat="47.335195" lon="17.46508">
        <ele>184.2</ele>
        <time>2025-07-13T08:49:32Z</time>
      </trkpt>
      <trkpt lat="47.335225" lon="17.46493167">
        <ele>184.8</ele>
        <time>2025-07-13T08:49:40Z</time>
      </trkpt>
      <trkpt lat="47.33526667" lon="17.46480833">
        <ele>184</ele>
        <time>2025-07-13T08:49:49Z</time>
      </trkpt>
      <trkpt lat="47.33531" lon="17.464675">
        <ele>184.4</ele>
        <time>2025-07-13T08:49:58Z</time>
      </trkpt>
      <trkpt lat="47.335355" lon="17.46454167">
        <ele>185.5</ele>
        <time>2025-07-13T08:50:06Z</time>
      </trkpt>
      <trkpt lat="47.335385" lon="17.4644">
        <ele>184</ele>
        <time>2025-07-13T08:50:17Z</time>
      </trkpt>
      <trkpt lat="47.33542667" lon="17.46427333">
        <ele>183.5</ele>
        <time>2025-07-13T08:50:25Z</time>
      </trkpt>
      <trkpt lat="47.33544" lon="17.46412333">
        <ele>182.5</ele>
        <time>2025-07-13T08:50:34Z</time>
      </trkpt>
      <trkpt lat="47.33546333" lon="17.46399333">
        <ele>182.7</ele>
        <time>2025-07-13T08:50:41Z</time>
      </trkpt>
      <trkpt lat="47.33538333" lon="17.46393">
        <ele>181.7</ele>
        <time>2025-07-13T08:50:50Z</time>
      </trkpt>
      <trkpt lat="47.33529667" lon="17.46389">
        <ele>182</ele>
        <time>2025-07-13T08:50:56Z</time>
      </trkpt>
      <trkpt lat="47.33520333" lon="17.46385167">
        <ele>183</ele>
        <time>2025-07-13T08:51:03Z</time>
      </trkpt>
      <trkpt lat="47.33511167" lon="17.46381333">
        <ele>184.8</ele>
        <time>2025-07-13T08:51:12Z</time>
      </trkpt>
      <trkpt lat="47.33501833" lon="17.46379">
        <ele>185.2</ele>
        <time>2025-07-13T08:51:20Z</time>
      </trkpt>
      <trkpt lat="47.33492333" lon="17.463775">
        <ele>183.4</ele>
        <time>2025-07-13T08:51:28Z</time>
      </trkpt>
      <trkpt lat="47.33483333" lon="17.46377833">
        <ele>183.5</ele>
        <time>2025-07-13T08:51:35Z</time>
      </trkpt>
      <trkpt lat="47.33474" lon="17.46376667">
        <ele>182</ele>
        <time>2025-07-13T08:51:42Z</time>
      </trkpt>
      <trkpt lat="47.33463833" lon="17.46373">
        <ele>181.8</ele>
        <time>2025-07-13T08:51:49Z</time>
      </trkpt>
      <trkpt lat="47.33454167" lon="17.463715">
        <ele>183.2</ele>
        <time>2025-07-13T08:51:57Z</time>
      </trkpt>
      <trkpt lat="47.33445" lon="17.46368167">
        <ele>183.5</ele>
        <time>2025-07-13T08:52:04Z</time>
      </trkpt>
      <trkpt lat="47.33435333" lon="17.46368">
        <ele>184.7</ele>
        <time>2025-07-13T08:52:12Z</time>
      </trkpt>
      <trkpt lat="47.33426" lon="17.46365833">
        <ele>184.4</ele>
        <time>2025-07-13T08:52:19Z</time>
      </trkpt>
      <trkpt lat="47.33415833" lon="17.463645">
        <ele>181.3</ele>
        <time>2025-07-13T08:52:28Z</time>
      </trkpt>
      <trkpt lat="47.33406167" lon="17.46365833">
        <ele>181.5</ele>
        <time>2025-07-13T08:52:36Z</time>
      </trkpt>
      <trkpt lat="47.33396" lon="17.46366833">
        <ele>180.8</ele>
        <time>2025-07-13T08:52:44Z</time>
      </trkpt>
      <trkpt lat="47.33385833" lon="17.46364167">
        <ele>182.6</ele>
        <time>2025-07-13T08:52:51Z</time>
      </trkpt>
      <trkpt lat="47.33376333" lon="17.46364">
        <ele>184.4</ele>
        <time>2025-07-13T08:52:58Z</time>
      </trkpt>
      <trkpt lat="47.33367" lon="17.46363">
        <ele>185.6</ele>
        <time>2025-07-13T08:53:07Z</time>
      </trkpt>
      <trkpt lat="47.33360333" lon="17.46352333">
        <ele>184.8</ele>
        <time>2025-07-13T08:53:17Z</time>
      </trkpt>
      <trkpt lat="47.33355167" lon="17.46339333">
        <ele>184.4</ele>
        <time>2025-07-13T08:53:26Z</time>
      </trkpt>
      <trkpt lat="47.33373167" lon="17.46337833">
        <ele>184.8</ele>
        <time>2025-07-13T08:53:37Z</time>
      </trkpt>
      <trkpt lat="47.33396667" lon="17.46348">
        <ele>184.9</ele>
        <time>2025-07-13T08:53:38Z</time>
      </trkpt>
      <trkpt lat="47.33419667" lon="17.46353167">
        <ele>185</ele>
        <time>2025-07-13T08:53:39Z</time>
      </trkpt>
      <trkpt lat="47.33581333" lon="17.46438667">
        <ele>184.9</ele>
        <time>2025-07-13T08:53:47Z</time>
      </trkpt>
      <trkpt lat="47.33480833" lon="17.46352167">
        <ele>185.2</ele>
        <time>2025-07-13T08:53:48Z</time>
      </trkpt>
      <trkpt lat="47.33370667" lon="17.463045">
        <ele>185.7</ele>
        <time>2025-07-13T08:53:49Z</time>
      </trkpt>
      <trkpt lat="47.33359667" lon="17.46299333">
        <ele>185.5</ele>
        <time>2025-07-13T08:53:51Z</time>
      </trkpt>
      <trkpt lat="47.33352833" lon="17.46288833">
        <ele>181.5</ele>
        <time>2025-07-13T08:53:57Z</time>
      </trkpt>
      <trkpt lat="47.33354167" lon="17.46275">
        <ele>184.4</ele>
        <time>2025-07-13T08:54:03Z</time>
      </trkpt>
      <trkpt lat="47.33353167" lon="17.46259833">
        <ele>183.5</ele>
        <time>2025-07-13T08:54:27Z</time>
      </trkpt>
      <trkpt lat="47.33355333" lon="17.46246667">
        <ele>181.7</ele>
        <time>2025-07-13T08:54:36Z</time>
      </trkpt>
      <trkpt lat="47.33357" lon="17.46232667">
        <ele>180.8</ele>
        <time>2025-07-13T08:54:44Z</time>
      </trkpt>
      <trkpt lat="47.33348167" lon="17.46235167">
        <ele>179.4</ele>
        <time>2025-07-13T08:55:03Z</time>
      </trkpt>
      <trkpt lat="47.33335667" lon="17.462485">
        <ele>177.9</ele>
        <time>2025-07-13T08:55:18Z</time>
      </trkpt>
      <trkpt lat="47.33327" lon="17.46254667">
        <ele>178</ele>
        <time>2025-07-13T08:55:24Z</time>
      </trkpt>
      <trkpt lat="47.33317833" lon="17.46242833">
        <ele>181.5</ele>
        <time>2025-07-13T08:55:36Z</time>
      </trkpt>
      <trkpt lat="47.33312833" lon="17.462285">
        <ele>183.6</ele>
        <time>2025-07-13T08:55:43Z</time>
      </trkpt>
      <trkpt lat="47.33307667" lon="17.462155">
        <ele>189.7</ele>
        <time>2025-07-13T08:55:53Z</time>
      </trkpt>
      <trkpt lat="47.33301167" lon="17.46205167">
        <ele>191.9</ele>
        <time>2025-07-13T08:55:58Z</time>
      </trkpt>
      <trkpt lat="47.33296" lon="17.46194">
        <ele>194</ele>
        <time>2025-07-13T08:56:04Z</time>
      </trkpt>
      <trkpt lat="47.33292" lon="17.46181833">
        <ele>195.9</ele>
        <time>2025-07-13T08:56:10Z</time>
      </trkpt>
      <trkpt lat="47.332905" lon="17.46167333">
        <ele>198.3</ele>
        <time>2025-07-13T08:56:18Z</time>
      </trkpt>
      <trkpt lat="47.33290667" lon="17.46152333">
        <ele>200.2</ele>
        <time>2025-07-13T08:56:26Z</time>
      </trkpt>
      <trkpt lat="47.33294167" lon="17.461395">
        <ele>196.7</ele>
        <time>2025-07-13T08:56:30Z</time>
      </trkpt>
      <trkpt lat="47.332905" lon="17.46125833">
        <ele>195.8</ele>
        <time>2025-07-13T08:56:39Z</time>
      </trkpt>
      <trkpt lat="47.33286" lon="17.46114333">
        <ele>194.4</ele>
        <time>2025-07-13T08:56:45Z</time>
      </trkpt>
      <trkpt lat="47.33284167" lon="17.460985">
        <ele>193.7</ele>
        <time>2025-07-13T08:56:52Z</time>
      </trkpt>
      <trkpt lat="47.33285333" lon="17.46083833">
        <ele>191.6</ele>
        <time>2025-07-13T08:56:59Z</time>
      </trkpt>
      <trkpt lat="47.33285167" lon="17.46069333">
        <ele>188.8</ele>
        <time>2025-07-13T08:57:08Z</time>
      </trkpt>
      <trkpt lat="47.33275833" lon="17.46071667">
        <ele>185.9</ele>
        <time>2025-07-13T08:57:34Z</time>
      </trkpt>
      <trkpt lat="47.33265" lon="17.46071667">
        <ele>186.5</ele>
        <time>2025-07-13T08:57:42Z</time>
      </trkpt>
      <trkpt lat="47.33255833" lon="17.46071833">
        <ele>186.8</ele>
        <time>2025-07-13T08:57:46Z</time>
      </trkpt>
      <trkpt lat="47.33246333" lon="17.46074333">
        <ele>186.7</ele>
        <time>2025-07-13T08:57:53Z</time>
      </trkpt>
      <trkpt lat="47.33236167" lon="17.46073833">
        <ele>185.6</ele>
        <time>2025-07-13T08:58:00Z</time>
      </trkpt>
      <trkpt lat="47.33226667" lon="17.46077167">
        <ele>185.4</ele>
        <time>2025-07-13T08:58:08Z</time>
      </trkpt>
      <trkpt lat="47.33217333" lon="17.46079333">
        <ele>185.3</ele>
        <time>2025-07-13T08:58:15Z</time>
      </trkpt>
      <trkpt lat="47.33204667" lon="17.46084667">
        <ele>186.1</ele>
        <time>2025-07-13T08:58:26Z</time>
      </trkpt>
      <trkpt lat="47.331955" lon="17.46086">
        <ele>185.2</ele>
        <time>2025-07-13T08:58:32Z</time>
      </trkpt>
      <trkpt lat="47.33183667" lon="17.46087">
        <ele>181.4</ele>
        <time>2025-07-13T08:58:43Z</time>
      </trkpt>
      <trkpt lat="47.33174" lon="17.46087333">
        <ele>180.4</ele>
        <time>2025-07-13T08:58:48Z</time>
      </trkpt>
      <trkpt lat="47.33164333" lon="17.46088">
        <ele>178.8</ele>
        <time>2025-07-13T08:58:55Z</time>
      </trkpt>
      <trkpt lat="47.33149333" lon="17.46090833">
        <ele>176.3</ele>
        <time>2025-07-13T08:59:07Z</time>
      </trkpt>
      <trkpt lat="47.33136167" lon="17.46099833">
        <ele>177.7</ele>
        <time>2025-07-13T08:59:18Z</time>
      </trkpt>
      <trkpt lat="47.33126667" lon="17.46103">
        <ele>177.1</ele>
        <time>2025-07-13T08:59:25Z</time>
      </trkpt>
      <trkpt lat="47.33117667" lon="17.46105333">
        <ele>178.4</ele>
        <time>2025-07-13T08:59:31Z</time>
      </trkpt>
      <trkpt lat="47.331075" lon="17.46110333">
        <ele>182.4</ele>
        <time>2025-07-13T08:59:44Z</time>
      </trkpt>
      <trkpt lat="47.33097667" lon="17.46112667">
        <ele>185</ele>
        <time>2025-07-13T08:59:50Z</time>
      </trkpt>
      <trkpt lat="47.33089" lon="17.46116667">
        <ele>186.4</ele>
        <time>2025-07-13T08:59:57Z</time>
      </trkpt>
      <trkpt lat="47.330775" lon="17.46121667">
        <ele>185.1</ele>
        <time>2025-07-13T09:00:10Z</time>
      </trkpt>
      <trkpt lat="47.33069667" lon="17.46129333">
        <ele>183.6</ele>
        <time>2025-07-13T09:00:17Z</time>
      </trkpt>
      <trkpt lat="47.33061333" lon="17.46135833">
        <ele>182.9</ele>
        <time>2025-07-13T09:00:22Z</time>
      </trkpt>
      <trkpt lat="47.33050167" lon="17.46145167">
        <ele>183.6</ele>
        <time>2025-07-13T09:00:33Z</time>
      </trkpt>
      <trkpt lat="47.33040667" lon="17.46145">
        <ele>182.2</ele>
        <time>2025-07-13T09:00:40Z</time>
      </trkpt>
      <trkpt lat="47.33031" lon="17.46144">
        <ele>184.1</ele>
        <time>2025-07-13T09:00:48Z</time>
      </trkpt>
      <trkpt lat="47.33022167" lon="17.461405">
        <ele>186.1</ele>
        <time>2025-07-13T09:00:54Z</time>
      </trkpt>
      <trkpt lat="47.330095" lon="17.46143667">
        <ele>186</ele>
        <time>2025-07-13T09:01:06Z</time>
      </trkpt>
      <trkpt lat="47.32999333" lon="17.46146167">
        <ele>184.4</ele>
        <time>2025-07-13T09:01:15Z</time>
      </trkpt>
      <trkpt lat="47.32989667" lon="17.46148833">
        <ele>183.4</ele>
        <time>2025-07-13T09:01:22Z</time>
      </trkpt>
      <trkpt lat="47.32982667" lon="17.46161">
        <ele>181.1</ele>
        <time>2025-07-13T09:01:33Z</time>
      </trkpt>
      <trkpt lat="47.32975167" lon="17.46169833">
        <ele>181</ele>
        <time>2025-07-13T09:01:42Z</time>
      </trkpt>
      <trkpt lat="47.32965667" lon="17.46174">
        <ele>183.3</ele>
        <time>2025-07-13T09:01:48Z</time>
      </trkpt>
      <trkpt lat="47.32957667" lon="17.461805">
        <ele>184.8</ele>
        <time>2025-07-13T09:01:55Z</time>
      </trkpt>
      <trkpt lat="47.32947667" lon="17.46196167">
        <ele>180.1</ele>
        <time>2025-07-13T09:02:08Z</time>
      </trkpt>
      <trkpt lat="47.32940167" lon="17.46207833">
        <ele>181.4</ele>
        <time>2025-07-13T09:02:14Z</time>
      </trkpt>
      <trkpt lat="47.329325" lon="17.462155">
        <ele>183.9</ele>
        <time>2025-07-13T09:02:20Z</time>
      </trkpt>
      <trkpt lat="47.32925833" lon="17.46226667">
        <ele>183.1</ele>
        <time>2025-07-13T09:02:29Z</time>
      </trkpt>
      <trkpt lat="47.32916167" lon="17.46229833">
        <ele>185.9</ele>
        <time>2025-07-13T09:02:34Z</time>
      </trkpt>
      <trkpt lat="47.32907667" lon="17.46236">
        <ele>187.2</ele>
        <time>2025-07-13T09:02:41Z</time>
      </trkpt>
      <trkpt lat="47.32898167" lon="17.462395">
        <ele>188.6</ele>
        <time>2025-07-13T09:02:47Z</time>
      </trkpt>
      <trkpt lat="47.32895167" lon="17.46263667">
        <ele>189.6</ele>
        <time>2025-07-13T09:03:08Z</time>
      </trkpt>
      <trkpt lat="47.32885" lon="17.46271">
        <ele>187.9</ele>
        <time>2025-07-13T09:03:21Z</time>
      </trkpt>
      <trkpt lat="47.32877" lon="17.46279167">
        <ele>188.3</ele>
        <time>2025-07-13T09:03:28Z</time>
      </trkpt>
      <trkpt lat="47.32868833" lon="17.46286833">
        <ele>188.6</ele>
        <time>2025-07-13T09:03:36Z</time>
      </trkpt>
      <trkpt lat="47.32856167" lon="17.46301167">
        <ele>188.3</ele>
        <time>2025-07-13T09:03:48Z</time>
      </trkpt>
      <trkpt lat="47.32847333" lon="17.46295667">
        <ele>188.1</ele>
        <time>2025-07-13T09:03:55Z</time>
      </trkpt>
      <trkpt lat="47.328375" lon="17.463">
        <ele>186.8</ele>
        <time>2025-07-13T09:04:03Z</time>
      </trkpt>
      <trkpt lat="47.328285" lon="17.46308">
        <ele>187.4</ele>
        <time>2025-07-13T09:04:10Z</time>
      </trkpt>
      <trkpt lat="47.32830667" lon="17.46321833">
        <ele>187.8</ele>
        <time>2025-07-13T09:04:19Z</time>
      </trkpt>
      <trkpt lat="47.32835333" lon="17.463335">
        <ele>191.7</ele>
        <time>2025-07-13T09:04:28Z</time>
      </trkpt>
      <trkpt lat="47.32841333" lon="17.46350333">
        <ele>193.1</ele>
        <time>2025-07-13T09:04:41Z</time>
      </trkpt>
      <trkpt lat="47.32847667" lon="17.46362667">
        <ele>192.5</ele>
        <time>2025-07-13T09:04:55Z</time>
      </trkpt>
      <trkpt lat="47.32855333" lon="17.46379667">
        <ele>191.9</ele>
        <time>2025-07-13T09:05:05Z</time>
      </trkpt>
      <trkpt lat="47.32858" lon="17.46398833">
        <ele>188.4</ele>
        <time>2025-07-13T09:05:30Z</time>
      </trkpt>
      <trkpt lat="47.32866833" lon="17.46404833">
        <ele>190.5</ele>
        <time>2025-07-13T09:05:38Z</time>
      </trkpt>
      <trkpt lat="47.328755" lon="17.46417167">
        <ele>191</ele>
        <time>2025-07-13T09:05:47Z</time>
      </trkpt>
      <trkpt lat="47.328815" lon="17.464275">
        <ele>191.4</ele>
        <time>2025-07-13T09:05:54Z</time>
      </trkpt>
      <trkpt lat="47.32887" lon="17.464395">
        <ele>190.4</ele>
        <time>2025-07-13T09:06:02Z</time>
      </trkpt>
      <trkpt lat="47.32893" lon="17.464525">
        <ele>189.6</ele>
        <time>2025-07-13T09:06:09Z</time>
      </trkpt>
      <trkpt lat="47.32898333" lon="17.464635">
        <ele>189.4</ele>
        <time>2025-07-13T09:06:15Z</time>
      </trkpt>
      <trkpt lat="47.32902667" lon="17.464775">
        <ele>189.6</ele>
        <time>2025-07-13T09:06:24Z</time>
      </trkpt>
      <trkpt lat="47.32907" lon="17.46490667">
        <ele>188.9</ele>
        <time>2025-07-13T09:06:31Z</time>
      </trkpt>
      <trkpt lat="47.32908333" lon="17.46503833">
        <ele>186.7</ele>
        <time>2025-07-13T09:06:38Z</time>
      </trkpt>
      <trkpt lat="47.32916" lon="17.46520833">
        <ele>184.7</ele>
        <time>2025-07-13T09:06:52Z</time>
      </trkpt>
      <trkpt lat="47.329195" lon="17.46533833">
        <ele>186.4</ele>
        <time>2025-07-13T09:07:21Z</time>
      </trkpt>
      <trkpt lat="47.32920167" lon="17.46550167">
        <ele>188.7</ele>
        <time>2025-07-13T09:07:49Z</time>
      </trkpt>
      <trkpt lat="47.32921" lon="17.465635">
        <ele>187.7</ele>
        <time>2025-07-13T09:07:57Z</time>
      </trkpt>
      <trkpt lat="47.32924333" lon="17.46583833">
        <ele>186.5</ele>
        <time>2025-07-13T09:08:09Z</time>
      </trkpt>
      <trkpt lat="47.32927167" lon="17.46601833">
        <ele>189</ele>
        <time>2025-07-13T09:08:21Z</time>
      </trkpt>
      <trkpt lat="47.32929833" lon="17.46618833">
        <ele>187.5</ele>
        <time>2025-07-13T09:08:31Z</time>
      </trkpt>
      <trkpt lat="47.32930667" lon="17.46632667">
        <ele>189.8</ele>
        <time>2025-07-13T09:08:37Z</time>
      </trkpt>
      <trkpt lat="47.329335" lon="17.466465">
        <ele>192.6</ele>
        <time>2025-07-13T09:08:46Z</time>
      </trkpt>
      <trkpt lat="47.32929" lon="17.46661333">
        <ele>193.4</ele>
        <time>2025-07-13T09:09:05Z</time>
      </trkpt>
      <trkpt lat="47.32920833" lon="17.46671">
        <ele>192.8</ele>
        <time>2025-07-13T09:09:10Z</time>
      </trkpt>
      <trkpt lat="47.32913167" lon="17.46681333">
        <ele>192.9</ele>
        <time>2025-07-13T09:09:17Z</time>
      </trkpt>
      <trkpt lat="47.32898667" lon="17.46692833">
        <ele>193.6</ele>
        <time>2025-07-13T09:09:33Z</time>
      </trkpt>
      <trkpt lat="47.32885333" lon="17.46698">
        <ele>195.8</ele>
        <time>2025-07-13T09:09:45Z</time>
      </trkpt>
      <trkpt lat="47.32875667" lon="17.467">
        <ele>195.9</ele>
        <time>2025-07-13T09:09:52Z</time>
      </trkpt>
      <trkpt lat="47.32869667" lon="17.46711333">
        <ele>195.7</ele>
        <time>2025-07-13T09:10:00Z</time>
      </trkpt>
      <trkpt lat="47.32860833" lon="17.4672">
        <ele>195.6</ele>
        <time>2025-07-13T09:10:11Z</time>
      </trkpt>
      <trkpt lat="47.32864" lon="17.46742833">
        <ele>196.1</ele>
        <time>2025-07-13T09:10:25Z</time>
      </trkpt>
      <trkpt lat="47.32882167" lon="17.46746833">
        <ele>198.3</ele>
        <time>2025-07-13T09:10:30Z</time>
      </trkpt>
      <trkpt lat="47.32894167" lon="17.467355">
        <ele>199.2</ele>
        <time>2025-07-13T09:10:32Z</time>
      </trkpt>
      <trkpt lat="47.32890667" lon="17.467085">
        <ele>200.3</ele>
        <time>2025-07-13T09:10:33Z</time>
      </trkpt>
      <trkpt lat="47.328725" lon="17.46702833">
        <ele>201.3</ele>
        <time>2025-07-13T09:10:35Z</time>
      </trkpt>
      <trkpt lat="47.3288" lon="17.46724167">
        <ele>202.5</ele>
        <time>2025-07-13T09:10:40Z</time>
      </trkpt>
      <trkpt lat="47.32887333" lon="17.46735">
        <ele>202.2</ele>
        <time>2025-07-13T09:10:43Z</time>
      </trkpt>
    </trkseg>
  </trk>
</gpx>