<?xml version='1.0' encoding='UTF-8' standalone='yes' ?>
<gpx xmlns="http://www.topografix.com/GPX/1/1" xmlns:geotracker="http://ilyabogdanovich.com/gpx/extensions/geotracker" xmlns:xsi="http://www.w3.org/2001/XMLSchema-instance" xsi:schemaLocation="http://www.topografix.com/GPX/1/1 http://www.topografix.com/GPX/1/1/gpx.xsd" version="1.1" creator="Recorded in Geo Tracker for Android from Ilya Bogdanovich">
  <metadata>
    <name>w_0717_15</name>
    <author>
      <name>Recorded in Geo Tracker for Android from Ilya Bogdanovich</name>
      <link href="https://play.google.com/store/apps/details?id=com.ilyabogdanovich.geotracker" />
    </author>
    <link href="https://play.google.com/store/apps/details?id=com.ilyabogdanovich.geotracker" />
    <time>2025-07-17T17:11:09Z</time>
  </metadata>
  <wpt lat="46.70316833" lon="17.37934667">
    <ele>145.6</ele>
    <time>2025-07-17T17:22:00Z</time>
    <name>Stop for ~5 min</name>
    <desc>Elevation: 146 m
Time from start: 00:10:50
Distance from start: 0,64 km</desc>
    <extensions>
      <geotracker:meta visited="1" />
    </extensions>
  </wpt>
  <trk>
    <name>w_0717_15</name>
    <src>Recorded in Geo Tracker for Android from Ilya Bogdanovich</src>
    <link href="https://play.google.com/store/apps/details?id=com.ilyabogdanovich.geotracker" />
    <extensions>
      <geotracker:meta>
        <geotracker:length>795.99</geotracker:length>
        <geotracker:duration>2893028</geotracker:duration>
        <geotracker:creationtime>2025-07-17T17:11:09Z</geotracker:creationtime>
        <geotracker:activity>0</geotracker:activity>
      </geotracker:meta>
    </extensions>
    <trkseg>
      <trkpt lat="46.70419" lon="17.37646">
        <ele>152.8</ele>
        <time>2025-07-17T17:11:15Z</time>
      </trkpt>
      <trkpt lat="46.70421167" lon="17.37633">
        <ele>151.3</ele>
        <time>2025-07-17T17:11:24Z</time>
      </trkpt>
      <trkpt lat="46.7042" lon="17.37619">
        <ele>152.5</ele>
        <time>2025-07-17T17:11:36Z</time>
      </trkpt>
      <trkpt lat="46.70422167" lon="17.37605833">
        <ele>151.6</ele>
        <time>2025-07-17T17:11:45Z</time>
      </trkpt>
      <trkpt lat="46.70423333" lon="17.375925">
        <ele>150.8</ele>
        <time>2025-07-17T17:11:53Z</time>
      </trkpt>
      <trkpt lat="46.70424167" lon="17.37579167">
        <ele>151.6</ele>
        <time>2025-07-17T17:12:01Z</time>
      </trkpt>
      <trkpt lat="46.70422667" lon="17.37566167">
        <ele>153.3</ele>
        <time>2025-07-17T17:12:15Z</time>
      </trkpt>
      <trkpt lat="46.70420833" lon="17.37552833">
        <ele>150.9</ele>
        <time>2025-07-17T17:12:24Z</time>
      </trkpt>
      <trkpt lat="46.70422167" lon="17.375385">
        <ele>150.1</ele>
        <time>2025-07-17T17:12:31Z</time>
      </trkpt>
      <trkpt lat="46.70422667" lon="17.37524833">
        <ele>150.2</ele>
        <time>2025-07-17T17:12:39Z</time>
      </trkpt>
      <trkpt lat="46.70423333" lon="17.37511667">
        <ele>150</ele>
        <time>2025-07-17T17:12:46Z</time>
      </trkpt>
      <trkpt lat="46.70425667" lon="17.37498833">
        <ele>150.8</ele>
        <time>2025-07-17T17:12:53Z</time>
      </trkpt>
      <trkpt lat="46.70428167" lon="17.37485333">
        <ele>151.5</ele>
        <time>2025-07-17T17:13:01Z</time>
      </trkpt>
      <trkpt lat="46.70429333" lon="17.37471167">
        <ele>151.5</ele>
        <time>2025-07-17T17:13:11Z</time>
      </trkpt>
      <trkpt lat="46.70429667" lon="17.37456167">
        <ele>149.3</ele>
        <time>2025-07-17T17:13:21Z</time>
      </trkpt>
      <trkpt lat="46.70431" lon="17.37442167">
        <ele>150.4</ele>
        <time>2025-07-17T17:13:28Z</time>
      </trkpt>
      <trkpt lat="46.70432" lon="17.374285">
        <ele>150.5</ele>
        <time>2025-07-17T17:13:35Z</time>
      </trkpt>
      <trkpt lat="46.70423" lon="17.37429667">
        <ele>148</ele>
        <time>2025-07-17T17:13:54Z</time>
      </trkpt>
      <trkpt lat="46.70422" lon="17.37442667">
        <ele>148.6</ele>
        <time>2025-07-17T17:14:02Z</time>
      </trkpt>
      <trkpt lat="46.70420167" lon="17.37459">
        <ele>149.9</ele>
        <time>2025-07-17T17:14:11Z</time>
      </trkpt>
      <trkpt lat="46.70419833" lon="17.374725">
        <ele>149.2</ele>
        <time>2025-07-17T17:14:19Z</time>
      </trkpt>
      <trkpt lat="46.70418" lon="17.374865">
        <ele>148.8</ele>
        <time>2025-07-17T17:14:27Z</time>
      </trkpt>
      <trkpt lat="46.704175" lon="17.37500667">
        <ele>149</ele>
        <time>2025-07-17T17:14:35Z</time>
      </trkpt>
      <trkpt lat="46.70418333" lon="17.37513833">
        <ele>150</ele>
        <time>2025-07-17T17:14:44Z</time>
      </trkpt>
      <trkpt lat="46.70416" lon="17.37527333">
        <ele>147.9</ele>
        <time>2025-07-17T17:14:53Z</time>
      </trkpt>
      <trkpt lat="46.704155" lon="17.37541">
        <ele>147.2</ele>
        <time>2025-07-17T17:15:00Z</time>
      </trkpt>
      <trkpt lat="46.70412833" lon="17.37554333">
        <ele>146.9</ele>
        <time>2025-07-17T17:15:08Z</time>
      </trkpt>
      <trkpt lat="46.704105" lon="17.37568667">
        <ele>146.9</ele>
        <time>2025-07-17T17:15:17Z</time>
      </trkpt>
      <trkpt lat="46.70406333" lon="17.37580833">
        <ele>146.8</ele>
        <time>2025-07-17T17:15:26Z</time>
      </trkpt>
      <trkpt lat="46.70405833" lon="17.37594167">
        <ele>149.5</ele>
        <time>2025-07-17T17:15:34Z</time>
      </trkpt>
      <trkpt lat="46.70404" lon="17.37608">
        <ele>147.9</ele>
        <time>2025-07-17T17:15:44Z</time>
      </trkpt>
      <trkpt lat="46.70402833" lon="17.37621333">
        <ele>146.7</ele>
        <time>2025-07-17T17:15:51Z</time>
      </trkpt>
      <trkpt lat="46.70398667" lon="17.376335">
        <ele>147.7</ele>
        <time>2025-07-17T17:16:00Z</time>
      </trkpt>
      <trkpt lat="46.70389333" lon="17.37635167">
        <ele>147.5</ele>
        <time>2025-07-17T17:16:07Z</time>
      </trkpt>
      <trkpt lat="46.70380333" lon="17.37632167">
        <ele>146</ele>
        <time>2025-07-17T17:16:16Z</time>
      </trkpt>
      <trkpt lat="46.70371" lon="17.37633">
        <ele>145.1</ele>
        <time>2025-07-17T17:16:23Z</time>
      </trkpt>
      <trkpt lat="46.70361167" lon="17.37630167">
        <ele>145.8</ele>
        <time>2025-07-17T17:16:33Z</time>
      </trkpt>
      <trkpt lat="46.703515" lon="17.37626333">
        <ele>146.1</ele>
        <time>2025-07-17T17:16:45Z</time>
      </trkpt>
      <trkpt lat="46.703415" lon="17.37627833">
        <ele>145</ele>
        <time>2025-07-17T17:16:54Z</time>
      </trkpt>
      <trkpt lat="46.70335167" lon="17.37638">
        <ele>145.7</ele>
        <time>2025-07-17T17:17:02Z</time>
      </trkpt>
      <trkpt lat="46.70334333" lon="17.37652167">
        <ele>146.7</ele>
        <time>2025-07-17T17:17:10Z</time>
      </trkpt>
      <trkpt lat="46.703325" lon="17.37665167">
        <ele>147</ele>
        <time>2025-07-17T17:17:19Z</time>
      </trkpt>
      <trkpt lat="46.70330667" lon="17.376785">
        <ele>147.4</ele>
        <time>2025-07-17T17:17:28Z</time>
      </trkpt>
      <trkpt lat="46.70329667" lon="17.37691833">
        <ele>145.6</ele>
        <time>2025-07-17T17:17:35Z</time>
      </trkpt>
      <trkpt lat="46.70328833" lon="17.37705667">
        <ele>145.7</ele>
        <time>2025-07-17T17:17:43Z</time>
      </trkpt>
      <trkpt lat="46.70326" lon="17.377185">
        <ele>146.5</ele>
        <time>2025-07-17T17:17:51Z</time>
      </trkpt>
      <trkpt lat="46.70326333" lon="17.37732833">
        <ele>148.2</ele>
        <time>2025-07-17T17:18:00Z</time>
      </trkpt>
      <trkpt lat="46.70325167" lon="17.37747">
        <ele>147.7</ele>
        <time>2025-07-17T17:18:09Z</time>
      </trkpt>
      <trkpt lat="46.703255" lon="17.37761333">
        <ele>146.8</ele>
        <time>2025-07-17T17:18:17Z</time>
      </trkpt>
      <trkpt lat="46.70323167" lon="17.37774333">
        <ele>146.2</ele>
        <time>2025-07-17T17:18:25Z</time>
      </trkpt>
      <trkpt lat="46.70323" lon="17.37788833">
        <ele>146</ele>
        <time>2025-07-17T17:18:34Z</time>
      </trkpt>
      <trkpt lat="46.70322167" lon="17.37802833">
        <ele>146</ele>
        <time>2025-07-17T17:18:42Z</time>
      </trkpt>
      <trkpt lat="46.703195" lon="17.378155">
        <ele>147.2</ele>
        <time>2025-07-17T17:18:51Z</time>
      </trkpt>
      <trkpt lat="46.70319167" lon="17.378295">
        <ele>148.8</ele>
        <time>2025-07-17T17:18:59Z</time>
      </trkpt>
      <trkpt lat="46.70318" lon="17.378435">
        <ele>148.4</ele>
        <time>2025-07-17T17:19:08Z</time>
      </trkpt>
      <trkpt lat="46.70317333" lon="17.37857833">
        <ele>146.9</ele>
        <time>2025-07-17T17:19:16Z</time>
      </trkpt>
      <trkpt lat="46.70316167" lon="17.378715">
        <ele>146.2</ele>
        <time>2025-07-17T17:19:24Z</time>
      </trkpt>
      <trkpt lat="46.70315833" lon="17.37884667">
        <ele>144.1</ele>
        <time>2025-07-17T17:19:34Z</time>
      </trkpt>
      <trkpt lat="46.703145" lon="17.378985">
        <ele>143.9</ele>
        <time>2025-07-17T17:19:43Z</time>
      </trkpt>
      <trkpt lat="46.70312833" lon="17.37911667">
        <ele>143.9</ele>
        <time>2025-07-17T17:19:50Z</time>
      </trkpt>
      <trkpt lat="46.70312333" lon="17.37925667">
        <ele>144.5</ele>
        <time>2025-07-17T17:19:59Z</time>
      </trkpt>
      <trkpt lat="46.70316833" lon="17.37934667">
        <ele>145.6</ele>
        <time>2025-07-17T17:22:00Z</time>
      </trkpt>
      <trkpt lat="46.70316833" lon="17.37934667">
        <ele>145.6</ele>
        <time>2025-07-17T17:25:40Z</time>
      </trkpt>
      <trkpt lat="46.70316833" lon="17.37934667">
        <ele>145.6</ele>
        <time>2025-07-17T17:27:41Z</time>
      </trkpt>
      <trkpt lat="46.70316833" lon="17.37934667">
        <ele>145.6</ele>
        <time>2025-07-17T17:29:42Z</time>
      </trkpt>
      <trkpt lat="46.70316833" lon="17.37934667">
        <ele>145.6</ele>
        <time>2025-07-17T17:31:43Z</time>
      </trkpt>
      <trkpt lat="46.70316833" lon="17.37934667">
        <ele>145.6</ele>
        <time>2025-07-17T17:33:44Z</time>
      </trkpt>
      <trkpt lat="46.70316833" lon="17.37934667">
        <ele>145.6</ele>
        <time>2025-07-17T17:35:45Z</time>
      </trkpt>
      <trkpt lat="46.70316833" lon="17.37934667">
        <ele>145.6</ele>
        <time>2025-07-17T17:37:46Z</time>
      </trkpt>
      <trkpt lat="46.70316833" lon="17.37934667">
        <ele>145.6</ele>
        <time>2025-07-17T17:39:47Z</time>
      </trkpt>
      <trkpt lat="46.70316833" lon="17.37934667">
        <ele>145.6</ele>
        <time>2025-07-17T17:41:48Z</time>
      </trkpt>
      <trkpt lat="46.70324" lon="17.379395">
        <ele>148.5</ele>
        <time>2025-07-17T17:43:49Z</time>
      </trkpt>
      <trkpt lat="46.70328667" lon="17.37934333">
        <ele>142.4</ele>
        <time>2025-07-17T17:45:50Z</time>
      </trkpt>
      <trkpt lat="46.70328667" lon="17.37934333">
        <ele>142.4</ele>
        <time>2025-07-17T17:47:51Z</time>
      </trkpt>
      <trkpt lat="46.70328667" lon="17.37934333">
        <ele>142.4</ele>
        <time>2025-07-17T17:49:52Z</time>
      </trkpt>
      <trkpt lat="46.703365" lon="17.379275">
        <ele>146.5</ele>
        <time>2025-07-17T17:51:01Z</time>
      </trkpt>
      <trkpt lat="46.70327333" lon="17.37930167">
        <ele>131.2</ele>
        <time>2025-07-17T17:52:03Z</time>
      </trkpt>
      <trkpt lat="46.70337" lon="17.37932333">
        <ele>142.8</ele>
        <time>2025-07-17T17:52:31Z</time>
      </trkpt>
      <trkpt lat="46.70345833" lon="17.37938667">
        <ele>142.9</ele>
        <time>2025-07-17T17:52:40Z</time>
      </trkpt>
      <trkpt lat="46.70334167" lon="17.37935333">
        <ele>143.4</ele>
        <time>2025-07-17T17:52:53Z</time>
      </trkpt>
      <trkpt lat="46.703255" lon="17.379285">
        <ele>143.8</ele>
        <time>2025-07-17T17:52:56Z</time>
      </trkpt>
      <trkpt lat="46.703295" lon="17.37940667">
        <ele>144.1</ele>
        <time>2025-07-17T17:53:09Z</time>
      </trkpt>
      <trkpt lat="46.70332333" lon="17.379565">
        <ele>144.5</ele>
        <time>2025-07-17T17:53:14Z</time>
      </trkpt>
      <trkpt lat="46.70325167" lon="17.37934333">
        <ele>145</ele>
        <time>2025-07-17T17:53:24Z</time>
      </trkpt>
      <trkpt lat="46.70320833" lon="17.37931167">
        <ele>148.5</ele>
        <time>2025-07-17T17:55:25Z</time>
      </trkpt>
      <trkpt lat="46.70330167" lon="17.37933">
        <ele>154.2</ele>
        <time>2025-07-17T17:59:16Z</time>
      </trkpt>
      <trkpt lat="46.70319667" lon="17.37937833">
        <ele>151.2</ele>
        <time>2025-07-17T17:59:17Z</time>
      </trkpt>
    </trkseg>
  </trk>
</gpx>