<?xml version='1.0' encoding='UTF-8' standalone='yes' ?>
<gpx xmlns="http://www.topografix.com/GPX/1/1" xmlns:geotracker="http://ilyabogdanovich.com/gpx/extensions/geotracker" xmlns:xsi="http://www.w3.org/2001/XMLSchema-instance" xsi:schemaLocation="http://www.topografix.com/GPX/1/1 http://www.topografix.com/GPX/1/1/gpx.xsd" version="1.1" creator="Recorded in Geo Tracker for Android from Ilya Bogdanovich">
  <metadata>
    <name>w_0714_04</name>
    <author>
      <name>Recorded in Geo Tracker for Android from Ilya Bogdanovich</name>
      <link href="https://play.google.com/store/apps/details?id=com.ilyabogdanovich.geotracker" />
    </author>
    <link href="https://play.google.com/store/apps/details?id=com.ilyabogdanovich.geotracker" />
    <time>2025-07-14T12:40:37Z</time>
  </metadata>
  <wpt lat="47.014175" lon="16.61286">
    <ele>230.7</ele>
    <time>2025-07-14T12:52:32Z</time>
    <name>Stop for ~4 min</name>
    <desc>Elevation: 231 m
Time from start: 00:11:54
Distance from start: 0,69 km</desc>
    <extensions>
      <geotracker:meta visited="1" />
    </extensions>
  </wpt>
  <wpt lat="47.009335" lon="16.612495">
    <ele>245.2</ele>
    <time>2025-07-14T13:12:31Z</time>
    <name>Stop for ~25 min</name>
    <desc>Elevation: 245 m
Time from start: 00:31:53
Distance from start: 1,59 km</desc>
    <extensions>
      <geotracker:meta visited="1" />
    </extensions>
  </wpt>
  <trk>
    <name>w_0714_04</name>
    <src>Recorded in Geo Tracker for Android from Ilya Bogdanovich</src>
    <link href="https://play.google.com/store/apps/details?id=com.ilyabogdanovich.geotracker" />
    <extensions>
      <geotracker:meta>
        <geotracker:length>5253.53</geotracker:length>
        <geotracker:duration>7597573</geotracker:duration>
        <geotracker:creationtime>2025-07-14T12:40:37Z</geotracker:creationtime>
        <geotracker:activity>0</geotracker:activity>
      </geotracker:meta>
    </extensions>
    <trkseg>
      <trkpt lat="47.01821" lon="16.61372167">
        <ele>336.2</ele>
        <time>2025-07-14T12:40:43Z</time>
      </trkpt>
      <trkpt lat="47.01811" lon="16.61369167">
        <ele>335.3</ele>
        <time>2025-07-14T12:40:51Z</time>
      </trkpt>
      <trkpt lat="47.01802833" lon="16.61362">
        <ele>335.4</ele>
        <time>2025-07-14T12:40:59Z</time>
      </trkpt>
      <trkpt lat="47.01794833" lon="16.61355">
        <ele>334.9</ele>
        <time>2025-07-14T12:41:11Z</time>
      </trkpt>
      <trkpt lat="47.01787667" lon="16.613465">
        <ele>330.7</ele>
        <time>2025-07-14T12:41:19Z</time>
      </trkpt>
      <trkpt lat="47.017805" lon="16.61337333">
        <ele>323.8</ele>
        <time>2025-07-14T12:41:25Z</time>
      </trkpt>
      <trkpt lat="47.01773833" lon="16.61327667">
        <ele>313</ele>
        <time>2025-07-14T12:41:33Z</time>
      </trkpt>
      <trkpt lat="47.01765667" lon="16.61318333">
        <ele>300</ele>
        <time>2025-07-14T12:41:41Z</time>
      </trkpt>
      <trkpt lat="47.01758833" lon="16.61308167">
        <ele>283.1</ele>
        <time>2025-07-14T12:41:48Z</time>
      </trkpt>
      <trkpt lat="47.01753333" lon="16.61296">
        <ele>260.8</ele>
        <time>2025-07-14T12:41:54Z</time>
      </trkpt>
      <trkpt lat="47.017475" lon="16.61285833">
        <ele>245.7</ele>
        <time>2025-07-14T12:42:00Z</time>
      </trkpt>
      <trkpt lat="47.01739333" lon="16.61277333">
        <ele>234.8</ele>
        <time>2025-07-14T12:42:09Z</time>
      </trkpt>
      <trkpt lat="47.01731167" lon="16.612685">
        <ele>232.8</ele>
        <time>2025-07-14T12:42:17Z</time>
      </trkpt>
      <trkpt lat="47.01724167" lon="16.61260167">
        <ele>232.9</ele>
        <time>2025-07-14T12:42:26Z</time>
      </trkpt>
      <trkpt lat="47.01716833" lon="16.612515">
        <ele>232.8</ele>
        <time>2025-07-14T12:42:37Z</time>
      </trkpt>
      <trkpt lat="47.01708333" lon="16.61244">
        <ele>233.2</ele>
        <time>2025-07-14T12:42:46Z</time>
      </trkpt>
      <trkpt lat="47.01701167" lon="16.612355">
        <ele>231.1</ele>
        <time>2025-07-14T12:42:56Z</time>
      </trkpt>
      <trkpt lat="47.01693167" lon="16.61228667">
        <ele>231.9</ele>
        <time>2025-07-14T12:43:03Z</time>
      </trkpt>
      <trkpt lat="47.01685667" lon="16.61220667">
        <ele>232.6</ele>
        <time>2025-07-14T12:43:13Z</time>
      </trkpt>
      <trkpt lat="47.01677833" lon="16.61213167">
        <ele>234</ele>
        <time>2025-07-14T12:43:21Z</time>
      </trkpt>
      <trkpt lat="47.01670167" lon="16.612055">
        <ele>233.7</ele>
        <time>2025-07-14T12:43:29Z</time>
      </trkpt>
      <trkpt lat="47.01661167" lon="16.61201667">
        <ele>233.4</ele>
        <time>2025-07-14T12:43:37Z</time>
      </trkpt>
      <trkpt lat="47.01653833" lon="16.61192833">
        <ele>233.5</ele>
        <time>2025-07-14T12:43:46Z</time>
      </trkpt>
      <trkpt lat="47.01645667" lon="16.61186167">
        <ele>234.4</ele>
        <time>2025-07-14T12:43:53Z</time>
      </trkpt>
      <trkpt lat="47.01638333" lon="16.61177833">
        <ele>235.6</ele>
        <time>2025-07-14T12:44:02Z</time>
      </trkpt>
      <trkpt lat="47.01631" lon="16.6117">
        <ele>235.7</ele>
        <time>2025-07-14T12:44:09Z</time>
      </trkpt>
      <trkpt lat="47.01623667" lon="16.61162167">
        <ele>237</ele>
        <time>2025-07-14T12:44:16Z</time>
      </trkpt>
      <trkpt lat="47.01614667" lon="16.61156167">
        <ele>237.3</ele>
        <time>2025-07-14T12:44:25Z</time>
      </trkpt>
      <trkpt lat="47.01605667" lon="16.61154667">
        <ele>239.7</ele>
        <time>2025-07-14T12:44:37Z</time>
      </trkpt>
      <trkpt lat="47.01601667" lon="16.61166833">
        <ele>239.7</ele>
        <time>2025-07-14T12:44:46Z</time>
      </trkpt>
      <trkpt lat="47.01604833" lon="16.61154">
        <ele>234.9</ele>
        <time>2025-07-14T12:45:52Z</time>
      </trkpt>
      <trkpt lat="47.01597167" lon="16.61138">
        <ele>234.6</ele>
        <time>2025-07-14T12:46:07Z</time>
      </trkpt>
      <trkpt lat="47.01588" lon="16.61134">
        <ele>233.6</ele>
        <time>2025-07-14T12:46:14Z</time>
      </trkpt>
      <trkpt lat="47.015795" lon="16.61126667">
        <ele>233.7</ele>
        <time>2025-07-14T12:46:23Z</time>
      </trkpt>
      <trkpt lat="47.01571333" lon="16.61119167">
        <ele>232.9</ele>
        <time>2025-07-14T12:46:31Z</time>
      </trkpt>
      <trkpt lat="47.01563167" lon="16.61113333">
        <ele>232.3</ele>
        <time>2025-07-14T12:46:38Z</time>
      </trkpt>
      <trkpt lat="47.01554833" lon="16.61108167">
        <ele>230.8</ele>
        <time>2025-07-14T12:46:46Z</time>
      </trkpt>
      <trkpt lat="47.015465" lon="16.61101667">
        <ele>230.6</ele>
        <time>2025-07-14T12:46:53Z</time>
      </trkpt>
      <trkpt lat="47.01538167" lon="16.61096">
        <ele>230.1</ele>
        <time>2025-07-14T12:47:00Z</time>
      </trkpt>
      <trkpt lat="47.01529667" lon="16.61088667">
        <ele>229.1</ele>
        <time>2025-07-14T12:47:07Z</time>
      </trkpt>
      <trkpt lat="47.0152" lon="16.610845">
        <ele>234.3</ele>
        <time>2025-07-14T12:47:15Z</time>
      </trkpt>
      <trkpt lat="47.01510833" lon="16.61081333">
        <ele>238.8</ele>
        <time>2025-07-14T12:47:22Z</time>
      </trkpt>
      <trkpt lat="47.01506333" lon="16.61092833">
        <ele>237.7</ele>
        <time>2025-07-14T12:47:28Z</time>
      </trkpt>
      <trkpt lat="47.01503667" lon="16.61107333">
        <ele>237.7</ele>
        <time>2025-07-14T12:47:37Z</time>
      </trkpt>
      <trkpt lat="47.01502333" lon="16.61120833">
        <ele>234.6</ele>
        <time>2025-07-14T12:47:47Z</time>
      </trkpt>
      <trkpt lat="47.01502167" lon="16.61134333">
        <ele>232.3</ele>
        <time>2025-07-14T12:47:57Z</time>
      </trkpt>
      <trkpt lat="47.01500833" lon="16.61147667">
        <ele>232.5</ele>
        <time>2025-07-14T12:48:05Z</time>
      </trkpt>
      <trkpt lat="47.015" lon="16.61161">
        <ele>232.4</ele>
        <time>2025-07-14T12:48:11Z</time>
      </trkpt>
      <trkpt lat="47.015" lon="16.61175833">
        <ele>233.2</ele>
        <time>2025-07-14T12:48:18Z</time>
      </trkpt>
      <trkpt lat="47.01499333" lon="16.61189">
        <ele>233.2</ele>
        <time>2025-07-14T12:48:26Z</time>
      </trkpt>
      <trkpt lat="47.01495" lon="16.61201833">
        <ele>232.5</ele>
        <time>2025-07-14T12:48:34Z</time>
      </trkpt>
      <trkpt lat="47.01493833" lon="16.61216167">
        <ele>233.1</ele>
        <time>2025-07-14T12:48:41Z</time>
      </trkpt>
      <trkpt lat="47.01493" lon="16.61229667">
        <ele>231.8</ele>
        <time>2025-07-14T12:48:50Z</time>
      </trkpt>
      <trkpt lat="47.01491167" lon="16.61244167">
        <ele>231.6</ele>
        <time>2025-07-14T12:48:57Z</time>
      </trkpt>
      <trkpt lat="47.01490667" lon="16.61258167">
        <ele>232.1</ele>
        <time>2025-07-14T12:49:05Z</time>
      </trkpt>
      <trkpt lat="47.01487667" lon="16.61270667">
        <ele>232.5</ele>
        <time>2025-07-14T12:49:13Z</time>
      </trkpt>
      <trkpt lat="47.014885" lon="16.612855">
        <ele>233.2</ele>
        <time>2025-07-14T12:49:21Z</time>
      </trkpt>
      <trkpt lat="47.01484667" lon="16.61298667">
        <ele>232.3</ele>
        <time>2025-07-14T12:49:29Z</time>
      </trkpt>
      <trkpt lat="47.01477667" lon="16.61308">
        <ele>231.3</ele>
        <time>2025-07-14T12:49:40Z</time>
      </trkpt>
      <trkpt lat="47.014685" lon="16.61312167">
        <ele>229.3</ele>
        <time>2025-07-14T12:49:53Z</time>
      </trkpt>
      <trkpt lat="47.014595" lon="16.61307333">
        <ele>227.8</ele>
        <time>2025-07-14T12:50:02Z</time>
      </trkpt>
      <trkpt lat="47.01451" lon="16.61299">
        <ele>227.2</ele>
        <time>2025-07-14T12:50:12Z</time>
      </trkpt>
      <trkpt lat="47.01442" lon="16.612935">
        <ele>227.6</ele>
        <time>2025-07-14T12:50:19Z</time>
      </trkpt>
      <trkpt lat="47.01431833" lon="16.61290833">
        <ele>228.6</ele>
        <time>2025-07-14T12:50:25Z</time>
      </trkpt>
      <trkpt lat="47.014225" lon="16.61290167">
        <ele>229.9</ele>
        <time>2025-07-14T12:50:31Z</time>
      </trkpt>
      <trkpt lat="47.014175" lon="16.61286">
        <ele>230.7</ele>
        <time>2025-07-14T12:52:32Z</time>
      </trkpt>
      <trkpt lat="47.014065" lon="16.61286333">
        <ele>235</ele>
        <time>2025-07-14T12:52:56Z</time>
      </trkpt>
      <trkpt lat="47.01417833" lon="16.61287667">
        <ele>271.1</ele>
        <time>2025-07-14T12:53:03Z</time>
      </trkpt>
      <trkpt lat="47.014085" lon="16.61279">
        <ele>237.7</ele>
        <time>2025-07-14T12:55:26Z</time>
      </trkpt>
      <trkpt lat="47.01401667" lon="16.61288167">
        <ele>231.1</ele>
        <time>2025-07-14T12:56:45Z</time>
      </trkpt>
      <trkpt lat="47.01393167" lon="16.61282167">
        <ele>234.5</ele>
        <time>2025-07-14T12:56:56Z</time>
      </trkpt>
      <trkpt lat="47.01384667" lon="16.61276333">
        <ele>235.4</ele>
        <time>2025-07-14T12:57:06Z</time>
      </trkpt>
      <trkpt lat="47.01375333" lon="16.61272167">
        <ele>236.4</ele>
        <time>2025-07-14T12:57:16Z</time>
      </trkpt>
      <trkpt lat="47.01367667" lon="16.61265">
        <ele>236.1</ele>
        <time>2025-07-14T12:57:25Z</time>
      </trkpt>
      <trkpt lat="47.01358833" lon="16.61261167">
        <ele>234.3</ele>
        <time>2025-07-14T12:57:52Z</time>
      </trkpt>
      <trkpt lat="47.013505" lon="16.61255833">
        <ele>232.8</ele>
        <time>2025-07-14T12:58:01Z</time>
      </trkpt>
      <trkpt lat="47.01343333" lon="16.61247167">
        <ele>232.1</ele>
        <time>2025-07-14T12:58:11Z</time>
      </trkpt>
      <trkpt lat="47.013335" lon="16.61244333">
        <ele>231.7</ele>
        <time>2025-07-14T12:58:22Z</time>
      </trkpt>
      <trkpt lat="47.01323833" lon="16.61241833">
        <ele>231</ele>
        <time>2025-07-14T12:58:30Z</time>
      </trkpt>
      <trkpt lat="47.01314833" lon="16.61243833">
        <ele>230.1</ele>
        <time>2025-07-14T12:58:37Z</time>
      </trkpt>
      <trkpt lat="47.01306" lon="16.61241333">
        <ele>229.5</ele>
        <time>2025-07-14T12:58:45Z</time>
      </trkpt>
      <trkpt lat="47.01299333" lon="16.61251167">
        <ele>229.2</ele>
        <time>2025-07-14T12:58:54Z</time>
      </trkpt>
      <trkpt lat="47.01290667" lon="16.61257667">
        <ele>229.4</ele>
        <time>2025-07-14T12:59:02Z</time>
      </trkpt>
      <trkpt lat="47.01280833" lon="16.61261">
        <ele>231</ele>
        <time>2025-07-14T12:59:10Z</time>
      </trkpt>
      <trkpt lat="47.01272" lon="16.61265167">
        <ele>234</ele>
        <time>2025-07-14T12:59:15Z</time>
      </trkpt>
      <trkpt lat="47.01264167" lon="16.61272167">
        <ele>235.6</ele>
        <time>2025-07-14T12:59:23Z</time>
      </trkpt>
      <trkpt lat="47.01255333" lon="16.61280167">
        <ele>235</ele>
        <time>2025-07-14T12:59:32Z</time>
      </trkpt>
      <trkpt lat="47.01247" lon="16.61287">
        <ele>233.8</ele>
        <time>2025-07-14T12:59:40Z</time>
      </trkpt>
      <trkpt lat="47.01238333" lon="16.61291833">
        <ele>232.8</ele>
        <time>2025-07-14T12:59:47Z</time>
      </trkpt>
      <trkpt lat="47.01230333" lon="16.61298167">
        <ele>232</ele>
        <time>2025-07-14T12:59:55Z</time>
      </trkpt>
      <trkpt lat="47.01221" lon="16.61298667">
        <ele>231.4</ele>
        <time>2025-07-14T13:00:03Z</time>
      </trkpt>
      <trkpt lat="47.01211833" lon="16.61304">
        <ele>231.4</ele>
        <time>2025-07-14T13:00:11Z</time>
      </trkpt>
      <trkpt lat="47.01202" lon="16.613055">
        <ele>231.4</ele>
        <time>2025-07-14T13:00:19Z</time>
      </trkpt>
      <trkpt lat="47.01193167" lon="16.61313667">
        <ele>232.3</ele>
        <time>2025-07-14T13:00:27Z</time>
      </trkpt>
      <trkpt lat="47.01184667" lon="16.613195">
        <ele>232.5</ele>
        <time>2025-07-14T13:00:33Z</time>
      </trkpt>
      <trkpt lat="47.01175167" lon="16.613195">
        <ele>233.5</ele>
        <time>2025-07-14T13:00:42Z</time>
      </trkpt>
      <trkpt lat="47.01169833" lon="16.61307833">
        <ele>245.1</ele>
        <time>2025-07-14T13:00:53Z</time>
      </trkpt>
      <trkpt lat="47.01169833" lon="16.61293667">
        <ele>247.5</ele>
        <time>2025-07-14T13:01:00Z</time>
      </trkpt>
      <trkpt lat="47.01166667" lon="16.61281333">
        <ele>242.8</ele>
        <time>2025-07-14T13:01:10Z</time>
      </trkpt>
      <trkpt lat="47.01164833" lon="16.61267667">
        <ele>237.8</ele>
        <time>2025-07-14T13:01:20Z</time>
      </trkpt>
      <trkpt lat="47.01160833" lon="16.61255833">
        <ele>235.7</ele>
        <time>2025-07-14T13:01:28Z</time>
      </trkpt>
      <trkpt lat="47.01158667" lon="16.61242667">
        <ele>234.3</ele>
        <time>2025-07-14T13:01:37Z</time>
      </trkpt>
      <trkpt lat="47.01156167" lon="16.612285">
        <ele>232.3</ele>
        <time>2025-07-14T13:01:45Z</time>
      </trkpt>
      <trkpt lat="47.01153667" lon="16.61215333">
        <ele>231.4</ele>
        <time>2025-07-14T13:01:52Z</time>
      </trkpt>
      <trkpt lat="47.01150167" lon="16.61202833">
        <ele>231.2</ele>
        <time>2025-07-14T13:01:59Z</time>
      </trkpt>
      <trkpt lat="47.01145333" lon="16.61191">
        <ele>231.1</ele>
        <time>2025-07-14T13:02:06Z</time>
      </trkpt>
      <trkpt lat="47.01141167" lon="16.611785">
        <ele>230.8</ele>
        <time>2025-07-14T13:02:13Z</time>
      </trkpt>
      <trkpt lat="47.01138167" lon="16.61165167">
        <ele>230.5</ele>
        <time>2025-07-14T13:02:20Z</time>
      </trkpt>
      <trkpt lat="47.01136333" lon="16.61152">
        <ele>230.4</ele>
        <time>2025-07-14T13:02:29Z</time>
      </trkpt>
      <trkpt lat="47.01133333" lon="16.61138667">
        <ele>229.5</ele>
        <time>2025-07-14T13:02:36Z</time>
      </trkpt>
      <trkpt lat="47.01127833" lon="16.61126">
        <ele>229</ele>
        <time>2025-07-14T13:02:43Z</time>
      </trkpt>
      <trkpt lat="47.01119667" lon="16.61119167">
        <ele>229.6</ele>
        <time>2025-07-14T13:02:50Z</time>
      </trkpt>
      <trkpt lat="47.01109667" lon="16.611185">
        <ele>228.8</ele>
        <time>2025-07-14T13:02:58Z</time>
      </trkpt>
      <trkpt lat="47.01100333" lon="16.61117667">
        <ele>226.9</ele>
        <time>2025-07-14T13:03:09Z</time>
      </trkpt>
      <trkpt lat="47.01091333" lon="16.61115833">
        <ele>225.8</ele>
        <time>2025-07-14T13:03:15Z</time>
      </trkpt>
      <trkpt lat="47.01082333" lon="16.61115">
        <ele>226.5</ele>
        <time>2025-07-14T13:03:21Z</time>
      </trkpt>
      <trkpt lat="47.01073" lon="16.61116167">
        <ele>226.7</ele>
        <time>2025-07-14T13:03:28Z</time>
      </trkpt>
      <trkpt lat="47.01063833" lon="16.61118333">
        <ele>226.3</ele>
        <time>2025-07-14T13:03:35Z</time>
      </trkpt>
      <trkpt lat="47.01054167" lon="16.61121167">
        <ele>226.5</ele>
        <time>2025-07-14T13:03:45Z</time>
      </trkpt>
      <trkpt lat="47.01044333" lon="16.61121">
        <ele>228.4</ele>
        <time>2025-07-14T13:03:53Z</time>
      </trkpt>
      <trkpt lat="47.01034667" lon="16.61125167">
        <ele>229.3</ele>
        <time>2025-07-14T13:04:02Z</time>
      </trkpt>
      <trkpt lat="47.01025667" lon="16.61127">
        <ele>229.4</ele>
        <time>2025-07-14T13:04:10Z</time>
      </trkpt>
      <trkpt lat="47.010165" lon="16.61129">
        <ele>229.3</ele>
        <time>2025-07-14T13:04:18Z</time>
      </trkpt>
      <trkpt lat="47.01007833" lon="16.61133167">
        <ele>229.8</ele>
        <time>2025-07-14T13:04:26Z</time>
      </trkpt>
      <trkpt lat="47.00998" lon="16.61132">
        <ele>229.8</ele>
        <time>2025-07-14T13:04:52Z</time>
      </trkpt>
      <trkpt lat="47.00989" lon="16.611375">
        <ele>232.4</ele>
        <time>2025-07-14T13:05:01Z</time>
      </trkpt>
      <trkpt lat="47.0098" lon="16.61142">
        <ele>234.2</ele>
        <time>2025-07-14T13:05:09Z</time>
      </trkpt>
      <trkpt lat="47.00971667" lon="16.61148667">
        <ele>233.4</ele>
        <time>2025-07-14T13:05:23Z</time>
      </trkpt>
      <trkpt lat="47.00963333" lon="16.61153833">
        <ele>230.5</ele>
        <time>2025-07-14T13:05:48Z</time>
      </trkpt>
      <trkpt lat="47.00958167" lon="16.61166333">
        <ele>229.2</ele>
        <time>2025-07-14T13:05:57Z</time>
      </trkpt>
      <trkpt lat="47.00949333" lon="16.61169667">
        <ele>229.3</ele>
        <time>2025-07-14T13:06:07Z</time>
      </trkpt>
      <trkpt lat="47.00941833" lon="16.61177833">
        <ele>228.8</ele>
        <time>2025-07-14T13:06:15Z</time>
      </trkpt>
      <trkpt lat="47.00945167" lon="16.61191">
        <ele>227.1</ele>
        <time>2025-07-14T13:06:23Z</time>
      </trkpt>
      <trkpt lat="47.00953833" lon="16.611955">
        <ele>227.3</ele>
        <time>2025-07-14T13:06:37Z</time>
      </trkpt>
      <trkpt lat="47.00949167" lon="16.61208667">
        <ele>229</ele>
        <time>2025-07-14T13:07:12Z</time>
      </trkpt>
      <trkpt lat="47.00946333" lon="16.612215">
        <ele>229.6</ele>
        <time>2025-07-14T13:07:19Z</time>
      </trkpt>
      <trkpt lat="47.009485" lon="16.61235667">
        <ele>229.5</ele>
        <time>2025-07-14T13:07:28Z</time>
      </trkpt>
      <trkpt lat="47.00954167" lon="16.61247667">
        <ele>229.2</ele>
        <time>2025-07-14T13:07:37Z</time>
      </trkpt>
      <trkpt lat="47.009635" lon="16.61245667">
        <ele>225.6</ele>
        <time>2025-07-14T13:07:54Z</time>
      </trkpt>
      <trkpt lat="47.009645" lon="16.61231333">
        <ele>225.9</ele>
        <time>2025-07-14T13:08:04Z</time>
      </trkpt>
      <trkpt lat="47.00962833" lon="16.61218333">
        <ele>226.2</ele>
        <time>2025-07-14T13:08:13Z</time>
      </trkpt>
      <trkpt lat="47.00957167" lon="16.61206667">
        <ele>226.9</ele>
        <time>2025-07-14T13:08:24Z</time>
      </trkpt>
      <trkpt lat="47.009525" lon="16.61193667">
        <ele>226.4</ele>
        <time>2025-07-14T13:08:34Z</time>
      </trkpt>
      <trkpt lat="47.00945667" lon="16.61184167">
        <ele>227.3</ele>
        <time>2025-07-14T13:08:44Z</time>
      </trkpt>
      <trkpt lat="47.00938333" lon="16.611935">
        <ele>227.1</ele>
        <time>2025-07-14T13:08:52Z</time>
      </trkpt>
      <trkpt lat="47.009345" lon="16.61205667">
        <ele>227.4</ele>
        <time>2025-07-14T13:09:00Z</time>
      </trkpt>
      <trkpt lat="47.00929" lon="16.61218333">
        <ele>228</ele>
        <time>2025-07-14T13:09:08Z</time>
      </trkpt>
      <trkpt lat="47.00926" lon="16.61231333">
        <ele>229.2</ele>
        <time>2025-07-14T13:09:15Z</time>
      </trkpt>
      <trkpt lat="47.00921667" lon="16.61243167">
        <ele>230</ele>
        <time>2025-07-14T13:09:23Z</time>
      </trkpt>
      <trkpt lat="47.00933167" lon="16.61250167">
        <ele>245.3</ele>
        <time>2025-07-14T13:10:30Z</time>
      </trkpt>
      <trkpt lat="47.009335" lon="16.612495">
        <ele>245.2</ele>
        <time>2025-07-14T13:12:31Z</time>
      </trkpt>
      <trkpt lat="47.009215" lon="16.61254167">
        <ele>242.2</ele>
        <time>2025-07-14T13:14:27Z</time>
      </trkpt>
      <trkpt lat="47.009245" lon="16.61246167">
        <ele>237.7</ele>
        <time>2025-07-14T13:17:45Z</time>
      </trkpt>
      <trkpt lat="47.00919167" lon="16.61257">
        <ele>239.3</ele>
        <time>2025-07-14T13:18:47Z</time>
      </trkpt>
      <trkpt lat="47.00918833" lon="16.61257">
        <ele>239.3</ele>
        <time>2025-07-14T13:20:48Z</time>
      </trkpt>
      <trkpt lat="47.00918833" lon="16.61257">
        <ele>239.3</ele>
        <time>2025-07-14T13:22:49Z</time>
      </trkpt>
      <trkpt lat="47.00922333" lon="16.612485">
        <ele>238.5</ele>
        <time>2025-07-14T13:24:59Z</time>
      </trkpt>
      <trkpt lat="47.009225" lon="16.61247333">
        <ele>238.6</ele>
        <time>2025-07-14T13:27:00Z</time>
      </trkpt>
      <trkpt lat="47.009225" lon="16.61247333">
        <ele>238.6</ele>
        <time>2025-07-14T13:29:01Z</time>
      </trkpt>
      <trkpt lat="47.009225" lon="16.61247333">
        <ele>238.6</ele>
        <time>2025-07-14T13:31:02Z</time>
      </trkpt>
      <trkpt lat="47.009225" lon="16.61247333">
        <ele>238.6</ele>
        <time>2025-07-14T13:33:03Z</time>
      </trkpt>
      <trkpt lat="47.00920667" lon="16.61250833">
        <ele>240</ele>
        <time>2025-07-14T13:35:34Z</time>
      </trkpt>
      <trkpt lat="47.00943333" lon="16.61255">
        <ele>274</ele>
        <time>2025-07-14T13:36:31Z</time>
      </trkpt>
      <trkpt lat="47.00955167" lon="16.61256833">
        <ele>299</ele>
        <time>2025-07-14T13:36:33Z</time>
      </trkpt>
      <trkpt lat="47.00979" lon="16.61260333">
        <ele>324.9</ele>
        <time>2025-07-14T13:36:36Z</time>
      </trkpt>
      <trkpt lat="47.00970667" lon="16.61253833">
        <ele>298.8</ele>
        <time>2025-07-14T13:37:07Z</time>
      </trkpt>
      <trkpt lat="47.00956833" lon="16.61254167">
        <ele>283.8</ele>
        <time>2025-07-14T13:37:14Z</time>
      </trkpt>
      <trkpt lat="47.00941667" lon="16.61253333">
        <ele>264</ele>
        <time>2025-07-14T13:37:32Z</time>
      </trkpt>
      <trkpt lat="47.00929833" lon="16.61250333">
        <ele>245.1</ele>
        <time>2025-07-14T13:37:47Z</time>
      </trkpt>
      <trkpt lat="47.009195" lon="16.61243833">
        <ele>232.5</ele>
        <time>2025-07-14T13:39:37Z</time>
      </trkpt>
      <trkpt lat="47.00919333" lon="16.61243167">
        <ele>232.6</ele>
        <time>2025-07-14T13:41:38Z</time>
      </trkpt>
      <trkpt lat="47.00918667" lon="16.61257167">
        <ele>224.9</ele>
        <time>2025-07-14T13:42:05Z</time>
      </trkpt>
      <trkpt lat="47.00913667" lon="16.61268833">
        <ele>225.8</ele>
        <time>2025-07-14T13:42:13Z</time>
      </trkpt>
      <trkpt lat="47.00911667" lon="16.612825">
        <ele>230.8</ele>
        <time>2025-07-14T13:42:22Z</time>
      </trkpt>
      <trkpt lat="47.00904833" lon="16.61292333">
        <ele>232</ele>
        <time>2025-07-14T13:42:31Z</time>
      </trkpt>
      <trkpt lat="47.00902" lon="16.61306167">
        <ele>234</ele>
        <time>2025-07-14T13:42:43Z</time>
      </trkpt>
      <trkpt lat="47.00900167" lon="16.6132">
        <ele>235.9</ele>
        <time>2025-07-14T13:42:54Z</time>
      </trkpt>
      <trkpt lat="47.00896667" lon="16.61306667">
        <ele>236</ele>
        <time>2025-07-14T13:43:18Z</time>
      </trkpt>
      <trkpt lat="47.00894833" lon="16.61292667">
        <ele>235.6</ele>
        <time>2025-07-14T13:43:31Z</time>
      </trkpt>
      <trkpt lat="47.00896" lon="16.61278">
        <ele>236.2</ele>
        <time>2025-07-14T13:43:39Z</time>
      </trkpt>
      <trkpt lat="47.00896333" lon="16.61264833">
        <ele>236.7</ele>
        <time>2025-07-14T13:43:47Z</time>
      </trkpt>
      <trkpt lat="47.00896667" lon="16.61251167">
        <ele>236.4</ele>
        <time>2025-07-14T13:43:57Z</time>
      </trkpt>
      <trkpt lat="47.00893833" lon="16.612375">
        <ele>233.7</ele>
        <time>2025-07-14T13:44:07Z</time>
      </trkpt>
      <trkpt lat="47.008915" lon="16.61223833">
        <ele>234.2</ele>
        <time>2025-07-14T13:44:14Z</time>
      </trkpt>
      <trkpt lat="47.00889" lon="16.61211167">
        <ele>234.2</ele>
        <time>2025-07-14T13:44:22Z</time>
      </trkpt>
      <trkpt lat="47.00883333" lon="16.61200167">
        <ele>233</ele>
        <time>2025-07-14T13:44:30Z</time>
      </trkpt>
      <trkpt lat="47.00875167" lon="16.61194333">
        <ele>230.1</ele>
        <time>2025-07-14T13:44:56Z</time>
      </trkpt>
      <trkpt lat="47.00870333" lon="16.61183">
        <ele>230.2</ele>
        <time>2025-07-14T13:45:05Z</time>
      </trkpt>
      <trkpt lat="47.00864" lon="16.61172333">
        <ele>229.8</ele>
        <time>2025-07-14T13:45:14Z</time>
      </trkpt>
      <trkpt lat="47.00862333" lon="16.61159">
        <ele>229.4</ele>
        <time>2025-07-14T13:45:24Z</time>
      </trkpt>
      <trkpt lat="47.00863833" lon="16.61144333">
        <ele>228.9</ele>
        <time>2025-07-14T13:45:33Z</time>
      </trkpt>
      <trkpt lat="47.00863167" lon="16.61130667">
        <ele>230.1</ele>
        <time>2025-07-14T13:45:41Z</time>
      </trkpt>
      <trkpt lat="47.008625" lon="16.61117333">
        <ele>227.5</ele>
        <time>2025-07-14T13:46:28Z</time>
      </trkpt>
      <trkpt lat="47.00858167" lon="16.61105">
        <ele>227.3</ele>
        <time>2025-07-14T13:46:35Z</time>
      </trkpt>
      <trkpt lat="47.00852667" lon="16.610945">
        <ele>226.5</ele>
        <time>2025-07-14T13:46:43Z</time>
      </trkpt>
      <trkpt lat="47.00846333" lon="16.61084167">
        <ele>226.5</ele>
        <time>2025-07-14T13:46:52Z</time>
      </trkpt>
      <trkpt lat="47.008475" lon="16.61070333">
        <ele>227.3</ele>
        <time>2025-07-14T13:47:05Z</time>
      </trkpt>
      <trkpt lat="47.00853167" lon="16.61058167">
        <ele>227.3</ele>
        <time>2025-07-14T13:47:12Z</time>
      </trkpt>
      <trkpt lat="47.00859333" lon="16.61047833">
        <ele>226.7</ele>
        <time>2025-07-14T13:47:22Z</time>
      </trkpt>
      <trkpt lat="47.00866333" lon="16.61037167">
        <ele>228.8</ele>
        <time>2025-07-14T13:47:29Z</time>
      </trkpt>
      <trkpt lat="47.008715" lon="16.61024833">
        <ele>230.1</ele>
        <time>2025-07-14T13:47:59Z</time>
      </trkpt>
      <trkpt lat="47.008785" lon="16.61015667">
        <ele>231.2</ele>
        <time>2025-07-14T13:48:10Z</time>
      </trkpt>
      <trkpt lat="47.008875" lon="16.61009167">
        <ele>233.6</ele>
        <time>2025-07-14T13:48:26Z</time>
      </trkpt>
      <trkpt lat="47.00892167" lon="16.60997">
        <ele>234.2</ele>
        <time>2025-07-14T13:48:36Z</time>
      </trkpt>
      <trkpt lat="47.00892333" lon="16.60982167">
        <ele>236.2</ele>
        <time>2025-07-14T13:48:44Z</time>
      </trkpt>
      <trkpt lat="47.00899167" lon="16.60972833">
        <ele>234.3</ele>
        <time>2025-07-14T13:48:55Z</time>
      </trkpt>
      <trkpt lat="47.00908333" lon="16.609745">
        <ele>232.4</ele>
        <time>2025-07-14T13:49:02Z</time>
      </trkpt>
      <trkpt lat="47.00918" lon="16.609765">
        <ele>231.2</ele>
        <time>2025-07-14T13:49:10Z</time>
      </trkpt>
      <trkpt lat="47.009265" lon="16.60981167">
        <ele>226.7</ele>
        <time>2025-07-14T13:49:43Z</time>
      </trkpt>
      <trkpt lat="47.00935833" lon="16.60977833">
        <ele>228.8</ele>
        <time>2025-07-14T13:49:50Z</time>
      </trkpt>
      <trkpt lat="47.00946167" lon="16.60979667">
        <ele>232.1</ele>
        <time>2025-07-14T13:49:58Z</time>
      </trkpt>
      <trkpt lat="47.00955833" lon="16.60981167">
        <ele>233.3</ele>
        <time>2025-07-14T13:50:05Z</time>
      </trkpt>
      <trkpt lat="47.00966333" lon="16.60980333">
        <ele>233.8</ele>
        <time>2025-07-14T13:50:13Z</time>
      </trkpt>
      <trkpt lat="47.009745" lon="16.60973667">
        <ele>234.1</ele>
        <time>2025-07-14T13:50:23Z</time>
      </trkpt>
      <trkpt lat="47.00983833" lon="16.609695">
        <ele>230.7</ele>
        <time>2025-07-14T13:50:34Z</time>
      </trkpt>
      <trkpt lat="47.00993" lon="16.60966">
        <ele>231</ele>
        <time>2025-07-14T13:50:43Z</time>
      </trkpt>
      <trkpt lat="47.01001" lon="16.60959333">
        <ele>230.4</ele>
        <time>2025-07-14T13:50:52Z</time>
      </trkpt>
      <trkpt lat="47.00997333" lon="16.60946833">
        <ele>231.4</ele>
        <time>2025-07-14T13:51:11Z</time>
      </trkpt>
      <trkpt lat="47.00993333" lon="16.609335">
        <ele>231.2</ele>
        <time>2025-07-14T13:51:19Z</time>
      </trkpt>
      <trkpt lat="47.00990333" lon="16.609195">
        <ele>232.2</ele>
        <time>2025-07-14T13:51:31Z</time>
      </trkpt>
      <trkpt lat="47.00987167" lon="16.60907167">
        <ele>234.1</ele>
        <time>2025-07-14T13:51:40Z</time>
      </trkpt>
      <trkpt lat="47.009835" lon="16.60894833">
        <ele>234.7</ele>
        <time>2025-07-14T13:51:50Z</time>
      </trkpt>
      <trkpt lat="47.009825" lon="16.60881333">
        <ele>234.4</ele>
        <time>2025-07-14T13:52:00Z</time>
      </trkpt>
      <trkpt lat="47.009815" lon="16.60868167">
        <ele>233.7</ele>
        <time>2025-07-14T13:52:14Z</time>
      </trkpt>
      <trkpt lat="47.00990833" lon="16.6087">
        <ele>234.8</ele>
        <time>2025-07-14T13:52:35Z</time>
      </trkpt>
      <trkpt lat="47.009995" lon="16.60864167">
        <ele>234.5</ele>
        <time>2025-07-14T13:52:45Z</time>
      </trkpt>
      <trkpt lat="47.01008167" lon="16.608585">
        <ele>232.5</ele>
        <time>2025-07-14T13:52:56Z</time>
      </trkpt>
      <trkpt lat="47.010175" lon="16.60854833">
        <ele>231.9</ele>
        <time>2025-07-14T13:53:08Z</time>
      </trkpt>
      <trkpt lat="47.01026333" lon="16.60849667">
        <ele>231.6</ele>
        <time>2025-07-14T13:53:16Z</time>
      </trkpt>
      <trkpt lat="47.01035667" lon="16.60845667">
        <ele>226.7</ele>
        <time>2025-07-14T13:54:56Z</time>
      </trkpt>
      <trkpt lat="47.01041333" lon="16.60834833">
        <ele>230</ele>
        <time>2025-07-14T13:55:12Z</time>
      </trkpt>
      <trkpt lat="47.010535" lon="16.6083">
        <ele>234.6</ele>
        <time>2025-07-14T13:56:44Z</time>
      </trkpt>
      <trkpt lat="47.01062667" lon="16.608295">
        <ele>233.5</ele>
        <time>2025-07-14T13:56:55Z</time>
      </trkpt>
      <trkpt lat="47.01066333" lon="16.60816333">
        <ele>233.9</ele>
        <time>2025-07-14T13:57:07Z</time>
      </trkpt>
      <trkpt lat="47.01070833" lon="16.60803833">
        <ele>234.4</ele>
        <time>2025-07-14T13:57:16Z</time>
      </trkpt>
      <trkpt lat="47.010765" lon="16.60792667">
        <ele>233.1</ele>
        <time>2025-07-14T13:57:24Z</time>
      </trkpt>
      <trkpt lat="47.01074" lon="16.60779">
        <ele>232.3</ele>
        <time>2025-07-14T13:57:33Z</time>
      </trkpt>
      <trkpt lat="47.0107" lon="16.60765167">
        <ele>232.8</ele>
        <time>2025-07-14T13:57:40Z</time>
      </trkpt>
      <trkpt lat="47.01064833" lon="16.60753167">
        <ele>233.4</ele>
        <time>2025-07-14T13:57:47Z</time>
      </trkpt>
      <trkpt lat="47.010615" lon="16.60740333">
        <ele>233.9</ele>
        <time>2025-07-14T13:57:55Z</time>
      </trkpt>
      <trkpt lat="47.01060833" lon="16.60726167">
        <ele>233.5</ele>
        <time>2025-07-14T13:58:05Z</time>
      </trkpt>
      <trkpt lat="47.01057833" lon="16.60712167">
        <ele>232.6</ele>
        <time>2025-07-14T13:58:15Z</time>
      </trkpt>
      <trkpt lat="47.01053333" lon="16.60700667">
        <ele>233.7</ele>
        <time>2025-07-14T13:58:23Z</time>
      </trkpt>
      <trkpt lat="47.01043667" lon="16.60704833">
        <ele>234.4</ele>
        <time>2025-07-14T13:58:31Z</time>
      </trkpt>
      <trkpt lat="47.01034833" lon="16.60710333">
        <ele>233.4</ele>
        <time>2025-07-14T13:58:39Z</time>
      </trkpt>
      <trkpt lat="47.01025167" lon="16.60715">
        <ele>232.9</ele>
        <time>2025-07-14T13:58:47Z</time>
      </trkpt>
      <trkpt lat="47.01035" lon="16.60715333">
        <ele>231.9</ele>
        <time>2025-07-14T13:59:15Z</time>
      </trkpt>
      <trkpt lat="47.01043833" lon="16.60709667">
        <ele>232</ele>
        <time>2025-07-14T13:59:22Z</time>
      </trkpt>
      <trkpt lat="47.01053" lon="16.607055">
        <ele>233.5</ele>
        <time>2025-07-14T13:59:31Z</time>
      </trkpt>
      <trkpt lat="47.01061167" lon="16.60699833">
        <ele>234.4</ele>
        <time>2025-07-14T13:59:40Z</time>
      </trkpt>
      <trkpt lat="47.01069667" lon="16.606945">
        <ele>235.1</ele>
        <time>2025-07-14T13:59:48Z</time>
      </trkpt>
      <trkpt lat="47.01077667" lon="16.60686833">
        <ele>235.8</ele>
        <time>2025-07-14T13:59:57Z</time>
      </trkpt>
      <trkpt lat="47.01086" lon="16.606805">
        <ele>236.8</ele>
        <time>2025-07-14T14:00:06Z</time>
      </trkpt>
      <trkpt lat="47.01094667" lon="16.60676667">
        <ele>236.8</ele>
        <time>2025-07-14T14:00:14Z</time>
      </trkpt>
      <trkpt lat="47.01104" lon="16.60671">
        <ele>237.2</ele>
        <time>2025-07-14T14:00:22Z</time>
      </trkpt>
      <trkpt lat="47.01111667" lon="16.60663333">
        <ele>238</ele>
        <time>2025-07-14T14:00:29Z</time>
      </trkpt>
      <trkpt lat="47.01111" lon="16.606495">
        <ele>239.2</ele>
        <time>2025-07-14T14:00:38Z</time>
      </trkpt>
      <trkpt lat="47.01105667" lon="16.60636833">
        <ele>238.8</ele>
        <time>2025-07-14T14:00:47Z</time>
      </trkpt>
      <trkpt lat="47.01101333" lon="16.60624333">
        <ele>237</ele>
        <time>2025-07-14T14:00:55Z</time>
      </trkpt>
      <trkpt lat="47.01098167" lon="16.60610833">
        <ele>235.1</ele>
        <time>2025-07-14T14:01:04Z</time>
      </trkpt>
      <trkpt lat="47.01094" lon="16.60597833">
        <ele>233</ele>
        <time>2025-07-14T14:01:13Z</time>
      </trkpt>
      <trkpt lat="47.01090833" lon="16.605855">
        <ele>234</ele>
        <time>2025-07-14T14:01:26Z</time>
      </trkpt>
      <trkpt lat="47.01090167" lon="16.60572333">
        <ele>237.2</ele>
        <time>2025-07-14T14:02:15Z</time>
      </trkpt>
      <trkpt lat="47.01088667" lon="16.60557333">
        <ele>237.7</ele>
        <time>2025-07-14T14:02:24Z</time>
      </trkpt>
      <trkpt lat="47.01085167" lon="16.60545">
        <ele>237.9</ele>
        <time>2025-07-14T14:02:32Z</time>
      </trkpt>
      <trkpt lat="47.01081667" lon="16.605315">
        <ele>237.4</ele>
        <time>2025-07-14T14:02:41Z</time>
      </trkpt>
      <trkpt lat="47.01075" lon="16.60521167">
        <ele>237.9</ele>
        <time>2025-07-14T14:02:59Z</time>
      </trkpt>
      <trkpt lat="47.01066167" lon="16.60516833">
        <ele>238</ele>
        <time>2025-07-14T14:03:08Z</time>
      </trkpt>
      <trkpt lat="47.010565" lon="16.60517833">
        <ele>237.9</ele>
        <time>2025-07-14T14:03:15Z</time>
      </trkpt>
      <trkpt lat="47.01047167" lon="16.605225">
        <ele>237.7</ele>
        <time>2025-07-14T14:03:24Z</time>
      </trkpt>
      <trkpt lat="47.01037333" lon="16.60525833">
        <ele>236.7</ele>
        <time>2025-07-14T14:03:32Z</time>
      </trkpt>
      <trkpt lat="47.01028167" lon="16.605285">
        <ele>235.9</ele>
        <time>2025-07-14T14:03:39Z</time>
      </trkpt>
      <trkpt lat="47.010195" lon="16.60534833">
        <ele>235.3</ele>
        <time>2025-07-14T14:03:48Z</time>
      </trkpt>
      <trkpt lat="47.010105" lon="16.60540167">
        <ele>233.9</ele>
        <time>2025-07-14T14:03:57Z</time>
      </trkpt>
      <trkpt lat="47.01000667" lon="16.60543833">
        <ele>233.5</ele>
        <time>2025-07-14T14:04:05Z</time>
      </trkpt>
      <trkpt lat="47.00991333" lon="16.60545333">
        <ele>234</ele>
        <time>2025-07-14T14:04:12Z</time>
      </trkpt>
      <trkpt lat="47.00982" lon="16.60547">
        <ele>235.6</ele>
        <time>2025-07-14T14:04:19Z</time>
      </trkpt>
      <trkpt lat="47.00972667" lon="16.605505">
        <ele>236.3</ele>
        <time>2025-07-14T14:04:28Z</time>
      </trkpt>
      <trkpt lat="47.00962667" lon="16.60554">
        <ele>238.9</ele>
        <time>2025-07-14T14:04:35Z</time>
      </trkpt>
      <trkpt lat="47.00954833" lon="16.60561167">
        <ele>241.7</ele>
        <time>2025-07-14T14:04:42Z</time>
      </trkpt>
      <trkpt lat="47.00945" lon="16.60563833">
        <ele>242.9</ele>
        <time>2025-07-14T14:04:50Z</time>
      </trkpt>
      <trkpt lat="47.00936833" lon="16.605695">
        <ele>243.8</ele>
        <time>2025-07-14T14:04:57Z</time>
      </trkpt>
      <trkpt lat="47.009285" lon="16.60576167">
        <ele>242.1</ele>
        <time>2025-07-14T14:05:06Z</time>
      </trkpt>
      <trkpt lat="47.0092" lon="16.60580667">
        <ele>240.9</ele>
        <time>2025-07-14T14:05:22Z</time>
      </trkpt>
      <trkpt lat="47.00915" lon="16.605925">
        <ele>239.5</ele>
        <time>2025-07-14T14:05:44Z</time>
      </trkpt>
      <trkpt lat="47.00912167" lon="16.606055">
        <ele>241.7</ele>
        <time>2025-07-14T14:05:54Z</time>
      </trkpt>
      <trkpt lat="47.00905333" lon="16.60596667">
        <ele>240.5</ele>
        <time>2025-07-14T14:06:12Z</time>
      </trkpt>
      <trkpt lat="47.00895667" lon="16.60597833">
        <ele>239.2</ele>
        <time>2025-07-14T14:06:23Z</time>
      </trkpt>
      <trkpt lat="47.00886667" lon="16.606035">
        <ele>238.7</ele>
        <time>2025-07-14T14:06:37Z</time>
      </trkpt>
      <trkpt lat="47.008775" lon="16.60606667">
        <ele>238.9</ele>
        <time>2025-07-14T14:06:44Z</time>
      </trkpt>
      <trkpt lat="47.00867833" lon="16.60608833">
        <ele>238.6</ele>
        <time>2025-07-14T14:06:51Z</time>
      </trkpt>
      <trkpt lat="47.00863833" lon="16.60620667">
        <ele>240</ele>
        <time>2025-07-14T14:07:11Z</time>
      </trkpt>
      <trkpt lat="47.00854333" lon="16.60618333">
        <ele>271.2</ele>
        <time>2025-07-14T14:07:17Z</time>
      </trkpt>
      <trkpt lat="47.00851333" lon="16.60630833">
        <ele>238.8</ele>
        <time>2025-07-14T14:08:03Z</time>
      </trkpt>
      <trkpt lat="47.00844" lon="16.606395">
        <ele>239</ele>
        <time>2025-07-14T14:08:10Z</time>
      </trkpt>
      <trkpt lat="47.00835" lon="16.60634">
        <ele>237.4</ele>
        <time>2025-07-14T14:08:25Z</time>
      </trkpt>
      <trkpt lat="47.00831" lon="16.60620833">
        <ele>237.2</ele>
        <time>2025-07-14T14:08:37Z</time>
      </trkpt>
      <trkpt lat="47.00830333" lon="16.60607667">
        <ele>235.5</ele>
        <time>2025-07-14T14:08:44Z</time>
      </trkpt>
      <trkpt lat="47.00831333" lon="16.60594333">
        <ele>236.4</ele>
        <time>2025-07-14T14:08:51Z</time>
      </trkpt>
      <trkpt lat="47.008345" lon="16.60581333">
        <ele>235.4</ele>
        <time>2025-07-14T14:08:59Z</time>
      </trkpt>
      <trkpt lat="47.00842667" lon="16.60572333">
        <ele>238.9</ele>
        <time>2025-07-14T14:09:07Z</time>
      </trkpt>
      <trkpt lat="47.00850167" lon="16.60563333">
        <ele>238.7</ele>
        <time>2025-07-14T14:09:15Z</time>
      </trkpt>
      <trkpt lat="47.00855" lon="16.605515">
        <ele>237.6</ele>
        <time>2025-07-14T14:09:24Z</time>
      </trkpt>
      <trkpt lat="47.00863167" lon="16.60543667">
        <ele>238.8</ele>
        <time>2025-07-14T14:09:40Z</time>
      </trkpt>
      <trkpt lat="47.00862333" lon="16.60529667">
        <ele>234.4</ele>
        <time>2025-07-14T14:10:29Z</time>
      </trkpt>
      <trkpt lat="47.00864167" lon="16.60516333">
        <ele>234</ele>
        <time>2025-07-14T14:10:39Z</time>
      </trkpt>
      <trkpt lat="47.00866333" lon="16.60502333">
        <ele>234.2</ele>
        <time>2025-07-14T14:10:47Z</time>
      </trkpt>
      <trkpt lat="47.00870167" lon="16.60489">
        <ele>231.9</ele>
        <time>2025-07-14T14:10:55Z</time>
      </trkpt>
      <trkpt lat="47.008755" lon="16.60477">
        <ele>229.6</ele>
        <time>2025-07-14T14:11:03Z</time>
      </trkpt>
      <trkpt lat="47.008825" lon="16.60466">
        <ele>229.8</ele>
        <time>2025-07-14T14:11:11Z</time>
      </trkpt>
      <trkpt lat="47.00886167" lon="16.60453167">
        <ele>230.8</ele>
        <time>2025-07-14T14:11:19Z</time>
      </trkpt>
      <trkpt lat="47.00889833" lon="16.60439">
        <ele>232.7</ele>
        <time>2025-07-14T14:11:28Z</time>
      </trkpt>
      <trkpt lat="47.00891667" lon="16.604255">
        <ele>234.2</ele>
        <time>2025-07-14T14:11:38Z</time>
      </trkpt>
      <trkpt lat="47.00891333" lon="16.60411167">
        <ele>235.4</ele>
        <time>2025-07-14T14:11:54Z</time>
      </trkpt>
      <trkpt lat="47.008835" lon="16.60402667">
        <ele>237.9</ele>
        <time>2025-07-14T14:12:03Z</time>
      </trkpt>
      <trkpt lat="47.008745" lon="16.60402833">
        <ele>236.8</ele>
        <time>2025-07-14T14:12:11Z</time>
      </trkpt>
      <trkpt lat="47.00865" lon="16.604025">
        <ele>237.2</ele>
        <time>2025-07-14T14:12:19Z</time>
      </trkpt>
      <trkpt lat="47.00855167" lon="16.60405167">
        <ele>237.4</ele>
        <time>2025-07-14T14:12:29Z</time>
      </trkpt>
      <trkpt lat="47.00846167" lon="16.60404">
        <ele>240.1</ele>
        <time>2025-07-14T14:12:41Z</time>
      </trkpt>
      <trkpt lat="47.008365" lon="16.604065">
        <ele>240.3</ele>
        <time>2025-07-14T14:12:54Z</time>
      </trkpt>
      <trkpt lat="47.00826667" lon="16.60407333">
        <ele>240.1</ele>
        <time>2025-07-14T14:13:17Z</time>
      </trkpt>
      <trkpt lat="47.008175" lon="16.60403833">
        <ele>239.2</ele>
        <time>2025-07-14T14:13:25Z</time>
      </trkpt>
      <trkpt lat="47.00808333" lon="16.60401667">
        <ele>238</ele>
        <time>2025-07-14T14:13:33Z</time>
      </trkpt>
      <trkpt lat="47.007985" lon="16.60401167">
        <ele>237.1</ele>
        <time>2025-07-14T14:13:41Z</time>
      </trkpt>
      <trkpt lat="47.00788833" lon="16.60402667">
        <ele>235.9</ele>
        <time>2025-07-14T14:13:50Z</time>
      </trkpt>
      <trkpt lat="47.00779667" lon="16.604055">
        <ele>236.7</ele>
        <time>2025-07-14T14:13:57Z</time>
      </trkpt>
      <trkpt lat="47.00774" lon="16.60394333">
        <ele>238.8</ele>
        <time>2025-07-14T14:14:07Z</time>
      </trkpt>
      <trkpt lat="47.00766833" lon="16.603835">
        <ele>239.9</ele>
        <time>2025-07-14T14:15:08Z</time>
      </trkpt>
      <trkpt lat="47.00766833" lon="16.60369667">
        <ele>238.1</ele>
        <time>2025-07-14T14:15:17Z</time>
      </trkpt>
      <trkpt lat="47.00770333" lon="16.60356333">
        <ele>237.3</ele>
        <time>2025-07-14T14:15:25Z</time>
      </trkpt>
      <trkpt lat="47.00768833" lon="16.60343167">
        <ele>236.1</ele>
        <time>2025-07-14T14:15:32Z</time>
      </trkpt>
      <trkpt lat="47.00768" lon="16.60329667">
        <ele>236.1</ele>
        <time>2025-07-14T14:15:37Z</time>
      </trkpt>
      <trkpt lat="47.007685" lon="16.60315167">
        <ele>237.9</ele>
        <time>2025-07-14T14:15:45Z</time>
      </trkpt>
      <trkpt lat="47.007745" lon="16.60305167">
        <ele>238.1</ele>
        <time>2025-07-14T14:15:54Z</time>
      </trkpt>
      <trkpt lat="47.00784667" lon="16.60303667">
        <ele>236.8</ele>
        <time>2025-07-14T14:16:03Z</time>
      </trkpt>
      <trkpt lat="47.00793833" lon="16.603035">
        <ele>236.6</ele>
        <time>2025-07-14T14:16:09Z</time>
      </trkpt>
      <trkpt lat="47.008035" lon="16.60302667">
        <ele>233.4</ele>
        <time>2025-07-14T14:16:19Z</time>
      </trkpt>
      <trkpt lat="47.00812667" lon="16.60302333">
        <ele>232.2</ele>
        <time>2025-07-14T14:16:25Z</time>
      </trkpt>
      <trkpt lat="47.00821667" lon="16.60302833">
        <ele>232.7</ele>
        <time>2025-07-14T14:16:32Z</time>
      </trkpt>
      <trkpt lat="47.00830833" lon="16.60302333">
        <ele>235.5</ele>
        <time>2025-07-14T14:16:39Z</time>
      </trkpt>
      <trkpt lat="47.00839667" lon="16.60307">
        <ele>237.4</ele>
        <time>2025-07-14T14:16:49Z</time>
      </trkpt>
      <trkpt lat="47.0084" lon="16.60320167">
        <ele>237</ele>
        <time>2025-07-14T14:16:58Z</time>
      </trkpt>
      <trkpt lat="47.008385" lon="16.60333167">
        <ele>236.2</ele>
        <time>2025-07-14T14:17:06Z</time>
      </trkpt>
      <trkpt lat="47.00841833" lon="16.60346167">
        <ele>234.4</ele>
        <time>2025-07-14T14:17:15Z</time>
      </trkpt>
      <trkpt lat="47.00842167" lon="16.60360833">
        <ele>233.4</ele>
        <time>2025-07-14T14:17:25Z</time>
      </trkpt>
      <trkpt lat="47.00844667" lon="16.60374167">
        <ele>232.9</ele>
        <time>2025-07-14T14:17:31Z</time>
      </trkpt>
      <trkpt lat="47.008455" lon="16.603875">
        <ele>231.2</ele>
        <time>2025-07-14T14:17:39Z</time>
      </trkpt>
      <trkpt lat="47.008475" lon="16.60400667">
        <ele>230.8</ele>
        <time>2025-07-14T14:17:48Z</time>
      </trkpt>
      <trkpt lat="47.00856167" lon="16.60404667">
        <ele>228.1</ele>
        <time>2025-07-14T14:17:57Z</time>
      </trkpt>
      <trkpt lat="47.00865833" lon="16.60400333">
        <ele>225.5</ele>
        <time>2025-07-14T14:18:06Z</time>
      </trkpt>
      <trkpt lat="47.008755" lon="16.60400667">
        <ele>226.8</ele>
        <time>2025-07-14T14:18:12Z</time>
      </trkpt>
      <trkpt lat="47.00885667" lon="16.60400667">
        <ele>227.2</ele>
        <time>2025-07-14T14:18:20Z</time>
      </trkpt>
      <trkpt lat="47.00895" lon="16.604015">
        <ele>227.6</ele>
        <time>2025-07-14T14:18:27Z</time>
      </trkpt>
      <trkpt lat="47.00904333" lon="16.60401833">
        <ele>230.3</ele>
        <time>2025-07-14T14:18:35Z</time>
      </trkpt>
      <trkpt lat="47.009135" lon="16.604015">
        <ele>231.8</ele>
        <time>2025-07-14T14:18:42Z</time>
      </trkpt>
      <trkpt lat="47.00920333" lon="16.603995">
        <ele>239.6</ele>
        <time>2025-07-14T14:20:43Z</time>
      </trkpt>
      <trkpt lat="47.00918833" lon="16.60386167">
        <ele>246.3</ele>
        <time>2025-07-14T14:21:04Z</time>
      </trkpt>
      <trkpt lat="47.00926333" lon="16.60377333">
        <ele>246.3</ele>
        <time>2025-07-14T14:21:16Z</time>
      </trkpt>
      <trkpt lat="47.00924833" lon="16.60362833">
        <ele>245.5</ele>
        <time>2025-07-14T14:21:29Z</time>
      </trkpt>
      <trkpt lat="47.00942167" lon="16.60351833">
        <ele>220.3</ele>
        <time>2025-07-14T14:21:55Z</time>
      </trkpt>
      <trkpt lat="47.00939833" lon="16.60367">
        <ele>225.5</ele>
        <time>2025-07-14T14:22:00Z</time>
      </trkpt>
      <trkpt lat="47.00937833" lon="16.60403167">
        <ele>247.2</ele>
        <time>2025-07-14T14:22:17Z</time>
      </trkpt>
      <trkpt lat="47.00936" lon="16.60387333">
        <ele>246.9</ele>
        <time>2025-07-14T14:22:26Z</time>
      </trkpt>
      <trkpt lat="47.009315" lon="16.603725">
        <ele>247.1</ele>
        <time>2025-07-14T14:22:28Z</time>
      </trkpt>
      <trkpt lat="47.00928833" lon="16.60357167">
        <ele>247.1</ele>
        <time>2025-07-14T14:22:30Z</time>
      </trkpt>
      <trkpt lat="47.00926833" lon="16.60370167">
        <ele>244.4</ele>
        <time>2025-07-14T14:22:51Z</time>
      </trkpt>
      <trkpt lat="47.00930167" lon="16.60383833">
        <ele>242.7</ele>
        <time>2025-07-14T14:23:03Z</time>
      </trkpt>
      <trkpt lat="47.00941333" lon="16.603885">
        <ele>241.5</ele>
        <time>2025-07-14T14:23:10Z</time>
      </trkpt>
      <trkpt lat="47.0095" lon="16.60394667">
        <ele>241.3</ele>
        <time>2025-07-14T14:23:18Z</time>
      </trkpt>
      <trkpt lat="47.00937333" lon="16.60352333">
        <ele>255</ele>
        <time>2025-07-14T14:24:31Z</time>
      </trkpt>
      <trkpt lat="47.00934833" lon="16.60377333">
        <ele>248.8</ele>
        <time>2025-07-14T14:24:33Z</time>
      </trkpt>
      <trkpt lat="47.00932333" lon="16.603945">
        <ele>248.2</ele>
        <time>2025-07-14T14:24:36Z</time>
      </trkpt>
      <trkpt lat="47.00932667" lon="16.60411833">
        <ele>250.9</ele>
        <time>2025-07-14T14:24:41Z</time>
      </trkpt>
      <trkpt lat="47.00931833" lon="16.603955">
        <ele>248</ele>
        <time>2025-07-14T14:24:45Z</time>
      </trkpt>
      <trkpt lat="47.00927167" lon="16.60384167">
        <ele>251.4</ele>
        <time>2025-07-14T14:25:07Z</time>
      </trkpt>
      <trkpt lat="47.00923333" lon="16.60399167">
        <ele>253.7</ele>
        <time>2025-07-14T14:25:17Z</time>
      </trkpt>
      <trkpt lat="47.00913" lon="16.60403167">
        <ele>238.8</ele>
        <time>2025-07-14T14:26:15Z</time>
      </trkpt>
      <trkpt lat="47.00903167" lon="16.60407">
        <ele>238</ele>
        <time>2025-07-14T14:26:22Z</time>
      </trkpt>
      <trkpt lat="47.00901667" lon="16.60406667">
        <ele>239.5</ele>
        <time>2025-07-14T14:28:23Z</time>
      </trkpt>
    </trkseg>
    <trkseg>
      <trkpt lat="47.00898667" lon="16.60400833">
        <ele>236.8</ele>
        <time>2025-07-14T15:08:46Z</time>
      </trkpt>
      <trkpt lat="47.009085" lon="16.60402667">
        <ele>238.2</ele>
        <time>2025-07-14T15:10:52Z</time>
      </trkpt>
      <trkpt lat="47.00917667" lon="16.60401">
        <ele>240.5</ele>
        <time>2025-07-14T15:10:58Z</time>
      </trkpt>
      <trkpt lat="47.00927" lon="16.60400167">
        <ele>247.4</ele>
        <time>2025-07-14T15:11:08Z</time>
      </trkpt>
      <trkpt lat="47.009375" lon="16.604015">
        <ele>249.2</ele>
        <time>2025-07-14T15:11:18Z</time>
      </trkpt>
      <trkpt lat="47.00946667" lon="16.60403333">
        <ele>249.5</ele>
        <time>2025-07-14T15:11:24Z</time>
      </trkpt>
      <trkpt lat="47.00956" lon="16.60398333">
        <ele>251.2</ele>
        <time>2025-07-14T15:11:30Z</time>
      </trkpt>
      <trkpt lat="47.009655" lon="16.60393">
        <ele>251.9</ele>
        <time>2025-07-14T15:11:35Z</time>
      </trkpt>
      <trkpt lat="47.00976667" lon="16.60393167">
        <ele>246.9</ele>
        <time>2025-07-14T15:11:48Z</time>
      </trkpt>
      <trkpt lat="47.00982167" lon="16.60417333">
        <ele>275.6</ele>
        <time>2025-07-14T15:11:55Z</time>
      </trkpt>
      <trkpt lat="47.009905" lon="16.60410167">
        <ele>267.5</ele>
        <time>2025-07-14T15:12:00Z</time>
      </trkpt>
      <trkpt lat="47.00999" lon="16.60402">
        <ele>260.5</ele>
        <time>2025-07-14T15:12:07Z</time>
      </trkpt>
      <trkpt lat="47.010075" lon="16.60397167">
        <ele>259.1</ele>
        <time>2025-07-14T15:12:12Z</time>
      </trkpt>
      <trkpt lat="47.010165" lon="16.6039">
        <ele>258.2</ele>
        <time>2025-07-14T15:12:19Z</time>
      </trkpt>
      <trkpt lat="47.010255" lon="16.60389">
        <ele>256.5</ele>
        <time>2025-07-14T15:12:26Z</time>
      </trkpt>
      <trkpt lat="47.01034333" lon="16.603835">
        <ele>254.4</ele>
        <time>2025-07-14T15:12:34Z</time>
      </trkpt>
      <trkpt lat="47.01043333" lon="16.60384">
        <ele>247.5</ele>
        <time>2025-07-14T15:12:42Z</time>
      </trkpt>
      <trkpt lat="47.01052167" lon="16.60373833">
        <ele>245.7</ele>
        <time>2025-07-14T15:12:53Z</time>
      </trkpt>
      <trkpt lat="47.010565" lon="16.6036">
        <ele>246.5</ele>
        <time>2025-07-14T15:12:58Z</time>
      </trkpt>
      <trkpt lat="47.01059" lon="16.60346667">
        <ele>243.9</ele>
        <time>2025-07-14T15:13:04Z</time>
      </trkpt>
      <trkpt lat="47.01059" lon="16.60333333">
        <ele>242.8</ele>
        <time>2025-07-14T15:13:11Z</time>
      </trkpt>
      <trkpt lat="47.01064167" lon="16.603205">
        <ele>242.5</ele>
        <time>2025-07-14T15:13:18Z</time>
      </trkpt>
      <trkpt lat="47.01065167" lon="16.60307167">
        <ele>242.3</ele>
        <time>2025-07-14T15:13:24Z</time>
      </trkpt>
      <trkpt lat="47.01063667" lon="16.60292333">
        <ele>242.8</ele>
        <time>2025-07-14T15:13:31Z</time>
      </trkpt>
      <trkpt lat="47.01061833" lon="16.60279333">
        <ele>241.4</ele>
        <time>2025-07-14T15:13:38Z</time>
      </trkpt>
      <trkpt lat="47.01059" lon="16.60264333">
        <ele>239.8</ele>
        <time>2025-07-14T15:13:46Z</time>
      </trkpt>
      <trkpt lat="47.01059167" lon="16.60250333">
        <ele>239.4</ele>
        <time>2025-07-14T15:13:53Z</time>
      </trkpt>
      <trkpt lat="47.01053667" lon="16.602395">
        <ele>240</ele>
        <time>2025-07-14T15:14:00Z</time>
      </trkpt>
      <trkpt lat="47.01047167" lon="16.60229167">
        <ele>240.6</ele>
        <time>2025-07-14T15:14:08Z</time>
      </trkpt>
      <trkpt lat="47.01055333" lon="16.60219833">
        <ele>239.5</ele>
        <time>2025-07-14T15:14:28Z</time>
      </trkpt>
      <trkpt lat="47.01064167" lon="16.60213">
        <ele>238.4</ele>
        <time>2025-07-14T15:14:39Z</time>
      </trkpt>
      <trkpt lat="47.01069333" lon="16.60200333">
        <ele>237.9</ele>
        <time>2025-07-14T15:14:49Z</time>
      </trkpt>
      <trkpt lat="47.01079" lon="16.60198">
        <ele>237</ele>
        <time>2025-07-14T15:14:55Z</time>
      </trkpt>
      <trkpt lat="47.01086667" lon="16.60188833">
        <ele>235.6</ele>
        <time>2025-07-14T15:15:02Z</time>
      </trkpt>
      <trkpt lat="47.01096167" lon="16.60183333">
        <ele>234.2</ele>
        <time>2025-07-14T15:15:08Z</time>
      </trkpt>
      <trkpt lat="47.01106167" lon="16.60181667">
        <ele>232.5</ele>
        <time>2025-07-14T15:15:15Z</time>
      </trkpt>
      <trkpt lat="47.01115833" lon="16.60183333">
        <ele>231.8</ele>
        <time>2025-07-14T15:15:22Z</time>
      </trkpt>
      <trkpt lat="47.01126" lon="16.601865">
        <ele>232.1</ele>
        <time>2025-07-14T15:15:29Z</time>
      </trkpt>
      <trkpt lat="47.01135333" lon="16.60186333">
        <ele>233.8</ele>
        <time>2025-07-14T15:15:35Z</time>
      </trkpt>
      <trkpt lat="47.011445" lon="16.60182333">
        <ele>236.7</ele>
        <time>2025-07-14T15:15:41Z</time>
      </trkpt>
      <trkpt lat="47.011535" lon="16.60182333">
        <ele>237.2</ele>
        <time>2025-07-14T15:15:47Z</time>
      </trkpt>
      <trkpt lat="47.01163333" lon="16.60178833">
        <ele>238.6</ele>
        <time>2025-07-14T15:15:55Z</time>
      </trkpt>
      <trkpt lat="47.01172667" lon="16.60174833">
        <ele>236.8</ele>
        <time>2025-07-14T15:16:03Z</time>
      </trkpt>
      <trkpt lat="47.01182667" lon="16.60169833">
        <ele>234.6</ele>
        <time>2025-07-14T15:16:10Z</time>
      </trkpt>
      <trkpt lat="47.01191833" lon="16.60171833">
        <ele>236.2</ele>
        <time>2025-07-14T15:16:16Z</time>
      </trkpt>
      <trkpt lat="47.01200167" lon="16.601665">
        <ele>236.8</ele>
        <time>2025-07-14T15:16:23Z</time>
      </trkpt>
      <trkpt lat="47.01209833" lon="16.60162167">
        <ele>237.7</ele>
        <time>2025-07-14T15:16:32Z</time>
      </trkpt>
      <trkpt lat="47.01218833" lon="16.601585">
        <ele>237.6</ele>
        <time>2025-07-14T15:16:39Z</time>
      </trkpt>
      <trkpt lat="47.01227" lon="16.601525">
        <ele>235.7</ele>
        <time>2025-07-14T15:16:47Z</time>
      </trkpt>
      <trkpt lat="47.01234" lon="16.60142">
        <ele>234.9</ele>
        <time>2025-07-14T15:16:54Z</time>
      </trkpt>
      <trkpt lat="47.01243167" lon="16.60137">
        <ele>238</ele>
        <time>2025-07-14T15:17:10Z</time>
      </trkpt>
      <trkpt lat="47.012525" lon="16.60134167">
        <ele>237.1</ele>
        <time>2025-07-14T15:17:18Z</time>
      </trkpt>
      <trkpt lat="47.01262" lon="16.60132333">
        <ele>234</ele>
        <time>2025-07-14T15:17:28Z</time>
      </trkpt>
      <trkpt lat="47.01271833" lon="16.60130167">
        <ele>231</ele>
        <time>2025-07-14T15:17:35Z</time>
      </trkpt>
      <trkpt lat="47.01281667" lon="16.60127833">
        <ele>228.7</ele>
        <time>2025-07-14T15:17:42Z</time>
      </trkpt>
      <trkpt lat="47.01288" lon="16.601165">
        <ele>231.5</ele>
        <time>2025-07-14T15:17:49Z</time>
      </trkpt>
      <trkpt lat="47.01296167" lon="16.60108833">
        <ele>236.8</ele>
        <time>2025-07-14T15:18:02Z</time>
      </trkpt>
      <trkpt lat="47.01305833" lon="16.60106">
        <ele>236.8</ele>
        <time>2025-07-14T15:18:08Z</time>
      </trkpt>
      <trkpt lat="47.01315167" lon="16.60104667">
        <ele>236.8</ele>
        <time>2025-07-14T15:18:13Z</time>
      </trkpt>
      <trkpt lat="47.01323167" lon="16.60097167">
        <ele>236.1</ele>
        <time>2025-07-14T15:18:20Z</time>
      </trkpt>
      <trkpt lat="47.01332667" lon="16.60096667">
        <ele>236</ele>
        <time>2025-07-14T15:18:27Z</time>
      </trkpt>
      <trkpt lat="47.01342167" lon="16.60092167">
        <ele>235.9</ele>
        <time>2025-07-14T15:18:34Z</time>
      </trkpt>
      <trkpt lat="47.01351167" lon="16.60088833">
        <ele>236.6</ele>
        <time>2025-07-14T15:18:42Z</time>
      </trkpt>
      <trkpt lat="47.0136" lon="16.60081333">
        <ele>237.3</ele>
        <time>2025-07-14T15:18:53Z</time>
      </trkpt>
      <trkpt lat="47.01369333" lon="16.60077">
        <ele>237.5</ele>
        <time>2025-07-14T15:19:01Z</time>
      </trkpt>
      <trkpt lat="47.01378" lon="16.60070833">
        <ele>238.1</ele>
        <time>2025-07-14T15:19:08Z</time>
      </trkpt>
      <trkpt lat="47.013865" lon="16.60066333">
        <ele>238.2</ele>
        <time>2025-07-14T15:19:14Z</time>
      </trkpt>
      <trkpt lat="47.01395167" lon="16.60061333">
        <ele>239.2</ele>
        <time>2025-07-14T15:19:20Z</time>
      </trkpt>
      <trkpt lat="47.01403667" lon="16.60056833">
        <ele>238.9</ele>
        <time>2025-07-14T15:19:27Z</time>
      </trkpt>
      <trkpt lat="47.01414333" lon="16.60056">
        <ele>238.6</ele>
        <time>2025-07-14T15:19:34Z</time>
      </trkpt>
      <trkpt lat="47.01423333" lon="16.60052333">
        <ele>239.5</ele>
        <time>2025-07-14T15:19:41Z</time>
      </trkpt>
      <trkpt lat="47.01432833" lon="16.60047167">
        <ele>239.4</ele>
        <time>2025-07-14T15:19:48Z</time>
      </trkpt>
      <trkpt lat="47.01441333" lon="16.60041333">
        <ele>239.1</ele>
        <time>2025-07-14T15:19:56Z</time>
      </trkpt>
      <trkpt lat="47.01450333" lon="16.60035333">
        <ele>238.7</ele>
        <time>2025-07-14T15:20:03Z</time>
      </trkpt>
      <trkpt lat="47.014595" lon="16.60032167">
        <ele>238.2</ele>
        <time>2025-07-14T15:20:09Z</time>
      </trkpt>
      <trkpt lat="47.01468667" lon="16.60027333">
        <ele>238.3</ele>
        <time>2025-07-14T15:20:17Z</time>
      </trkpt>
      <trkpt lat="47.01477833" lon="16.60022333">
        <ele>237.5</ele>
        <time>2025-07-14T15:20:24Z</time>
      </trkpt>
      <trkpt lat="47.01486333" lon="16.60017833">
        <ele>237</ele>
        <time>2025-07-14T15:20:31Z</time>
      </trkpt>
      <trkpt lat="47.01495667" lon="16.60014">
        <ele>237.5</ele>
        <time>2025-07-14T15:20:38Z</time>
      </trkpt>
      <trkpt lat="47.015045" lon="16.60007667">
        <ele>237.7</ele>
        <time>2025-07-14T15:20:45Z</time>
      </trkpt>
      <trkpt lat="47.015135" lon="16.60003333">
        <ele>236.8</ele>
        <time>2025-07-14T15:20:53Z</time>
      </trkpt>
      <trkpt lat="47.01522833" lon="16.59999833">
        <ele>236.3</ele>
        <time>2025-07-14T15:21:00Z</time>
      </trkpt>
      <trkpt lat="47.01532" lon="16.59998833">
        <ele>236.7</ele>
        <time>2025-07-14T15:21:07Z</time>
      </trkpt>
      <trkpt lat="47.01540667" lon="16.59994667">
        <ele>239.1</ele>
        <time>2025-07-14T15:21:14Z</time>
      </trkpt>
      <trkpt lat="47.01549833" lon="16.59989">
        <ele>239</ele>
        <time>2025-07-14T15:21:22Z</time>
      </trkpt>
      <trkpt lat="47.01558667" lon="16.59985667">
        <ele>239.6</ele>
        <time>2025-07-14T15:21:29Z</time>
      </trkpt>
      <trkpt lat="47.01566" lon="16.59978">
        <ele>240.7</ele>
        <time>2025-07-14T15:21:35Z</time>
      </trkpt>
      <trkpt lat="47.01573333" lon="16.599695">
        <ele>241.4</ele>
        <time>2025-07-14T15:21:42Z</time>
      </trkpt>
      <trkpt lat="47.01582667" lon="16.59963">
        <ele>243.7</ele>
        <time>2025-07-14T15:21:49Z</time>
      </trkpt>
      <trkpt lat="47.01592" lon="16.59962">
        <ele>243.2</ele>
        <time>2025-07-14T15:21:55Z</time>
      </trkpt>
      <trkpt lat="47.01601167" lon="16.59978333">
        <ele>241</ele>
        <time>2025-07-14T15:22:20Z</time>
      </trkpt>
      <trkpt lat="47.01608667" lon="16.599685">
        <ele>243.4</ele>
        <time>2025-07-14T15:22:43Z</time>
      </trkpt>
      <trkpt lat="47.01618" lon="16.59964333">
        <ele>245.6</ele>
        <time>2025-07-14T15:22:49Z</time>
      </trkpt>
      <trkpt lat="47.016275" lon="16.59961">
        <ele>248.1</ele>
        <time>2025-07-14T15:22:56Z</time>
      </trkpt>
      <trkpt lat="47.01636333" lon="16.59957">
        <ele>249.4</ele>
        <time>2025-07-14T15:23:22Z</time>
      </trkpt>
      <trkpt lat="47.01639333" lon="16.59941167">
        <ele>241</ele>
        <time>2025-07-14T15:24:38Z</time>
      </trkpt>
      <trkpt lat="47.016375" lon="16.59924333">
        <ele>237.7</ele>
        <time>2025-07-14T15:24:56Z</time>
      </trkpt>
      <trkpt lat="47.01633167" lon="16.599115">
        <ele>237.6</ele>
        <time>2025-07-14T15:25:04Z</time>
      </trkpt>
      <trkpt lat="47.01630167" lon="16.59897333">
        <ele>237.4</ele>
        <time>2025-07-14T15:25:12Z</time>
      </trkpt>
      <trkpt lat="47.01626667" lon="16.59884833">
        <ele>235.6</ele>
        <time>2025-07-14T15:25:21Z</time>
      </trkpt>
      <trkpt lat="47.01623333" lon="16.59870167">
        <ele>234.7</ele>
        <time>2025-07-14T15:25:29Z</time>
      </trkpt>
      <trkpt lat="47.01622167" lon="16.59855167">
        <ele>235.8</ele>
        <time>2025-07-14T15:25:35Z</time>
      </trkpt>
      <trkpt lat="47.0162" lon="16.59841833">
        <ele>236.8</ele>
        <time>2025-07-14T15:25:40Z</time>
      </trkpt>
      <trkpt lat="47.01614667" lon="16.59831">
        <ele>236.9</ele>
        <time>2025-07-14T15:25:46Z</time>
      </trkpt>
      <trkpt lat="47.01607" lon="16.59822833">
        <ele>236.1</ele>
        <time>2025-07-14T15:25:53Z</time>
      </trkpt>
      <trkpt lat="47.016035" lon="16.59810667">
        <ele>235.8</ele>
        <time>2025-07-14T15:26:00Z</time>
      </trkpt>
      <trkpt lat="47.01607333" lon="16.59797">
        <ele>233.8</ele>
        <time>2025-07-14T15:26:11Z</time>
      </trkpt>
      <trkpt lat="47.016105" lon="16.59783167">
        <ele>234.9</ele>
        <time>2025-07-14T15:26:16Z</time>
      </trkpt>
      <trkpt lat="47.01612167" lon="16.59768667">
        <ele>235.4</ele>
        <time>2025-07-14T15:26:25Z</time>
      </trkpt>
      <trkpt lat="47.01610667" lon="16.59755333">
        <ele>237.5</ele>
        <time>2025-07-14T15:26:32Z</time>
      </trkpt>
      <trkpt lat="47.01604833" lon="16.59744">
        <ele>240.8</ele>
        <time>2025-07-14T15:26:51Z</time>
      </trkpt>
    </trkseg>
  </trk>
</gpx>