<?xml version='1.0' encoding='UTF-8' standalone='yes' ?>
<gpx xmlns="http://www.topografix.com/GPX/1/1" xmlns:geotracker="http://ilyabogdanovich.com/gpx/extensions/geotracker" xmlns:xsi="http://www.w3.org/2001/XMLSchema-instance" xsi:schemaLocation="http://www.topografix.com/GPX/1/1 http://www.topografix.com/GPX/1/1/gpx.xsd" version="1.1" creator="Recorded in Geo Tracker for Android from Ilya Bogdanovich">
  <metadata>
    <name>w_0705_03</name>
    <author>
      <name>Recorded in Geo Tracker for Android from Ilya Bogdanovich</name>
      <link href="https://play.google.com/store/apps/details?id=com.ilyabogdanovich.geotracker" />
    </author>
    <link href="https://play.google.com/store/apps/details?id=com.ilyabogdanovich.geotracker" />
    <time>2025-07-05T08:04:08Z</time>
  </metadata>
  <wpt lat="47.67085333" lon="21.509125">
    <ele>163.9</ele>
    <time>2025-07-05T08:13:50Z</time>
    <name>Stop for ~3 min</name>
    <desc>Elevation: 164 m
Time from start: 00:09:41
Distance from start: 593 m</desc>
    <extensions>
      <geotracker:meta visited="1" />
    </extensions>
  </wpt>
  <wpt lat="47.67191" lon="21.51305333">
    <ele>161.3</ele>
    <time>2025-07-05T08:25:52Z</time>
    <name>Stop for ~14 min</name>
    <desc>Elevation: 161 m
Time from start: 00:21:43
Distance from start: 1,07 km</desc>
    <extensions>
      <geotracker:meta visited="1" />
    </extensions>
  </wpt>
  <wpt lat="47.67191" lon="21.51305333">
    <ele>161.3</ele>
    <time>2025-07-05T08:25:52Z</time>
    <name>Stop for ~14 min</name>
    <desc>Elevation: 161 m
Time from start: 00:21:43
Distance from start: 1,07 km</desc>
    <extensions>
      <geotracker:meta visited="1" />
    </extensions>
  </wpt>
  <wpt lat="47.67239" lon="21.51325333">
    <ele>168.8</ele>
    <time>2025-07-05T08:38:38Z</time>
    <name>Stop for ~19 min</name>
    <desc>Elevation: 169 m
Time from start: 00:34:29
Distance from start: 1,18 km</desc>
    <extensions>
      <geotracker:meta visited="1" />
    </extensions>
  </wpt>
  <wpt lat="47.67239" lon="21.51325333">
    <ele>168.8</ele>
    <time>2025-07-05T08:38:38Z</time>
    <name>Stop for ~19 min</name>
    <desc>Elevation: 169 m
Time from start: 00:34:29
Distance from start: 1,18 km</desc>
    <extensions>
      <geotracker:meta visited="1" />
    </extensions>
  </wpt>
  <wpt lat="47.67238" lon="21.51332">
    <ele>151.2</ele>
    <time>2025-07-05T09:10:02Z</time>
    <name>Stop for ~7 min</name>
    <desc>Elevation: 151 m
Time from start: 01:05:53
Distance from start: 1,32 km</desc>
    <extensions>
      <geotracker:meta visited="1" />
    </extensions>
  </wpt>
  <wpt lat="47.67296333" lon="21.50646167">
    <ele>156.6</ele>
    <time>2025-07-05T09:31:43Z</time>
    <name>Stop for ~7 min</name>
    <desc>Elevation: 157 m
Time from start: 01:27:34
Distance from start: 2,4 km</desc>
    <extensions>
      <geotracker:meta visited="1" />
    </extensions>
  </wpt>
  <wpt lat="47.672585" lon="21.507365">
    <ele>166.1</ele>
    <time>2025-07-05T10:15:25Z</time>
    <name>Stop for ~16 min</name>
    <desc>Elevation: 166 m
Time from start: 02:11:16
Distance from start: 3,03 km</desc>
    <extensions>
      <geotracker:meta visited="1" />
    </extensions>
  </wpt>
  <wpt lat="47.67250667" lon="21.507405">
    <ele>158</ele>
    <time>2025-07-05T09:52:19Z</time>
    <name>Stop for ~22 min</name>
    <desc>Elevation: 158 m
Time from start: 01:48:10
Distance from start: 2,93 km</desc>
    <extensions>
      <geotracker:meta visited="1" />
    </extensions>
  </wpt>
  <trk>
    <name>w_0705_03</name>
    <src>Recorded in Geo Tracker for Android from Ilya Bogdanovich</src>
    <link href="https://play.google.com/store/apps/details?id=com.ilyabogdanovich.geotracker" />
    <extensions>
      <geotracker:meta>
        <geotracker:length>4383.1</geotracker:length>
        <geotracker:duration>10478084</geotracker:duration>
        <geotracker:creationtime>2025-07-05T08:04:08Z</geotracker:creationtime>
        <geotracker:activity>0</geotracker:activity>
      </geotracker:meta>
    </extensions>
    <trkseg>
      <trkpt lat="47.66895167" lon="21.51305">
        <ele>177.8</ele>
        <time>2025-07-05T08:04:19Z</time>
      </trkpt>
      <trkpt lat="47.66896167" lon="21.51287833">
        <ele>175</ele>
        <time>2025-07-05T08:04:36Z</time>
      </trkpt>
      <trkpt lat="47.66895333" lon="21.51271333">
        <ele>171</ele>
        <time>2025-07-05T08:04:46Z</time>
      </trkpt>
      <trkpt lat="47.66889833" lon="21.5126">
        <ele>169.4</ele>
        <time>2025-07-05T08:04:55Z</time>
      </trkpt>
      <trkpt lat="47.668815" lon="21.51254333">
        <ele>167.7</ele>
        <time>2025-07-05T08:05:02Z</time>
      </trkpt>
      <trkpt lat="47.66874167" lon="21.51246">
        <ele>163.3</ele>
        <time>2025-07-05T08:05:10Z</time>
      </trkpt>
      <trkpt lat="47.66865667" lon="21.512405">
        <ele>162.3</ele>
        <time>2025-07-05T08:05:17Z</time>
      </trkpt>
      <trkpt lat="47.668565" lon="21.512365">
        <ele>163.7</ele>
        <time>2025-07-05T08:05:23Z</time>
      </trkpt>
      <trkpt lat="47.66848" lon="21.51230833">
        <ele>164.4</ele>
        <time>2025-07-05T08:05:31Z</time>
      </trkpt>
      <trkpt lat="47.66839833" lon="21.512245">
        <ele>164</ele>
        <time>2025-07-05T08:05:38Z</time>
      </trkpt>
      <trkpt lat="47.66831667" lon="21.51218167">
        <ele>163.7</ele>
        <time>2025-07-05T08:05:45Z</time>
      </trkpt>
      <trkpt lat="47.668185" lon="21.51203333">
        <ele>161.2</ele>
        <time>2025-07-05T08:05:59Z</time>
      </trkpt>
      <trkpt lat="47.668085" lon="21.51201833">
        <ele>161.9</ele>
        <time>2025-07-05T08:06:07Z</time>
      </trkpt>
      <trkpt lat="47.66810667" lon="21.51187333">
        <ele>162.5</ele>
        <time>2025-07-05T08:06:22Z</time>
      </trkpt>
      <trkpt lat="47.668185" lon="21.51179167">
        <ele>164</ele>
        <time>2025-07-05T08:06:30Z</time>
      </trkpt>
      <trkpt lat="47.66828333" lon="21.51170667">
        <ele>165.7</ele>
        <time>2025-07-05T08:06:41Z</time>
      </trkpt>
      <trkpt lat="47.66837167" lon="21.51158833">
        <ele>167.3</ele>
        <time>2025-07-05T08:06:51Z</time>
      </trkpt>
      <trkpt lat="47.66847667" lon="21.51153833">
        <ele>165.8</ele>
        <time>2025-07-05T08:07:00Z</time>
      </trkpt>
      <trkpt lat="47.66855" lon="21.51144333">
        <ele>165.7</ele>
        <time>2025-07-05T08:07:22Z</time>
      </trkpt>
      <trkpt lat="47.66866333" lon="21.51137">
        <ele>166.5</ele>
        <time>2025-07-05T08:07:32Z</time>
      </trkpt>
      <trkpt lat="47.668735" lon="21.51127833">
        <ele>165.2</ele>
        <time>2025-07-05T08:07:39Z</time>
      </trkpt>
      <trkpt lat="47.66880333" lon="21.51117167">
        <ele>166.7</ele>
        <time>2025-07-05T08:07:46Z</time>
      </trkpt>
      <trkpt lat="47.668875" lon="21.51107833">
        <ele>166.9</ele>
        <time>2025-07-05T08:07:52Z</time>
      </trkpt>
      <trkpt lat="47.66897" lon="21.511065">
        <ele>165.9</ele>
        <time>2025-07-05T08:08:00Z</time>
      </trkpt>
      <trkpt lat="47.66905" lon="21.51099333">
        <ele>165.1</ele>
        <time>2025-07-05T08:08:08Z</time>
      </trkpt>
      <trkpt lat="47.66913667" lon="21.51093667">
        <ele>167</ele>
        <time>2025-07-05T08:08:15Z</time>
      </trkpt>
      <trkpt lat="47.66921833" lon="21.51086833">
        <ele>194.3</ele>
        <time>2025-07-05T08:08:20Z</time>
      </trkpt>
      <trkpt lat="47.66924167" lon="21.510725">
        <ele>181.5</ele>
        <time>2025-07-05T08:08:27Z</time>
      </trkpt>
      <trkpt lat="47.66934667" lon="21.510655">
        <ele>173.4</ele>
        <time>2025-07-05T08:08:37Z</time>
      </trkpt>
      <trkpt lat="47.669445" lon="21.51048333">
        <ele>169.6</ele>
        <time>2025-07-05T08:08:50Z</time>
      </trkpt>
      <trkpt lat="47.66952667" lon="21.510385">
        <ele>170.6</ele>
        <time>2025-07-05T08:08:58Z</time>
      </trkpt>
      <trkpt lat="47.66961167" lon="21.51029833">
        <ele>169.3</ele>
        <time>2025-07-05T08:09:06Z</time>
      </trkpt>
      <trkpt lat="47.66969167" lon="21.51022">
        <ele>169</ele>
        <time>2025-07-05T08:09:13Z</time>
      </trkpt>
      <trkpt lat="47.66977167" lon="21.51015">
        <ele>170.2</ele>
        <time>2025-07-05T08:09:19Z</time>
      </trkpt>
      <trkpt lat="47.66987667" lon="21.51013667">
        <ele>168.5</ele>
        <time>2025-07-05T08:09:27Z</time>
      </trkpt>
      <trkpt lat="47.66996833" lon="21.510085">
        <ele>168.7</ele>
        <time>2025-07-05T08:09:33Z</time>
      </trkpt>
      <trkpt lat="47.67004667" lon="21.51001833">
        <ele>168.1</ele>
        <time>2025-07-05T08:09:40Z</time>
      </trkpt>
      <trkpt lat="47.670135" lon="21.510065">
        <ele>167.4</ele>
        <time>2025-07-05T08:09:52Z</time>
      </trkpt>
      <trkpt lat="47.67011167" lon="21.50992833">
        <ele>162.6</ele>
        <time>2025-07-05T08:10:14Z</time>
      </trkpt>
      <trkpt lat="47.670085" lon="21.50979">
        <ele>160.6</ele>
        <time>2025-07-05T08:10:21Z</time>
      </trkpt>
      <trkpt lat="47.67013833" lon="21.50964">
        <ele>160</ele>
        <time>2025-07-05T08:10:52Z</time>
      </trkpt>
      <trkpt lat="47.67023167" lon="21.5095">
        <ele>159.9</ele>
        <time>2025-07-05T08:11:03Z</time>
      </trkpt>
      <trkpt lat="47.670365" lon="21.50936667">
        <ele>160.7</ele>
        <time>2025-07-05T08:11:20Z</time>
      </trkpt>
      <trkpt lat="47.67047333" lon="21.50931">
        <ele>162</ele>
        <time>2025-07-05T08:11:33Z</time>
      </trkpt>
      <trkpt lat="47.67058167" lon="21.50921167">
        <ele>162.8</ele>
        <time>2025-07-05T08:11:45Z</time>
      </trkpt>
      <trkpt lat="47.67068833" lon="21.50910833">
        <ele>160.9</ele>
        <time>2025-07-05T08:11:56Z</time>
      </trkpt>
      <trkpt lat="47.67077333" lon="21.509">
        <ele>160.1</ele>
        <time>2025-07-05T08:12:11Z</time>
      </trkpt>
      <trkpt lat="47.67073167" lon="21.50912167">
        <ele>162.1</ele>
        <time>2025-07-05T08:12:54Z</time>
      </trkpt>
      <trkpt lat="47.67070833" lon="21.509325">
        <ele>162.3</ele>
        <time>2025-07-05T08:13:00Z</time>
      </trkpt>
      <trkpt lat="47.67077333" lon="21.50921667">
        <ele>160.1</ele>
        <time>2025-07-05T08:13:12Z</time>
      </trkpt>
      <trkpt lat="47.67085333" lon="21.509125">
        <ele>163.9</ele>
        <time>2025-07-05T08:13:50Z</time>
      </trkpt>
      <trkpt lat="47.670625" lon="21.50906833">
        <ele>141</ele>
        <time>2025-07-05T08:16:16Z</time>
      </trkpt>
      <trkpt lat="47.67071667" lon="21.509115">
        <ele>156.1</ele>
        <time>2025-07-05T08:16:18Z</time>
      </trkpt>
      <trkpt lat="47.67082167" lon="21.50916">
        <ele>165.4</ele>
        <time>2025-07-05T08:16:25Z</time>
      </trkpt>
      <trkpt lat="47.67093667" lon="21.50901167">
        <ele>169.5</ele>
        <time>2025-07-05T08:16:47Z</time>
      </trkpt>
      <trkpt lat="47.671" lon="21.50891">
        <ele>160.7</ele>
        <time>2025-07-05T08:18:21Z</time>
      </trkpt>
      <trkpt lat="47.67113167" lon="21.50872167">
        <ele>162.5</ele>
        <time>2025-07-05T08:18:34Z</time>
      </trkpt>
      <trkpt lat="47.67122667" lon="21.50873167">
        <ele>164.6</ele>
        <time>2025-07-05T08:18:40Z</time>
      </trkpt>
      <trkpt lat="47.67125833" lon="21.50890833">
        <ele>169.2</ele>
        <time>2025-07-05T08:19:24Z</time>
      </trkpt>
      <trkpt lat="47.67128" lon="21.50904333">
        <ele>166.3</ele>
        <time>2025-07-05T08:19:30Z</time>
      </trkpt>
      <trkpt lat="47.67135167" lon="21.50919833">
        <ele>165</ele>
        <time>2025-07-05T08:19:40Z</time>
      </trkpt>
      <trkpt lat="47.671415" lon="21.50931667">
        <ele>165.2</ele>
        <time>2025-07-05T08:19:48Z</time>
      </trkpt>
      <trkpt lat="47.67144" lon="21.50945167">
        <ele>164.7</ele>
        <time>2025-07-05T08:19:57Z</time>
      </trkpt>
      <trkpt lat="47.67145" lon="21.50959167">
        <ele>165.9</ele>
        <time>2025-07-05T08:20:03Z</time>
      </trkpt>
      <trkpt lat="47.67148333" lon="21.50971833">
        <ele>166.2</ele>
        <time>2025-07-05T08:20:09Z</time>
      </trkpt>
      <trkpt lat="47.67152833" lon="21.50989">
        <ele>165.7</ele>
        <time>2025-07-05T08:20:18Z</time>
      </trkpt>
      <trkpt lat="47.67156833" lon="21.51009667">
        <ele>166.7</ele>
        <time>2025-07-05T08:20:28Z</time>
      </trkpt>
      <trkpt lat="47.6716" lon="21.51022333">
        <ele>169</ele>
        <time>2025-07-05T08:20:35Z</time>
      </trkpt>
      <trkpt lat="47.67163" lon="21.510385">
        <ele>165.5</ele>
        <time>2025-07-05T08:20:46Z</time>
      </trkpt>
      <trkpt lat="47.67169333" lon="21.51057333">
        <ele>163.3</ele>
        <time>2025-07-05T08:20:57Z</time>
      </trkpt>
      <trkpt lat="47.67172667" lon="21.51082667">
        <ele>161.9</ele>
        <time>2025-07-05T08:21:12Z</time>
      </trkpt>
      <trkpt lat="47.671765" lon="21.51094833">
        <ele>162.3</ele>
        <time>2025-07-05T08:21:18Z</time>
      </trkpt>
      <trkpt lat="47.67181167" lon="21.511135">
        <ele>160.3</ele>
        <time>2025-07-05T08:21:28Z</time>
      </trkpt>
      <trkpt lat="47.67183333" lon="21.51126833">
        <ele>159.9</ele>
        <time>2025-07-05T08:21:34Z</time>
      </trkpt>
      <trkpt lat="47.671855" lon="21.51141">
        <ele>158.7</ele>
        <time>2025-07-05T08:21:41Z</time>
      </trkpt>
      <trkpt lat="47.67189333" lon="21.51154167">
        <ele>157.5</ele>
        <time>2025-07-05T08:21:48Z</time>
      </trkpt>
      <trkpt lat="47.67193333" lon="21.51166167">
        <ele>157.1</ele>
        <time>2025-07-05T08:21:55Z</time>
      </trkpt>
      <trkpt lat="47.67196" lon="21.51184">
        <ele>157.7</ele>
        <time>2025-07-05T08:22:05Z</time>
      </trkpt>
      <trkpt lat="47.67194" lon="21.51204">
        <ele>162.4</ele>
        <time>2025-07-05T08:22:14Z</time>
      </trkpt>
      <trkpt lat="47.67198" lon="21.51223">
        <ele>163.2</ele>
        <time>2025-07-05T08:22:26Z</time>
      </trkpt>
      <trkpt lat="47.67201" lon="21.51240833">
        <ele>159.7</ele>
        <time>2025-07-05T08:22:36Z</time>
      </trkpt>
      <trkpt lat="47.67206" lon="21.51259167">
        <ele>157.4</ele>
        <time>2025-07-05T08:22:48Z</time>
      </trkpt>
      <trkpt lat="47.67207667" lon="21.51272333">
        <ele>155.5</ele>
        <time>2025-07-05T08:22:55Z</time>
      </trkpt>
      <trkpt lat="47.67209833" lon="21.51296333">
        <ele>154.4</ele>
        <time>2025-07-05T08:23:08Z</time>
      </trkpt>
      <trkpt lat="47.67206833" lon="21.51313167">
        <ele>158.5</ele>
        <time>2025-07-05T08:23:26Z</time>
      </trkpt>
      <trkpt lat="47.67196833" lon="21.51306">
        <ele>161.5</ele>
        <time>2025-07-05T08:23:51Z</time>
      </trkpt>
      <trkpt lat="47.67191" lon="21.51305333">
        <ele>161.3</ele>
        <time>2025-07-05T08:25:52Z</time>
      </trkpt>
      <trkpt lat="47.671895" lon="21.51318667">
        <ele>165</ele>
        <time>2025-07-05T08:27:58Z</time>
      </trkpt>
      <trkpt lat="47.671895" lon="21.513185">
        <ele>165.4</ele>
        <time>2025-07-05T08:29:59Z</time>
      </trkpt>
      <trkpt lat="47.671995" lon="21.51313333">
        <ele>169.1</ele>
        <time>2025-07-05T08:31:58Z</time>
      </trkpt>
      <trkpt lat="47.67208667" lon="21.51318">
        <ele>167.2</ele>
        <time>2025-07-05T08:32:04Z</time>
      </trkpt>
      <trkpt lat="47.67224667" lon="21.51323333">
        <ele>165.2</ele>
        <time>2025-07-05T08:32:19Z</time>
      </trkpt>
      <trkpt lat="47.67235" lon="21.513265">
        <ele>164</ele>
        <time>2025-07-05T08:32:27Z</time>
      </trkpt>
      <trkpt lat="47.67243833" lon="21.51330667">
        <ele>163.9</ele>
        <time>2025-07-05T08:32:33Z</time>
      </trkpt>
      <trkpt lat="47.67236833" lon="21.51317667">
        <ele>182.4</ele>
        <time>2025-07-05T08:36:22Z</time>
      </trkpt>
      <trkpt lat="47.67246333" lon="21.51314833">
        <ele>142.3</ele>
        <time>2025-07-05T08:36:29Z</time>
      </trkpt>
      <trkpt lat="47.67239" lon="21.51325333">
        <ele>168.8</ele>
        <time>2025-07-05T08:38:38Z</time>
      </trkpt>
      <trkpt lat="47.67251" lon="21.51326833">
        <ele>165.6</ele>
        <time>2025-07-05T08:39:05Z</time>
      </trkpt>
      <trkpt lat="47.67242667" lon="21.51326333">
        <ele>172.8</ele>
        <time>2025-07-05T08:42:46Z</time>
      </trkpt>
      <trkpt lat="47.67239833" lon="21.51312667">
        <ele>166.7</ele>
        <time>2025-07-05T08:46:00Z</time>
      </trkpt>
      <trkpt lat="47.67247167" lon="21.51323333">
        <ele>175.7</ele>
        <time>2025-07-05T08:46:32Z</time>
      </trkpt>
      <trkpt lat="47.67240833" lon="21.51329333">
        <ele>173</ele>
        <time>2025-07-05T08:48:34Z</time>
      </trkpt>
      <trkpt lat="47.67249" lon="21.513235">
        <ele>171.4</ele>
        <time>2025-07-05T08:49:38Z</time>
      </trkpt>
      <trkpt lat="47.672455" lon="21.51323667">
        <ele>171.3</ele>
        <time>2025-07-05T08:51:39Z</time>
      </trkpt>
      <trkpt lat="47.67245333" lon="21.51321667">
        <ele>168.4</ele>
        <time>2025-07-05T08:53:40Z</time>
      </trkpt>
      <trkpt lat="47.672425" lon="21.51327">
        <ele>168.2</ele>
        <time>2025-07-05T08:55:43Z</time>
      </trkpt>
      <trkpt lat="47.67263833" lon="21.51335167">
        <ele>183.2</ele>
        <time>2025-07-05T08:58:04Z</time>
      </trkpt>
      <trkpt lat="47.67249167" lon="21.51321833">
        <ele>166.3</ele>
        <time>2025-07-05T08:58:36Z</time>
      </trkpt>
      <trkpt lat="47.67247667" lon="21.51325">
        <ele>167.2</ele>
        <time>2025-07-05T09:00:37Z</time>
      </trkpt>
      <trkpt lat="47.67239833" lon="21.51317667">
        <ele>165.6</ele>
        <time>2025-07-05T09:01:58Z</time>
      </trkpt>
      <trkpt lat="47.67239" lon="21.513225">
        <ele>146.4</ele>
        <time>2025-07-05T09:03:59Z</time>
      </trkpt>
      <trkpt lat="47.67240833" lon="21.51324667">
        <ele>145.8</ele>
        <time>2025-07-05T09:06:00Z</time>
      </trkpt>
      <trkpt lat="47.67239667" lon="21.51327167">
        <ele>148.5</ele>
        <time>2025-07-05T09:08:01Z</time>
      </trkpt>
      <trkpt lat="47.67238" lon="21.51332">
        <ele>151.2</ele>
        <time>2025-07-05T09:10:02Z</time>
      </trkpt>
      <trkpt lat="47.67239333" lon="21.5133">
        <ele>153</ele>
        <time>2025-07-05T09:12:05Z</time>
      </trkpt>
      <trkpt lat="47.67239333" lon="21.5133">
        <ele>153</ele>
        <time>2025-07-05T09:14:06Z</time>
      </trkpt>
      <trkpt lat="47.67251333" lon="21.51324333">
        <ele>156.9</ele>
        <time>2025-07-05T09:15:35Z</time>
      </trkpt>
      <trkpt lat="47.67253667" lon="21.51358167">
        <ele>184.5</ele>
        <time>2025-07-05T09:16:10Z</time>
      </trkpt>
      <trkpt lat="47.67261833" lon="21.513515">
        <ele>185.4</ele>
        <time>2025-07-05T09:16:17Z</time>
      </trkpt>
      <trkpt lat="47.6727" lon="21.51345833">
        <ele>177.8</ele>
        <time>2025-07-05T09:16:25Z</time>
      </trkpt>
      <trkpt lat="47.67278833" lon="21.51340667">
        <ele>172.2</ele>
        <time>2025-07-05T09:16:33Z</time>
      </trkpt>
      <trkpt lat="47.67288667" lon="21.51337833">
        <ele>168.3</ele>
        <time>2025-07-05T09:16:41Z</time>
      </trkpt>
      <trkpt lat="47.67297833" lon="21.51343333">
        <ele>164.5</ele>
        <time>2025-07-05T09:16:48Z</time>
      </trkpt>
      <trkpt lat="47.67307167" lon="21.51342667">
        <ele>162.1</ele>
        <time>2025-07-05T09:16:55Z</time>
      </trkpt>
      <trkpt lat="47.67316333" lon="21.51337833">
        <ele>160.2</ele>
        <time>2025-07-05T09:17:02Z</time>
      </trkpt>
      <trkpt lat="47.67326333" lon="21.51338167">
        <ele>157.4</ele>
        <time>2025-07-05T09:17:11Z</time>
      </trkpt>
      <trkpt lat="47.67335167" lon="21.51341333">
        <ele>154.6</ele>
        <time>2025-07-05T09:17:19Z</time>
      </trkpt>
      <trkpt lat="47.673425" lon="21.513505">
        <ele>154.3</ele>
        <time>2025-07-05T09:17:25Z</time>
      </trkpt>
      <trkpt lat="47.67351" lon="21.51357667">
        <ele>154.5</ele>
        <time>2025-07-05T09:17:32Z</time>
      </trkpt>
      <trkpt lat="47.67359833" lon="21.51361333">
        <ele>155</ele>
        <time>2025-07-05T09:17:40Z</time>
      </trkpt>
      <trkpt lat="47.673685" lon="21.51366667">
        <ele>155.8</ele>
        <time>2025-07-05T09:17:48Z</time>
      </trkpt>
      <trkpt lat="47.67377333" lon="21.513635">
        <ele>158</ele>
        <time>2025-07-05T09:17:54Z</time>
      </trkpt>
      <trkpt lat="47.673865" lon="21.51362">
        <ele>161.3</ele>
        <time>2025-07-05T09:18:03Z</time>
      </trkpt>
      <trkpt lat="47.673955" lon="21.513575">
        <ele>163.7</ele>
        <time>2025-07-05T09:18:12Z</time>
      </trkpt>
      <trkpt lat="47.67403667" lon="21.51351167">
        <ele>163.9</ele>
        <time>2025-07-05T09:18:19Z</time>
      </trkpt>
      <trkpt lat="47.67411167" lon="21.51343167">
        <ele>163.3</ele>
        <time>2025-07-05T09:18:30Z</time>
      </trkpt>
      <trkpt lat="47.674185" lon="21.513335">
        <ele>163.2</ele>
        <time>2025-07-05T09:18:35Z</time>
      </trkpt>
      <trkpt lat="47.67424" lon="21.51322667">
        <ele>163.1</ele>
        <time>2025-07-05T09:18:40Z</time>
      </trkpt>
      <trkpt lat="47.67429667" lon="21.513105">
        <ele>164.6</ele>
        <time>2025-07-05T09:18:46Z</time>
      </trkpt>
      <trkpt lat="47.67432667" lon="21.51297">
        <ele>165.5</ele>
        <time>2025-07-05T09:18:57Z</time>
      </trkpt>
      <trkpt lat="47.674375" lon="21.51285167">
        <ele>162.3</ele>
        <time>2025-07-05T09:19:08Z</time>
      </trkpt>
      <trkpt lat="47.674415" lon="21.51272167">
        <ele>161.9</ele>
        <time>2025-07-05T09:19:15Z</time>
      </trkpt>
      <trkpt lat="47.67446167" lon="21.51260167">
        <ele>162.3</ele>
        <time>2025-07-05T09:19:21Z</time>
      </trkpt>
      <trkpt lat="47.6745" lon="21.51246167">
        <ele>163.4</ele>
        <time>2025-07-05T09:19:27Z</time>
      </trkpt>
      <trkpt lat="47.674555" lon="21.512345">
        <ele>163.8</ele>
        <time>2025-07-05T09:19:33Z</time>
      </trkpt>
      <trkpt lat="47.6746" lon="21.51220833">
        <ele>164.4</ele>
        <time>2025-07-05T09:19:40Z</time>
      </trkpt>
      <trkpt lat="47.67464667" lon="21.51207333">
        <ele>165.8</ele>
        <time>2025-07-05T09:19:46Z</time>
      </trkpt>
      <trkpt lat="47.67468667" lon="21.51193667">
        <ele>166.5</ele>
        <time>2025-07-05T09:19:53Z</time>
      </trkpt>
      <trkpt lat="47.674715" lon="21.5118">
        <ele>166.4</ele>
        <time>2025-07-05T09:20:00Z</time>
      </trkpt>
      <trkpt lat="47.67475167" lon="21.511665">
        <ele>166.2</ele>
        <time>2025-07-05T09:20:09Z</time>
      </trkpt>
      <trkpt lat="47.67480167" lon="21.51154333">
        <ele>164.1</ele>
        <time>2025-07-05T09:20:17Z</time>
      </trkpt>
      <trkpt lat="47.67487167" lon="21.51143">
        <ele>162.4</ele>
        <time>2025-07-05T09:20:25Z</time>
      </trkpt>
      <trkpt lat="47.67493167" lon="21.51131333">
        <ele>160.3</ele>
        <time>2025-07-05T09:20:33Z</time>
      </trkpt>
      <trkpt lat="47.67498333" lon="21.51120167">
        <ele>162.4</ele>
        <time>2025-07-05T09:20:44Z</time>
      </trkpt>
      <trkpt lat="47.67502833" lon="21.511075">
        <ele>161</ele>
        <time>2025-07-05T09:20:54Z</time>
      </trkpt>
      <trkpt lat="47.675075" lon="21.51095">
        <ele>159.7</ele>
        <time>2025-07-05T09:21:02Z</time>
      </trkpt>
      <trkpt lat="47.67512833" lon="21.510835">
        <ele>159.8</ele>
        <time>2025-07-05T09:21:10Z</time>
      </trkpt>
      <trkpt lat="47.67519333" lon="21.51070833">
        <ele>158.9</ele>
        <time>2025-07-05T09:21:18Z</time>
      </trkpt>
      <trkpt lat="47.67525167" lon="21.5106">
        <ele>159.1</ele>
        <time>2025-07-05T09:21:25Z</time>
      </trkpt>
      <trkpt lat="47.67530167" lon="21.51048">
        <ele>159.5</ele>
        <time>2025-07-05T09:21:33Z</time>
      </trkpt>
      <trkpt lat="47.67534833" lon="21.510365">
        <ele>159.9</ele>
        <time>2025-07-05T09:21:40Z</time>
      </trkpt>
      <trkpt lat="47.67542333" lon="21.510255">
        <ele>157.9</ele>
        <time>2025-07-05T09:21:47Z</time>
      </trkpt>
      <trkpt lat="47.67549167" lon="21.51016167">
        <ele>155.3</ele>
        <time>2025-07-05T09:21:54Z</time>
      </trkpt>
      <trkpt lat="47.67555167" lon="21.51004833">
        <ele>154.9</ele>
        <time>2025-07-05T09:22:02Z</time>
      </trkpt>
      <trkpt lat="47.67561833" lon="21.509935">
        <ele>155.8</ele>
        <time>2025-07-05T09:22:09Z</time>
      </trkpt>
      <trkpt lat="47.67569667" lon="21.50985667">
        <ele>157.3</ele>
        <time>2025-07-05T09:22:15Z</time>
      </trkpt>
      <trkpt lat="47.67574833" lon="21.50973333">
        <ele>158</ele>
        <time>2025-07-05T09:22:24Z</time>
      </trkpt>
      <trkpt lat="47.67579333" lon="21.50959333">
        <ele>157.7</ele>
        <time>2025-07-05T09:22:32Z</time>
      </trkpt>
      <trkpt lat="47.67580833" lon="21.50946">
        <ele>155.8</ele>
        <time>2025-07-05T09:22:40Z</time>
      </trkpt>
      <trkpt lat="47.67578667" lon="21.50932">
        <ele>154.4</ele>
        <time>2025-07-05T09:22:46Z</time>
      </trkpt>
      <trkpt lat="47.67577833" lon="21.509175">
        <ele>153.6</ele>
        <time>2025-07-05T09:22:53Z</time>
      </trkpt>
      <trkpt lat="47.67578833" lon="21.50902833">
        <ele>154.2</ele>
        <time>2025-07-05T09:23:03Z</time>
      </trkpt>
      <trkpt lat="47.67580667" lon="21.50888833">
        <ele>154.3</ele>
        <time>2025-07-05T09:23:10Z</time>
      </trkpt>
      <trkpt lat="47.67578667" lon="21.50873833">
        <ele>155.1</ele>
        <time>2025-07-05T09:23:17Z</time>
      </trkpt>
      <trkpt lat="47.675785" lon="21.50860333">
        <ele>155.5</ele>
        <time>2025-07-05T09:23:24Z</time>
      </trkpt>
      <trkpt lat="47.67577833" lon="21.50845167">
        <ele>157.7</ele>
        <time>2025-07-05T09:23:32Z</time>
      </trkpt>
      <trkpt lat="47.67576667" lon="21.50830667">
        <ele>158.2</ele>
        <time>2025-07-05T09:23:38Z</time>
      </trkpt>
      <trkpt lat="47.67572" lon="21.50818667">
        <ele>159.1</ele>
        <time>2025-07-05T09:23:45Z</time>
      </trkpt>
      <trkpt lat="47.67568333" lon="21.50806333">
        <ele>161.6</ele>
        <time>2025-07-05T09:23:57Z</time>
      </trkpt>
      <trkpt lat="47.67559" lon="21.508065">
        <ele>161.3</ele>
        <time>2025-07-05T09:24:21Z</time>
      </trkpt>
      <trkpt lat="47.67549667" lon="21.50806167">
        <ele>160.5</ele>
        <time>2025-07-05T09:24:28Z</time>
      </trkpt>
      <trkpt lat="47.67539667" lon="21.508065">
        <ele>158.7</ele>
        <time>2025-07-05T09:24:35Z</time>
      </trkpt>
      <trkpt lat="47.67530833" lon="21.50809833">
        <ele>155.9</ele>
        <time>2025-07-05T09:24:44Z</time>
      </trkpt>
      <trkpt lat="47.67520667" lon="21.50810833">
        <ele>154.4</ele>
        <time>2025-07-05T09:24:52Z</time>
      </trkpt>
      <trkpt lat="47.67511333" lon="21.50814333">
        <ele>154.6</ele>
        <time>2025-07-05T09:24:59Z</time>
      </trkpt>
      <trkpt lat="47.67501333" lon="21.50815">
        <ele>154.5</ele>
        <time>2025-07-05T09:25:08Z</time>
      </trkpt>
      <trkpt lat="47.67491" lon="21.50816833">
        <ele>154.9</ele>
        <time>2025-07-05T09:25:16Z</time>
      </trkpt>
      <trkpt lat="47.67481667" lon="21.50811">
        <ele>155.8</ele>
        <time>2025-07-05T09:25:22Z</time>
      </trkpt>
      <trkpt lat="47.67472667" lon="21.50810333">
        <ele>157.8</ele>
        <time>2025-07-05T09:25:29Z</time>
      </trkpt>
      <trkpt lat="47.67463833" lon="21.508065">
        <ele>158.9</ele>
        <time>2025-07-05T09:25:37Z</time>
      </trkpt>
      <trkpt lat="47.67455333" lon="21.50801333">
        <ele>158.7</ele>
        <time>2025-07-05T09:25:44Z</time>
      </trkpt>
      <trkpt lat="47.67446167" lon="21.50796667">
        <ele>157.9</ele>
        <time>2025-07-05T09:25:51Z</time>
      </trkpt>
      <trkpt lat="47.67435833" lon="21.50796333">
        <ele>158.1</ele>
        <time>2025-07-05T09:25:58Z</time>
      </trkpt>
      <trkpt lat="47.67426667" lon="21.50799667">
        <ele>159.9</ele>
        <time>2025-07-05T09:26:28Z</time>
      </trkpt>
      <trkpt lat="47.67418" lon="21.50792833">
        <ele>160.3</ele>
        <time>2025-07-05T09:26:35Z</time>
      </trkpt>
      <trkpt lat="47.67408833" lon="21.50792833">
        <ele>160.5</ele>
        <time>2025-07-05T09:26:42Z</time>
      </trkpt>
      <trkpt lat="47.673985" lon="21.50791">
        <ele>160.5</ele>
        <time>2025-07-05T09:26:48Z</time>
      </trkpt>
      <trkpt lat="47.673895" lon="21.50787">
        <ele>161</ele>
        <time>2025-07-05T09:26:54Z</time>
      </trkpt>
      <trkpt lat="47.673805" lon="21.50784">
        <ele>161.5</ele>
        <time>2025-07-05T09:27:02Z</time>
      </trkpt>
      <trkpt lat="47.67371167" lon="21.50788667">
        <ele>160.8</ele>
        <time>2025-07-05T09:27:11Z</time>
      </trkpt>
      <trkpt lat="47.67362333" lon="21.50783333">
        <ele>161.4</ele>
        <time>2025-07-05T09:27:17Z</time>
      </trkpt>
      <trkpt lat="47.673535" lon="21.50779833">
        <ele>162.6</ele>
        <time>2025-07-05T09:27:26Z</time>
      </trkpt>
      <trkpt lat="47.67345" lon="21.50774333">
        <ele>170.3</ele>
        <time>2025-07-05T09:27:30Z</time>
      </trkpt>
      <trkpt lat="47.67335333" lon="21.50775833">
        <ele>169.8</ele>
        <time>2025-07-05T09:27:38Z</time>
      </trkpt>
      <trkpt lat="47.67326167" lon="21.50780333">
        <ele>164.4</ele>
        <time>2025-07-05T09:28:05Z</time>
      </trkpt>
      <trkpt lat="47.67320833" lon="21.50768333">
        <ele>162.8</ele>
        <time>2025-07-05T09:28:13Z</time>
      </trkpt>
      <trkpt lat="47.67318" lon="21.50754333">
        <ele>161.9</ele>
        <time>2025-07-05T09:28:21Z</time>
      </trkpt>
      <trkpt lat="47.67314667" lon="21.50740667">
        <ele>159.4</ele>
        <time>2025-07-05T09:28:44Z</time>
      </trkpt>
      <trkpt lat="47.67310333" lon="21.50728833">
        <ele>159.8</ele>
        <time>2025-07-05T09:28:52Z</time>
      </trkpt>
      <trkpt lat="47.67307333" lon="21.50715667">
        <ele>160.2</ele>
        <time>2025-07-05T09:29:00Z</time>
      </trkpt>
      <trkpt lat="47.67303333" lon="21.507025">
        <ele>158.5</ele>
        <time>2025-07-05T09:29:09Z</time>
      </trkpt>
      <trkpt lat="47.67299833" lon="21.50689667">
        <ele>157.9</ele>
        <time>2025-07-05T09:29:17Z</time>
      </trkpt>
      <trkpt lat="47.67296833" lon="21.506765">
        <ele>158.8</ele>
        <time>2025-07-05T09:29:24Z</time>
      </trkpt>
      <trkpt lat="47.67297333" lon="21.50661667">
        <ele>159.5</ele>
        <time>2025-07-05T09:29:32Z</time>
      </trkpt>
      <trkpt lat="47.67297667" lon="21.50648167">
        <ele>158</ele>
        <time>2025-07-05T09:29:42Z</time>
      </trkpt>
      <trkpt lat="47.67296333" lon="21.50646167">
        <ele>156.6</ele>
        <time>2025-07-05T09:31:43Z</time>
      </trkpt>
      <trkpt lat="47.67307167" lon="21.50662833">
        <ele>194.8</ele>
        <time>2025-07-05T09:32:56Z</time>
      </trkpt>
      <trkpt lat="47.67300833" lon="21.50650667">
        <ele>173.9</ele>
        <time>2025-07-05T09:33:22Z</time>
      </trkpt>
      <trkpt lat="47.67297167" lon="21.506445">
        <ele>163.6</ele>
        <time>2025-07-05T09:37:03Z</time>
      </trkpt>
      <trkpt lat="47.67297167" lon="21.506445">
        <ele>163.6</ele>
        <time>2025-07-05T09:39:04Z</time>
      </trkpt>
      <trkpt lat="47.67288167" lon="21.50646333">
        <ele>156.7</ele>
        <time>2025-07-05T09:39:54Z</time>
      </trkpt>
      <trkpt lat="47.67284333" lon="21.50632833">
        <ele>160.4</ele>
        <time>2025-07-05T09:40:03Z</time>
      </trkpt>
      <trkpt lat="47.67282167" lon="21.50619333">
        <ele>162.1</ele>
        <time>2025-07-05T09:40:11Z</time>
      </trkpt>
      <trkpt lat="47.67291667" lon="21.50617333">
        <ele>161.7</ele>
        <time>2025-07-05T09:40:27Z</time>
      </trkpt>
      <trkpt lat="47.67300667" lon="21.50615167">
        <ele>159.6</ele>
        <time>2025-07-05T09:40:44Z</time>
      </trkpt>
      <trkpt lat="47.67306167" lon="21.50604167">
        <ele>162.9</ele>
        <time>2025-07-05T09:41:36Z</time>
      </trkpt>
      <trkpt lat="47.67311667" lon="21.50592167">
        <ele>164.2</ele>
        <time>2025-07-05T09:41:46Z</time>
      </trkpt>
      <trkpt lat="47.67317333" lon="21.50581">
        <ele>163.3</ele>
        <time>2025-07-05T09:41:55Z</time>
      </trkpt>
      <trkpt lat="47.67321167" lon="21.505685">
        <ele>162.5</ele>
        <time>2025-07-05T09:42:04Z</time>
      </trkpt>
      <trkpt lat="47.67316" lon="21.505575">
        <ele>161.5</ele>
        <time>2025-07-05T09:42:14Z</time>
      </trkpt>
      <trkpt lat="47.67307333" lon="21.50551333">
        <ele>160.6</ele>
        <time>2025-07-05T09:42:21Z</time>
      </trkpt>
      <trkpt lat="47.673" lon="21.50543167">
        <ele>160.2</ele>
        <time>2025-07-05T09:42:28Z</time>
      </trkpt>
      <trkpt lat="47.67291667" lon="21.505355">
        <ele>160.6</ele>
        <time>2025-07-05T09:42:35Z</time>
      </trkpt>
      <trkpt lat="47.67282833" lon="21.50529167">
        <ele>159.2</ele>
        <time>2025-07-05T09:42:46Z</time>
      </trkpt>
      <trkpt lat="47.67274" lon="21.50525">
        <ele>158.3</ele>
        <time>2025-07-05T09:43:06Z</time>
      </trkpt>
      <trkpt lat="47.67268667" lon="21.50537">
        <ele>157.7</ele>
        <time>2025-07-05T09:43:21Z</time>
      </trkpt>
      <trkpt lat="47.672665" lon="21.50551167">
        <ele>156</ele>
        <time>2025-07-05T09:43:30Z</time>
      </trkpt>
      <trkpt lat="47.67264333" lon="21.50564667">
        <ele>154.4</ele>
        <time>2025-07-05T09:43:38Z</time>
      </trkpt>
      <trkpt lat="47.67259833" lon="21.50578">
        <ele>154.2</ele>
        <time>2025-07-05T09:43:46Z</time>
      </trkpt>
      <trkpt lat="47.67257667" lon="21.50592">
        <ele>155.5</ele>
        <time>2025-07-05T09:43:54Z</time>
      </trkpt>
      <trkpt lat="47.67252167" lon="21.50606667">
        <ele>161.8</ele>
        <time>2025-07-05T09:44:36Z</time>
      </trkpt>
      <trkpt lat="47.67245667" lon="21.50617">
        <ele>162.3</ele>
        <time>2025-07-05T09:45:10Z</time>
      </trkpt>
      <trkpt lat="47.67244333" lon="21.506305">
        <ele>162.9</ele>
        <time>2025-07-05T09:45:17Z</time>
      </trkpt>
      <trkpt lat="47.672485" lon="21.50643833">
        <ele>163.9</ele>
        <time>2025-07-05T09:45:29Z</time>
      </trkpt>
      <trkpt lat="47.67256167" lon="21.50651833">
        <ele>163.2</ele>
        <time>2025-07-05T09:45:37Z</time>
      </trkpt>
      <trkpt lat="47.67254333" lon="21.50665833">
        <ele>160.8</ele>
        <time>2025-07-05T09:45:53Z</time>
      </trkpt>
      <trkpt lat="47.67255667" lon="21.50679667">
        <ele>160.4</ele>
        <time>2025-07-05T09:46:00Z</time>
      </trkpt>
      <trkpt lat="47.67259333" lon="21.50692333">
        <ele>160.9</ele>
        <time>2025-07-05T09:46:10Z</time>
      </trkpt>
      <trkpt lat="47.672605" lon="21.50707">
        <ele>161.9</ele>
        <time>2025-07-05T09:46:20Z</time>
      </trkpt>
      <trkpt lat="47.67262333" lon="21.50720667">
        <ele>163.2</ele>
        <time>2025-07-05T09:46:30Z</time>
      </trkpt>
      <trkpt lat="47.67265833" lon="21.50734667">
        <ele>162</ele>
        <time>2025-07-05T09:47:37Z</time>
      </trkpt>
      <trkpt lat="47.67266" lon="21.50748">
        <ele>164.2</ele>
        <time>2025-07-05T09:47:51Z</time>
      </trkpt>
      <trkpt lat="47.67257833" lon="21.50754667">
        <ele>166.3</ele>
        <time>2025-07-05T09:48:17Z</time>
      </trkpt>
      <trkpt lat="47.67248333" lon="21.50759833">
        <ele>164.1</ele>
        <time>2025-07-05T09:48:29Z</time>
      </trkpt>
      <trkpt lat="47.67239" lon="21.50766">
        <ele>162.3</ele>
        <time>2025-07-05T09:48:39Z</time>
      </trkpt>
      <trkpt lat="47.67231167" lon="21.50772667">
        <ele>161.3</ele>
        <time>2025-07-05T09:48:44Z</time>
      </trkpt>
      <trkpt lat="47.67242833" lon="21.50756833">
        <ele>159</ele>
        <time>2025-07-05T09:49:15Z</time>
      </trkpt>
      <trkpt lat="47.67248667" lon="21.50776833">
        <ele>141.8</ele>
        <time>2025-07-05T09:50:10Z</time>
      </trkpt>
      <trkpt lat="47.67238833" lon="21.50736">
        <ele>168.5</ele>
        <time>2025-07-05T09:50:13Z</time>
      </trkpt>
      <trkpt lat="47.672475" lon="21.50740833">
        <ele>170.4</ele>
        <time>2025-07-05T09:50:50Z</time>
      </trkpt>
      <trkpt lat="47.67253833" lon="21.50750667">
        <ele>165.2</ele>
        <time>2025-07-05T09:51:11Z</time>
      </trkpt>
      <trkpt lat="47.67244667" lon="21.50751167">
        <ele>161.1</ele>
        <time>2025-07-05T09:51:59Z</time>
      </trkpt>
      <trkpt lat="47.67250667" lon="21.507405">
        <ele>158</ele>
        <time>2025-07-05T09:52:19Z</time>
      </trkpt>
      <trkpt lat="47.67253167" lon="21.507275">
        <ele>164.8</ele>
        <time>2025-07-05T09:54:00Z</time>
      </trkpt>
      <trkpt lat="47.67247" lon="21.50727667">
        <ele>161.5</ele>
        <time>2025-07-05T09:56:06Z</time>
      </trkpt>
      <trkpt lat="47.67256833" lon="21.507335">
        <ele>161.9</ele>
        <time>2025-07-05T09:57:47Z</time>
      </trkpt>
      <trkpt lat="47.67250167" lon="21.50725">
        <ele>164.2</ele>
        <time>2025-07-05T10:00:46Z</time>
      </trkpt>
      <trkpt lat="47.67252667" lon="21.50735">
        <ele>165</ele>
        <time>2025-07-05T10:02:50Z</time>
      </trkpt>
      <trkpt lat="47.672505" lon="21.50722">
        <ele>159.8</ele>
        <time>2025-07-05T10:03:21Z</time>
      </trkpt>
      <trkpt lat="47.67256167" lon="21.50727833">
        <ele>164.5</ele>
        <time>2025-07-05T10:05:22Z</time>
      </trkpt>
      <trkpt lat="47.67255333" lon="21.50724">
        <ele>167.4</ele>
        <time>2025-07-05T10:07:29Z</time>
      </trkpt>
      <trkpt lat="47.67257833" lon="21.50729833">
        <ele>165.8</ele>
        <time>2025-07-05T10:09:30Z</time>
      </trkpt>
      <trkpt lat="47.67260833" lon="21.50732167">
        <ele>166.8</ele>
        <time>2025-07-05T10:11:31Z</time>
      </trkpt>
      <trkpt lat="47.67261667" lon="21.50733833">
        <ele>171</ele>
        <time>2025-07-05T10:13:32Z</time>
      </trkpt>
      <trkpt lat="47.6725" lon="21.50730167">
        <ele>163.8</ele>
        <time>2025-07-05T10:13:59Z</time>
      </trkpt>
      <trkpt lat="47.672585" lon="21.507365">
        <ele>166.1</ele>
        <time>2025-07-05T10:15:25Z</time>
      </trkpt>
      <trkpt lat="47.67257" lon="21.50732">
        <ele>162.9</ele>
        <time>2025-07-05T10:17:27Z</time>
      </trkpt>
      <trkpt lat="47.67248333" lon="21.50741833">
        <ele>163.5</ele>
        <time>2025-07-05T10:19:00Z</time>
      </trkpt>
      <trkpt lat="47.672565" lon="21.50727667">
        <ele>164.3</ele>
        <time>2025-07-05T10:20:01Z</time>
      </trkpt>
      <trkpt lat="47.67254167" lon="21.50740667">
        <ele>167.5</ele>
        <time>2025-07-05T10:21:05Z</time>
      </trkpt>
      <trkpt lat="47.672555" lon="21.50735667">
        <ele>168.7</ele>
        <time>2025-07-05T10:23:06Z</time>
      </trkpt>
      <trkpt lat="47.672565" lon="21.50744333">
        <ele>167.3</ele>
        <time>2025-07-05T10:25:10Z</time>
      </trkpt>
      <trkpt lat="47.67250833" lon="21.50732833">
        <ele>164</ele>
        <time>2025-07-05T10:25:59Z</time>
      </trkpt>
      <trkpt lat="47.67259333" lon="21.50739833">
        <ele>165.2</ele>
        <time>2025-07-05T10:26:50Z</time>
      </trkpt>
      <trkpt lat="47.67250833" lon="21.50744667">
        <ele>165.3</ele>
        <time>2025-07-05T10:28:39Z</time>
      </trkpt>
      <trkpt lat="47.67259833" lon="21.50746833">
        <ele>160.6</ele>
        <time>2025-07-05T10:30:27Z</time>
      </trkpt>
      <trkpt lat="47.672505" lon="21.50741333">
        <ele>160.9</ele>
        <time>2025-07-05T10:30:37Z</time>
      </trkpt>
      <trkpt lat="47.67259333" lon="21.507485">
        <ele>167.8</ele>
        <time>2025-07-05T10:32:05Z</time>
      </trkpt>
      <trkpt lat="47.672555" lon="21.50752333">
        <ele>169.8</ele>
        <time>2025-07-05T10:34:06Z</time>
      </trkpt>
      <trkpt lat="47.67248333" lon="21.507605">
        <ele>162.7</ele>
        <time>2025-07-05T10:35:25Z</time>
      </trkpt>
      <trkpt lat="47.672515" lon="21.50748">
        <ele>159.2</ele>
        <time>2025-07-05T10:35:53Z</time>
      </trkpt>
      <trkpt lat="47.67244833" lon="21.50757667">
        <ele>158</ele>
        <time>2025-07-05T10:36:48Z</time>
      </trkpt>
      <trkpt lat="47.67251833" lon="21.50747833">
        <ele>162.3</ele>
        <time>2025-07-05T10:37:33Z</time>
      </trkpt>
      <trkpt lat="47.67243667" lon="21.50754667">
        <ele>163.5</ele>
        <time>2025-07-05T10:38:43Z</time>
      </trkpt>
      <trkpt lat="47.67236833" lon="21.50764167">
        <ele>159.6</ele>
        <time>2025-07-05T10:39:00Z</time>
      </trkpt>
      <trkpt lat="47.67243667" lon="21.50754667">
        <ele>162.1</ele>
        <time>2025-07-05T10:40:31Z</time>
      </trkpt>
      <trkpt lat="47.67252833" lon="21.50753167">
        <ele>161.8</ele>
        <time>2025-07-05T10:40:43Z</time>
      </trkpt>
      <trkpt lat="47.67263833" lon="21.50752">
        <ele>158.9</ele>
        <time>2025-07-05T10:40:45Z</time>
      </trkpt>
      <trkpt lat="47.67273333" lon="21.507475">
        <ele>156.2</ele>
        <time>2025-07-05T10:40:47Z</time>
      </trkpt>
      <trkpt lat="47.67259667" lon="21.507525">
        <ele>156.9</ele>
        <time>2025-07-05T10:40:52Z</time>
      </trkpt>
      <trkpt lat="47.67248" lon="21.507555">
        <ele>156.4</ele>
        <time>2025-07-05T10:40:57Z</time>
      </trkpt>
      <trkpt lat="47.67237" lon="21.50760167">
        <ele>156.4</ele>
        <time>2025-07-05T10:41:00Z</time>
      </trkpt>
      <trkpt lat="47.67228333" lon="21.50764333">
        <ele>156.1</ele>
        <time>2025-07-05T10:41:02Z</time>
      </trkpt>
      <trkpt lat="47.67237333" lon="21.50764667">
        <ele>156.4</ele>
        <time>2025-07-05T10:41:05Z</time>
      </trkpt>
      <trkpt lat="47.67228667" lon="21.50760667">
        <ele>155.9</ele>
        <time>2025-07-05T10:41:21Z</time>
      </trkpt>
      <trkpt lat="47.67247167" lon="21.507635">
        <ele>166.8</ele>
        <time>2025-07-05T10:41:52Z</time>
      </trkpt>
      <trkpt lat="47.672355" lon="21.50768167">
        <ele>164.2</ele>
        <time>2025-07-05T10:41:53Z</time>
      </trkpt>
      <trkpt lat="47.67223667" lon="21.50761">
        <ele>163.5</ele>
        <time>2025-07-05T10:42:13Z</time>
      </trkpt>
      <trkpt lat="47.672135" lon="21.50769167">
        <ele>163.5</ele>
        <time>2025-07-05T10:42:23Z</time>
      </trkpt>
      <trkpt lat="47.67208667" lon="21.507805">
        <ele>164.7</ele>
        <time>2025-07-05T10:42:30Z</time>
      </trkpt>
      <trkpt lat="47.67219167" lon="21.507785">
        <ele>164.5</ele>
        <time>2025-07-05T10:42:37Z</time>
      </trkpt>
      <trkpt lat="47.67231" lon="21.50770333">
        <ele>164.1</ele>
        <time>2025-07-05T10:42:40Z</time>
      </trkpt>
      <trkpt lat="47.6723" lon="21.50754833">
        <ele>164.4</ele>
        <time>2025-07-05T10:43:06Z</time>
      </trkpt>
      <trkpt lat="47.67245167" lon="21.50748167">
        <ele>164.8</ele>
        <time>2025-07-05T10:43:15Z</time>
      </trkpt>
      <trkpt lat="47.67250333" lon="21.50760167">
        <ele>165.3</ele>
        <time>2025-07-05T10:43:23Z</time>
      </trkpt>
      <trkpt lat="47.67237833" lon="21.50761167">
        <ele>165.8</ele>
        <time>2025-07-05T10:43:44Z</time>
      </trkpt>
      <trkpt lat="47.67223333" lon="21.50763167">
        <ele>166</ele>
        <time>2025-07-05T10:44:05Z</time>
      </trkpt>
      <trkpt lat="47.672355" lon="21.50761833">
        <ele>166</ele>
        <time>2025-07-05T10:44:09Z</time>
      </trkpt>
      <trkpt lat="47.672045" lon="21.50775">
        <ele>166.9</ele>
        <time>2025-07-05T10:44:15Z</time>
      </trkpt>
      <trkpt lat="47.67214833" lon="21.50774667">
        <ele>169</ele>
        <time>2025-07-05T10:44:28Z</time>
      </trkpt>
      <trkpt lat="47.67224667" lon="21.50776667">
        <ele>177.4</ele>
        <time>2025-07-05T10:44:37Z</time>
      </trkpt>
      <trkpt lat="47.672215" lon="21.50791667">
        <ele>175.3</ele>
        <time>2025-07-05T10:45:09Z</time>
      </trkpt>
      <trkpt lat="47.67212833" lon="21.50787167">
        <ele>169.4</ele>
        <time>2025-07-05T10:46:31Z</time>
      </trkpt>
      <trkpt lat="47.67220167" lon="21.50779">
        <ele>169.7</ele>
        <time>2025-07-05T10:47:01Z</time>
      </trkpt>
      <trkpt lat="47.67225167" lon="21.50762833">
        <ele>167.4</ele>
        <time>2025-07-05T10:47:26Z</time>
      </trkpt>
      <trkpt lat="47.67228167" lon="21.507485">
        <ele>167.2</ele>
        <time>2025-07-05T10:47:31Z</time>
      </trkpt>
      <trkpt lat="47.67236667" lon="21.50739833">
        <ele>170.5</ele>
        <time>2025-07-05T10:47:40Z</time>
      </trkpt>
      <trkpt lat="47.67246" lon="21.50737333">
        <ele>172.6</ele>
        <time>2025-07-05T10:48:14Z</time>
      </trkpt>
      <trkpt lat="47.67253667" lon="21.50746167">
        <ele>168.5</ele>
        <time>2025-07-05T10:48:58Z</time>
      </trkpt>
      <trkpt lat="47.672475" lon="21.50750167">
        <ele>162.3</ele>
        <time>2025-07-05T10:50:59Z</time>
      </trkpt>
      <trkpt lat="47.672535" lon="21.507385">
        <ele>161.2</ele>
        <time>2025-07-05T10:51:17Z</time>
      </trkpt>
      <trkpt lat="47.67241833" lon="21.507935">
        <ele>178.3</ele>
        <time>2025-07-05T10:51:28Z</time>
      </trkpt>
      <trkpt lat="47.67232167" lon="21.50791333">
        <ele>184</ele>
        <time>2025-07-05T10:51:36Z</time>
      </trkpt>
      <trkpt lat="47.67223" lon="21.50792667">
        <ele>181.7</ele>
        <time>2025-07-05T10:51:42Z</time>
      </trkpt>
      <trkpt lat="47.67214" lon="21.50787333">
        <ele>178</ele>
        <time>2025-07-05T10:51:52Z</time>
      </trkpt>
      <trkpt lat="47.672095" lon="21.50774">
        <ele>177.1</ele>
        <time>2025-07-05T10:52:00Z</time>
      </trkpt>
      <trkpt lat="47.67207167" lon="21.50758667">
        <ele>174.3</ele>
        <time>2025-07-05T10:52:06Z</time>
      </trkpt>
      <trkpt lat="47.67202667" lon="21.50745833">
        <ele>170.6</ele>
        <time>2025-07-05T10:52:11Z</time>
      </trkpt>
      <trkpt lat="47.67199167" lon="21.507335">
        <ele>165.5</ele>
        <time>2025-07-05T10:52:16Z</time>
      </trkpt>
      <trkpt lat="47.67194833" lon="21.50721167">
        <ele>161.1</ele>
        <time>2025-07-05T10:52:21Z</time>
      </trkpt>
      <trkpt lat="47.67191667" lon="21.507085">
        <ele>157.4</ele>
        <time>2025-07-05T10:52:27Z</time>
      </trkpt>
      <trkpt lat="47.67188" lon="21.50695333">
        <ele>157</ele>
        <time>2025-07-05T10:52:33Z</time>
      </trkpt>
      <trkpt lat="47.671825" lon="21.50682333">
        <ele>155.3</ele>
        <time>2025-07-05T10:52:39Z</time>
      </trkpt>
      <trkpt lat="47.67180167" lon="21.50668">
        <ele>154.4</ele>
        <time>2025-07-05T10:52:48Z</time>
      </trkpt>
      <trkpt lat="47.671795" lon="21.50652667">
        <ele>154.9</ele>
        <time>2025-07-05T10:52:54Z</time>
      </trkpt>
      <trkpt lat="47.67182333" lon="21.50639333">
        <ele>155.9</ele>
        <time>2025-07-05T10:52:59Z</time>
      </trkpt>
      <trkpt lat="47.67185667" lon="21.50626333">
        <ele>155.4</ele>
        <time>2025-07-05T10:53:05Z</time>
      </trkpt>
      <trkpt lat="47.67191" lon="21.50614167">
        <ele>154.6</ele>
        <time>2025-07-05T10:53:10Z</time>
      </trkpt>
      <trkpt lat="47.67190833" lon="21.506005">
        <ele>154.9</ele>
        <time>2025-07-05T10:53:18Z</time>
      </trkpt>
      <trkpt lat="47.671885" lon="21.50586833">
        <ele>155.4</ele>
        <time>2025-07-05T10:53:24Z</time>
      </trkpt>
      <trkpt lat="47.67183833" lon="21.50573333">
        <ele>156.8</ele>
        <time>2025-07-05T10:53:30Z</time>
      </trkpt>
      <trkpt lat="47.67183167" lon="21.5056">
        <ele>157.3</ele>
        <time>2025-07-05T10:53:35Z</time>
      </trkpt>
      <trkpt lat="47.67182833" lon="21.50545833">
        <ele>157.8</ele>
        <time>2025-07-05T10:53:40Z</time>
      </trkpt>
      <trkpt lat="47.67184333" lon="21.50530833">
        <ele>157.5</ele>
        <time>2025-07-05T10:53:48Z</time>
      </trkpt>
      <trkpt lat="47.67184333" lon="21.50516167">
        <ele>158.6</ele>
        <time>2025-07-05T10:53:54Z</time>
      </trkpt>
      <trkpt lat="47.67185833" lon="21.504995">
        <ele>160.6</ele>
        <time>2025-07-05T10:53:59Z</time>
      </trkpt>
      <trkpt lat="47.67185833" lon="21.50484833">
        <ele>162.4</ele>
        <time>2025-07-05T10:54:04Z</time>
      </trkpt>
      <trkpt lat="47.67189333" lon="21.50471667">
        <ele>163.1</ele>
        <time>2025-07-05T10:54:13Z</time>
      </trkpt>
      <trkpt lat="47.67189833" lon="21.50456667">
        <ele>162.2</ele>
        <time>2025-07-05T10:54:23Z</time>
      </trkpt>
      <trkpt lat="47.671895" lon="21.50443167">
        <ele>161.4</ele>
        <time>2025-07-05T10:54:28Z</time>
      </trkpt>
      <trkpt lat="47.67189167" lon="21.50429667">
        <ele>160.6</ele>
        <time>2025-07-05T10:54:33Z</time>
      </trkpt>
      <trkpt lat="47.671885" lon="21.504155">
        <ele>159</ele>
        <time>2025-07-05T10:54:40Z</time>
      </trkpt>
      <trkpt lat="47.67189167" lon="21.504005">
        <ele>158.2</ele>
        <time>2025-07-05T10:54:46Z</time>
      </trkpt>
      <trkpt lat="47.67187833" lon="21.50385667">
        <ele>157.6</ele>
        <time>2025-07-05T10:54:51Z</time>
      </trkpt>
      <trkpt lat="47.67189667" lon="21.503715">
        <ele>156.6</ele>
        <time>2025-07-05T10:54:57Z</time>
      </trkpt>
      <trkpt lat="47.671915" lon="21.50355">
        <ele>157.6</ele>
        <time>2025-07-05T10:55:05Z</time>
      </trkpt>
      <trkpt lat="47.67192" lon="21.50340333">
        <ele>159.4</ele>
        <time>2025-07-05T10:55:12Z</time>
      </trkpt>
      <trkpt lat="47.67193833" lon="21.50326833">
        <ele>159.4</ele>
        <time>2025-07-05T10:55:25Z</time>
      </trkpt>
      <trkpt lat="47.67201167" lon="21.503185">
        <ele>158.9</ele>
        <time>2025-07-05T10:55:31Z</time>
      </trkpt>
      <trkpt lat="47.672095" lon="21.50310667">
        <ele>159.2</ele>
        <time>2025-07-05T10:55:38Z</time>
      </trkpt>
      <trkpt lat="47.67207833" lon="21.50297167">
        <ele>158.9</ele>
        <time>2025-07-05T10:55:48Z</time>
      </trkpt>
      <trkpt lat="47.67205" lon="21.50283333">
        <ele>156.1</ele>
        <time>2025-07-05T10:55:57Z</time>
      </trkpt>
      <trkpt lat="47.67204667" lon="21.50269">
        <ele>157.3</ele>
        <time>2025-07-05T10:56:03Z</time>
      </trkpt>
      <trkpt lat="47.67198" lon="21.50258333">
        <ele>160.8</ele>
        <time>2025-07-05T10:56:12Z</time>
      </trkpt>
      <trkpt lat="47.67191833" lon="21.50248333">
        <ele>161.1</ele>
        <time>2025-07-05T10:56:18Z</time>
      </trkpt>
      <trkpt lat="47.67186667" lon="21.50234667">
        <ele>161.6</ele>
        <time>2025-07-05T10:56:24Z</time>
      </trkpt>
      <trkpt lat="47.67183667" lon="21.50221">
        <ele>162.1</ele>
        <time>2025-07-05T10:56:30Z</time>
      </trkpt>
      <trkpt lat="47.67181167" lon="21.50205333">
        <ele>161.4</ele>
        <time>2025-07-05T10:56:36Z</time>
      </trkpt>
      <trkpt lat="47.67179667" lon="21.50191167">
        <ele>159.8</ele>
        <time>2025-07-05T10:56:41Z</time>
      </trkpt>
      <trkpt lat="47.67177" lon="21.50177167">
        <ele>158</ele>
        <time>2025-07-05T10:56:48Z</time>
      </trkpt>
      <trkpt lat="47.67173667" lon="21.50163667">
        <ele>157.8</ele>
        <time>2025-07-05T10:56:56Z</time>
      </trkpt>
      <trkpt lat="47.671685" lon="21.50152667">
        <ele>157.6</ele>
        <time>2025-07-05T10:57:02Z</time>
      </trkpt>
      <trkpt lat="47.67162333" lon="21.50141667">
        <ele>157.5</ele>
        <time>2025-07-05T10:57:08Z</time>
      </trkpt>
      <trkpt lat="47.67157667" lon="21.501285">
        <ele>158.8</ele>
        <time>2025-07-05T10:57:14Z</time>
      </trkpt>
      <trkpt lat="47.67155333" lon="21.501125">
        <ele>159.5</ele>
        <time>2025-07-05T10:57:19Z</time>
      </trkpt>
      <trkpt lat="47.67153833" lon="21.50097667">
        <ele>159.3</ele>
        <time>2025-07-05T10:57:25Z</time>
      </trkpt>
      <trkpt lat="47.67151667" lon="21.50083833">
        <ele>158.8</ele>
        <time>2025-07-05T10:57:32Z</time>
      </trkpt>
      <trkpt lat="47.67151833" lon="21.50070333">
        <ele>157.3</ele>
        <time>2025-07-05T10:57:39Z</time>
      </trkpt>
      <trkpt lat="47.67146167" lon="21.50056333">
        <ele>155.4</ele>
        <time>2025-07-05T10:57:47Z</time>
      </trkpt>
      <trkpt lat="47.67149667" lon="21.50043833">
        <ele>155.5</ele>
        <time>2025-07-05T10:57:54Z</time>
      </trkpt>
      <trkpt lat="47.671485" lon="21.50029667">
        <ele>155.9</ele>
        <time>2025-07-05T10:57:59Z</time>
      </trkpt>
      <trkpt lat="47.67142" lon="21.50019">
        <ele>156.7</ele>
        <time>2025-07-05T10:58:05Z</time>
      </trkpt>
      <trkpt lat="47.67138833" lon="21.50006333">
        <ele>157.2</ele>
        <time>2025-07-05T10:58:12Z</time>
      </trkpt>
    </trkseg>
  </trk>
</gpx>