<?xml version='1.0' encoding='UTF-8' standalone='yes' ?>
<gpx xmlns="http://www.topografix.com/GPX/1/1" xmlns:geotracker="http://ilyabogdanovich.com/gpx/extensions/geotracker" xmlns:xsi="http://www.w3.org/2001/XMLSchema-instance" xsi:schemaLocation="http://www.topografix.com/GPX/1/1 http://www.topografix.com/GPX/1/1/gpx.xsd" version="1.1" creator="Recorded in Geo Tracker for Android from Ilya Bogdanovich">
  <metadata>
    <name>w_0705_08</name>
    <author>
      <name>Recorded in Geo Tracker for Android from Ilya Bogdanovich</name>
      <link href="https://play.google.com/store/apps/details?id=com.ilyabogdanovich.geotracker" />
    </author>
    <link href="https://play.google.com/store/apps/details?id=com.ilyabogdanovich.geotracker" />
    <time>2025-07-05T21:26:43Z</time>
  </metadata>
  <trk>
    <name>w_0705_08</name>
    <src>Recorded in Geo Tracker for Android from Ilya Bogdanovich</src>
    <link href="https://play.google.com/store/apps/details?id=com.ilyabogdanovich.geotracker" />
    <extensions>
      <geotracker:meta>
        <geotracker:length>2672.46</geotracker:length>
        <geotracker:duration>1995945</geotracker:duration>
        <geotracker:creationtime>2025-07-05T21:26:43Z</geotracker:creationtime>
        <geotracker:activity>0</geotracker:activity>
      </geotracker:meta>
    </extensions>
    <trkseg>
      <trkpt lat="47.71422333" lon="20.95033333">
        <ele>126.8</ele>
        <time>2025-07-05T21:26:50Z</time>
      </trkpt>
      <trkpt lat="47.714275" lon="20.950485">
        <ele>132.9</ele>
        <time>2025-07-05T21:27:07Z</time>
      </trkpt>
      <trkpt lat="47.71433" lon="20.95059333">
        <ele>141.3</ele>
        <time>2025-07-05T21:27:20Z</time>
      </trkpt>
      <trkpt lat="47.71432333" lon="20.95073667">
        <ele>138.9</ele>
        <time>2025-07-05T21:27:31Z</time>
      </trkpt>
      <trkpt lat="47.71429667" lon="20.950875">
        <ele>135.6</ele>
        <time>2025-07-05T21:27:37Z</time>
      </trkpt>
      <trkpt lat="47.71425667" lon="20.95101333">
        <ele>135.5</ele>
        <time>2025-07-05T21:27:44Z</time>
      </trkpt>
      <trkpt lat="47.71419833" lon="20.95113167">
        <ele>133.2</ele>
        <time>2025-07-05T21:27:53Z</time>
      </trkpt>
      <trkpt lat="47.71414" lon="20.95124">
        <ele>130.2</ele>
        <time>2025-07-05T21:28:02Z</time>
      </trkpt>
      <trkpt lat="47.71406" lon="20.95131833">
        <ele>127.3</ele>
        <time>2025-07-05T21:28:12Z</time>
      </trkpt>
      <trkpt lat="47.71396" lon="20.95132">
        <ele>126.5</ele>
        <time>2025-07-05T21:28:19Z</time>
      </trkpt>
      <trkpt lat="47.71385667" lon="20.95130667">
        <ele>129</ele>
        <time>2025-07-05T21:28:25Z</time>
      </trkpt>
      <trkpt lat="47.71378" lon="20.95138333">
        <ele>132</ele>
        <time>2025-07-05T21:28:33Z</time>
      </trkpt>
      <trkpt lat="47.71371" lon="20.951475">
        <ele>134.1</ele>
        <time>2025-07-05T21:28:41Z</time>
      </trkpt>
      <trkpt lat="47.71364333" lon="20.95156833">
        <ele>127.7</ele>
        <time>2025-07-05T21:28:52Z</time>
      </trkpt>
      <trkpt lat="47.71356667" lon="20.95164833">
        <ele>126.1</ele>
        <time>2025-07-05T21:29:00Z</time>
      </trkpt>
      <trkpt lat="47.71348667" lon="20.95173333">
        <ele>125.4</ele>
        <time>2025-07-05T21:29:09Z</time>
      </trkpt>
      <trkpt lat="47.71342333" lon="20.95184833">
        <ele>126.1</ele>
        <time>2025-07-05T21:29:19Z</time>
      </trkpt>
      <trkpt lat="47.71337" lon="20.95197167">
        <ele>125.9</ele>
        <time>2025-07-05T21:29:27Z</time>
      </trkpt>
      <trkpt lat="47.71329833" lon="20.95207667">
        <ele>129.2</ele>
        <time>2025-07-05T21:29:33Z</time>
      </trkpt>
      <trkpt lat="47.71322667" lon="20.95217667">
        <ele>131.3</ele>
        <time>2025-07-05T21:29:40Z</time>
      </trkpt>
      <trkpt lat="47.71314833" lon="20.95227">
        <ele>133.5</ele>
        <time>2025-07-05T21:29:50Z</time>
      </trkpt>
      <trkpt lat="47.71305833" lon="20.95230667">
        <ele>135.6</ele>
        <time>2025-07-05T21:29:57Z</time>
      </trkpt>
      <trkpt lat="47.71298833" lon="20.95221">
        <ele>138.4</ele>
        <time>2025-07-05T21:30:06Z</time>
      </trkpt>
      <trkpt lat="47.71292333" lon="20.95209667">
        <ele>138.4</ele>
        <time>2025-07-05T21:30:16Z</time>
      </trkpt>
      <trkpt lat="47.712855" lon="20.95200333">
        <ele>137.6</ele>
        <time>2025-07-05T21:30:24Z</time>
      </trkpt>
      <trkpt lat="47.71279" lon="20.95191">
        <ele>137.3</ele>
        <time>2025-07-05T21:30:30Z</time>
      </trkpt>
      <trkpt lat="47.712715" lon="20.95182333">
        <ele>137.9</ele>
        <time>2025-07-05T21:30:38Z</time>
      </trkpt>
      <trkpt lat="47.71265" lon="20.95171833">
        <ele>137</ele>
        <time>2025-07-05T21:30:46Z</time>
      </trkpt>
      <trkpt lat="47.71257833" lon="20.951615">
        <ele>135.1</ele>
        <time>2025-07-05T21:30:54Z</time>
      </trkpt>
      <trkpt lat="47.71251667" lon="20.95150333">
        <ele>132.7</ele>
        <time>2025-07-05T21:31:05Z</time>
      </trkpt>
      <trkpt lat="47.71243" lon="20.95144833">
        <ele>131.9</ele>
        <time>2025-07-05T21:31:12Z</time>
      </trkpt>
      <trkpt lat="47.712345" lon="20.95137333">
        <ele>131.6</ele>
        <time>2025-07-05T21:31:19Z</time>
      </trkpt>
      <trkpt lat="47.71225833" lon="20.95130667">
        <ele>131.9</ele>
        <time>2025-07-05T21:31:25Z</time>
      </trkpt>
      <trkpt lat="47.71217167" lon="20.95124667">
        <ele>133.6</ele>
        <time>2025-07-05T21:31:32Z</time>
      </trkpt>
      <trkpt lat="47.71207667" lon="20.95118167">
        <ele>134.8</ele>
        <time>2025-07-05T21:31:40Z</time>
      </trkpt>
      <trkpt lat="47.71199" lon="20.95113">
        <ele>135.5</ele>
        <time>2025-07-05T21:31:48Z</time>
      </trkpt>
      <trkpt lat="47.71190667" lon="20.95105333">
        <ele>134.9</ele>
        <time>2025-07-05T21:31:56Z</time>
      </trkpt>
      <trkpt lat="47.71182167" lon="20.951005">
        <ele>134.7</ele>
        <time>2025-07-05T21:32:03Z</time>
      </trkpt>
      <trkpt lat="47.71173333" lon="20.950955">
        <ele>134.2</ele>
        <time>2025-07-05T21:32:10Z</time>
      </trkpt>
      <trkpt lat="47.711645" lon="20.95091667">
        <ele>133.7</ele>
        <time>2025-07-05T21:32:17Z</time>
      </trkpt>
      <trkpt lat="47.71155667" lon="20.950865">
        <ele>132.4</ele>
        <time>2025-07-05T21:32:24Z</time>
      </trkpt>
      <trkpt lat="47.71147667" lon="20.95079167">
        <ele>130.3</ele>
        <time>2025-07-05T21:32:32Z</time>
      </trkpt>
      <trkpt lat="47.71138667" lon="20.95074">
        <ele>129.6</ele>
        <time>2025-07-05T21:32:40Z</time>
      </trkpt>
      <trkpt lat="47.7113" lon="20.95069">
        <ele>129.2</ele>
        <time>2025-07-05T21:32:47Z</time>
      </trkpt>
      <trkpt lat="47.71121333" lon="20.95063667">
        <ele>128.5</ele>
        <time>2025-07-05T21:32:54Z</time>
      </trkpt>
      <trkpt lat="47.711115" lon="20.95058167">
        <ele>129.8</ele>
        <time>2025-07-05T21:33:02Z</time>
      </trkpt>
      <trkpt lat="47.71102833" lon="20.95051333">
        <ele>130.3</ele>
        <time>2025-07-05T21:33:10Z</time>
      </trkpt>
      <trkpt lat="47.71093833" lon="20.950485">
        <ele>130.7</ele>
        <time>2025-07-05T21:33:17Z</time>
      </trkpt>
      <trkpt lat="47.71085" lon="20.95042833">
        <ele>130.5</ele>
        <time>2025-07-05T21:33:24Z</time>
      </trkpt>
      <trkpt lat="47.71076167" lon="20.95039">
        <ele>132</ele>
        <time>2025-07-05T21:33:31Z</time>
      </trkpt>
      <trkpt lat="47.710675" lon="20.95033667">
        <ele>132.5</ele>
        <time>2025-07-05T21:33:38Z</time>
      </trkpt>
      <trkpt lat="47.710585" lon="20.95029167">
        <ele>132.3</ele>
        <time>2025-07-05T21:33:45Z</time>
      </trkpt>
      <trkpt lat="47.71049167" lon="20.95025">
        <ele>132.9</ele>
        <time>2025-07-05T21:33:52Z</time>
      </trkpt>
      <trkpt lat="47.710405" lon="20.95017667">
        <ele>134</ele>
        <time>2025-07-05T21:34:00Z</time>
      </trkpt>
      <trkpt lat="47.710305" lon="20.95013667">
        <ele>134.6</ele>
        <time>2025-07-05T21:34:08Z</time>
      </trkpt>
      <trkpt lat="47.71021167" lon="20.95008333">
        <ele>133.9</ele>
        <time>2025-07-05T21:34:16Z</time>
      </trkpt>
      <trkpt lat="47.71012333" lon="20.95004667">
        <ele>133.9</ele>
        <time>2025-07-05T21:34:25Z</time>
      </trkpt>
      <trkpt lat="47.710035" lon="20.95001833">
        <ele>135.4</ele>
        <time>2025-07-05T21:34:33Z</time>
      </trkpt>
      <trkpt lat="47.70994167" lon="20.94998">
        <ele>136</ele>
        <time>2025-07-05T21:34:40Z</time>
      </trkpt>
      <trkpt lat="47.70984833" lon="20.94993333">
        <ele>135.7</ele>
        <time>2025-07-05T21:34:47Z</time>
      </trkpt>
      <trkpt lat="47.70975" lon="20.949905">
        <ele>135.9</ele>
        <time>2025-07-05T21:34:55Z</time>
      </trkpt>
      <trkpt lat="47.70966" lon="20.94987333">
        <ele>135.8</ele>
        <time>2025-07-05T21:35:03Z</time>
      </trkpt>
      <trkpt lat="47.70956167" lon="20.94984667">
        <ele>135.2</ele>
        <time>2025-07-05T21:35:11Z</time>
      </trkpt>
      <trkpt lat="47.70947167" lon="20.94982333">
        <ele>135</ele>
        <time>2025-07-05T21:35:20Z</time>
      </trkpt>
      <trkpt lat="47.70938167" lon="20.94980167">
        <ele>134.7</ele>
        <time>2025-07-05T21:35:28Z</time>
      </trkpt>
      <trkpt lat="47.70929167" lon="20.949775">
        <ele>135.3</ele>
        <time>2025-07-05T21:35:36Z</time>
      </trkpt>
      <trkpt lat="47.709195" lon="20.94977833">
        <ele>135.4</ele>
        <time>2025-07-05T21:35:44Z</time>
      </trkpt>
      <trkpt lat="47.7091" lon="20.94979667">
        <ele>135.3</ele>
        <time>2025-07-05T21:35:52Z</time>
      </trkpt>
      <trkpt lat="47.70901" lon="20.94981">
        <ele>135.5</ele>
        <time>2025-07-05T21:36:00Z</time>
      </trkpt>
      <trkpt lat="47.70891667" lon="20.94982333">
        <ele>135.2</ele>
        <time>2025-07-05T21:36:07Z</time>
      </trkpt>
      <trkpt lat="47.70882667" lon="20.94983">
        <ele>134.7</ele>
        <time>2025-07-05T21:36:13Z</time>
      </trkpt>
      <trkpt lat="47.708735" lon="20.949845">
        <ele>135.4</ele>
        <time>2025-07-05T21:36:20Z</time>
      </trkpt>
      <trkpt lat="47.70864333" lon="20.94988333">
        <ele>136.3</ele>
        <time>2025-07-05T21:36:29Z</time>
      </trkpt>
      <trkpt lat="47.70855667" lon="20.94993167">
        <ele>136.5</ele>
        <time>2025-07-05T21:36:36Z</time>
      </trkpt>
      <trkpt lat="47.70846667" lon="20.94994">
        <ele>134.6</ele>
        <time>2025-07-05T21:36:43Z</time>
      </trkpt>
      <trkpt lat="47.70837667" lon="20.949945">
        <ele>133.4</ele>
        <time>2025-07-05T21:36:50Z</time>
      </trkpt>
      <trkpt lat="47.708285" lon="20.94999167">
        <ele>133.4</ele>
        <time>2025-07-05T21:37:51Z</time>
      </trkpt>
      <trkpt lat="47.70819333" lon="20.95001333">
        <ele>133.8</ele>
        <time>2025-07-05T21:37:59Z</time>
      </trkpt>
      <trkpt lat="47.70810833" lon="20.950065">
        <ele>135.7</ele>
        <time>2025-07-05T21:38:08Z</time>
      </trkpt>
      <trkpt lat="47.70801833" lon="20.950075">
        <ele>134.9</ele>
        <time>2025-07-05T21:38:19Z</time>
      </trkpt>
      <trkpt lat="47.70792667" lon="20.95009833">
        <ele>135.6</ele>
        <time>2025-07-05T21:38:26Z</time>
      </trkpt>
      <trkpt lat="47.70783833" lon="20.95012833">
        <ele>136.6</ele>
        <time>2025-07-05T21:38:31Z</time>
      </trkpt>
      <trkpt lat="47.70774667" lon="20.95014667">
        <ele>137.2</ele>
        <time>2025-07-05T21:38:38Z</time>
      </trkpt>
      <trkpt lat="47.70765" lon="20.95017667">
        <ele>136.9</ele>
        <time>2025-07-05T21:38:46Z</time>
      </trkpt>
      <trkpt lat="47.70756333" lon="20.95022167">
        <ele>137.3</ele>
        <time>2025-07-05T21:38:53Z</time>
      </trkpt>
      <trkpt lat="47.70747167" lon="20.95023667">
        <ele>137.4</ele>
        <time>2025-07-05T21:39:00Z</time>
      </trkpt>
      <trkpt lat="47.70738" lon="20.95027">
        <ele>138.4</ele>
        <time>2025-07-05T21:39:07Z</time>
      </trkpt>
      <trkpt lat="47.70729" lon="20.95029167">
        <ele>137.4</ele>
        <time>2025-07-05T21:39:14Z</time>
      </trkpt>
      <trkpt lat="47.70719667" lon="20.950325">
        <ele>136.5</ele>
        <time>2025-07-05T21:39:22Z</time>
      </trkpt>
      <trkpt lat="47.70709667" lon="20.95034">
        <ele>135.5</ele>
        <time>2025-07-05T21:39:30Z</time>
      </trkpt>
      <trkpt lat="47.70699833" lon="20.95038333">
        <ele>135.7</ele>
        <time>2025-07-05T21:39:37Z</time>
      </trkpt>
      <trkpt lat="47.70690667" lon="20.95040833">
        <ele>135.4</ele>
        <time>2025-07-05T21:39:45Z</time>
      </trkpt>
      <trkpt lat="47.70680667" lon="20.95044667">
        <ele>135.2</ele>
        <time>2025-07-05T21:39:53Z</time>
      </trkpt>
      <trkpt lat="47.70671167" lon="20.95049">
        <ele>135.4</ele>
        <time>2025-07-05T21:40:00Z</time>
      </trkpt>
      <trkpt lat="47.70662167" lon="20.95052833">
        <ele>135.4</ele>
        <time>2025-07-05T21:40:07Z</time>
      </trkpt>
      <trkpt lat="47.70653667" lon="20.950585">
        <ele>134.3</ele>
        <time>2025-07-05T21:40:14Z</time>
      </trkpt>
      <trkpt lat="47.70644667" lon="20.95063333">
        <ele>133.8</ele>
        <time>2025-07-05T21:40:22Z</time>
      </trkpt>
      <trkpt lat="47.70635167" lon="20.95066833">
        <ele>133.5</ele>
        <time>2025-07-05T21:40:30Z</time>
      </trkpt>
      <trkpt lat="47.706265" lon="20.950725">
        <ele>133.5</ele>
        <time>2025-07-05T21:40:37Z</time>
      </trkpt>
      <trkpt lat="47.70617833" lon="20.95077667">
        <ele>134.5</ele>
        <time>2025-07-05T21:40:44Z</time>
      </trkpt>
      <trkpt lat="47.70608333" lon="20.95083333">
        <ele>134.7</ele>
        <time>2025-07-05T21:40:51Z</time>
      </trkpt>
      <trkpt lat="47.70598833" lon="20.95088833">
        <ele>134.9</ele>
        <time>2025-07-05T21:40:59Z</time>
      </trkpt>
      <trkpt lat="47.705895" lon="20.95092833">
        <ele>134</ele>
        <time>2025-07-05T21:41:07Z</time>
      </trkpt>
      <trkpt lat="47.70579333" lon="20.95100333">
        <ele>134.4</ele>
        <time>2025-07-05T21:41:16Z</time>
      </trkpt>
      <trkpt lat="47.70570167" lon="20.951055">
        <ele>134.4</ele>
        <time>2025-07-05T21:41:23Z</time>
      </trkpt>
      <trkpt lat="47.70562167" lon="20.95112">
        <ele>135.2</ele>
        <time>2025-07-05T21:41:30Z</time>
      </trkpt>
      <trkpt lat="47.70552333" lon="20.951165">
        <ele>134.1</ele>
        <time>2025-07-05T21:41:37Z</time>
      </trkpt>
      <trkpt lat="47.70544167" lon="20.95122833">
        <ele>133.4</ele>
        <time>2025-07-05T21:41:44Z</time>
      </trkpt>
      <trkpt lat="47.70535667" lon="20.9513">
        <ele>133.9</ele>
        <time>2025-07-05T21:41:51Z</time>
      </trkpt>
      <trkpt lat="47.70526833" lon="20.95136167">
        <ele>134.4</ele>
        <time>2025-07-05T21:41:59Z</time>
      </trkpt>
      <trkpt lat="47.70517833" lon="20.951425">
        <ele>134.8</ele>
        <time>2025-07-05T21:42:06Z</time>
      </trkpt>
      <trkpt lat="47.70509333" lon="20.95148667">
        <ele>136.1</ele>
        <time>2025-07-05T21:42:13Z</time>
      </trkpt>
      <trkpt lat="47.70500833" lon="20.95154833">
        <ele>136.6</ele>
        <time>2025-07-05T21:42:21Z</time>
      </trkpt>
      <trkpt lat="47.70491667" lon="20.9516">
        <ele>135.4</ele>
        <time>2025-07-05T21:42:29Z</time>
      </trkpt>
      <trkpt lat="47.70482167" lon="20.95164167">
        <ele>134.6</ele>
        <time>2025-07-05T21:42:36Z</time>
      </trkpt>
      <trkpt lat="47.70472333" lon="20.951675">
        <ele>134.3</ele>
        <time>2025-07-05T21:42:44Z</time>
      </trkpt>
      <trkpt lat="47.70463333" lon="20.95169667">
        <ele>134.3</ele>
        <time>2025-07-05T21:42:51Z</time>
      </trkpt>
      <trkpt lat="47.70453667" lon="20.951705">
        <ele>134.9</ele>
        <time>2025-07-05T21:42:58Z</time>
      </trkpt>
      <trkpt lat="47.704445" lon="20.95171833">
        <ele>134.9</ele>
        <time>2025-07-05T21:43:05Z</time>
      </trkpt>
      <trkpt lat="47.70434667" lon="20.95173">
        <ele>135.7</ele>
        <time>2025-07-05T21:43:13Z</time>
      </trkpt>
      <trkpt lat="47.70425333" lon="20.95174">
        <ele>134.8</ele>
        <time>2025-07-05T21:43:20Z</time>
      </trkpt>
      <trkpt lat="47.704155" lon="20.95174333">
        <ele>135.3</ele>
        <time>2025-07-05T21:43:28Z</time>
      </trkpt>
      <trkpt lat="47.704065" lon="20.95173833">
        <ele>135.8</ele>
        <time>2025-07-05T21:43:35Z</time>
      </trkpt>
      <trkpt lat="47.70397167" lon="20.951725">
        <ele>138.5</ele>
        <time>2025-07-05T21:43:42Z</time>
      </trkpt>
      <trkpt lat="47.70387667" lon="20.95173167">
        <ele>137.8</ele>
        <time>2025-07-05T21:43:49Z</time>
      </trkpt>
      <trkpt lat="47.70378333" lon="20.95171667">
        <ele>137.2</ele>
        <time>2025-07-05T21:43:57Z</time>
      </trkpt>
      <trkpt lat="47.70368167" lon="20.95169">
        <ele>136</ele>
        <time>2025-07-05T21:44:05Z</time>
      </trkpt>
      <trkpt lat="47.70358333" lon="20.95165667">
        <ele>134.9</ele>
        <time>2025-07-05T21:44:13Z</time>
      </trkpt>
      <trkpt lat="47.70349333" lon="20.95162833">
        <ele>134.9</ele>
        <time>2025-07-05T21:44:20Z</time>
      </trkpt>
      <trkpt lat="47.70339333" lon="20.95159">
        <ele>134.8</ele>
        <time>2025-07-05T21:44:28Z</time>
      </trkpt>
      <trkpt lat="47.70329833" lon="20.95156167">
        <ele>134.7</ele>
        <time>2025-07-05T21:44:35Z</time>
      </trkpt>
      <trkpt lat="47.70321167" lon="20.95150833">
        <ele>134.6</ele>
        <time>2025-07-05T21:44:43Z</time>
      </trkpt>
      <trkpt lat="47.70311833" lon="20.95146">
        <ele>134.6</ele>
        <time>2025-07-05T21:44:50Z</time>
      </trkpt>
      <trkpt lat="47.70303167" lon="20.95141667">
        <ele>134.7</ele>
        <time>2025-07-05T21:44:56Z</time>
      </trkpt>
      <trkpt lat="47.70296" lon="20.95132333">
        <ele>135</ele>
        <time>2025-07-05T21:45:08Z</time>
      </trkpt>
      <trkpt lat="47.70287" lon="20.95126333">
        <ele>135.1</ele>
        <time>2025-07-05T21:45:15Z</time>
      </trkpt>
      <trkpt lat="47.70278667" lon="20.951195">
        <ele>135</ele>
        <time>2025-07-05T21:45:22Z</time>
      </trkpt>
      <trkpt lat="47.7027" lon="20.95111667">
        <ele>135.8</ele>
        <time>2025-07-05T21:45:30Z</time>
      </trkpt>
      <trkpt lat="47.70262" lon="20.95104833">
        <ele>136.1</ele>
        <time>2025-07-05T21:45:37Z</time>
      </trkpt>
      <trkpt lat="47.70253667" lon="20.95097167">
        <ele>136.2</ele>
        <time>2025-07-05T21:45:45Z</time>
      </trkpt>
      <trkpt lat="47.702455" lon="20.95089167">
        <ele>136</ele>
        <time>2025-07-05T21:45:53Z</time>
      </trkpt>
      <trkpt lat="47.702365" lon="20.95081667">
        <ele>134.1</ele>
        <time>2025-07-05T21:46:00Z</time>
      </trkpt>
      <trkpt lat="47.70229" lon="20.95074167">
        <ele>133.8</ele>
        <time>2025-07-05T21:46:06Z</time>
      </trkpt>
      <trkpt lat="47.70220167" lon="20.95067">
        <ele>135.3</ele>
        <time>2025-07-05T21:46:14Z</time>
      </trkpt>
      <trkpt lat="47.70212" lon="20.95059833">
        <ele>137.4</ele>
        <time>2025-07-05T21:46:21Z</time>
      </trkpt>
      <trkpt lat="47.702035" lon="20.95051167">
        <ele>135.9</ele>
        <time>2025-07-05T21:46:30Z</time>
      </trkpt>
      <trkpt lat="47.70194667" lon="20.95045333">
        <ele>134.9</ele>
        <time>2025-07-05T21:46:37Z</time>
      </trkpt>
      <trkpt lat="47.70186333" lon="20.95037167">
        <ele>134.4</ele>
        <time>2025-07-05T21:46:50Z</time>
      </trkpt>
      <trkpt lat="47.70178" lon="20.95028667">
        <ele>134.1</ele>
        <time>2025-07-05T21:46:59Z</time>
      </trkpt>
      <trkpt lat="47.70170167" lon="20.95021833">
        <ele>133.3</ele>
        <time>2025-07-05T21:47:06Z</time>
      </trkpt>
      <trkpt lat="47.70161833" lon="20.95015">
        <ele>133.2</ele>
        <time>2025-07-05T21:47:13Z</time>
      </trkpt>
      <trkpt lat="47.70152833" lon="20.95008167">
        <ele>133.5</ele>
        <time>2025-07-05T21:47:21Z</time>
      </trkpt>
      <trkpt lat="47.70144167" lon="20.94998833">
        <ele>134</ele>
        <time>2025-07-05T21:47:28Z</time>
      </trkpt>
      <trkpt lat="47.70136" lon="20.94991667">
        <ele>133.2</ele>
        <time>2025-07-05T21:47:34Z</time>
      </trkpt>
      <trkpt lat="47.70128" lon="20.94984">
        <ele>132.9</ele>
        <time>2025-07-05T21:47:42Z</time>
      </trkpt>
      <trkpt lat="47.70120167" lon="20.94977333">
        <ele>134</ele>
        <time>2025-07-05T21:47:49Z</time>
      </trkpt>
      <trkpt lat="47.70113167" lon="20.94968333">
        <ele>133.9</ele>
        <time>2025-07-05T21:47:56Z</time>
      </trkpt>
      <trkpt lat="47.701055" lon="20.94960667">
        <ele>132</ele>
        <time>2025-07-05T21:48:05Z</time>
      </trkpt>
      <trkpt lat="47.70096333" lon="20.94954167">
        <ele>132.5</ele>
        <time>2025-07-05T21:48:12Z</time>
      </trkpt>
      <trkpt lat="47.70088333" lon="20.94946333">
        <ele>132.5</ele>
        <time>2025-07-05T21:48:19Z</time>
      </trkpt>
      <trkpt lat="47.70081" lon="20.94937167">
        <ele>132.2</ele>
        <time>2025-07-05T21:48:27Z</time>
      </trkpt>
      <trkpt lat="47.700735" lon="20.94929">
        <ele>131.7</ele>
        <time>2025-07-05T21:48:34Z</time>
      </trkpt>
      <trkpt lat="47.70065167" lon="20.94921667">
        <ele>130.9</ele>
        <time>2025-07-05T21:48:41Z</time>
      </trkpt>
      <trkpt lat="47.70057" lon="20.94914833">
        <ele>130.3</ele>
        <time>2025-07-05T21:48:48Z</time>
      </trkpt>
      <trkpt lat="47.70049" lon="20.94908333">
        <ele>130.7</ele>
        <time>2025-07-05T21:48:55Z</time>
      </trkpt>
      <trkpt lat="47.70041833" lon="20.94898833">
        <ele>128.7</ele>
        <time>2025-07-05T21:49:03Z</time>
      </trkpt>
      <trkpt lat="47.70033667" lon="20.94893">
        <ele>129.1</ele>
        <time>2025-07-05T21:49:10Z</time>
      </trkpt>
      <trkpt lat="47.70026167" lon="20.94884833">
        <ele>130.4</ele>
        <time>2025-07-05T21:49:17Z</time>
      </trkpt>
      <trkpt lat="47.70017333" lon="20.94879">
        <ele>131.4</ele>
        <time>2025-07-05T21:49:24Z</time>
      </trkpt>
      <trkpt lat="47.700095" lon="20.94870167">
        <ele>131.5</ele>
        <time>2025-07-05T21:49:32Z</time>
      </trkpt>
      <trkpt lat="47.70000167" lon="20.94863833">
        <ele>132</ele>
        <time>2025-07-05T21:49:40Z</time>
      </trkpt>
      <trkpt lat="47.69992667" lon="20.94856167">
        <ele>132</ele>
        <time>2025-07-05T21:49:47Z</time>
      </trkpt>
      <trkpt lat="47.69984667" lon="20.94848167">
        <ele>132.2</ele>
        <time>2025-07-05T21:49:54Z</time>
      </trkpt>
      <trkpt lat="47.69976333" lon="20.94842333">
        <ele>131.6</ele>
        <time>2025-07-05T21:50:01Z</time>
      </trkpt>
      <trkpt lat="47.69968167" lon="20.94834">
        <ele>132.5</ele>
        <time>2025-07-05T21:50:08Z</time>
      </trkpt>
      <trkpt lat="47.6996" lon="20.94827167">
        <ele>132.2</ele>
        <time>2025-07-05T21:50:15Z</time>
      </trkpt>
      <trkpt lat="47.69951667" lon="20.94819833">
        <ele>132.1</ele>
        <time>2025-07-05T21:50:22Z</time>
      </trkpt>
      <trkpt lat="47.69943167" lon="20.94813667">
        <ele>133.3</ele>
        <time>2025-07-05T21:50:30Z</time>
      </trkpt>
      <trkpt lat="47.699355" lon="20.94806">
        <ele>132.7</ele>
        <time>2025-07-05T21:50:37Z</time>
      </trkpt>
      <trkpt lat="47.69927167" lon="20.94798333">
        <ele>133.4</ele>
        <time>2025-07-05T21:50:45Z</time>
      </trkpt>
      <trkpt lat="47.699195" lon="20.947905">
        <ele>134.2</ele>
        <time>2025-07-05T21:50:52Z</time>
      </trkpt>
      <trkpt lat="47.69911167" lon="20.94784333">
        <ele>134.7</ele>
        <time>2025-07-05T21:50:58Z</time>
      </trkpt>
      <trkpt lat="47.69903167" lon="20.94776667">
        <ele>135.4</ele>
        <time>2025-07-05T21:51:06Z</time>
      </trkpt>
      <trkpt lat="47.69895167" lon="20.9477">
        <ele>137</ele>
        <time>2025-07-05T21:51:14Z</time>
      </trkpt>
      <trkpt lat="47.69887167" lon="20.94763167">
        <ele>137.1</ele>
        <time>2025-07-05T21:51:21Z</time>
      </trkpt>
      <trkpt lat="47.69879167" lon="20.94756667">
        <ele>135.6</ele>
        <time>2025-07-05T21:51:28Z</time>
      </trkpt>
      <trkpt lat="47.69872" lon="20.94748333">
        <ele>134.7</ele>
        <time>2025-07-05T21:51:36Z</time>
      </trkpt>
      <trkpt lat="47.69864" lon="20.947405">
        <ele>134.8</ele>
        <time>2025-07-05T21:51:44Z</time>
      </trkpt>
      <trkpt lat="47.69856167" lon="20.94732333">
        <ele>134.2</ele>
        <time>2025-07-05T21:51:51Z</time>
      </trkpt>
      <trkpt lat="47.69848167" lon="20.94725">
        <ele>134.4</ele>
        <time>2025-07-05T21:51:58Z</time>
      </trkpt>
      <trkpt lat="47.698405" lon="20.94718">
        <ele>134.7</ele>
        <time>2025-07-05T21:52:06Z</time>
      </trkpt>
      <trkpt lat="47.69831667" lon="20.94709833">
        <ele>134.7</ele>
        <time>2025-07-05T21:52:13Z</time>
      </trkpt>
      <trkpt lat="47.69822333" lon="20.94703167">
        <ele>135.9</ele>
        <time>2025-07-05T21:52:20Z</time>
      </trkpt>
      <trkpt lat="47.69813833" lon="20.94695667">
        <ele>137.3</ele>
        <time>2025-07-05T21:52:27Z</time>
      </trkpt>
      <trkpt lat="47.69806333" lon="20.94687333">
        <ele>137</ele>
        <time>2025-07-05T21:52:35Z</time>
      </trkpt>
      <trkpt lat="47.69798833" lon="20.94679667">
        <ele>136.7</ele>
        <time>2025-07-05T21:52:42Z</time>
      </trkpt>
      <trkpt lat="47.697905" lon="20.94671667">
        <ele>135.4</ele>
        <time>2025-07-05T21:52:51Z</time>
      </trkpt>
      <trkpt lat="47.697825" lon="20.94665167">
        <ele>134.9</ele>
        <time>2025-07-05T21:52:58Z</time>
      </trkpt>
      <trkpt lat="47.69774333" lon="20.94658">
        <ele>135.7</ele>
        <time>2025-07-05T21:53:05Z</time>
      </trkpt>
      <trkpt lat="47.69766333" lon="20.9465">
        <ele>137.1</ele>
        <time>2025-07-05T21:53:13Z</time>
      </trkpt>
      <trkpt lat="47.69757" lon="20.94642333">
        <ele>137.2</ele>
        <time>2025-07-05T21:53:21Z</time>
      </trkpt>
      <trkpt lat="47.69748" lon="20.94635667">
        <ele>136.2</ele>
        <time>2025-07-05T21:53:28Z</time>
      </trkpt>
      <trkpt lat="47.697395" lon="20.94627167">
        <ele>134.2</ele>
        <time>2025-07-05T21:53:36Z</time>
      </trkpt>
      <trkpt lat="47.69731" lon="20.94619167">
        <ele>133.1</ele>
        <time>2025-07-05T21:53:44Z</time>
      </trkpt>
      <trkpt lat="47.69719167" lon="20.94613167">
        <ele>168.5</ele>
        <time>2025-07-05T21:53:51Z</time>
      </trkpt>
      <trkpt lat="47.69713833" lon="20.946265">
        <ele>225</ele>
        <time>2025-07-05T21:53:58Z</time>
      </trkpt>
      <trkpt lat="47.69705333" lon="20.946145">
        <ele>252.3</ele>
        <time>2025-07-05T21:54:04Z</time>
      </trkpt>
      <trkpt lat="47.69699833" lon="20.94602167">
        <ele>201.2</ele>
        <time>2025-07-05T21:54:15Z</time>
      </trkpt>
      <trkpt lat="47.69694833" lon="20.94591">
        <ele>165</ele>
        <time>2025-07-05T21:54:21Z</time>
      </trkpt>
      <trkpt lat="47.69689" lon="20.945785">
        <ele>136.1</ele>
        <time>2025-07-05T21:54:31Z</time>
      </trkpt>
      <trkpt lat="47.696805" lon="20.94570167">
        <ele>135.3</ele>
        <time>2025-07-05T21:54:39Z</time>
      </trkpt>
      <trkpt lat="47.69672" lon="20.94562333">
        <ele>133.9</ele>
        <time>2025-07-05T21:54:57Z</time>
      </trkpt>
      <trkpt lat="47.69663833" lon="20.94554167">
        <ele>136</ele>
        <time>2025-07-05T21:55:05Z</time>
      </trkpt>
      <trkpt lat="47.69655167" lon="20.945455">
        <ele>135.1</ele>
        <time>2025-07-05T21:55:13Z</time>
      </trkpt>
      <trkpt lat="47.69646833" lon="20.94537667">
        <ele>136.1</ele>
        <time>2025-07-05T21:55:21Z</time>
      </trkpt>
      <trkpt lat="47.69638667" lon="20.945295">
        <ele>137.4</ele>
        <time>2025-07-05T21:55:28Z</time>
      </trkpt>
      <trkpt lat="47.696315" lon="20.94519833">
        <ele>134.3</ele>
        <time>2025-07-05T21:55:37Z</time>
      </trkpt>
      <trkpt lat="47.69623167" lon="20.94509667">
        <ele>134.7</ele>
        <time>2025-07-05T21:55:42Z</time>
      </trkpt>
      <trkpt lat="47.69614167" lon="20.94500667">
        <ele>135.3</ele>
        <time>2025-07-05T21:55:52Z</time>
      </trkpt>
      <trkpt lat="47.69606333" lon="20.944925">
        <ele>134.9</ele>
        <time>2025-07-05T21:56:00Z</time>
      </trkpt>
      <trkpt lat="47.69599333" lon="20.94482833">
        <ele>134.6</ele>
        <time>2025-07-05T21:56:10Z</time>
      </trkpt>
      <trkpt lat="47.69591833" lon="20.94475">
        <ele>134.6</ele>
        <time>2025-07-05T21:56:32Z</time>
      </trkpt>
      <trkpt lat="47.69585" lon="20.94464833">
        <ele>136.2</ele>
        <time>2025-07-05T21:56:39Z</time>
      </trkpt>
      <trkpt lat="47.69576833" lon="20.944545">
        <ele>133.9</ele>
        <time>2025-07-05T21:56:48Z</time>
      </trkpt>
      <trkpt lat="47.695695" lon="20.944465">
        <ele>134.7</ele>
        <time>2025-07-05T21:56:54Z</time>
      </trkpt>
      <trkpt lat="47.69562167" lon="20.94436">
        <ele>132.9</ele>
        <time>2025-07-05T21:57:02Z</time>
      </trkpt>
      <trkpt lat="47.69555667" lon="20.94425">
        <ele>134.9</ele>
        <time>2025-07-05T21:57:08Z</time>
      </trkpt>
      <trkpt lat="47.69547833" lon="20.944175">
        <ele>135.6</ele>
        <time>2025-07-05T21:57:17Z</time>
      </trkpt>
      <trkpt lat="47.6954" lon="20.944075">
        <ele>135.8</ele>
        <time>2025-07-05T21:57:25Z</time>
      </trkpt>
      <trkpt lat="47.69532333" lon="20.94396667">
        <ele>136.7</ele>
        <time>2025-07-05T21:57:33Z</time>
      </trkpt>
      <trkpt lat="47.69525333" lon="20.94387">
        <ele>136.5</ele>
        <time>2025-07-05T21:57:41Z</time>
      </trkpt>
      <trkpt lat="47.695185" lon="20.94375167">
        <ele>136.2</ele>
        <time>2025-07-05T21:57:49Z</time>
      </trkpt>
      <trkpt lat="47.69511667" lon="20.94366333">
        <ele>135.9</ele>
        <time>2025-07-05T21:57:56Z</time>
      </trkpt>
      <trkpt lat="47.69504833" lon="20.94355667">
        <ele>136.3</ele>
        <time>2025-07-05T21:58:05Z</time>
      </trkpt>
      <trkpt lat="47.69498167" lon="20.94346667">
        <ele>135.7</ele>
        <time>2025-07-05T21:58:12Z</time>
      </trkpt>
      <trkpt lat="47.69490833" lon="20.94337167">
        <ele>135.8</ele>
        <time>2025-07-05T21:58:21Z</time>
      </trkpt>
      <trkpt lat="47.69484167" lon="20.94325667">
        <ele>135.5</ele>
        <time>2025-07-05T21:58:29Z</time>
      </trkpt>
      <trkpt lat="47.69477333" lon="20.94315833">
        <ele>136.4</ele>
        <time>2025-07-05T21:58:36Z</time>
      </trkpt>
      <trkpt lat="47.69471667" lon="20.943045">
        <ele>136.1</ele>
        <time>2025-07-05T21:58:45Z</time>
      </trkpt>
      <trkpt lat="47.69463667" lon="20.94295">
        <ele>137</ele>
        <time>2025-07-05T21:58:50Z</time>
      </trkpt>
      <trkpt lat="47.69456667" lon="20.94285">
        <ele>135.6</ele>
        <time>2025-07-05T21:58:58Z</time>
      </trkpt>
      <trkpt lat="47.6945" lon="20.94272833">
        <ele>136.9</ele>
        <time>2025-07-05T21:59:04Z</time>
      </trkpt>
      <trkpt lat="47.694445" lon="20.94261333">
        <ele>136.6</ele>
        <time>2025-07-05T21:59:12Z</time>
      </trkpt>
      <trkpt lat="47.69437167" lon="20.942495">
        <ele>134.2</ele>
        <time>2025-07-05T21:59:21Z</time>
      </trkpt>
      <trkpt lat="47.694305" lon="20.94239167">
        <ele>135.8</ele>
        <time>2025-07-05T21:59:27Z</time>
      </trkpt>
      <trkpt lat="47.69424" lon="20.942255">
        <ele>135.8</ele>
        <time>2025-07-05T21:59:37Z</time>
      </trkpt>
      <trkpt lat="47.69416833" lon="20.94216167">
        <ele>137.5</ele>
        <time>2025-07-05T21:59:42Z</time>
      </trkpt>
      <trkpt lat="47.69411" lon="20.94205167">
        <ele>137.2</ele>
        <time>2025-07-05T21:59:50Z</time>
      </trkpt>
      <trkpt lat="47.69404833" lon="20.94195">
        <ele>135.2</ele>
        <time>2025-07-05T22:00:00Z</time>
      </trkpt>
    </trkseg>
  </trk>
</gpx>