<?xml version='1.0' encoding='UTF-8' standalone='yes' ?>
<gpx xmlns="http://www.topografix.com/GPX/1/1" xmlns:geotracker="http://ilyabogdanovich.com/gpx/extensions/geotracker" xmlns:xsi="http://www.w3.org/2001/XMLSchema-instance" xsi:schemaLocation="http://www.topografix.com/GPX/1/1 http://www.topografix.com/GPX/1/1/gpx.xsd" version="1.1" creator="Recorded in Geo Tracker for Android from Ilya Bogdanovich">
  <metadata>
    <name>w_0720_08</name>
    <author>
      <name>Recorded in Geo Tracker for Android from Ilya Bogdanovich</name>
      <link href="https://play.google.com/store/apps/details?id=com.ilyabogdanovich.geotracker" />
    </author>
    <link href="https://play.google.com/store/apps/details?id=com.ilyabogdanovich.geotracker" />
    <time>2025-07-20T12:12:07Z</time>
  </metadata>
  <trk>
    <name>w_0720_08</name>
    <src>Recorded in Geo Tracker for Android from Ilya Bogdanovich</src>
    <link href="https://play.google.com/store/apps/details?id=com.ilyabogdanovich.geotracker" />
    <extensions>
      <geotracker:meta>
        <geotracker:length>334.32</geotracker:length>
        <geotracker:duration>391406</geotracker:duration>
        <geotracker:creationtime>2025-07-20T12:12:07Z</geotracker:creationtime>
        <geotracker:activity>0</geotracker:activity>
      </geotracker:meta>
    </extensions>
    <trkseg>
      <trkpt lat="46.29646333" lon="18.526925">
        <ele>165.1</ele>
        <time>2025-07-20T12:12:13Z</time>
      </trkpt>
      <trkpt lat="46.29637667" lon="18.52688167">
        <ele>162.3</ele>
        <time>2025-07-20T12:12:24Z</time>
      </trkpt>
      <trkpt lat="46.29628833" lon="18.52691667">
        <ele>164.5</ele>
        <time>2025-07-20T12:12:29Z</time>
      </trkpt>
      <trkpt lat="46.29618833" lon="18.52691833">
        <ele>167.4</ele>
        <time>2025-07-20T12:12:36Z</time>
      </trkpt>
      <trkpt lat="46.29610833" lon="18.52683833">
        <ele>171.2</ele>
        <time>2025-07-20T12:12:42Z</time>
      </trkpt>
      <trkpt lat="46.29601667" lon="18.52684667">
        <ele>172.5</ele>
        <time>2025-07-20T12:12:49Z</time>
      </trkpt>
      <trkpt lat="46.29592667" lon="18.52681833">
        <ele>172.7</ele>
        <time>2025-07-20T12:12:57Z</time>
      </trkpt>
      <trkpt lat="46.29582833" lon="18.526745">
        <ele>176.1</ele>
        <time>2025-07-20T12:13:03Z</time>
      </trkpt>
      <trkpt lat="46.29573667" lon="18.52669667">
        <ele>179.7</ele>
        <time>2025-07-20T12:13:09Z</time>
      </trkpt>
      <trkpt lat="46.29564333" lon="18.526685">
        <ele>181.1</ele>
        <time>2025-07-20T12:13:19Z</time>
      </trkpt>
      <trkpt lat="46.29554833" lon="18.52666833">
        <ele>184.7</ele>
        <time>2025-07-20T12:13:43Z</time>
      </trkpt>
      <trkpt lat="46.29545667" lon="18.52668333">
        <ele>187.5</ele>
        <time>2025-07-20T12:13:51Z</time>
      </trkpt>
      <trkpt lat="46.29536" lon="18.52668333">
        <ele>187.4</ele>
        <time>2025-07-20T12:13:59Z</time>
      </trkpt>
      <trkpt lat="46.295265" lon="18.52673667">
        <ele>183</ele>
        <time>2025-07-20T12:14:09Z</time>
      </trkpt>
      <trkpt lat="46.295175" lon="18.52675167">
        <ele>166.9</ele>
        <time>2025-07-20T12:14:26Z</time>
      </trkpt>
      <trkpt lat="46.29513833" lon="18.526885">
        <ele>165.4</ele>
        <time>2025-07-20T12:14:39Z</time>
      </trkpt>
      <trkpt lat="46.295125" lon="18.52702">
        <ele>168.3</ele>
        <time>2025-07-20T12:14:48Z</time>
      </trkpt>
      <trkpt lat="46.29508833" lon="18.52714833">
        <ele>170.3</ele>
        <time>2025-07-20T12:14:56Z</time>
      </trkpt>
      <trkpt lat="46.29501167" lon="18.52723">
        <ele>172.8</ele>
        <time>2025-07-20T12:15:04Z</time>
      </trkpt>
      <trkpt lat="46.29494833" lon="18.52733">
        <ele>174.5</ele>
        <time>2025-07-20T12:15:14Z</time>
      </trkpt>
      <trkpt lat="46.29486833" lon="18.527395">
        <ele>174.7</ele>
        <time>2025-07-20T12:15:27Z</time>
      </trkpt>
      <trkpt lat="46.29487333" lon="18.52724333">
        <ele>183</ele>
        <time>2025-07-20T12:16:03Z</time>
      </trkpt>
      <trkpt lat="46.29498833" lon="18.52731667">
        <ele>186.4</ele>
        <time>2025-07-20T12:16:28Z</time>
      </trkpt>
      <trkpt lat="46.29504833" lon="18.52721">
        <ele>180</ele>
        <time>2025-07-20T12:16:50Z</time>
      </trkpt>
      <trkpt lat="46.29513667" lon="18.52714167">
        <ele>178.7</ele>
        <time>2025-07-20T12:17:01Z</time>
      </trkpt>
      <trkpt lat="46.29519833" lon="18.52704333">
        <ele>177.7</ele>
        <time>2025-07-20T12:17:20Z</time>
      </trkpt>
      <trkpt lat="46.29522" lon="18.5269">
        <ele>176.7</ele>
        <time>2025-07-20T12:17:31Z</time>
      </trkpt>
      <trkpt lat="46.295235" lon="18.52676833">
        <ele>176.6</ele>
        <time>2025-07-20T12:17:43Z</time>
      </trkpt>
      <trkpt lat="46.29532833" lon="18.52674">
        <ele>176.2</ele>
        <time>2025-07-20T12:17:58Z</time>
      </trkpt>
      <trkpt lat="46.29542333" lon="18.52677167">
        <ele>181.3</ele>
        <time>2025-07-20T12:18:10Z</time>
      </trkpt>
      <trkpt lat="46.29552" lon="18.52678667">
        <ele>182.9</ele>
        <time>2025-07-20T12:18:21Z</time>
      </trkpt>
      <trkpt lat="46.29561" lon="18.52679167">
        <ele>184</ele>
        <time>2025-07-20T12:18:30Z</time>
      </trkpt>
    </trkseg>
  </trk>
</gpx>