<?xml version='1.0' encoding='UTF-8' standalone='yes' ?>
<gpx xmlns="http://www.topografix.com/GPX/1/1" xmlns:geotracker="http://ilyabogdanovich.com/gpx/extensions/geotracker" xmlns:xsi="http://www.w3.org/2001/XMLSchema-instance" xsi:schemaLocation="http://www.topografix.com/GPX/1/1 http://www.topografix.com/GPX/1/1/gpx.xsd" version="1.1" creator="Recorded in Geo Tracker for Android from Ilya Bogdanovich">
  <metadata>
    <name>w_0718_03</name>
    <author>
      <name>Recorded in Geo Tracker for Android from Ilya Bogdanovich</name>
      <link href="https://play.google.com/store/apps/details?id=com.ilyabogdanovich.geotracker" />
    </author>
    <link href="https://play.google.com/store/apps/details?id=com.ilyabogdanovich.geotracker" />
    <time>2025-07-18T11:58:41Z</time>
  </metadata>
  <wpt lat="46.34868833" lon="18.71095">
    <ele>133.4</ele>
    <time>2025-07-18T12:05:44Z</time>
    <name>Stop for ~2 min</name>
    <desc>Elevation: 133 m
Time from start: 00:07:02
Distance from start: 308 m</desc>
    <extensions>
      <geotracker:meta visited="1" />
    </extensions>
  </wpt>
  <wpt lat="46.34839" lon="18.70690833">
    <ele>136.7</ele>
    <time>2025-07-18T12:10:52Z</time>
    <name>Stop for ~2 min</name>
    <desc>Elevation: 137 m
Time from start: 00:12:10
Distance from start: 0,66 km</desc>
    <extensions>
      <geotracker:meta visited="1" />
    </extensions>
  </wpt>
  <wpt lat="46.34839" lon="18.70690833">
    <ele>136.7</ele>
    <time>2025-07-18T12:10:52Z</time>
    <name>Stop for ~2 min</name>
    <desc>Elevation: 137 m
Time from start: 00:12:10
Distance from start: 0,66 km</desc>
    <extensions>
      <geotracker:meta visited="1" />
    </extensions>
  </wpt>
  <wpt lat="46.348835" lon="18.70107333">
    <ele>140.4</ele>
    <time>2025-07-18T12:36:19Z</time>
    <name>Stop for ~5 min</name>
    <desc>Elevation: 140 m
Time from start: 00:37:37
Distance from start: 1,7 km</desc>
    <extensions>
      <geotracker:meta visited="1" />
    </extensions>
  </wpt>
  <wpt lat="46.35119833" lon="18.69852333">
    <ele>145.4</ele>
    <time>2025-07-18T13:30:55Z</time>
    <name>Stop for ~13 min</name>
    <desc>Elevation: 145 m
Time from start: 01:32:13
Distance from start: 2,35 km</desc>
    <extensions>
      <geotracker:meta visited="1" />
    </extensions>
  </wpt>
  <wpt lat="46.35133667" lon="18.69869833">
    <ele>168.4</ele>
    <time>2025-07-18T13:04:22Z</time>
    <name>Stop for ~8 min</name>
    <desc>Elevation: 168 m
Time from start: 01:05:40
Distance from start: 2,24 km</desc>
    <extensions>
      <geotracker:meta visited="1" />
    </extensions>
  </wpt>
  <trk>
    <name>w_0718_03</name>
    <src>Recorded in Geo Tracker for Android from Ilya Bogdanovich</src>
    <link href="https://play.google.com/store/apps/details?id=com.ilyabogdanovich.geotracker" />
    <extensions>
      <geotracker:meta>
        <geotracker:length>5078.8</geotracker:length>
        <geotracker:duration>9546954</geotracker:duration>
        <geotracker:creationtime>2025-07-18T11:58:41Z</geotracker:creationtime>
        <geotracker:activity>0</geotracker:activity>
      </geotracker:meta>
    </extensions>
    <trkseg>
      <trkpt lat="46.34967833" lon="18.71288667">
        <ele>162.3</ele>
        <time>2025-07-18T11:58:47Z</time>
      </trkpt>
      <trkpt lat="46.34962333" lon="18.71276333">
        <ele>158.1</ele>
        <time>2025-07-18T11:59:07Z</time>
      </trkpt>
      <trkpt lat="46.34952667" lon="18.712735">
        <ele>147.6</ele>
        <time>2025-07-18T11:59:21Z</time>
      </trkpt>
      <trkpt lat="46.34943833" lon="18.71270167">
        <ele>141.9</ele>
        <time>2025-07-18T11:59:28Z</time>
      </trkpt>
      <trkpt lat="46.34951" lon="18.71261833">
        <ele>134.5</ele>
        <time>2025-07-18T11:59:47Z</time>
      </trkpt>
      <trkpt lat="46.34957167" lon="18.71272167">
        <ele>133.1</ele>
        <time>2025-07-18T12:00:01Z</time>
      </trkpt>
      <trkpt lat="46.34966333" lon="18.71272333">
        <ele>133.6</ele>
        <time>2025-07-18T12:00:13Z</time>
      </trkpt>
      <trkpt lat="46.34971167" lon="18.71260833">
        <ele>132.1</ele>
        <time>2025-07-18T12:00:19Z</time>
      </trkpt>
      <trkpt lat="46.34975" lon="18.71247833">
        <ele>131.4</ele>
        <time>2025-07-18T12:00:25Z</time>
      </trkpt>
      <trkpt lat="46.34972667" lon="18.71234667">
        <ele>132</ele>
        <time>2025-07-18T12:00:31Z</time>
      </trkpt>
      <trkpt lat="46.34966333" lon="18.71224667">
        <ele>134.2</ele>
        <time>2025-07-18T12:00:40Z</time>
      </trkpt>
      <trkpt lat="46.34956667" lon="18.71222667">
        <ele>137.6</ele>
        <time>2025-07-18T12:00:49Z</time>
      </trkpt>
      <trkpt lat="46.34947667" lon="18.71220833">
        <ele>139.1</ele>
        <time>2025-07-18T12:00:59Z</time>
      </trkpt>
      <trkpt lat="46.3494" lon="18.7123">
        <ele>137.1</ele>
        <time>2025-07-18T12:01:08Z</time>
      </trkpt>
      <trkpt lat="46.34931667" lon="18.71236333">
        <ele>136.5</ele>
        <time>2025-07-18T12:01:19Z</time>
      </trkpt>
      <trkpt lat="46.34922333" lon="18.71234333">
        <ele>133.9</ele>
        <time>2025-07-18T12:01:31Z</time>
      </trkpt>
      <trkpt lat="46.34912833" lon="18.71235333">
        <ele>133.4</ele>
        <time>2025-07-18T12:01:41Z</time>
      </trkpt>
      <trkpt lat="46.34903667" lon="18.71232667">
        <ele>134.5</ele>
        <time>2025-07-18T12:01:52Z</time>
      </trkpt>
      <trkpt lat="46.34895" lon="18.71229167">
        <ele>132.9</ele>
        <time>2025-07-18T12:02:00Z</time>
      </trkpt>
      <trkpt lat="46.34885333" lon="18.712285">
        <ele>130.2</ele>
        <time>2025-07-18T12:02:08Z</time>
      </trkpt>
      <trkpt lat="46.34879167" lon="18.71218">
        <ele>130.1</ele>
        <time>2025-07-18T12:02:18Z</time>
      </trkpt>
      <trkpt lat="46.34877667" lon="18.712045">
        <ele>131.1</ele>
        <time>2025-07-18T12:02:26Z</time>
      </trkpt>
      <trkpt lat="46.34875833" lon="18.71190833">
        <ele>132</ele>
        <time>2025-07-18T12:02:36Z</time>
      </trkpt>
      <trkpt lat="46.348745" lon="18.711765">
        <ele>130.9</ele>
        <time>2025-07-18T12:02:46Z</time>
      </trkpt>
      <trkpt lat="46.34873667" lon="18.71162167">
        <ele>130.7</ele>
        <time>2025-07-18T12:02:56Z</time>
      </trkpt>
      <trkpt lat="46.348735" lon="18.71148833">
        <ele>130.4</ele>
        <time>2025-07-18T12:03:04Z</time>
      </trkpt>
      <trkpt lat="46.34873333" lon="18.71135167">
        <ele>130.3</ele>
        <time>2025-07-18T12:03:14Z</time>
      </trkpt>
      <trkpt lat="46.348705" lon="18.71122667">
        <ele>129.4</ele>
        <time>2025-07-18T12:03:23Z</time>
      </trkpt>
      <trkpt lat="46.34869" lon="18.71108333">
        <ele>128.9</ele>
        <time>2025-07-18T12:03:32Z</time>
      </trkpt>
      <trkpt lat="46.34867167" lon="18.710955">
        <ele>131</ele>
        <time>2025-07-18T12:03:43Z</time>
      </trkpt>
      <trkpt lat="46.34868833" lon="18.71095">
        <ele>133.4</ele>
        <time>2025-07-18T12:05:44Z</time>
      </trkpt>
      <trkpt lat="46.34867833" lon="18.71073">
        <ele>139.8</ele>
        <time>2025-07-18T12:06:19Z</time>
      </trkpt>
      <trkpt lat="46.34863667" lon="18.7106">
        <ele>140.6</ele>
        <time>2025-07-18T12:06:27Z</time>
      </trkpt>
      <trkpt lat="46.34863667" lon="18.71046333">
        <ele>139.6</ele>
        <time>2025-07-18T12:06:34Z</time>
      </trkpt>
      <trkpt lat="46.34866333" lon="18.71033">
        <ele>138</ele>
        <time>2025-07-18T12:06:44Z</time>
      </trkpt>
      <trkpt lat="46.34863333" lon="18.710185">
        <ele>143.7</ele>
        <time>2025-07-18T12:06:53Z</time>
      </trkpt>
      <trkpt lat="46.34860667" lon="18.71005">
        <ele>141.1</ele>
        <time>2025-07-18T12:07:01Z</time>
      </trkpt>
      <trkpt lat="46.34858" lon="18.70992">
        <ele>139.6</ele>
        <time>2025-07-18T12:07:11Z</time>
      </trkpt>
      <trkpt lat="46.34858" lon="18.70978167">
        <ele>138.9</ele>
        <time>2025-07-18T12:07:20Z</time>
      </trkpt>
      <trkpt lat="46.34856167" lon="18.70964833">
        <ele>138.1</ele>
        <time>2025-07-18T12:07:28Z</time>
      </trkpt>
      <trkpt lat="46.34854667" lon="18.70951333">
        <ele>137.1</ele>
        <time>2025-07-18T12:07:36Z</time>
      </trkpt>
      <trkpt lat="46.348535" lon="18.70937333">
        <ele>137</ele>
        <time>2025-07-18T12:07:44Z</time>
      </trkpt>
      <trkpt lat="46.34851" lon="18.70923333">
        <ele>138.6</ele>
        <time>2025-07-18T12:07:52Z</time>
      </trkpt>
      <trkpt lat="46.34850167" lon="18.70909167">
        <ele>138.7</ele>
        <time>2025-07-18T12:08:02Z</time>
      </trkpt>
      <trkpt lat="46.34848167" lon="18.70895667">
        <ele>137</ele>
        <time>2025-07-18T12:08:09Z</time>
      </trkpt>
      <trkpt lat="46.34841667" lon="18.70884833">
        <ele>135.6</ele>
        <time>2025-07-18T12:08:18Z</time>
      </trkpt>
      <trkpt lat="46.34835167" lon="18.708755">
        <ele>135.9</ele>
        <time>2025-07-18T12:08:25Z</time>
      </trkpt>
      <trkpt lat="46.34828333" lon="18.70866333">
        <ele>134.9</ele>
        <time>2025-07-18T12:08:33Z</time>
      </trkpt>
      <trkpt lat="46.34822" lon="18.70856">
        <ele>136.1</ele>
        <time>2025-07-18T12:08:40Z</time>
      </trkpt>
      <trkpt lat="46.34816333" lon="18.70845667">
        <ele>137.7</ele>
        <time>2025-07-18T12:08:48Z</time>
      </trkpt>
      <trkpt lat="46.348135" lon="18.70832333">
        <ele>138</ele>
        <time>2025-07-18T12:08:56Z</time>
      </trkpt>
      <trkpt lat="46.34817333" lon="18.7082">
        <ele>136.5</ele>
        <time>2025-07-18T12:09:04Z</time>
      </trkpt>
      <trkpt lat="46.34823167" lon="18.7081">
        <ele>135.9</ele>
        <time>2025-07-18T12:09:11Z</time>
      </trkpt>
      <trkpt lat="46.34831833" lon="18.70804333">
        <ele>136.1</ele>
        <time>2025-07-18T12:09:19Z</time>
      </trkpt>
      <trkpt lat="46.34838833" lon="18.70796">
        <ele>137</ele>
        <time>2025-07-18T12:09:28Z</time>
      </trkpt>
      <trkpt lat="46.34839333" lon="18.70782833">
        <ele>139</ele>
        <time>2025-07-18T12:09:36Z</time>
      </trkpt>
      <trkpt lat="46.34842167" lon="18.70770167">
        <ele>139.4</ele>
        <time>2025-07-18T12:09:44Z</time>
      </trkpt>
      <trkpt lat="46.34844167" lon="18.707575">
        <ele>139.6</ele>
        <time>2025-07-18T12:09:52Z</time>
      </trkpt>
      <trkpt lat="46.34845167" lon="18.70744167">
        <ele>138.1</ele>
        <time>2025-07-18T12:10:00Z</time>
      </trkpt>
      <trkpt lat="46.34848" lon="18.70731167">
        <ele>135.6</ele>
        <time>2025-07-18T12:10:09Z</time>
      </trkpt>
      <trkpt lat="46.34849333" lon="18.70718">
        <ele>139.6</ele>
        <time>2025-07-18T12:10:17Z</time>
      </trkpt>
      <trkpt lat="46.3485" lon="18.70704">
        <ele>141.5</ele>
        <time>2025-07-18T12:10:26Z</time>
      </trkpt>
      <trkpt lat="46.34848333" lon="18.7069">
        <ele>140.9</ele>
        <time>2025-07-18T12:10:35Z</time>
      </trkpt>
      <trkpt lat="46.34839" lon="18.70690833">
        <ele>136.7</ele>
        <time>2025-07-18T12:10:52Z</time>
      </trkpt>
      <trkpt lat="46.34844" lon="18.70696167">
        <ele>141.1</ele>
        <time>2025-07-18T12:13:16Z</time>
      </trkpt>
      <trkpt lat="46.348375" lon="18.70686667">
        <ele>134.6</ele>
        <time>2025-07-18T12:14:06Z</time>
      </trkpt>
      <trkpt lat="46.34840833" lon="18.70674167">
        <ele>141</ele>
        <time>2025-07-18T12:14:32Z</time>
      </trkpt>
      <trkpt lat="46.34849833" lon="18.70669167">
        <ele>144.4</ele>
        <time>2025-07-18T12:15:07Z</time>
      </trkpt>
      <trkpt lat="46.34848833" lon="18.70656167">
        <ele>143.5</ele>
        <time>2025-07-18T12:15:22Z</time>
      </trkpt>
      <trkpt lat="46.34851833" lon="18.70643333">
        <ele>142.1</ele>
        <time>2025-07-18T12:15:30Z</time>
      </trkpt>
      <trkpt lat="46.348545" lon="18.70629833">
        <ele>142.1</ele>
        <time>2025-07-18T12:15:38Z</time>
      </trkpt>
      <trkpt lat="46.34855" lon="18.70616833">
        <ele>143.8</ele>
        <time>2025-07-18T12:15:47Z</time>
      </trkpt>
      <trkpt lat="46.34855333" lon="18.70603167">
        <ele>143.5</ele>
        <time>2025-07-18T12:15:57Z</time>
      </trkpt>
      <trkpt lat="46.34854833" lon="18.705895">
        <ele>141.2</ele>
        <time>2025-07-18T12:16:07Z</time>
      </trkpt>
      <trkpt lat="46.348565" lon="18.70576333">
        <ele>140</ele>
        <time>2025-07-18T12:16:17Z</time>
      </trkpt>
      <trkpt lat="46.348585" lon="18.70563667">
        <ele>138.9</ele>
        <time>2025-07-18T12:16:29Z</time>
      </trkpt>
      <trkpt lat="46.34859833" lon="18.70549833">
        <ele>138.2</ele>
        <time>2025-07-18T12:17:14Z</time>
      </trkpt>
      <trkpt lat="46.34865167" lon="18.70535">
        <ele>176.7</ele>
        <time>2025-07-18T12:17:24Z</time>
      </trkpt>
      <trkpt lat="46.34868167" lon="18.70548667">
        <ele>171.1</ele>
        <time>2025-07-18T12:17:32Z</time>
      </trkpt>
      <trkpt lat="46.348885" lon="18.70540833">
        <ele>232.8</ele>
        <time>2025-07-18T12:17:39Z</time>
      </trkpt>
      <trkpt lat="46.34877333" lon="18.705405">
        <ele>229.7</ele>
        <time>2025-07-18T12:17:50Z</time>
      </trkpt>
      <trkpt lat="46.34868" lon="18.70544167">
        <ele>218.6</ele>
        <time>2025-07-18T12:17:55Z</time>
      </trkpt>
      <trkpt lat="46.34858333" lon="18.705445">
        <ele>206.4</ele>
        <time>2025-07-18T12:18:00Z</time>
      </trkpt>
      <trkpt lat="46.34854667" lon="18.70531833">
        <ele>195.4</ele>
        <time>2025-07-18T12:18:06Z</time>
      </trkpt>
      <trkpt lat="46.34853333" lon="18.70517833">
        <ele>187.8</ele>
        <time>2025-07-18T12:18:12Z</time>
      </trkpt>
      <trkpt lat="46.34853333" lon="18.70504">
        <ele>183.5</ele>
        <time>2025-07-18T12:18:18Z</time>
      </trkpt>
      <trkpt lat="46.34859167" lon="18.70493333">
        <ele>179.8</ele>
        <time>2025-07-18T12:18:24Z</time>
      </trkpt>
      <trkpt lat="46.34863167" lon="18.70481">
        <ele>166.6</ele>
        <time>2025-07-18T12:18:35Z</time>
      </trkpt>
      <trkpt lat="46.34863333" lon="18.70467833">
        <ele>158.9</ele>
        <time>2025-07-18T12:18:45Z</time>
      </trkpt>
      <trkpt lat="46.34864333" lon="18.70454167">
        <ele>153.7</ele>
        <time>2025-07-18T12:18:54Z</time>
      </trkpt>
      <trkpt lat="46.34863833" lon="18.70440833">
        <ele>150.1</ele>
        <time>2025-07-18T12:19:01Z</time>
      </trkpt>
      <trkpt lat="46.348635" lon="18.704275">
        <ele>147.4</ele>
        <time>2025-07-18T12:19:10Z</time>
      </trkpt>
      <trkpt lat="46.34865667" lon="18.70414167">
        <ele>145.2</ele>
        <time>2025-07-18T12:19:22Z</time>
      </trkpt>
      <trkpt lat="46.34875333" lon="18.70419">
        <ele>140.4</ele>
        <time>2025-07-18T12:19:37Z</time>
      </trkpt>
      <trkpt lat="46.34879833" lon="18.70431667">
        <ele>137.3</ele>
        <time>2025-07-18T12:19:46Z</time>
      </trkpt>
      <trkpt lat="46.348865" lon="18.70440667">
        <ele>136</ele>
        <time>2025-07-18T12:19:58Z</time>
      </trkpt>
      <trkpt lat="46.34896167" lon="18.70443167">
        <ele>134</ele>
        <time>2025-07-18T12:20:10Z</time>
      </trkpt>
      <trkpt lat="46.34906667" lon="18.70444667">
        <ele>133.8</ele>
        <time>2025-07-18T12:20:19Z</time>
      </trkpt>
      <trkpt lat="46.34916167" lon="18.70443167">
        <ele>132.7</ele>
        <time>2025-07-18T12:20:27Z</time>
      </trkpt>
      <trkpt lat="46.34924167" lon="18.70435167">
        <ele>132.4</ele>
        <time>2025-07-18T12:20:35Z</time>
      </trkpt>
      <trkpt lat="46.34933333" lon="18.70433">
        <ele>135.2</ele>
        <time>2025-07-18T12:20:44Z</time>
      </trkpt>
      <trkpt lat="46.34942667" lon="18.70431333">
        <ele>134.2</ele>
        <time>2025-07-18T12:21:07Z</time>
      </trkpt>
      <trkpt lat="46.34951333" lon="18.704245">
        <ele>134</ele>
        <time>2025-07-18T12:21:14Z</time>
      </trkpt>
      <trkpt lat="46.34953167" lon="18.704105">
        <ele>133.5</ele>
        <time>2025-07-18T12:21:23Z</time>
      </trkpt>
      <trkpt lat="46.34945333" lon="18.70400667">
        <ele>133.9</ele>
        <time>2025-07-18T12:21:31Z</time>
      </trkpt>
      <trkpt lat="46.34941667" lon="18.70387833">
        <ele>137</ele>
        <time>2025-07-18T12:21:40Z</time>
      </trkpt>
      <trkpt lat="46.34940833" lon="18.70373667">
        <ele>139.2</ele>
        <time>2025-07-18T12:21:47Z</time>
      </trkpt>
      <trkpt lat="46.34945667" lon="18.70361833">
        <ele>140.3</ele>
        <time>2025-07-18T12:21:57Z</time>
      </trkpt>
      <trkpt lat="46.34944" lon="18.70347">
        <ele>141.2</ele>
        <time>2025-07-18T12:22:05Z</time>
      </trkpt>
      <trkpt lat="46.34941833" lon="18.70334">
        <ele>139.8</ele>
        <time>2025-07-18T12:22:16Z</time>
      </trkpt>
      <trkpt lat="46.34943167" lon="18.70321">
        <ele>138.2</ele>
        <time>2025-07-18T12:22:25Z</time>
      </trkpt>
      <trkpt lat="46.34942833" lon="18.70307">
        <ele>137.3</ele>
        <time>2025-07-18T12:22:33Z</time>
      </trkpt>
      <trkpt lat="46.34942167" lon="18.70292667">
        <ele>138.2</ele>
        <time>2025-07-18T12:22:41Z</time>
      </trkpt>
      <trkpt lat="46.34934" lon="18.70286667">
        <ele>138.3</ele>
        <time>2025-07-18T12:22:53Z</time>
      </trkpt>
      <trkpt lat="46.34924667" lon="18.70289">
        <ele>141.5</ele>
        <time>2025-07-18T12:23:19Z</time>
      </trkpt>
      <trkpt lat="46.34915167" lon="18.70287833">
        <ele>143.3</ele>
        <time>2025-07-18T12:23:29Z</time>
      </trkpt>
      <trkpt lat="46.349145" lon="18.70274667">
        <ele>144.3</ele>
        <time>2025-07-18T12:23:43Z</time>
      </trkpt>
      <trkpt lat="46.34916667" lon="18.70261833">
        <ele>145.7</ele>
        <time>2025-07-18T12:23:55Z</time>
      </trkpt>
      <trkpt lat="46.349215" lon="18.70250833">
        <ele>147.1</ele>
        <time>2025-07-18T12:24:02Z</time>
      </trkpt>
      <trkpt lat="46.34927667" lon="18.70240667">
        <ele>149.7</ele>
        <time>2025-07-18T12:24:08Z</time>
      </trkpt>
      <trkpt lat="46.34925333" lon="18.70228">
        <ele>146.3</ele>
        <time>2025-07-18T12:24:35Z</time>
      </trkpt>
      <trkpt lat="46.34927333" lon="18.70215">
        <ele>147.1</ele>
        <time>2025-07-18T12:24:47Z</time>
      </trkpt>
      <trkpt lat="46.34927333" lon="18.70201">
        <ele>148</ele>
        <time>2025-07-18T12:24:56Z</time>
      </trkpt>
      <trkpt lat="46.34934333" lon="18.70191833">
        <ele>149.5</ele>
        <time>2025-07-18T12:25:11Z</time>
      </trkpt>
      <trkpt lat="46.34943167" lon="18.70188833">
        <ele>148.7</ele>
        <time>2025-07-18T12:25:27Z</time>
      </trkpt>
      <trkpt lat="46.34953667" lon="18.70185333">
        <ele>148.8</ele>
        <time>2025-07-18T12:25:34Z</time>
      </trkpt>
      <trkpt lat="46.34962667" lon="18.70182833">
        <ele>149.4</ele>
        <time>2025-07-18T12:25:40Z</time>
      </trkpt>
      <trkpt lat="46.34971667" lon="18.70179167">
        <ele>150.6</ele>
        <time>2025-07-18T12:25:53Z</time>
      </trkpt>
      <trkpt lat="46.349715" lon="18.70178833">
        <ele>151.2</ele>
        <time>2025-07-18T12:27:54Z</time>
      </trkpt>
      <trkpt lat="46.34980833" lon="18.70178667">
        <ele>147.1</ele>
        <time>2025-07-18T12:29:09Z</time>
      </trkpt>
      <trkpt lat="46.34991333" lon="18.70183667">
        <ele>146</ele>
        <time>2025-07-18T12:29:22Z</time>
      </trkpt>
      <trkpt lat="46.34993" lon="18.70198333">
        <ele>142.7</ele>
        <time>2025-07-18T12:29:32Z</time>
      </trkpt>
      <trkpt lat="46.34988667" lon="18.702115">
        <ele>144.7</ele>
        <time>2025-07-18T12:29:35Z</time>
      </trkpt>
      <trkpt lat="46.34987167" lon="18.70226333">
        <ele>146</ele>
        <time>2025-07-18T12:29:40Z</time>
      </trkpt>
      <trkpt lat="46.34989833" lon="18.70238833">
        <ele>148.2</ele>
        <time>2025-07-18T12:29:49Z</time>
      </trkpt>
      <trkpt lat="46.34983167" lon="18.70229333">
        <ele>146.1</ele>
        <time>2025-07-18T12:30:13Z</time>
      </trkpt>
      <trkpt lat="46.34990833" lon="18.70219333">
        <ele>145.3</ele>
        <time>2025-07-18T12:30:25Z</time>
      </trkpt>
      <trkpt lat="46.34999833" lon="18.70209">
        <ele>144.5</ele>
        <time>2025-07-18T12:30:28Z</time>
      </trkpt>
      <trkpt lat="46.350045" lon="18.70185667">
        <ele>146.7</ele>
        <time>2025-07-18T12:30:47Z</time>
      </trkpt>
      <trkpt lat="46.350135" lon="18.70188833">
        <ele>151.7</ele>
        <time>2025-07-18T12:31:18Z</time>
      </trkpt>
      <trkpt lat="46.35019" lon="18.70177833">
        <ele>151.1</ele>
        <time>2025-07-18T12:31:24Z</time>
      </trkpt>
      <trkpt lat="46.35021333" lon="18.70164">
        <ele>150</ele>
        <time>2025-07-18T12:31:30Z</time>
      </trkpt>
      <trkpt lat="46.35018833" lon="18.701515">
        <ele>148.8</ele>
        <time>2025-07-18T12:31:37Z</time>
      </trkpt>
      <trkpt lat="46.35010333" lon="18.70146167">
        <ele>149.2</ele>
        <time>2025-07-18T12:31:44Z</time>
      </trkpt>
      <trkpt lat="46.35001167" lon="18.70143">
        <ele>148.6</ele>
        <time>2025-07-18T12:31:51Z</time>
      </trkpt>
      <trkpt lat="46.34992" lon="18.70144667">
        <ele>147.8</ele>
        <time>2025-07-18T12:31:57Z</time>
      </trkpt>
      <trkpt lat="46.34982667" lon="18.70147167">
        <ele>147.7</ele>
        <time>2025-07-18T12:32:05Z</time>
      </trkpt>
      <trkpt lat="46.34973667" lon="18.70146333">
        <ele>148.6</ele>
        <time>2025-07-18T12:32:11Z</time>
      </trkpt>
      <trkpt lat="46.34964167" lon="18.70140833">
        <ele>149.9</ele>
        <time>2025-07-18T12:32:18Z</time>
      </trkpt>
      <trkpt lat="46.34955167" lon="18.70136333">
        <ele>150.5</ele>
        <time>2025-07-18T12:32:25Z</time>
      </trkpt>
      <trkpt lat="46.34945833" lon="18.701375">
        <ele>150.7</ele>
        <time>2025-07-18T12:32:34Z</time>
      </trkpt>
      <trkpt lat="46.34937" lon="18.70142333">
        <ele>149.7</ele>
        <time>2025-07-18T12:32:42Z</time>
      </trkpt>
      <trkpt lat="46.34928" lon="18.70142333">
        <ele>147.8</ele>
        <time>2025-07-18T12:32:56Z</time>
      </trkpt>
      <trkpt lat="46.34923" lon="18.70130333">
        <ele>148.2</ele>
        <time>2025-07-18T12:33:09Z</time>
      </trkpt>
      <trkpt lat="46.34912833" lon="18.70128667">
        <ele>146.8</ele>
        <time>2025-07-18T12:33:17Z</time>
      </trkpt>
      <trkpt lat="46.34902333" lon="18.70131667">
        <ele>145.4</ele>
        <time>2025-07-18T12:33:32Z</time>
      </trkpt>
      <trkpt lat="46.34893" lon="18.70133833">
        <ele>143.5</ele>
        <time>2025-07-18T12:33:38Z</time>
      </trkpt>
      <trkpt lat="46.34883833" lon="18.70129167">
        <ele>140.3</ele>
        <time>2025-07-18T12:33:48Z</time>
      </trkpt>
      <trkpt lat="46.34875667" lon="18.70121167">
        <ele>140.5</ele>
        <time>2025-07-18T12:33:55Z</time>
      </trkpt>
      <trkpt lat="46.34882167" lon="18.70112">
        <ele>139.3</ele>
        <time>2025-07-18T12:34:18Z</time>
      </trkpt>
      <trkpt lat="46.348835" lon="18.70107333">
        <ele>140.4</ele>
        <time>2025-07-18T12:36:19Z</time>
      </trkpt>
      <trkpt lat="46.348835" lon="18.70107333">
        <ele>140.4</ele>
        <time>2025-07-18T12:39:59Z</time>
      </trkpt>
      <trkpt lat="46.34881333" lon="18.7012">
        <ele>149</ele>
        <time>2025-07-18T12:40:26Z</time>
      </trkpt>
      <trkpt lat="46.34881333" lon="18.70120167">
        <ele>149.5</ele>
        <time>2025-07-18T12:42:27Z</time>
      </trkpt>
      <trkpt lat="46.34881333" lon="18.70120167">
        <ele>149.5</ele>
        <time>2025-07-18T12:44:28Z</time>
      </trkpt>
      <trkpt lat="46.34881333" lon="18.70120167">
        <ele>149.5</ele>
        <time>2025-07-18T12:46:29Z</time>
      </trkpt>
      <trkpt lat="46.34881333" lon="18.70120167">
        <ele>149.5</ele>
        <time>2025-07-18T12:48:30Z</time>
      </trkpt>
      <trkpt lat="46.348865" lon="18.70109333">
        <ele>140.3</ele>
        <time>2025-07-18T12:48:49Z</time>
      </trkpt>
      <trkpt lat="46.34882333" lon="18.70097667">
        <ele>140</ele>
        <time>2025-07-18T12:48:58Z</time>
      </trkpt>
      <trkpt lat="46.34879167" lon="18.70083333">
        <ele>141.1</ele>
        <time>2025-07-18T12:49:05Z</time>
      </trkpt>
      <trkpt lat="46.34887667" lon="18.70078667">
        <ele>139.8</ele>
        <time>2025-07-18T12:49:57Z</time>
      </trkpt>
      <trkpt lat="46.34886833" lon="18.70064167">
        <ele>141</ele>
        <time>2025-07-18T12:50:08Z</time>
      </trkpt>
      <trkpt lat="46.34886167" lon="18.70050833">
        <ele>142.4</ele>
        <time>2025-07-18T12:50:15Z</time>
      </trkpt>
      <trkpt lat="46.348885" lon="18.70037">
        <ele>140.5</ele>
        <time>2025-07-18T12:50:30Z</time>
      </trkpt>
      <trkpt lat="46.34886833" lon="18.700235">
        <ele>142.2</ele>
        <time>2025-07-18T12:50:37Z</time>
      </trkpt>
      <trkpt lat="46.34889333" lon="18.70008833">
        <ele>141.9</ele>
        <time>2025-07-18T12:50:46Z</time>
      </trkpt>
      <trkpt lat="46.34892833" lon="18.69995167">
        <ele>141.7</ele>
        <time>2025-07-18T12:51:00Z</time>
      </trkpt>
      <trkpt lat="46.34895" lon="18.699825">
        <ele>141.5</ele>
        <time>2025-07-18T12:51:08Z</time>
      </trkpt>
      <trkpt lat="46.34896" lon="18.69969167">
        <ele>142.5</ele>
        <time>2025-07-18T12:51:15Z</time>
      </trkpt>
      <trkpt lat="46.34898667" lon="18.69955833">
        <ele>143</ele>
        <time>2025-07-18T12:51:23Z</time>
      </trkpt>
      <trkpt lat="46.34903333" lon="18.69944">
        <ele>144.4</ele>
        <time>2025-07-18T12:51:34Z</time>
      </trkpt>
      <trkpt lat="46.34908" lon="18.69932333">
        <ele>144</ele>
        <time>2025-07-18T12:51:44Z</time>
      </trkpt>
      <trkpt lat="46.34914" lon="18.699225">
        <ele>144.5</ele>
        <time>2025-07-18T12:51:52Z</time>
      </trkpt>
      <trkpt lat="46.34925" lon="18.69919167">
        <ele>149.8</ele>
        <time>2025-07-18T12:52:32Z</time>
      </trkpt>
      <trkpt lat="46.34929833" lon="18.69906">
        <ele>149.1</ele>
        <time>2025-07-18T12:52:41Z</time>
      </trkpt>
      <trkpt lat="46.34934667" lon="18.69893833">
        <ele>148.5</ele>
        <time>2025-07-18T12:52:50Z</time>
      </trkpt>
      <trkpt lat="46.34938167" lon="18.698815">
        <ele>149.1</ele>
        <time>2025-07-18T12:53:01Z</time>
      </trkpt>
      <trkpt lat="46.34937333" lon="18.69868">
        <ele>149.4</ele>
        <time>2025-07-18T12:53:11Z</time>
      </trkpt>
      <trkpt lat="46.34943167" lon="18.69857833">
        <ele>153.6</ele>
        <time>2025-07-18T12:53:20Z</time>
      </trkpt>
      <trkpt lat="46.349515" lon="18.69850833">
        <ele>155.6</ele>
        <time>2025-07-18T12:53:30Z</time>
      </trkpt>
      <trkpt lat="46.34956" lon="18.69838833">
        <ele>155.3</ele>
        <time>2025-07-18T12:53:40Z</time>
      </trkpt>
      <trkpt lat="46.34964333" lon="18.69832667">
        <ele>153.8</ele>
        <time>2025-07-18T12:54:01Z</time>
      </trkpt>
      <trkpt lat="46.34973667" lon="18.69835333">
        <ele>154.2</ele>
        <time>2025-07-18T12:54:10Z</time>
      </trkpt>
      <trkpt lat="46.34982667" lon="18.69835167">
        <ele>154.2</ele>
        <time>2025-07-18T12:54:18Z</time>
      </trkpt>
      <trkpt lat="46.34984167" lon="18.69822167">
        <ele>154.7</ele>
        <time>2025-07-18T12:55:15Z</time>
      </trkpt>
      <trkpt lat="46.349945" lon="18.69821">
        <ele>154.9</ele>
        <time>2025-07-18T12:55:21Z</time>
      </trkpt>
      <trkpt lat="46.35002667" lon="18.69813167">
        <ele>155.3</ele>
        <time>2025-07-18T12:55:27Z</time>
      </trkpt>
      <trkpt lat="46.35008167" lon="18.69802167">
        <ele>157.3</ele>
        <time>2025-07-18T12:55:34Z</time>
      </trkpt>
      <trkpt lat="46.35011167" lon="18.69788167">
        <ele>162.9</ele>
        <time>2025-07-18T12:55:54Z</time>
      </trkpt>
      <trkpt lat="46.35001667" lon="18.69784167">
        <ele>162.4</ele>
        <time>2025-07-18T12:56:01Z</time>
      </trkpt>
      <trkpt lat="46.35008833" lon="18.69792167">
        <ele>158.2</ele>
        <time>2025-07-18T12:56:20Z</time>
      </trkpt>
      <trkpt lat="46.35016667" lon="18.69799167">
        <ele>159.5</ele>
        <time>2025-07-18T12:56:30Z</time>
      </trkpt>
      <trkpt lat="46.35027333" lon="18.69801833">
        <ele>158.1</ele>
        <time>2025-07-18T12:56:37Z</time>
      </trkpt>
      <trkpt lat="46.35037" lon="18.69800667">
        <ele>152.7</ele>
        <time>2025-07-18T12:56:49Z</time>
      </trkpt>
      <trkpt lat="46.35046" lon="18.69800167">
        <ele>150.5</ele>
        <time>2025-07-18T12:56:57Z</time>
      </trkpt>
      <trkpt lat="46.35055167" lon="18.697995">
        <ele>148.2</ele>
        <time>2025-07-18T12:57:06Z</time>
      </trkpt>
      <trkpt lat="46.35063333" lon="18.698055">
        <ele>146.6</ele>
        <time>2025-07-18T12:57:14Z</time>
      </trkpt>
      <trkpt lat="46.35071" lon="18.69812833">
        <ele>149</ele>
        <time>2025-07-18T12:57:20Z</time>
      </trkpt>
      <trkpt lat="46.35079667" lon="18.69818833">
        <ele>150.1</ele>
        <time>2025-07-18T12:57:26Z</time>
      </trkpt>
      <trkpt lat="46.35087333" lon="18.698285">
        <ele>149.6</ele>
        <time>2025-07-18T12:57:33Z</time>
      </trkpt>
      <trkpt lat="46.35092833" lon="18.69839167">
        <ele>149.3</ele>
        <time>2025-07-18T12:57:42Z</time>
      </trkpt>
      <trkpt lat="46.35097667" lon="18.69850667">
        <ele>148.5</ele>
        <time>2025-07-18T12:57:50Z</time>
      </trkpt>
      <trkpt lat="46.35104667" lon="18.698605">
        <ele>144.8</ele>
        <time>2025-07-18T12:58:05Z</time>
      </trkpt>
      <trkpt lat="46.35113667" lon="18.69858333">
        <ele>146</ele>
        <time>2025-07-18T12:58:30Z</time>
      </trkpt>
      <trkpt lat="46.35121" lon="18.69856333">
        <ele>142.4</ele>
        <time>2025-07-18T13:00:31Z</time>
      </trkpt>
      <trkpt lat="46.35121" lon="18.69856333">
        <ele>142.4</ele>
        <time>2025-07-18T13:02:32Z</time>
      </trkpt>
      <trkpt lat="46.35133667" lon="18.69869833">
        <ele>168.4</ele>
        <time>2025-07-18T13:04:22Z</time>
      </trkpt>
      <trkpt lat="46.35130833" lon="18.698555">
        <ele>160.7</ele>
        <time>2025-07-18T13:04:44Z</time>
      </trkpt>
      <trkpt lat="46.351215" lon="18.69856">
        <ele>153.9</ele>
        <time>2025-07-18T13:04:59Z</time>
      </trkpt>
      <trkpt lat="46.35133" lon="18.69866333">
        <ele>170.9</ele>
        <time>2025-07-18T13:05:37Z</time>
      </trkpt>
      <trkpt lat="46.35121" lon="18.69855">
        <ele>169.1</ele>
        <time>2025-07-18T13:07:13Z</time>
      </trkpt>
      <trkpt lat="46.351205" lon="18.69855167">
        <ele>168.8</ele>
        <time>2025-07-18T13:10:54Z</time>
      </trkpt>
      <trkpt lat="46.351205" lon="18.69855167">
        <ele>168.8</ele>
        <time>2025-07-18T13:12:55Z</time>
      </trkpt>
      <trkpt lat="46.351155" lon="18.69855167">
        <ele>141</ele>
        <time>2025-07-18T13:14:56Z</time>
      </trkpt>
      <trkpt lat="46.351155" lon="18.69855167">
        <ele>141</ele>
        <time>2025-07-18T13:16:57Z</time>
      </trkpt>
      <trkpt lat="46.351175" lon="18.698545">
        <ele>145.7</ele>
        <time>2025-07-18T13:18:58Z</time>
      </trkpt>
      <trkpt lat="46.351245" lon="18.69863167">
        <ele>154.4</ele>
        <time>2025-07-18T13:20:24Z</time>
      </trkpt>
      <trkpt lat="46.35131333" lon="18.69872167">
        <ele>166.5</ele>
        <time>2025-07-18T13:20:29Z</time>
      </trkpt>
      <trkpt lat="46.35128167" lon="18.69859667">
        <ele>164.7</ele>
        <time>2025-07-18T13:20:50Z</time>
      </trkpt>
      <trkpt lat="46.351205" lon="18.698535">
        <ele>153.3</ele>
        <time>2025-07-18T13:22:51Z</time>
      </trkpt>
      <trkpt lat="46.35120167" lon="18.6985">
        <ele>151.3</ele>
        <time>2025-07-18T13:24:52Z</time>
      </trkpt>
      <trkpt lat="46.35117833" lon="18.698505">
        <ele>146.4</ele>
        <time>2025-07-18T13:26:53Z</time>
      </trkpt>
      <trkpt lat="46.35119833" lon="18.69852333">
        <ele>145.4</ele>
        <time>2025-07-18T13:28:54Z</time>
      </trkpt>
      <trkpt lat="46.35119833" lon="18.69852333">
        <ele>145.4</ele>
        <time>2025-07-18T13:30:55Z</time>
      </trkpt>
      <trkpt lat="46.35120333" lon="18.69850667">
        <ele>145.2</ele>
        <time>2025-07-18T13:33:00Z</time>
      </trkpt>
      <trkpt lat="46.35121833" lon="18.69851333">
        <ele>147.6</ele>
        <time>2025-07-18T13:35:22Z</time>
      </trkpt>
      <trkpt lat="46.35121333" lon="18.69850833">
        <ele>147.6</ele>
        <time>2025-07-18T13:37:23Z</time>
      </trkpt>
      <trkpt lat="46.35121333" lon="18.69850833">
        <ele>147.6</ele>
        <time>2025-07-18T13:39:24Z</time>
      </trkpt>
      <trkpt lat="46.35130167" lon="18.69848">
        <ele>154.5</ele>
        <time>2025-07-18T13:42:13Z</time>
      </trkpt>
      <trkpt lat="46.351245" lon="18.69851667">
        <ele>150.4</ele>
        <time>2025-07-18T13:44:14Z</time>
      </trkpt>
      <trkpt lat="46.351155" lon="18.69854333">
        <ele>146.4</ele>
        <time>2025-07-18T13:45:19Z</time>
      </trkpt>
      <trkpt lat="46.35115833" lon="18.69854667">
        <ele>146.4</ele>
        <time>2025-07-18T13:47:20Z</time>
      </trkpt>
      <trkpt lat="46.35115833" lon="18.69854667">
        <ele>146.4</ele>
        <time>2025-07-18T13:49:21Z</time>
      </trkpt>
      <trkpt lat="46.351225" lon="18.69845833">
        <ele>144</ele>
        <time>2025-07-18T13:50:05Z</time>
      </trkpt>
      <trkpt lat="46.35122833" lon="18.69845667">
        <ele>144.2</ele>
        <time>2025-07-18T13:52:06Z</time>
      </trkpt>
      <trkpt lat="46.35122667" lon="18.69855167">
        <ele>153.9</ele>
        <time>2025-07-18T13:54:07Z</time>
      </trkpt>
      <trkpt lat="46.35119833" lon="18.69868333">
        <ele>149.4</ele>
        <time>2025-07-18T13:55:22Z</time>
      </trkpt>
      <trkpt lat="46.351115" lon="18.69874667">
        <ele>150.1</ele>
        <time>2025-07-18T13:55:29Z</time>
      </trkpt>
      <trkpt lat="46.35102167" lon="18.698705">
        <ele>149.4</ele>
        <time>2025-07-18T13:55:36Z</time>
      </trkpt>
      <trkpt lat="46.35098333" lon="18.69883">
        <ele>152.3</ele>
        <time>2025-07-18T13:56:11Z</time>
      </trkpt>
      <trkpt lat="46.35103167" lon="18.698945">
        <ele>151.1</ele>
        <time>2025-07-18T13:56:19Z</time>
      </trkpt>
      <trkpt lat="46.35110833" lon="18.69904">
        <ele>148.4</ele>
        <time>2025-07-18T13:56:30Z</time>
      </trkpt>
      <trkpt lat="46.35115167" lon="18.69917">
        <ele>144.8</ele>
        <time>2025-07-18T13:56:37Z</time>
      </trkpt>
      <trkpt lat="46.35118" lon="18.699295">
        <ele>139.4</ele>
        <time>2025-07-18T13:56:47Z</time>
      </trkpt>
      <trkpt lat="46.35127167" lon="18.69926167">
        <ele>137.7</ele>
        <time>2025-07-18T13:56:56Z</time>
      </trkpt>
      <trkpt lat="46.35131" lon="18.699135">
        <ele>136.2</ele>
        <time>2025-07-18T13:57:04Z</time>
      </trkpt>
      <trkpt lat="46.35131667" lon="18.69899333">
        <ele>135.3</ele>
        <time>2025-07-18T13:57:12Z</time>
      </trkpt>
      <trkpt lat="46.35139667" lon="18.6989">
        <ele>134.3</ele>
        <time>2025-07-18T13:57:22Z</time>
      </trkpt>
      <trkpt lat="46.35149167" lon="18.69884667">
        <ele>132.2</ele>
        <time>2025-07-18T13:57:29Z</time>
      </trkpt>
      <trkpt lat="46.35157667" lon="18.69877167">
        <ele>132.1</ele>
        <time>2025-07-18T13:57:36Z</time>
      </trkpt>
      <trkpt lat="46.35165667" lon="18.69871167">
        <ele>132</ele>
        <time>2025-07-18T13:57:42Z</time>
      </trkpt>
      <trkpt lat="46.35174667" lon="18.69870167">
        <ele>132</ele>
        <time>2025-07-18T13:57:50Z</time>
      </trkpt>
      <trkpt lat="46.35184667" lon="18.698655">
        <ele>134.1</ele>
        <time>2025-07-18T13:57:57Z</time>
      </trkpt>
      <trkpt lat="46.35194333" lon="18.69863667">
        <ele>134.5</ele>
        <time>2025-07-18T13:58:05Z</time>
      </trkpt>
      <trkpt lat="46.35203833" lon="18.69859333">
        <ele>136.9</ele>
        <time>2025-07-18T13:58:11Z</time>
      </trkpt>
      <trkpt lat="46.35213167" lon="18.69854333">
        <ele>141</ele>
        <time>2025-07-18T13:58:19Z</time>
      </trkpt>
      <trkpt lat="46.35221333" lon="18.69848667">
        <ele>144.1</ele>
        <time>2025-07-18T13:58:25Z</time>
      </trkpt>
      <trkpt lat="46.35230167" lon="18.69846">
        <ele>147.8</ele>
        <time>2025-07-18T13:58:32Z</time>
      </trkpt>
      <trkpt lat="46.35238167" lon="18.69853333">
        <ele>149.3</ele>
        <time>2025-07-18T13:58:43Z</time>
      </trkpt>
      <trkpt lat="46.352475" lon="18.69860333">
        <ele>152.1</ele>
        <time>2025-07-18T13:58:50Z</time>
      </trkpt>
      <trkpt lat="46.35255" lon="18.69867667">
        <ele>154.6</ele>
        <time>2025-07-18T13:58:58Z</time>
      </trkpt>
      <trkpt lat="46.352645" lon="18.69870333">
        <ele>158.6</ele>
        <time>2025-07-18T13:59:06Z</time>
      </trkpt>
      <trkpt lat="46.352735" lon="18.69875667">
        <ele>178.4</ele>
        <time>2025-07-18T13:59:12Z</time>
      </trkpt>
      <trkpt lat="46.35281333" lon="18.69884">
        <ele>157.4</ele>
        <time>2025-07-18T13:59:32Z</time>
      </trkpt>
      <trkpt lat="46.35289333" lon="18.698905">
        <ele>155.1</ele>
        <time>2025-07-18T13:59:40Z</time>
      </trkpt>
      <trkpt lat="46.352985" lon="18.69896167">
        <ele>154.1</ele>
        <time>2025-07-18T13:59:48Z</time>
      </trkpt>
      <trkpt lat="46.35305667" lon="18.69904167">
        <ele>154.7</ele>
        <time>2025-07-18T13:59:55Z</time>
      </trkpt>
      <trkpt lat="46.35313333" lon="18.69911">
        <ele>157.3</ele>
        <time>2025-07-18T14:00:05Z</time>
      </trkpt>
      <trkpt lat="46.35322667" lon="18.69913">
        <ele>159</ele>
        <time>2025-07-18T14:00:12Z</time>
      </trkpt>
      <trkpt lat="46.35332" lon="18.69913">
        <ele>160.5</ele>
        <time>2025-07-18T14:00:18Z</time>
      </trkpt>
      <trkpt lat="46.353415" lon="18.69913167">
        <ele>161.3</ele>
        <time>2025-07-18T14:00:24Z</time>
      </trkpt>
      <trkpt lat="46.35349833" lon="18.69918833">
        <ele>161.3</ele>
        <time>2025-07-18T14:00:32Z</time>
      </trkpt>
      <trkpt lat="46.35358333" lon="18.69924167">
        <ele>161.2</ele>
        <time>2025-07-18T14:00:39Z</time>
      </trkpt>
      <trkpt lat="46.35367167" lon="18.699295">
        <ele>160.3</ele>
        <time>2025-07-18T14:00:45Z</time>
      </trkpt>
      <trkpt lat="46.35376667" lon="18.69932833">
        <ele>160.1</ele>
        <time>2025-07-18T14:00:51Z</time>
      </trkpt>
      <trkpt lat="46.35384833" lon="18.69940333">
        <ele>161.1</ele>
        <time>2025-07-18T14:01:02Z</time>
      </trkpt>
      <trkpt lat="46.35392167" lon="18.69949833">
        <ele>159.3</ele>
        <time>2025-07-18T14:01:12Z</time>
      </trkpt>
      <trkpt lat="46.353865" lon="18.6996">
        <ele>159.3</ele>
        <time>2025-07-18T14:01:39Z</time>
      </trkpt>
      <trkpt lat="46.353835" lon="18.69973667">
        <ele>160.1</ele>
        <time>2025-07-18T14:01:48Z</time>
      </trkpt>
      <trkpt lat="46.35381333" lon="18.699865">
        <ele>160.3</ele>
        <time>2025-07-18T14:01:57Z</time>
      </trkpt>
      <trkpt lat="46.35377333" lon="18.69999333">
        <ele>156.3</ele>
        <time>2025-07-18T14:02:11Z</time>
      </trkpt>
      <trkpt lat="46.35377333" lon="18.70012667">
        <ele>155.1</ele>
        <time>2025-07-18T14:02:19Z</time>
      </trkpt>
      <trkpt lat="46.35374167" lon="18.70025167">
        <ele>155.1</ele>
        <time>2025-07-18T14:02:26Z</time>
      </trkpt>
      <trkpt lat="46.353705" lon="18.70038">
        <ele>155.7</ele>
        <time>2025-07-18T14:02:33Z</time>
      </trkpt>
      <trkpt lat="46.353665" lon="18.70050167">
        <ele>152.8</ele>
        <time>2025-07-18T14:02:41Z</time>
      </trkpt>
      <trkpt lat="46.35357667" lon="18.70053833">
        <ele>148.8</ele>
        <time>2025-07-18T14:02:51Z</time>
      </trkpt>
      <trkpt lat="46.35348167" lon="18.70052">
        <ele>144.3</ele>
        <time>2025-07-18T14:03:00Z</time>
      </trkpt>
      <trkpt lat="46.353385" lon="18.70047833">
        <ele>140.9</ele>
        <time>2025-07-18T14:03:08Z</time>
      </trkpt>
      <trkpt lat="46.353295" lon="18.70045833">
        <ele>138.8</ele>
        <time>2025-07-18T14:03:17Z</time>
      </trkpt>
      <trkpt lat="46.35319833" lon="18.70043833">
        <ele>137.1</ele>
        <time>2025-07-18T14:03:24Z</time>
      </trkpt>
      <trkpt lat="46.35310167" lon="18.7004">
        <ele>139.1</ele>
        <time>2025-07-18T14:03:31Z</time>
      </trkpt>
      <trkpt lat="46.35300667" lon="18.70037333">
        <ele>140.3</ele>
        <time>2025-07-18T14:03:39Z</time>
      </trkpt>
      <trkpt lat="46.352915" lon="18.70035167">
        <ele>140.4</ele>
        <time>2025-07-18T14:03:46Z</time>
      </trkpt>
      <trkpt lat="46.35282333" lon="18.70031833">
        <ele>137.5</ele>
        <time>2025-07-18T14:03:58Z</time>
      </trkpt>
      <trkpt lat="46.35272833" lon="18.70032333">
        <ele>137</ele>
        <time>2025-07-18T14:04:04Z</time>
      </trkpt>
      <trkpt lat="46.35263167" lon="18.70032833">
        <ele>135.2</ele>
        <time>2025-07-18T14:04:11Z</time>
      </trkpt>
      <trkpt lat="46.35254667" lon="18.70025333">
        <ele>131.9</ele>
        <time>2025-07-18T14:04:19Z</time>
      </trkpt>
      <trkpt lat="46.35245" lon="18.70025333">
        <ele>129.1</ele>
        <time>2025-07-18T14:04:29Z</time>
      </trkpt>
      <trkpt lat="46.35235833" lon="18.70023167">
        <ele>127.7</ele>
        <time>2025-07-18T14:04:37Z</time>
      </trkpt>
      <trkpt lat="46.35226833" lon="18.70018">
        <ele>127.6</ele>
        <time>2025-07-18T14:04:43Z</time>
      </trkpt>
      <trkpt lat="46.35217" lon="18.70017333">
        <ele>127.8</ele>
        <time>2025-07-18T14:04:51Z</time>
      </trkpt>
      <trkpt lat="46.35208" lon="18.70014">
        <ele>129.7</ele>
        <time>2025-07-18T14:05:01Z</time>
      </trkpt>
      <trkpt lat="46.35197833" lon="18.70013667">
        <ele>130.6</ele>
        <time>2025-07-18T14:05:08Z</time>
      </trkpt>
      <trkpt lat="46.35188833" lon="18.70014833">
        <ele>130.6</ele>
        <time>2025-07-18T14:05:15Z</time>
      </trkpt>
      <trkpt lat="46.35179833" lon="18.70020333">
        <ele>130.5</ele>
        <time>2025-07-18T14:05:25Z</time>
      </trkpt>
      <trkpt lat="46.35175333" lon="18.70032333">
        <ele>131.1</ele>
        <time>2025-07-18T14:05:33Z</time>
      </trkpt>
      <trkpt lat="46.35174667" lon="18.70045833">
        <ele>131.7</ele>
        <time>2025-07-18T14:05:40Z</time>
      </trkpt>
      <trkpt lat="46.35174833" lon="18.70060167">
        <ele>132.6</ele>
        <time>2025-07-18T14:05:48Z</time>
      </trkpt>
      <trkpt lat="46.351735" lon="18.700745">
        <ele>132.9</ele>
        <time>2025-07-18T14:05:55Z</time>
      </trkpt>
      <trkpt lat="46.35174333" lon="18.700875">
        <ele>133.8</ele>
        <time>2025-07-18T14:06:01Z</time>
      </trkpt>
      <trkpt lat="46.35174167" lon="18.701015">
        <ele>135.1</ele>
        <time>2025-07-18T14:06:10Z</time>
      </trkpt>
      <trkpt lat="46.35175" lon="18.701155">
        <ele>135</ele>
        <time>2025-07-18T14:06:19Z</time>
      </trkpt>
      <trkpt lat="46.35174" lon="18.70129833">
        <ele>137</ele>
        <time>2025-07-18T14:06:27Z</time>
      </trkpt>
      <trkpt lat="46.35173833" lon="18.70144">
        <ele>137.8</ele>
        <time>2025-07-18T14:06:34Z</time>
      </trkpt>
      <trkpt lat="46.35174" lon="18.70157333">
        <ele>137.5</ele>
        <time>2025-07-18T14:06:44Z</time>
      </trkpt>
      <trkpt lat="46.35172167" lon="18.701705">
        <ele>136.4</ele>
        <time>2025-07-18T14:06:53Z</time>
      </trkpt>
      <trkpt lat="46.35173667" lon="18.70184">
        <ele>136.4</ele>
        <time>2025-07-18T14:07:00Z</time>
      </trkpt>
      <trkpt lat="46.35171167" lon="18.70197">
        <ele>136</ele>
        <time>2025-07-18T14:07:07Z</time>
      </trkpt>
      <trkpt lat="46.35162667" lon="18.70202667">
        <ele>143.5</ele>
        <time>2025-07-18T14:07:37Z</time>
      </trkpt>
      <trkpt lat="46.35153" lon="18.70205">
        <ele>145.9</ele>
        <time>2025-07-18T14:07:44Z</time>
      </trkpt>
      <trkpt lat="46.35144833" lon="18.70199333">
        <ele>145.7</ele>
        <time>2025-07-18T14:07:54Z</time>
      </trkpt>
      <trkpt lat="46.35135833" lon="18.701955">
        <ele>145.3</ele>
        <time>2025-07-18T14:08:03Z</time>
      </trkpt>
      <trkpt lat="46.35132667" lon="18.70198">
        <ele>144.7</ele>
        <time>2025-07-18T14:10:04Z</time>
      </trkpt>
      <trkpt lat="46.35141" lon="18.70204167">
        <ele>143</ele>
        <time>2025-07-18T14:10:33Z</time>
      </trkpt>
      <trkpt lat="46.35152333" lon="18.702015">
        <ele>141.4</ele>
        <time>2025-07-18T14:10:41Z</time>
      </trkpt>
      <trkpt lat="46.351525" lon="18.70215833">
        <ele>138.5</ele>
        <time>2025-07-18T14:11:32Z</time>
      </trkpt>
      <trkpt lat="46.3516" lon="18.702235">
        <ele>135.9</ele>
        <time>2025-07-18T14:11:42Z</time>
      </trkpt>
      <trkpt lat="46.35169167" lon="18.702305">
        <ele>137.9</ele>
        <time>2025-07-18T14:11:49Z</time>
      </trkpt>
      <trkpt lat="46.35176833" lon="18.702375">
        <ele>139.1</ele>
        <time>2025-07-18T14:11:55Z</time>
      </trkpt>
      <trkpt lat="46.35183833" lon="18.70245833">
        <ele>137.8</ele>
        <time>2025-07-18T14:12:03Z</time>
      </trkpt>
      <trkpt lat="46.35185167" lon="18.70259">
        <ele>137.3</ele>
        <time>2025-07-18T14:12:14Z</time>
      </trkpt>
      <trkpt lat="46.35182" lon="18.702725">
        <ele>136.1</ele>
        <time>2025-07-18T14:12:22Z</time>
      </trkpt>
      <trkpt lat="46.35179667" lon="18.70287333">
        <ele>135.8</ele>
        <time>2025-07-18T14:12:29Z</time>
      </trkpt>
      <trkpt lat="46.35180167" lon="18.70301167">
        <ele>135.4</ele>
        <time>2025-07-18T14:12:36Z</time>
      </trkpt>
      <trkpt lat="46.35179167" lon="18.70314833">
        <ele>134.9</ele>
        <time>2025-07-18T14:12:43Z</time>
      </trkpt>
      <trkpt lat="46.35179667" lon="18.70328667">
        <ele>135.2</ele>
        <time>2025-07-18T14:12:51Z</time>
      </trkpt>
      <trkpt lat="46.35176333" lon="18.70341333">
        <ele>137.3</ele>
        <time>2025-07-18T14:12:58Z</time>
      </trkpt>
      <trkpt lat="46.35168333" lon="18.703495">
        <ele>140.2</ele>
        <time>2025-07-18T14:13:09Z</time>
      </trkpt>
      <trkpt lat="46.35162833" lon="18.70362">
        <ele>144.5</ele>
        <time>2025-07-18T14:13:15Z</time>
      </trkpt>
      <trkpt lat="46.35161833" lon="18.70375333">
        <ele>149.4</ele>
        <time>2025-07-18T14:13:21Z</time>
      </trkpt>
      <trkpt lat="46.35158167" lon="18.70388333">
        <ele>148.8</ele>
        <time>2025-07-18T14:13:32Z</time>
      </trkpt>
      <trkpt lat="46.35151333" lon="18.70396833">
        <ele>145.2</ele>
        <time>2025-07-18T14:13:44Z</time>
      </trkpt>
      <trkpt lat="46.35142" lon="18.70393">
        <ele>145.2</ele>
        <time>2025-07-18T14:13:52Z</time>
      </trkpt>
      <trkpt lat="46.35132" lon="18.70393">
        <ele>147.1</ele>
        <time>2025-07-18T14:13:58Z</time>
      </trkpt>
      <trkpt lat="46.35123" lon="18.703915">
        <ele>144.3</ele>
        <time>2025-07-18T14:14:06Z</time>
      </trkpt>
      <trkpt lat="46.35114" lon="18.70387833">
        <ele>141.9</ele>
        <time>2025-07-18T14:14:11Z</time>
      </trkpt>
      <trkpt lat="46.35105" lon="18.703835">
        <ele>137.4</ele>
        <time>2025-07-18T14:14:17Z</time>
      </trkpt>
      <trkpt lat="46.35095833" lon="18.703825">
        <ele>132.4</ele>
        <time>2025-07-18T14:14:27Z</time>
      </trkpt>
      <trkpt lat="46.35087167" lon="18.70377333">
        <ele>130.5</ele>
        <time>2025-07-18T14:14:34Z</time>
      </trkpt>
      <trkpt lat="46.35077667" lon="18.70379667">
        <ele>128.9</ele>
        <time>2025-07-18T14:14:40Z</time>
      </trkpt>
      <trkpt lat="46.35069833" lon="18.70388">
        <ele>129.3</ele>
        <time>2025-07-18T14:14:45Z</time>
      </trkpt>
      <trkpt lat="46.35059333" lon="18.70386667">
        <ele>129.8</ele>
        <time>2025-07-18T14:14:52Z</time>
      </trkpt>
      <trkpt lat="46.35049667" lon="18.70384167">
        <ele>129.6</ele>
        <time>2025-07-18T14:14:59Z</time>
      </trkpt>
      <trkpt lat="46.35039667" lon="18.70384">
        <ele>128.9</ele>
        <time>2025-07-18T14:15:05Z</time>
      </trkpt>
      <trkpt lat="46.350295" lon="18.70385667">
        <ele>131.5</ele>
        <time>2025-07-18T14:15:11Z</time>
      </trkpt>
      <trkpt lat="46.350205" lon="18.70383833">
        <ele>134.8</ele>
        <time>2025-07-18T14:15:17Z</time>
      </trkpt>
      <trkpt lat="46.350145" lon="18.703725">
        <ele>132.3</ele>
        <time>2025-07-18T14:15:23Z</time>
      </trkpt>
      <trkpt lat="46.35016667" lon="18.70358833">
        <ele>130.9</ele>
        <time>2025-07-18T14:15:29Z</time>
      </trkpt>
      <trkpt lat="46.35025333" lon="18.703545">
        <ele>172.9</ele>
        <time>2025-07-18T14:15:38Z</time>
      </trkpt>
      <trkpt lat="46.350225" lon="18.70339167">
        <ele>177.8</ele>
        <time>2025-07-18T14:15:44Z</time>
      </trkpt>
      <trkpt lat="46.35017833" lon="18.70325833">
        <ele>167</ele>
        <time>2025-07-18T14:15:48Z</time>
      </trkpt>
      <trkpt lat="46.35015" lon="18.70312833">
        <ele>154.1</ele>
        <time>2025-07-18T14:15:53Z</time>
      </trkpt>
      <trkpt lat="46.35016667" lon="18.70297167">
        <ele>147.1</ele>
        <time>2025-07-18T14:15:59Z</time>
      </trkpt>
      <trkpt lat="46.35020167" lon="18.702845">
        <ele>141.5</ele>
        <time>2025-07-18T14:16:05Z</time>
      </trkpt>
      <trkpt lat="46.350205" lon="18.7027">
        <ele>138</ele>
        <time>2025-07-18T14:16:12Z</time>
      </trkpt>
      <trkpt lat="46.35018167" lon="18.70256167">
        <ele>134.9</ele>
        <time>2025-07-18T14:16:22Z</time>
      </trkpt>
      <trkpt lat="46.35023" lon="18.70243">
        <ele>132.9</ele>
        <time>2025-07-18T14:16:30Z</time>
      </trkpt>
      <trkpt lat="46.35027167" lon="18.70231">
        <ele>131.5</ele>
        <time>2025-07-18T14:16:37Z</time>
      </trkpt>
      <trkpt lat="46.35021833" lon="18.70219833">
        <ele>129.7</ele>
        <time>2025-07-18T14:16:42Z</time>
      </trkpt>
      <trkpt lat="46.350195" lon="18.70205667">
        <ele>126.8</ele>
        <time>2025-07-18T14:16:48Z</time>
      </trkpt>
      <trkpt lat="46.35013333" lon="18.701945">
        <ele>127.1</ele>
        <time>2025-07-18T14:16:52Z</time>
      </trkpt>
      <trkpt lat="46.35007333" lon="18.701835">
        <ele>129.6</ele>
        <time>2025-07-18T14:16:58Z</time>
      </trkpt>
      <trkpt lat="46.349985" lon="18.70189333">
        <ele>141.3</ele>
        <time>2025-07-18T14:17:34Z</time>
      </trkpt>
      <trkpt lat="46.34988167" lon="18.70187833">
        <ele>138.8</ele>
        <time>2025-07-18T14:17:56Z</time>
      </trkpt>
      <trkpt lat="46.34978333" lon="18.70187833">
        <ele>135.9</ele>
        <time>2025-07-18T14:18:04Z</time>
      </trkpt>
      <trkpt lat="46.34969667" lon="18.70183">
        <ele>134</ele>
        <time>2025-07-18T14:18:11Z</time>
      </trkpt>
      <trkpt lat="46.3496" lon="18.701805">
        <ele>131.4</ele>
        <time>2025-07-18T14:18:20Z</time>
      </trkpt>
      <trkpt lat="46.34950333" lon="18.70181667">
        <ele>130</ele>
        <time>2025-07-18T14:18:27Z</time>
      </trkpt>
      <trkpt lat="46.34941" lon="18.70184333">
        <ele>129.3</ele>
        <time>2025-07-18T14:18:34Z</time>
      </trkpt>
      <trkpt lat="46.34932667" lon="18.701785">
        <ele>130.5</ele>
        <time>2025-07-18T14:18:49Z</time>
      </trkpt>
      <trkpt lat="46.34922333" lon="18.70176667">
        <ele>131</ele>
        <time>2025-07-18T14:18:57Z</time>
      </trkpt>
      <trkpt lat="46.34912833" lon="18.70174667">
        <ele>131.6</ele>
        <time>2025-07-18T14:19:04Z</time>
      </trkpt>
      <trkpt lat="46.349035" lon="18.70176167">
        <ele>133.7</ele>
        <time>2025-07-18T14:19:15Z</time>
      </trkpt>
      <trkpt lat="46.34892833" lon="18.70176833">
        <ele>134.4</ele>
        <time>2025-07-18T14:19:23Z</time>
      </trkpt>
      <trkpt lat="46.34883833" lon="18.70178833">
        <ele>132.5</ele>
        <time>2025-07-18T14:19:29Z</time>
      </trkpt>
      <trkpt lat="46.348745" lon="18.70178">
        <ele>130.9</ele>
        <time>2025-07-18T14:19:36Z</time>
      </trkpt>
      <trkpt lat="46.34865167" lon="18.70178333">
        <ele>130.5</ele>
        <time>2025-07-18T14:19:44Z</time>
      </trkpt>
      <trkpt lat="46.348565" lon="18.70183167">
        <ele>130.6</ele>
        <time>2025-07-18T14:20:21Z</time>
      </trkpt>
      <trkpt lat="46.34845667" lon="18.702065">
        <ele>174.3</ele>
        <time>2025-07-18T14:21:00Z</time>
      </trkpt>
      <trkpt lat="46.34847333" lon="18.70226333">
        <ele>177.7</ele>
        <time>2025-07-18T14:21:10Z</time>
      </trkpt>
      <trkpt lat="46.34842833" lon="18.70237833">
        <ele>138.4</ele>
        <time>2025-07-18T14:21:46Z</time>
      </trkpt>
      <trkpt lat="46.348345" lon="18.70247">
        <ele>132.5</ele>
        <time>2025-07-18T14:21:53Z</time>
      </trkpt>
      <trkpt lat="46.34833333" lon="18.70260667">
        <ele>128.9</ele>
        <time>2025-07-18T14:22:02Z</time>
      </trkpt>
      <trkpt lat="46.34831" lon="18.70274333">
        <ele>125.8</ele>
        <time>2025-07-18T14:22:13Z</time>
      </trkpt>
      <trkpt lat="46.34831333" lon="18.70288167">
        <ele>126.8</ele>
        <time>2025-07-18T14:22:24Z</time>
      </trkpt>
      <trkpt lat="46.34829667" lon="18.70302333">
        <ele>128</ele>
        <time>2025-07-18T14:22:32Z</time>
      </trkpt>
      <trkpt lat="46.348255" lon="18.70314667">
        <ele>125.7</ele>
        <time>2025-07-18T14:22:41Z</time>
      </trkpt>
      <trkpt lat="46.34824333" lon="18.70328833">
        <ele>128.5</ele>
        <time>2025-07-18T14:22:48Z</time>
      </trkpt>
      <trkpt lat="46.348295" lon="18.70341333">
        <ele>132.8</ele>
        <time>2025-07-18T14:22:55Z</time>
      </trkpt>
      <trkpt lat="46.348295" lon="18.70356833">
        <ele>134.4</ele>
        <time>2025-07-18T14:23:03Z</time>
      </trkpt>
      <trkpt lat="46.34825333" lon="18.70371167">
        <ele>135.2</ele>
        <time>2025-07-18T14:23:11Z</time>
      </trkpt>
      <trkpt lat="46.34818667" lon="18.70380333">
        <ele>134.1</ele>
        <time>2025-07-18T14:23:17Z</time>
      </trkpt>
      <trkpt lat="46.34814167" lon="18.70392833">
        <ele>133</ele>
        <time>2025-07-18T14:23:23Z</time>
      </trkpt>
      <trkpt lat="46.34812167" lon="18.70406833">
        <ele>131.6</ele>
        <time>2025-07-18T14:23:31Z</time>
      </trkpt>
      <trkpt lat="46.34808333" lon="18.7042">
        <ele>129.8</ele>
        <time>2025-07-18T14:23:40Z</time>
      </trkpt>
      <trkpt lat="46.348075" lon="18.70434833">
        <ele>130.5</ele>
        <time>2025-07-18T14:23:47Z</time>
      </trkpt>
      <trkpt lat="46.34807667" lon="18.70449167">
        <ele>131</ele>
        <time>2025-07-18T14:23:54Z</time>
      </trkpt>
      <trkpt lat="46.34807" lon="18.704635">
        <ele>131.6</ele>
        <time>2025-07-18T14:23:59Z</time>
      </trkpt>
      <trkpt lat="46.34807" lon="18.70477167">
        <ele>132.6</ele>
        <time>2025-07-18T14:24:05Z</time>
      </trkpt>
      <trkpt lat="46.34807" lon="18.70490667">
        <ele>134</ele>
        <time>2025-07-18T14:24:13Z</time>
      </trkpt>
      <trkpt lat="46.34801" lon="18.70500667">
        <ele>132.8</ele>
        <time>2025-07-18T14:24:19Z</time>
      </trkpt>
      <trkpt lat="46.34793833" lon="18.70509833">
        <ele>131.2</ele>
        <time>2025-07-18T14:24:25Z</time>
      </trkpt>
      <trkpt lat="46.34788833" lon="18.705215">
        <ele>130.1</ele>
        <time>2025-07-18T14:24:31Z</time>
      </trkpt>
      <trkpt lat="46.34788333" lon="18.70535333">
        <ele>129.9</ele>
        <time>2025-07-18T14:24:37Z</time>
      </trkpt>
      <trkpt lat="46.34794167" lon="18.70546167">
        <ele>129</ele>
        <time>2025-07-18T14:24:42Z</time>
      </trkpt>
      <trkpt lat="46.347965" lon="18.70559">
        <ele>130</ele>
        <time>2025-07-18T14:24:47Z</time>
      </trkpt>
      <trkpt lat="46.34794333" lon="18.70572">
        <ele>129.7</ele>
        <time>2025-07-18T14:24:54Z</time>
      </trkpt>
      <trkpt lat="46.34792333" lon="18.70585833">
        <ele>131.6</ele>
        <time>2025-07-18T14:25:01Z</time>
      </trkpt>
      <trkpt lat="46.34790333" lon="18.70599167">
        <ele>133.1</ele>
        <time>2025-07-18T14:25:08Z</time>
      </trkpt>
      <trkpt lat="46.34790333" lon="18.70613">
        <ele>133.3</ele>
        <time>2025-07-18T14:25:17Z</time>
      </trkpt>
      <trkpt lat="46.34788" lon="18.70627">
        <ele>129.8</ele>
        <time>2025-07-18T14:25:27Z</time>
      </trkpt>
      <trkpt lat="46.347865" lon="18.706405">
        <ele>129.2</ele>
        <time>2025-07-18T14:25:35Z</time>
      </trkpt>
      <trkpt lat="46.34783833" lon="18.70655">
        <ele>128.3</ele>
        <time>2025-07-18T14:25:44Z</time>
      </trkpt>
      <trkpt lat="46.34787667" lon="18.70667">
        <ele>127.5</ele>
        <time>2025-07-18T14:25:54Z</time>
      </trkpt>
      <trkpt lat="46.347825" lon="18.70677833">
        <ele>127.9</ele>
        <time>2025-07-18T14:26:03Z</time>
      </trkpt>
      <trkpt lat="46.34777" lon="18.70690333">
        <ele>128.7</ele>
        <time>2025-07-18T14:26:10Z</time>
      </trkpt>
      <trkpt lat="46.34775167" lon="18.70705167">
        <ele>130.8</ele>
        <time>2025-07-18T14:26:21Z</time>
      </trkpt>
      <trkpt lat="46.34775" lon="18.707195">
        <ele>132.6</ele>
        <time>2025-07-18T14:26:28Z</time>
      </trkpt>
      <trkpt lat="46.34771833" lon="18.70732333">
        <ele>134.8</ele>
        <time>2025-07-18T14:26:36Z</time>
      </trkpt>
      <trkpt lat="46.347695" lon="18.70746167">
        <ele>135.6</ele>
        <time>2025-07-18T14:26:43Z</time>
      </trkpt>
      <trkpt lat="46.34768667" lon="18.707595">
        <ele>136.1</ele>
        <time>2025-07-18T14:26:49Z</time>
      </trkpt>
      <trkpt lat="46.34765833" lon="18.70774667">
        <ele>133.6</ele>
        <time>2025-07-18T14:27:57Z</time>
      </trkpt>
      <trkpt lat="46.34765333" lon="18.70788833">
        <ele>133.8</ele>
        <time>2025-07-18T14:28:04Z</time>
      </trkpt>
      <trkpt lat="46.34772" lon="18.70798833">
        <ele>134</ele>
        <time>2025-07-18T14:28:22Z</time>
      </trkpt>
      <trkpt lat="46.34780833" lon="18.708015">
        <ele>134.5</ele>
        <time>2025-07-18T14:28:37Z</time>
      </trkpt>
      <trkpt lat="46.34788667" lon="18.708095">
        <ele>135.5</ele>
        <time>2025-07-18T14:28:44Z</time>
      </trkpt>
      <trkpt lat="46.34794167" lon="18.70820167">
        <ele>135.9</ele>
        <time>2025-07-18T14:28:52Z</time>
      </trkpt>
      <trkpt lat="46.34800167" lon="18.70830333">
        <ele>136.3</ele>
        <time>2025-07-18T14:28:59Z</time>
      </trkpt>
      <trkpt lat="46.34808167" lon="18.70837833">
        <ele>136.3</ele>
        <time>2025-07-18T14:29:06Z</time>
      </trkpt>
      <trkpt lat="46.34814" lon="18.70847833">
        <ele>137.3</ele>
        <time>2025-07-18T14:29:15Z</time>
      </trkpt>
      <trkpt lat="46.34821333" lon="18.70858">
        <ele>137</ele>
        <time>2025-07-18T14:29:23Z</time>
      </trkpt>
      <trkpt lat="46.34827333" lon="18.70869">
        <ele>137</ele>
        <time>2025-07-18T14:29:31Z</time>
      </trkpt>
      <trkpt lat="46.34833833" lon="18.70879333">
        <ele>134.8</ele>
        <time>2025-07-18T14:29:40Z</time>
      </trkpt>
      <trkpt lat="46.34840667" lon="18.70889833">
        <ele>133.9</ele>
        <time>2025-07-18T14:29:48Z</time>
      </trkpt>
      <trkpt lat="46.34844" lon="18.70903167">
        <ele>134.2</ele>
        <time>2025-07-18T14:29:56Z</time>
      </trkpt>
      <trkpt lat="46.34848167" lon="18.70915667">
        <ele>136.5</ele>
        <time>2025-07-18T14:30:02Z</time>
      </trkpt>
      <trkpt lat="46.3485" lon="18.70929">
        <ele>138.7</ele>
        <time>2025-07-18T14:30:09Z</time>
      </trkpt>
      <trkpt lat="46.34850833" lon="18.70942333">
        <ele>138.8</ele>
        <time>2025-07-18T14:30:17Z</time>
      </trkpt>
      <trkpt lat="46.34852333" lon="18.709565">
        <ele>138.4</ele>
        <time>2025-07-18T14:30:26Z</time>
      </trkpt>
      <trkpt lat="46.34854" lon="18.70970833">
        <ele>137.7</ele>
        <time>2025-07-18T14:30:33Z</time>
      </trkpt>
      <trkpt lat="46.34854167" lon="18.70984333">
        <ele>137.3</ele>
        <time>2025-07-18T14:30:40Z</time>
      </trkpt>
      <trkpt lat="46.348575" lon="18.70997333">
        <ele>135.7</ele>
        <time>2025-07-18T14:30:48Z</time>
      </trkpt>
      <trkpt lat="46.348585" lon="18.71010333">
        <ele>136.5</ele>
        <time>2025-07-18T14:30:54Z</time>
      </trkpt>
      <trkpt lat="46.34859167" lon="18.71023833">
        <ele>138.1</ele>
        <time>2025-07-18T14:30:59Z</time>
      </trkpt>
      <trkpt lat="46.34860167" lon="18.71038333">
        <ele>138.9</ele>
        <time>2025-07-18T14:31:06Z</time>
      </trkpt>
      <trkpt lat="46.34859667" lon="18.71052167">
        <ele>140.6</ele>
        <time>2025-07-18T14:31:15Z</time>
      </trkpt>
      <trkpt lat="46.348595" lon="18.71066">
        <ele>142.1</ele>
        <time>2025-07-18T14:31:25Z</time>
      </trkpt>
      <trkpt lat="46.34865333" lon="18.71078167">
        <ele>139.9</ele>
        <time>2025-07-18T14:31:33Z</time>
      </trkpt>
      <trkpt lat="46.34865667" lon="18.710935">
        <ele>136.3</ele>
        <time>2025-07-18T14:31:38Z</time>
      </trkpt>
      <trkpt lat="46.34867" lon="18.71107667">
        <ele>133.1</ele>
        <time>2025-07-18T14:31:46Z</time>
      </trkpt>
      <trkpt lat="46.34869" lon="18.71122167">
        <ele>132.2</ele>
        <time>2025-07-18T14:31:54Z</time>
      </trkpt>
      <trkpt lat="46.34871667" lon="18.71135333">
        <ele>132</ele>
        <time>2025-07-18T14:32:01Z</time>
      </trkpt>
      <trkpt lat="46.34873167" lon="18.71148833">
        <ele>131.8</ele>
        <time>2025-07-18T14:32:08Z</time>
      </trkpt>
      <trkpt lat="46.34873333" lon="18.71162">
        <ele>133</ele>
        <time>2025-07-18T14:32:14Z</time>
      </trkpt>
      <trkpt lat="46.34873333" lon="18.71175667">
        <ele>133.3</ele>
        <time>2025-07-18T14:32:22Z</time>
      </trkpt>
      <trkpt lat="46.348745" lon="18.71188667">
        <ele>132.8</ele>
        <time>2025-07-18T14:32:29Z</time>
      </trkpt>
      <trkpt lat="46.348765" lon="18.71203667">
        <ele>132.2</ele>
        <time>2025-07-18T14:32:37Z</time>
      </trkpt>
      <trkpt lat="46.34877833" lon="18.71217">
        <ele>133</ele>
        <time>2025-07-18T14:32:44Z</time>
      </trkpt>
      <trkpt lat="46.348815" lon="18.71229">
        <ele>134</ele>
        <time>2025-07-18T14:32:50Z</time>
      </trkpt>
      <trkpt lat="46.3489" lon="18.71235">
        <ele>134.7</ele>
        <time>2025-07-18T14:32:58Z</time>
      </trkpt>
      <trkpt lat="46.348995" lon="18.71234833">
        <ele>134.4</ele>
        <time>2025-07-18T14:33:07Z</time>
      </trkpt>
      <trkpt lat="46.34909167" lon="18.71234167">
        <ele>135</ele>
        <time>2025-07-18T14:33:18Z</time>
      </trkpt>
      <trkpt lat="46.34916333" lon="18.71226">
        <ele>136.8</ele>
        <time>2025-07-18T14:33:25Z</time>
      </trkpt>
      <trkpt lat="46.34926833" lon="18.71224667">
        <ele>138.2</ele>
        <time>2025-07-18T14:33:31Z</time>
      </trkpt>
      <trkpt lat="46.34937333" lon="18.71218167">
        <ele>141.5</ele>
        <time>2025-07-18T14:33:38Z</time>
      </trkpt>
      <trkpt lat="46.34945667" lon="18.71213">
        <ele>148.2</ele>
        <time>2025-07-18T14:33:46Z</time>
      </trkpt>
      <trkpt lat="46.3495" lon="18.71225">
        <ele>149.1</ele>
        <time>2025-07-18T14:33:58Z</time>
      </trkpt>
      <trkpt lat="46.34959" lon="18.71221833">
        <ele>146.6</ele>
        <time>2025-07-18T14:34:31Z</time>
      </trkpt>
      <trkpt lat="46.34968" lon="18.712205">
        <ele>142.4</ele>
        <time>2025-07-18T14:34:36Z</time>
      </trkpt>
      <trkpt lat="46.34972167" lon="18.712335">
        <ele>142.4</ele>
        <time>2025-07-18T14:34:43Z</time>
      </trkpt>
      <trkpt lat="46.34970833" lon="18.71248">
        <ele>141.1</ele>
        <time>2025-07-18T14:34:51Z</time>
      </trkpt>
      <trkpt lat="46.34965333" lon="18.71258667">
        <ele>138.7</ele>
        <time>2025-07-18T14:34:58Z</time>
      </trkpt>
      <trkpt lat="46.34956667" lon="18.71266167">
        <ele>135.6</ele>
        <time>2025-07-18T14:35:06Z</time>
      </trkpt>
      <trkpt lat="46.34952" lon="18.71278333">
        <ele>138.8</ele>
        <time>2025-07-18T14:36:03Z</time>
      </trkpt>
      <trkpt lat="46.34944333" lon="18.71286333">
        <ele>139.9</ele>
        <time>2025-07-18T14:36:14Z</time>
      </trkpt>
    </trkseg>
  </trk>
</gpx>