<?xml version='1.0' encoding='UTF-8' standalone='yes' ?>
<gpx xmlns="http://www.topografix.com/GPX/1/1" xmlns:geotracker="http://ilyabogdanovich.com/gpx/extensions/geotracker" xmlns:xsi="http://www.w3.org/2001/XMLSchema-instance" xsi:schemaLocation="http://www.topografix.com/GPX/1/1 http://www.topografix.com/GPX/1/1/gpx.xsd" version="1.1" creator="Recorded in Geo Tracker for Android from Ilya Bogdanovich">
  <metadata>
    <name>w_0710_06</name>
    <author>
      <name>Recorded in Geo Tracker for Android from Ilya Bogdanovich</name>
      <link href="https://play.google.com/store/apps/details?id=com.ilyabogdanovich.geotracker" />
    </author>
    <link href="https://play.google.com/store/apps/details?id=com.ilyabogdanovich.geotracker" />
    <time>2025-07-10T14:49:02Z</time>
  </metadata>
  <trk>
    <name>w_0710_06</name>
    <src>Recorded in Geo Tracker for Android from Ilya Bogdanovich</src>
    <link href="https://play.google.com/store/apps/details?id=com.ilyabogdanovich.geotracker" />
    <extensions>
      <geotracker:meta>
        <geotracker:length>1079.06</geotracker:length>
        <geotracker:duration>795755</geotracker:duration>
        <geotracker:creationtime>2025-07-10T14:49:02Z</geotracker:creationtime>
        <geotracker:activity>0</geotracker:activity>
      </geotracker:meta>
    </extensions>
    <trkseg>
      <trkpt lat="47.99762333" lon="22.16747833">
        <ele>180</ele>
        <time>2025-07-10T14:49:08Z</time>
      </trkpt>
      <trkpt lat="47.99768167" lon="22.16733167">
        <ele>178.7</ele>
        <time>2025-07-10T14:49:16Z</time>
      </trkpt>
      <trkpt lat="47.99774333" lon="22.16720167">
        <ele>179.8</ele>
        <time>2025-07-10T14:49:26Z</time>
      </trkpt>
      <trkpt lat="47.99774167" lon="22.167045">
        <ele>179.6</ele>
        <time>2025-07-10T14:49:33Z</time>
      </trkpt>
      <trkpt lat="47.997735" lon="22.16690333">
        <ele>176.3</ele>
        <time>2025-07-10T14:49:50Z</time>
      </trkpt>
      <trkpt lat="47.99781" lon="22.166815">
        <ele>177.2</ele>
        <time>2025-07-10T14:49:57Z</time>
      </trkpt>
      <trkpt lat="47.99789833" lon="22.16677">
        <ele>178.5</ele>
        <time>2025-07-10T14:50:03Z</time>
      </trkpt>
      <trkpt lat="47.99797833" lon="22.16670333">
        <ele>179</ele>
        <time>2025-07-10T14:50:10Z</time>
      </trkpt>
      <trkpt lat="47.99807167" lon="22.16665167">
        <ele>179.2</ele>
        <time>2025-07-10T14:50:18Z</time>
      </trkpt>
      <trkpt lat="47.99816167" lon="22.16658667">
        <ele>178.9</ele>
        <time>2025-07-10T14:50:24Z</time>
      </trkpt>
      <trkpt lat="47.99826" lon="22.16653">
        <ele>180.9</ele>
        <time>2025-07-10T14:50:31Z</time>
      </trkpt>
      <trkpt lat="47.99836" lon="22.16649333">
        <ele>181.2</ele>
        <time>2025-07-10T14:50:39Z</time>
      </trkpt>
      <trkpt lat="47.99844833" lon="22.16645667">
        <ele>178.6</ele>
        <time>2025-07-10T14:50:48Z</time>
      </trkpt>
      <trkpt lat="47.99854333" lon="22.166405">
        <ele>177.6</ele>
        <time>2025-07-10T14:50:55Z</time>
      </trkpt>
      <trkpt lat="47.99864667" lon="22.16638">
        <ele>177.6</ele>
        <time>2025-07-10T14:51:02Z</time>
      </trkpt>
      <trkpt lat="47.99873667" lon="22.16632833">
        <ele>178.1</ele>
        <time>2025-07-10T14:51:08Z</time>
      </trkpt>
      <trkpt lat="47.99881833" lon="22.16626667">
        <ele>176.5</ele>
        <time>2025-07-10T14:51:13Z</time>
      </trkpt>
      <trkpt lat="47.99891167" lon="22.16623833">
        <ele>176.4</ele>
        <time>2025-07-10T14:51:19Z</time>
      </trkpt>
      <trkpt lat="47.999" lon="22.16615167">
        <ele>177.7</ele>
        <time>2025-07-10T14:51:25Z</time>
      </trkpt>
      <trkpt lat="47.999095" lon="22.16608667">
        <ele>179.9</ele>
        <time>2025-07-10T14:51:31Z</time>
      </trkpt>
      <trkpt lat="47.99919167" lon="22.16603667">
        <ele>178.4</ele>
        <time>2025-07-10T14:51:38Z</time>
      </trkpt>
      <trkpt lat="47.99928833" lon="22.16598">
        <ele>178.2</ele>
        <time>2025-07-10T14:51:44Z</time>
      </trkpt>
      <trkpt lat="47.99936833" lon="22.16591833">
        <ele>177.8</ele>
        <time>2025-07-10T14:51:52Z</time>
      </trkpt>
      <trkpt lat="47.999465" lon="22.16589833">
        <ele>178.1</ele>
        <time>2025-07-10T14:51:58Z</time>
      </trkpt>
      <trkpt lat="47.99955167" lon="22.16584667">
        <ele>177</ele>
        <time>2025-07-10T14:52:04Z</time>
      </trkpt>
      <trkpt lat="47.99964667" lon="22.16580167">
        <ele>175.6</ele>
        <time>2025-07-10T14:52:11Z</time>
      </trkpt>
      <trkpt lat="47.999735" lon="22.16576667">
        <ele>173.6</ele>
        <time>2025-07-10T14:52:18Z</time>
      </trkpt>
      <trkpt lat="47.99983" lon="22.16570667">
        <ele>171</ele>
        <time>2025-07-10T14:52:26Z</time>
      </trkpt>
      <trkpt lat="47.999915" lon="22.16563667">
        <ele>170.9</ele>
        <time>2025-07-10T14:52:32Z</time>
      </trkpt>
      <trkpt lat="47.999995" lon="22.165555">
        <ele>172.7</ele>
        <time>2025-07-10T14:52:38Z</time>
      </trkpt>
      <trkpt lat="48.000075" lon="22.16548667">
        <ele>176.2</ele>
        <time>2025-07-10T14:52:44Z</time>
      </trkpt>
      <trkpt lat="48.00018" lon="22.16549">
        <ele>176.8</ele>
        <time>2025-07-10T14:52:51Z</time>
      </trkpt>
      <trkpt lat="48.00027167" lon="22.16546167">
        <ele>175.9</ele>
        <time>2025-07-10T14:52:57Z</time>
      </trkpt>
      <trkpt lat="48.00036" lon="22.165415">
        <ele>176.9</ele>
        <time>2025-07-10T14:53:02Z</time>
      </trkpt>
      <trkpt lat="48.00045667" lon="22.165375">
        <ele>176.6</ele>
        <time>2025-07-10T14:53:08Z</time>
      </trkpt>
      <trkpt lat="48.00054333" lon="22.16532167">
        <ele>175.5</ele>
        <time>2025-07-10T14:53:14Z</time>
      </trkpt>
      <trkpt lat="48.00064333" lon="22.16527167">
        <ele>174.3</ele>
        <time>2025-07-10T14:53:21Z</time>
      </trkpt>
      <trkpt lat="48.00073167" lon="22.16523">
        <ele>175.5</ele>
        <time>2025-07-10T14:53:27Z</time>
      </trkpt>
      <trkpt lat="48.00081833" lon="22.16519333">
        <ele>175.9</ele>
        <time>2025-07-10T14:53:33Z</time>
      </trkpt>
      <trkpt lat="48.00091667" lon="22.16515167">
        <ele>175</ele>
        <time>2025-07-10T14:53:40Z</time>
      </trkpt>
      <trkpt lat="48.00100333" lon="22.165105">
        <ele>174.7</ele>
        <time>2025-07-10T14:53:46Z</time>
      </trkpt>
      <trkpt lat="48.00109333" lon="22.16506833">
        <ele>175.5</ele>
        <time>2025-07-10T14:53:53Z</time>
      </trkpt>
      <trkpt lat="48.00118333" lon="22.16502667">
        <ele>174</ele>
        <time>2025-07-10T14:53:59Z</time>
      </trkpt>
      <trkpt lat="48.00127333" lon="22.16498833">
        <ele>174.8</ele>
        <time>2025-07-10T14:54:04Z</time>
      </trkpt>
      <trkpt lat="48.00136" lon="22.16493333">
        <ele>175.2</ele>
        <time>2025-07-10T14:54:10Z</time>
      </trkpt>
      <trkpt lat="48.00144667" lon="22.16488667">
        <ele>174.9</ele>
        <time>2025-07-10T14:54:16Z</time>
      </trkpt>
      <trkpt lat="48.00153667" lon="22.16483167">
        <ele>176.1</ele>
        <time>2025-07-10T14:54:22Z</time>
      </trkpt>
      <trkpt lat="48.00162833" lon="22.16479167">
        <ele>175.2</ele>
        <time>2025-07-10T14:54:28Z</time>
      </trkpt>
      <trkpt lat="48.00171833" lon="22.164755">
        <ele>176</ele>
        <time>2025-07-10T14:54:35Z</time>
      </trkpt>
      <trkpt lat="48.00179" lon="22.16466667">
        <ele>178.4</ele>
        <time>2025-07-10T14:54:41Z</time>
      </trkpt>
      <trkpt lat="48.00187667" lon="22.16462333">
        <ele>177.3</ele>
        <time>2025-07-10T14:54:47Z</time>
      </trkpt>
      <trkpt lat="48.00197333" lon="22.164595">
        <ele>175.8</ele>
        <time>2025-07-10T14:54:54Z</time>
      </trkpt>
      <trkpt lat="48.00206833" lon="22.164555">
        <ele>174.7</ele>
        <time>2025-07-10T14:55:01Z</time>
      </trkpt>
      <trkpt lat="48.00216" lon="22.16449833">
        <ele>174.7</ele>
        <time>2025-07-10T14:55:08Z</time>
      </trkpt>
      <trkpt lat="48.00226333" lon="22.16444667">
        <ele>172.9</ele>
        <time>2025-07-10T14:55:14Z</time>
      </trkpt>
      <trkpt lat="48.00235" lon="22.16439333">
        <ele>172.4</ele>
        <time>2025-07-10T14:55:19Z</time>
      </trkpt>
      <trkpt lat="48.00244167" lon="22.16434">
        <ele>173.9</ele>
        <time>2025-07-10T14:55:26Z</time>
      </trkpt>
      <trkpt lat="48.00254" lon="22.16431">
        <ele>173.1</ele>
        <time>2025-07-10T14:55:32Z</time>
      </trkpt>
      <trkpt lat="48.002635" lon="22.16426">
        <ele>174.1</ele>
        <time>2025-07-10T14:55:38Z</time>
      </trkpt>
      <trkpt lat="48.00273" lon="22.164215">
        <ele>174.8</ele>
        <time>2025-07-10T14:55:44Z</time>
      </trkpt>
      <trkpt lat="48.00282333" lon="22.16418333">
        <ele>172.8</ele>
        <time>2025-07-10T14:55:51Z</time>
      </trkpt>
      <trkpt lat="48.00291833" lon="22.16413833">
        <ele>172.8</ele>
        <time>2025-07-10T14:55:57Z</time>
      </trkpt>
      <trkpt lat="48.003015" lon="22.16406833">
        <ele>173</ele>
        <time>2025-07-10T14:56:04Z</time>
      </trkpt>
      <trkpt lat="48.003115" lon="22.16402167">
        <ele>173</ele>
        <time>2025-07-10T14:56:10Z</time>
      </trkpt>
      <trkpt lat="48.00321167" lon="22.16396167">
        <ele>174.1</ele>
        <time>2025-07-10T14:56:16Z</time>
      </trkpt>
      <trkpt lat="48.0033" lon="22.163915">
        <ele>174.2</ele>
        <time>2025-07-10T14:56:22Z</time>
      </trkpt>
      <trkpt lat="48.003395" lon="22.16386833">
        <ele>175.1</ele>
        <time>2025-07-10T14:56:28Z</time>
      </trkpt>
      <trkpt lat="48.00348333" lon="22.16382833">
        <ele>175.3</ele>
        <time>2025-07-10T14:56:33Z</time>
      </trkpt>
      <trkpt lat="48.00357333" lon="22.16377667">
        <ele>174.8</ele>
        <time>2025-07-10T14:56:40Z</time>
      </trkpt>
      <trkpt lat="48.00367167" lon="22.16372667">
        <ele>174.8</ele>
        <time>2025-07-10T14:56:46Z</time>
      </trkpt>
      <trkpt lat="48.003755" lon="22.16366833">
        <ele>177.1</ele>
        <time>2025-07-10T14:56:51Z</time>
      </trkpt>
      <trkpt lat="48.00384667" lon="22.16361">
        <ele>179.7</ele>
        <time>2025-07-10T14:56:57Z</time>
      </trkpt>
      <trkpt lat="48.00394" lon="22.16354667">
        <ele>180.2</ele>
        <time>2025-07-10T14:57:04Z</time>
      </trkpt>
      <trkpt lat="48.00404167" lon="22.163495">
        <ele>179.8</ele>
        <time>2025-07-10T14:57:12Z</time>
      </trkpt>
      <trkpt lat="48.00413667" lon="22.16345667">
        <ele>177.5</ele>
        <time>2025-07-10T14:57:17Z</time>
      </trkpt>
      <trkpt lat="48.004225" lon="22.16341333">
        <ele>176.3</ele>
        <time>2025-07-10T14:57:22Z</time>
      </trkpt>
      <trkpt lat="48.00431667" lon="22.16337">
        <ele>175.3</ele>
        <time>2025-07-10T14:57:28Z</time>
      </trkpt>
      <trkpt lat="48.00441167" lon="22.16331833">
        <ele>174.4</ele>
        <time>2025-07-10T14:57:35Z</time>
      </trkpt>
      <trkpt lat="48.0045" lon="22.16328833">
        <ele>174.3</ele>
        <time>2025-07-10T14:57:40Z</time>
      </trkpt>
      <trkpt lat="48.00459667" lon="22.16322833">
        <ele>174.3</ele>
        <time>2025-07-10T14:57:46Z</time>
      </trkpt>
      <trkpt lat="48.004685" lon="22.16317167">
        <ele>175.2</ele>
        <time>2025-07-10T14:57:54Z</time>
      </trkpt>
      <trkpt lat="48.00478" lon="22.16312333">
        <ele>177</ele>
        <time>2025-07-10T14:58:01Z</time>
      </trkpt>
      <trkpt lat="48.00486833" lon="22.163085">
        <ele>176</ele>
        <time>2025-07-10T14:58:06Z</time>
      </trkpt>
      <trkpt lat="48.00495333" lon="22.163035">
        <ele>174.7</ele>
        <time>2025-07-10T14:58:13Z</time>
      </trkpt>
      <trkpt lat="48.00505" lon="22.16298333">
        <ele>173.3</ele>
        <time>2025-07-10T14:58:19Z</time>
      </trkpt>
      <trkpt lat="48.005145" lon="22.16294167">
        <ele>173.9</ele>
        <time>2025-07-10T14:58:24Z</time>
      </trkpt>
      <trkpt lat="48.00523167" lon="22.16302167">
        <ele>174.7</ele>
        <time>2025-07-10T14:58:30Z</time>
      </trkpt>
      <trkpt lat="48.00531167" lon="22.163115">
        <ele>175.9</ele>
        <time>2025-07-10T14:58:39Z</time>
      </trkpt>
      <trkpt lat="48.00541333" lon="22.16313">
        <ele>177</ele>
        <time>2025-07-10T14:58:44Z</time>
      </trkpt>
      <trkpt lat="48.005515" lon="22.16318">
        <ele>177.5</ele>
        <time>2025-07-10T14:58:49Z</time>
      </trkpt>
      <trkpt lat="48.00560333" lon="22.16325833">
        <ele>178.1</ele>
        <time>2025-07-10T14:58:55Z</time>
      </trkpt>
      <trkpt lat="48.00566833" lon="22.16335167">
        <ele>179.6</ele>
        <time>2025-07-10T14:59:03Z</time>
      </trkpt>
      <trkpt lat="48.00575333" lon="22.16344167">
        <ele>177.8</ele>
        <time>2025-07-10T14:59:10Z</time>
      </trkpt>
      <trkpt lat="48.00583333" lon="22.16353333">
        <ele>176.2</ele>
        <time>2025-07-10T14:59:16Z</time>
      </trkpt>
      <trkpt lat="48.00592" lon="22.16360167">
        <ele>174.7</ele>
        <time>2025-07-10T14:59:21Z</time>
      </trkpt>
      <trkpt lat="48.00599" lon="22.163695">
        <ele>176.1</ele>
        <time>2025-07-10T14:59:27Z</time>
      </trkpt>
      <trkpt lat="48.00607833" lon="22.16377333">
        <ele>177</ele>
        <time>2025-07-10T14:59:34Z</time>
      </trkpt>
      <trkpt lat="48.00617333" lon="22.16381333">
        <ele>177</ele>
        <time>2025-07-10T14:59:41Z</time>
      </trkpt>
      <trkpt lat="48.00625833" lon="22.163875">
        <ele>177.8</ele>
        <time>2025-07-10T14:59:50Z</time>
      </trkpt>
      <trkpt lat="48.00632" lon="22.16390333">
        <ele>177.9</ele>
        <time>2025-07-10T15:01:51Z</time>
      </trkpt>
    </trkseg>
  </trk>
</gpx>