<?xml version='1.0' encoding='UTF-8' standalone='yes' ?>
<gpx xmlns="http://www.topografix.com/GPX/1/1" xmlns:geotracker="http://ilyabogdanovich.com/gpx/extensions/geotracker" xmlns:xsi="http://www.w3.org/2001/XMLSchema-instance" xsi:schemaLocation="http://www.topografix.com/GPX/1/1 http://www.topografix.com/GPX/1/1/gpx.xsd" version="1.1" creator="Recorded in Geo Tracker for Android from Ilya Bogdanovich">
  <metadata>
    <name>w_0720_06</name>
    <author>
      <name>Recorded in Geo Tracker for Android from Ilya Bogdanovich</name>
      <link href="https://play.google.com/store/apps/details?id=com.ilyabogdanovich.geotracker" />
    </author>
    <link href="https://play.google.com/store/apps/details?id=com.ilyabogdanovich.geotracker" />
    <time>2025-07-20T11:08:04Z</time>
  </metadata>
  <wpt lat="46.26076667" lon="18.546755">
    <ele>179.1</ele>
    <time>2025-07-20T11:15:08Z</time>
    <name>Stop for ~4 min</name>
    <desc>Elevation: 179 m
Time from start: 00:07:03
Distance from start: 306 m</desc>
    <extensions>
      <geotracker:meta visited="1" />
    </extensions>
  </wpt>
  <trk>
    <name>w_0720_06</name>
    <src>Recorded in Geo Tracker for Android from Ilya Bogdanovich</src>
    <link href="https://play.google.com/store/apps/details?id=com.ilyabogdanovich.geotracker" />
    <extensions>
      <geotracker:meta>
        <geotracker:length>607.44</geotracker:length>
        <geotracker:duration>832772</geotracker:duration>
        <geotracker:creationtime>2025-07-20T11:08:04Z</geotracker:creationtime>
        <geotracker:activity>0</geotracker:activity>
      </geotracker:meta>
    </extensions>
    <trkseg>
      <trkpt lat="46.26181667" lon="18.55001167">
        <ele>172.2</ele>
        <time>2025-07-20T11:08:11Z</time>
      </trkpt>
      <trkpt lat="46.26179167" lon="18.54986167">
        <ele>171.8</ele>
        <time>2025-07-20T11:08:33Z</time>
      </trkpt>
      <trkpt lat="46.26179833" lon="18.54972833">
        <ele>171.6</ele>
        <time>2025-07-20T11:08:45Z</time>
      </trkpt>
      <trkpt lat="46.261785" lon="18.5496">
        <ele>170.4</ele>
        <time>2025-07-20T11:08:54Z</time>
      </trkpt>
      <trkpt lat="46.261765" lon="18.54946">
        <ele>170</ele>
        <time>2025-07-20T11:09:05Z</time>
      </trkpt>
      <trkpt lat="46.26174667" lon="18.54932">
        <ele>171.8</ele>
        <time>2025-07-20T11:09:16Z</time>
      </trkpt>
      <trkpt lat="46.26174833" lon="18.54918833">
        <ele>171.6</ele>
        <time>2025-07-20T11:09:27Z</time>
      </trkpt>
      <trkpt lat="46.26172833" lon="18.549055">
        <ele>171.7</ele>
        <time>2025-07-20T11:09:36Z</time>
      </trkpt>
      <trkpt lat="46.26172" lon="18.54892167">
        <ele>170.5</ele>
        <time>2025-07-20T11:09:48Z</time>
      </trkpt>
      <trkpt lat="46.26170333" lon="18.54878167">
        <ele>169.6</ele>
        <time>2025-07-20T11:09:59Z</time>
      </trkpt>
      <trkpt lat="46.26168" lon="18.54864833">
        <ele>167.6</ele>
        <time>2025-07-20T11:10:09Z</time>
      </trkpt>
      <trkpt lat="46.26165833" lon="18.548515">
        <ele>167.9</ele>
        <time>2025-07-20T11:10:17Z</time>
      </trkpt>
      <trkpt lat="46.26161833" lon="18.54838667">
        <ele>169.9</ele>
        <time>2025-07-20T11:10:28Z</time>
      </trkpt>
      <trkpt lat="46.26159167" lon="18.54826">
        <ele>168.9</ele>
        <time>2025-07-20T11:10:38Z</time>
      </trkpt>
      <trkpt lat="46.26157833" lon="18.54813167">
        <ele>166.6</ele>
        <time>2025-07-20T11:10:49Z</time>
      </trkpt>
      <trkpt lat="46.261565" lon="18.54799667">
        <ele>166.6</ele>
        <time>2025-07-20T11:10:58Z</time>
      </trkpt>
      <trkpt lat="46.26154167" lon="18.54786167">
        <ele>168.8</ele>
        <time>2025-07-20T11:11:07Z</time>
      </trkpt>
      <trkpt lat="46.26152167" lon="18.54772333">
        <ele>168.5</ele>
        <time>2025-07-20T11:11:17Z</time>
      </trkpt>
      <trkpt lat="46.26151" lon="18.54759167">
        <ele>171.1</ele>
        <time>2025-07-20T11:11:26Z</time>
      </trkpt>
      <trkpt lat="46.26149333" lon="18.54744833">
        <ele>171.6</ele>
        <time>2025-07-20T11:11:35Z</time>
      </trkpt>
      <trkpt lat="46.26145667" lon="18.54732833">
        <ele>170.5</ele>
        <time>2025-07-20T11:11:43Z</time>
      </trkpt>
      <trkpt lat="46.2614" lon="18.54722167">
        <ele>171.5</ele>
        <time>2025-07-20T11:11:53Z</time>
      </trkpt>
      <trkpt lat="46.26131333" lon="18.54716">
        <ele>173.2</ele>
        <time>2025-07-20T11:12:02Z</time>
      </trkpt>
      <trkpt lat="46.26122" lon="18.54713667">
        <ele>174.3</ele>
        <time>2025-07-20T11:12:12Z</time>
      </trkpt>
      <trkpt lat="46.26112" lon="18.54712333">
        <ele>174.5</ele>
        <time>2025-07-20T11:12:22Z</time>
      </trkpt>
      <trkpt lat="46.26102667" lon="18.54708667">
        <ele>174.1</ele>
        <time>2025-07-20T11:12:31Z</time>
      </trkpt>
      <trkpt lat="46.26094167" lon="18.547025">
        <ele>174.8</ele>
        <time>2025-07-20T11:12:41Z</time>
      </trkpt>
      <trkpt lat="46.26087167" lon="18.54693167">
        <ele>176.3</ele>
        <time>2025-07-20T11:12:50Z</time>
      </trkpt>
      <trkpt lat="46.26079667" lon="18.54686">
        <ele>181.1</ele>
        <time>2025-07-20T11:13:07Z</time>
      </trkpt>
      <trkpt lat="46.26076667" lon="18.546755">
        <ele>179.1</ele>
        <time>2025-07-20T11:15:08Z</time>
      </trkpt>
      <trkpt lat="46.26076" lon="18.546845">
        <ele>183.2</ele>
        <time>2025-07-20T11:17:29Z</time>
      </trkpt>
      <trkpt lat="46.26085" lon="18.54684">
        <ele>185</ele>
        <time>2025-07-20T11:17:42Z</time>
      </trkpt>
      <trkpt lat="46.26089667" lon="18.54695667">
        <ele>182.5</ele>
        <time>2025-07-20T11:17:59Z</time>
      </trkpt>
      <trkpt lat="46.26098167" lon="18.54701">
        <ele>181.9</ele>
        <time>2025-07-20T11:18:09Z</time>
      </trkpt>
      <trkpt lat="46.261055" lon="18.54708667">
        <ele>181.4</ele>
        <time>2025-07-20T11:18:23Z</time>
      </trkpt>
      <trkpt lat="46.261145" lon="18.547105">
        <ele>176.3</ele>
        <time>2025-07-20T11:18:34Z</time>
      </trkpt>
      <trkpt lat="46.261235" lon="18.54713167">
        <ele>174.2</ele>
        <time>2025-07-20T11:18:43Z</time>
      </trkpt>
      <trkpt lat="46.26132667" lon="18.54717167">
        <ele>175.2</ele>
        <time>2025-07-20T11:18:51Z</time>
      </trkpt>
      <trkpt lat="46.2614" lon="18.54726167">
        <ele>175.9</ele>
        <time>2025-07-20T11:18:59Z</time>
      </trkpt>
      <trkpt lat="46.26146667" lon="18.54735167">
        <ele>175.7</ele>
        <time>2025-07-20T11:19:09Z</time>
      </trkpt>
      <trkpt lat="46.26148833" lon="18.54747833">
        <ele>173.7</ele>
        <time>2025-07-20T11:19:18Z</time>
      </trkpt>
      <trkpt lat="46.26149333" lon="18.547615">
        <ele>174.4</ele>
        <time>2025-07-20T11:19:27Z</time>
      </trkpt>
      <trkpt lat="46.26151833" lon="18.54775333">
        <ele>175</ele>
        <time>2025-07-20T11:19:36Z</time>
      </trkpt>
      <trkpt lat="46.26152" lon="18.54788667">
        <ele>177.9</ele>
        <time>2025-07-20T11:19:41Z</time>
      </trkpt>
      <trkpt lat="46.26152667" lon="18.548035">
        <ele>182</ele>
        <time>2025-07-20T11:19:50Z</time>
      </trkpt>
      <trkpt lat="46.261565" lon="18.548155">
        <ele>178.7</ele>
        <time>2025-07-20T11:19:58Z</time>
      </trkpt>
      <trkpt lat="46.26158167" lon="18.54829667">
        <ele>175.6</ele>
        <time>2025-07-20T11:20:09Z</time>
      </trkpt>
      <trkpt lat="46.261595" lon="18.54843333">
        <ele>175.6</ele>
        <time>2025-07-20T11:20:16Z</time>
      </trkpt>
      <trkpt lat="46.261635" lon="18.548555">
        <ele>172.6</ele>
        <time>2025-07-20T11:20:25Z</time>
      </trkpt>
      <trkpt lat="46.261675" lon="18.54867333">
        <ele>171.5</ele>
        <time>2025-07-20T11:20:34Z</time>
      </trkpt>
      <trkpt lat="46.26169333" lon="18.54880333">
        <ele>169.1</ele>
        <time>2025-07-20T11:20:44Z</time>
      </trkpt>
      <trkpt lat="46.26173" lon="18.54893833">
        <ele>165.9</ele>
        <time>2025-07-20T11:20:54Z</time>
      </trkpt>
      <trkpt lat="46.26173833" lon="18.54908333">
        <ele>165.4</ele>
        <time>2025-07-20T11:21:01Z</time>
      </trkpt>
      <trkpt lat="46.26174667" lon="18.54922333">
        <ele>166.3</ele>
        <time>2025-07-20T11:21:09Z</time>
      </trkpt>
      <trkpt lat="46.26174167" lon="18.549355">
        <ele>168</ele>
        <time>2025-07-20T11:21:17Z</time>
      </trkpt>
      <trkpt lat="46.26176833" lon="18.54948667">
        <ele>169.4</ele>
        <time>2025-07-20T11:21:26Z</time>
      </trkpt>
      <trkpt lat="46.26179333" lon="18.549615">
        <ele>168.4</ele>
        <time>2025-07-20T11:21:35Z</time>
      </trkpt>
      <trkpt lat="46.26178833" lon="18.54974833">
        <ele>167.8</ele>
        <time>2025-07-20T11:21:45Z</time>
      </trkpt>
      <trkpt lat="46.26181333" lon="18.54989667">
        <ele>168.7</ele>
        <time>2025-07-20T11:21:53Z</time>
      </trkpt>
    </trkseg>
  </trk>
</gpx>