<?xml version='1.0' encoding='UTF-8' standalone='yes' ?>
<gpx xmlns="http://www.topografix.com/GPX/1/1" xmlns:geotracker="http://ilyabogdanovich.com/gpx/extensions/geotracker" xmlns:xsi="http://www.w3.org/2001/XMLSchema-instance" xsi:schemaLocation="http://www.topografix.com/GPX/1/1 http://www.topografix.com/GPX/1/1/gpx.xsd" version="1.1" creator="Aufgezeichnet mit Geo Tracker für Android von Ilya Bogdanovich">
  <metadata>
    <name>w_0723_01</name>
    <author>
      <name>Aufgezeichnet mit Geo Tracker für Android von Ilya Bogdanovich</name>
      <link href="https://play.google.com/store/apps/details?id=com.ilyabogdanovich.geotracker" />
    </author>
    <link href="https://play.google.com/store/apps/details?id=com.ilyabogdanovich.geotracker" />
    <time>2025-07-23T06:26:33Z</time>
  </metadata>
  <trk>
    <name>w_0723_01</name>
    <src>Aufgezeichnet mit Geo Tracker für Android von Ilya Bogdanovich</src>
    <link href="https://play.google.com/store/apps/details?id=com.ilyabogdanovich.geotracker" />
    <extensions>
      <geotracker:meta>
        <geotracker:length>158.41</geotracker:length>
        <geotracker:duration>285435</geotracker:duration>
        <geotracker:creationtime>2025-07-23T06:26:33Z</geotracker:creationtime>
        <geotracker:activity>0</geotracker:activity>
      </geotracker:meta>
    </extensions>
    <trkseg>
      <trkpt lat="45.95179411" lon="17.44749639">
        <ele>136</ele>
        <time>2025-07-23T06:26:47Z</time>
      </trkpt>
      <trkpt lat="45.95181699" lon="17.44736144">
        <ele>135</ele>
        <time>2025-07-23T06:26:56Z</time>
      </trkpt>
      <trkpt lat="45.95184825" lon="17.4472239">
        <ele>133</ele>
        <time>2025-07-23T06:27:05Z</time>
      </trkpt>
      <trkpt lat="45.95188002" lon="17.44709683">
        <ele>132</ele>
        <time>2025-07-23T06:27:13Z</time>
      </trkpt>
      <trkpt lat="45.9518954" lon="17.44695467">
        <ele>133</ele>
        <time>2025-07-23T06:27:21Z</time>
      </trkpt>
      <trkpt lat="45.95184767" lon="17.44683615">
        <ele>132</ele>
        <time>2025-07-23T06:27:29Z</time>
      </trkpt>
      <trkpt lat="45.95181213" lon="17.44670304">
        <ele>132</ele>
        <time>2025-07-23T06:27:41Z</time>
      </trkpt>
      <trkpt lat="45.95172747" lon="17.44663716">
        <ele>134</ele>
        <time>2025-07-23T06:27:51Z</time>
      </trkpt>
      <trkpt lat="45.95166171" lon="17.44654144">
        <ele>133</ele>
        <time>2025-07-23T06:28:00Z</time>
      </trkpt>
      <trkpt lat="45.95157437" lon="17.4464883">
        <ele>132</ele>
        <time>2025-07-23T06:28:09Z</time>
      </trkpt>
      <trkpt lat="45.95152169" lon="17.44638369">
        <ele>130</ele>
        <time>2025-07-23T06:28:17Z</time>
      </trkpt>
      <trkpt lat="45.95152438" lon="17.44625419">
        <ele>129</ele>
        <time>2025-07-23T06:28:28Z</time>
      </trkpt>
      <trkpt lat="45.95150451" lon="17.4461231">
        <ele>129</ele>
        <time>2025-07-23T06:28:39Z</time>
      </trkpt>
      <trkpt lat="45.95150468" lon="17.44599092">
        <ele>131</ele>
        <time>2025-07-23T06:28:49Z</time>
      </trkpt>
      <trkpt lat="45.95151348" lon="17.44586016">
        <ele>133</ele>
        <time>2025-07-23T06:29:10Z</time>
      </trkpt>
      <trkpt lat="45.95158179" lon="17.44576486">
        <ele>134</ele>
        <time>2025-07-23T06:30:17Z</time>
      </trkpt>
    </trkseg>
  </trk>
</gpx>