<?xml version='1.0' encoding='UTF-8' standalone='yes' ?>
<gpx xmlns="http://www.topografix.com/GPX/1/1" xmlns:geotracker="http://ilyabogdanovich.com/gpx/extensions/geotracker" xmlns:xsi="http://www.w3.org/2001/XMLSchema-instance" xsi:schemaLocation="http://www.topografix.com/GPX/1/1 http://www.topografix.com/GPX/1/1/gpx.xsd" version="1.1" creator="Recorded in Geo Tracker for Android from Ilya Bogdanovich">
  <metadata>
    <name>w_0716_15</name>
    <author>
      <name>Recorded in Geo Tracker for Android from Ilya Bogdanovich</name>
      <link href="https://play.google.com/store/apps/details?id=com.ilyabogdanovich.geotracker" />
    </author>
    <link href="https://play.google.com/store/apps/details?id=com.ilyabogdanovich.geotracker" />
    <time>2025-07-16T19:16:36Z</time>
  </metadata>
  <trk>
    <name>w_0716_15</name>
    <src>Recorded in Geo Tracker for Android from Ilya Bogdanovich</src>
    <link href="https://play.google.com/store/apps/details?id=com.ilyabogdanovich.geotracker" />
    <extensions>
      <geotracker:meta>
        <geotracker:length>541.44</geotracker:length>
        <geotracker:duration>412381</geotracker:duration>
        <geotracker:creationtime>2025-07-16T19:16:36Z</geotracker:creationtime>
        <geotracker:activity>0</geotracker:activity>
      </geotracker:meta>
    </extensions>
    <trkseg>
      <trkpt lat="46.85542667" lon="16.78108667">
        <ele>203.9</ele>
        <time>2025-07-16T19:16:41Z</time>
      </trkpt>
      <trkpt lat="46.855425" lon="16.780935">
        <ele>203.2</ele>
        <time>2025-07-16T19:16:50Z</time>
      </trkpt>
      <trkpt lat="46.85541333" lon="16.78079667">
        <ele>202.8</ele>
        <time>2025-07-16T19:16:58Z</time>
      </trkpt>
      <trkpt lat="46.85539" lon="16.78066167">
        <ele>202.4</ele>
        <time>2025-07-16T19:17:06Z</time>
      </trkpt>
      <trkpt lat="46.85536167" lon="16.78053167">
        <ele>203.6</ele>
        <time>2025-07-16T19:17:13Z</time>
      </trkpt>
      <trkpt lat="46.85532333" lon="16.78040333">
        <ele>203.7</ele>
        <time>2025-07-16T19:17:22Z</time>
      </trkpt>
      <trkpt lat="46.85531333" lon="16.78026">
        <ele>203.4</ele>
        <time>2025-07-16T19:17:30Z</time>
      </trkpt>
      <trkpt lat="46.85530167" lon="16.78012667">
        <ele>203.3</ele>
        <time>2025-07-16T19:17:37Z</time>
      </trkpt>
      <trkpt lat="46.85523" lon="16.78000667">
        <ele>202</ele>
        <time>2025-07-16T19:17:45Z</time>
      </trkpt>
      <trkpt lat="46.85514667" lon="16.77992167">
        <ele>204</ele>
        <time>2025-07-16T19:17:53Z</time>
      </trkpt>
      <trkpt lat="46.855075" lon="16.77982">
        <ele>204.2</ele>
        <time>2025-07-16T19:17:59Z</time>
      </trkpt>
      <trkpt lat="46.85502167" lon="16.77970833">
        <ele>203.9</ele>
        <time>2025-07-16T19:18:06Z</time>
      </trkpt>
      <trkpt lat="46.854955" lon="16.779615">
        <ele>203.3</ele>
        <time>2025-07-16T19:18:13Z</time>
      </trkpt>
      <trkpt lat="46.85487667" lon="16.77952">
        <ele>204</ele>
        <time>2025-07-16T19:18:20Z</time>
      </trkpt>
      <trkpt lat="46.85482" lon="16.77940167">
        <ele>203.7</ele>
        <time>2025-07-16T19:18:27Z</time>
      </trkpt>
      <trkpt lat="46.85474833" lon="16.77931833">
        <ele>205.2</ele>
        <time>2025-07-16T19:18:32Z</time>
      </trkpt>
      <trkpt lat="46.85467" lon="16.77922167">
        <ele>206.1</ele>
        <time>2025-07-16T19:18:39Z</time>
      </trkpt>
      <trkpt lat="46.85462167" lon="16.77911">
        <ele>204.8</ele>
        <time>2025-07-16T19:18:46Z</time>
      </trkpt>
      <trkpt lat="46.85456" lon="16.77901167">
        <ele>203.5</ele>
        <time>2025-07-16T19:18:53Z</time>
      </trkpt>
      <trkpt lat="46.85450333" lon="16.778905">
        <ele>202.3</ele>
        <time>2025-07-16T19:18:59Z</time>
      </trkpt>
      <trkpt lat="46.85445333" lon="16.77879167">
        <ele>200.7</ele>
        <time>2025-07-16T19:19:06Z</time>
      </trkpt>
      <trkpt lat="46.85437833" lon="16.778685">
        <ele>198.4</ele>
        <time>2025-07-16T19:19:13Z</time>
      </trkpt>
      <trkpt lat="46.85432167" lon="16.77857667">
        <ele>198.4</ele>
        <time>2025-07-16T19:19:21Z</time>
      </trkpt>
      <trkpt lat="46.85426" lon="16.77846667">
        <ele>197.4</ele>
        <time>2025-07-16T19:19:27Z</time>
      </trkpt>
      <trkpt lat="46.854185" lon="16.77836167">
        <ele>198.6</ele>
        <time>2025-07-16T19:19:33Z</time>
      </trkpt>
      <trkpt lat="46.85412667" lon="16.77825333">
        <ele>200.5</ele>
        <time>2025-07-16T19:19:39Z</time>
      </trkpt>
      <trkpt lat="46.85405333" lon="16.77816">
        <ele>202.9</ele>
        <time>2025-07-16T19:19:45Z</time>
      </trkpt>
      <trkpt lat="46.85399" lon="16.77805833">
        <ele>204</ele>
        <time>2025-07-16T19:19:52Z</time>
      </trkpt>
      <trkpt lat="46.85392" lon="16.77796333">
        <ele>201.7</ele>
        <time>2025-07-16T19:20:00Z</time>
      </trkpt>
      <trkpt lat="46.85387" lon="16.77785167">
        <ele>200.1</ele>
        <time>2025-07-16T19:20:07Z</time>
      </trkpt>
      <trkpt lat="46.85381" lon="16.77774">
        <ele>198.5</ele>
        <time>2025-07-16T19:20:14Z</time>
      </trkpt>
      <trkpt lat="46.853755" lon="16.77761">
        <ele>198.7</ele>
        <time>2025-07-16T19:20:22Z</time>
      </trkpt>
      <trkpt lat="46.85379" lon="16.77748667">
        <ele>200.3</ele>
        <time>2025-07-16T19:20:28Z</time>
      </trkpt>
      <trkpt lat="46.85385333" lon="16.777375">
        <ele>203.1</ele>
        <time>2025-07-16T19:20:35Z</time>
      </trkpt>
      <trkpt lat="46.85391833" lon="16.77726167">
        <ele>205</ele>
        <time>2025-07-16T19:20:41Z</time>
      </trkpt>
      <trkpt lat="46.85397167" lon="16.77713667">
        <ele>205.6</ele>
        <time>2025-07-16T19:20:49Z</time>
      </trkpt>
      <trkpt lat="46.85402333" lon="16.77701333">
        <ele>206.3</ele>
        <time>2025-07-16T19:20:56Z</time>
      </trkpt>
      <trkpt lat="46.854085" lon="16.77690667">
        <ele>206.8</ele>
        <time>2025-07-16T19:21:03Z</time>
      </trkpt>
      <trkpt lat="46.854135" lon="16.77678167">
        <ele>208.6</ele>
        <time>2025-07-16T19:21:11Z</time>
      </trkpt>
      <trkpt lat="46.85419" lon="16.776665">
        <ele>209</ele>
        <time>2025-07-16T19:21:20Z</time>
      </trkpt>
      <trkpt lat="46.85425" lon="16.77656">
        <ele>210.1</ele>
        <time>2025-07-16T19:21:28Z</time>
      </trkpt>
      <trkpt lat="46.85430167" lon="16.77642667">
        <ele>211.4</ele>
        <time>2025-07-16T19:21:36Z</time>
      </trkpt>
      <trkpt lat="46.85436" lon="16.77632">
        <ele>212</ele>
        <time>2025-07-16T19:21:45Z</time>
      </trkpt>
      <trkpt lat="46.854405" lon="16.7762">
        <ele>213.8</ele>
        <time>2025-07-16T19:21:55Z</time>
      </trkpt>
      <trkpt lat="46.85444667" lon="16.77608167">
        <ele>214.8</ele>
        <time>2025-07-16T19:22:03Z</time>
      </trkpt>
      <trkpt lat="46.85438" lon="16.77596667">
        <ele>216.2</ele>
        <time>2025-07-16T19:22:13Z</time>
      </trkpt>
      <trkpt lat="46.85431333" lon="16.77587333">
        <ele>217.4</ele>
        <time>2025-07-16T19:22:22Z</time>
      </trkpt>
      <trkpt lat="46.85436333" lon="16.77575667">
        <ele>218.7</ele>
        <time>2025-07-16T19:22:32Z</time>
      </trkpt>
      <trkpt lat="46.854335" lon="16.77562667">
        <ele>216.3</ele>
        <time>2025-07-16T19:23:07Z</time>
      </trkpt>
      <trkpt lat="46.854365" lon="16.7755">
        <ele>215.5</ele>
        <time>2025-07-16T19:23:20Z</time>
      </trkpt>
      <trkpt lat="46.85431333" lon="16.77533667">
        <ele>215.5</ele>
        <time>2025-07-16T19:23:23Z</time>
      </trkpt>
    </trkseg>
  </trk>
</gpx>