<?xml version='1.0' encoding='UTF-8' standalone='yes' ?>
<gpx xmlns="http://www.topografix.com/GPX/1/1" xmlns:geotracker="http://ilyabogdanovich.com/gpx/extensions/geotracker" xmlns:xsi="http://www.w3.org/2001/XMLSchema-instance" xsi:schemaLocation="http://www.topografix.com/GPX/1/1 http://www.topografix.com/GPX/1/1/gpx.xsd" version="1.1" creator="Recorded in Geo Tracker for Android from Ilya Bogdanovich">
  <metadata>
    <name>w_0722_07</name>
    <author>
      <name>Recorded in Geo Tracker for Android from Ilya Bogdanovich</name>
      <link href="https://play.google.com/store/apps/details?id=com.ilyabogdanovich.geotracker" />
    </author>
    <link href="https://play.google.com/store/apps/details?id=com.ilyabogdanovich.geotracker" />
    <time>2025-07-22T12:37:36Z</time>
  </metadata>
  <trk>
    <name>w_0722_07</name>
    <src>Recorded in Geo Tracker for Android from Ilya Bogdanovich</src>
    <link href="https://play.google.com/store/apps/details?id=com.ilyabogdanovich.geotracker" />
    <extensions>
      <geotracker:meta>
        <geotracker:length>200.83</geotracker:length>
        <geotracker:duration>567620</geotracker:duration>
        <geotracker:creationtime>2025-07-22T12:37:36Z</geotracker:creationtime>
        <geotracker:activity>0</geotracker:activity>
      </geotracker:meta>
    </extensions>
    <trkseg>
      <trkpt lat="45.95332667" lon="17.61658167">
        <ele>147.4</ele>
        <time>2025-07-22T12:37:42Z</time>
      </trkpt>
      <trkpt lat="45.95338333" lon="17.61652167">
        <ele>142.5</ele>
        <time>2025-07-22T12:41:18Z</time>
      </trkpt>
      <trkpt lat="45.95330333" lon="17.61658833">
        <ele>145.2</ele>
        <time>2025-07-22T12:43:06Z</time>
      </trkpt>
      <trkpt lat="45.95321333" lon="17.616625">
        <ele>149.3</ele>
        <time>2025-07-22T12:43:46Z</time>
      </trkpt>
      <trkpt lat="45.95312167" lon="17.61667">
        <ele>153.1</ele>
        <time>2025-07-22T12:43:58Z</time>
      </trkpt>
      <trkpt lat="45.95311167" lon="17.61653833">
        <ele>159.3</ele>
        <time>2025-07-22T12:44:35Z</time>
      </trkpt>
      <trkpt lat="45.95321" lon="17.61639333">
        <ele>161</ele>
        <time>2025-07-22T12:44:38Z</time>
      </trkpt>
      <trkpt lat="45.95314667" lon="17.61656667">
        <ele>164.5</ele>
        <time>2025-07-22T12:44:54Z</time>
      </trkpt>
      <trkpt lat="45.95301167" lon="17.61666167">
        <ele>164.7</ele>
        <time>2025-07-22T12:44:56Z</time>
      </trkpt>
      <trkpt lat="45.95291667" lon="17.61673">
        <ele>165.3</ele>
        <time>2025-07-22T12:45:00Z</time>
      </trkpt>
      <trkpt lat="45.952995" lon="17.61665833">
        <ele>165.9</ele>
        <time>2025-07-22T12:45:06Z</time>
      </trkpt>
      <trkpt lat="45.95309167" lon="17.61659">
        <ele>165.9</ele>
        <time>2025-07-22T12:45:10Z</time>
      </trkpt>
      <trkpt lat="45.95311833" lon="17.61671667">
        <ele>164.3</ele>
        <time>2025-07-22T12:45:44Z</time>
      </trkpt>
      <trkpt lat="45.953145" lon="17.61659167">
        <ele>164.8</ele>
        <time>2025-07-22T12:45:54Z</time>
      </trkpt>
      <trkpt lat="45.953155" lon="17.61643167">
        <ele>164</ele>
        <time>2025-07-22T12:46:17Z</time>
      </trkpt>
      <trkpt lat="45.95304667" lon="17.61654667">
        <ele>164.3</ele>
        <time>2025-07-22T12:46:30Z</time>
      </trkpt>
      <trkpt lat="45.95311833" lon="17.61646333">
        <ele>164</ele>
        <time>2025-07-22T12:46:37Z</time>
      </trkpt>
      <trkpt lat="45.953115" lon="17.616315">
        <ele>164.2</ele>
        <time>2025-07-22T12:46:42Z</time>
      </trkpt>
    </trkseg>
  </trk>
</gpx>