<?xml version='1.0' encoding='UTF-8' standalone='yes' ?>
<gpx xmlns="http://www.topografix.com/GPX/1/1" xmlns:geotracker="http://ilyabogdanovich.com/gpx/extensions/geotracker" xmlns:xsi="http://www.w3.org/2001/XMLSchema-instance" xsi:schemaLocation="http://www.topografix.com/GPX/1/1 http://www.topografix.com/GPX/1/1/gpx.xsd" version="1.1" creator="Recorded in Geo Tracker for Android from Ilya Bogdanovich">
  <metadata>
    <name>w_0724_01</name>
    <author>
      <name>Recorded in Geo Tracker for Android from Ilya Bogdanovich</name>
      <link href="https://play.google.com/store/apps/details?id=com.ilyabogdanovich.geotracker" />
    </author>
    <link href="https://play.google.com/store/apps/details?id=com.ilyabogdanovich.geotracker" />
    <time>2025-07-24T06:26:46Z</time>
  </metadata>
  <trk>
    <name>w_0724_01</name>
    <src>Recorded in Geo Tracker for Android from Ilya Bogdanovich</src>
    <link href="https://play.google.com/store/apps/details?id=com.ilyabogdanovich.geotracker" />
    <extensions>
      <geotracker:meta>
        <geotracker:length>532.3</geotracker:length>
        <geotracker:duration>647713</geotracker:duration>
        <geotracker:creationtime>2025-07-24T06:26:46Z</geotracker:creationtime>
        <geotracker:activity>0</geotracker:activity>
      </geotracker:meta>
    </extensions>
    <trkseg>
      <trkpt lat="46.203885" lon="17.86134667">
        <ele>222.2</ele>
        <time>2025-07-24T06:26:52Z</time>
      </trkpt>
      <trkpt lat="46.20392333" lon="17.86120667">
        <ele>222.7</ele>
        <time>2025-07-24T06:26:59Z</time>
      </trkpt>
      <trkpt lat="46.20401" lon="17.861135">
        <ele>223.4</ele>
        <time>2025-07-24T06:27:08Z</time>
      </trkpt>
      <trkpt lat="46.20386667" lon="17.86135333">
        <ele>223.5</ele>
        <time>2025-07-24T06:27:15Z</time>
      </trkpt>
      <trkpt lat="46.20373833" lon="17.86153667">
        <ele>223.6</ele>
        <time>2025-07-24T06:27:24Z</time>
      </trkpt>
      <trkpt lat="46.20366167" lon="17.86170833">
        <ele>223.4</ele>
        <time>2025-07-24T06:27:45Z</time>
      </trkpt>
      <trkpt lat="46.20406667" lon="17.86132">
        <ele>189.9</ele>
        <time>2025-07-24T06:28:07Z</time>
      </trkpt>
      <trkpt lat="46.20402167" lon="17.86120167">
        <ele>189.7</ele>
        <time>2025-07-24T06:28:31Z</time>
      </trkpt>
      <trkpt lat="46.20394" lon="17.86127333">
        <ele>208.1</ele>
        <time>2025-07-24T06:28:41Z</time>
      </trkpt>
      <trkpt lat="46.20388" lon="17.8615">
        <ele>215.4</ele>
        <time>2025-07-24T06:28:51Z</time>
      </trkpt>
      <trkpt lat="46.20390833" lon="17.86136167">
        <ele>214.5</ele>
        <time>2025-07-24T06:28:58Z</time>
      </trkpt>
      <trkpt lat="46.20399833" lon="17.86131167">
        <ele>212.9</ele>
        <time>2025-07-24T06:29:12Z</time>
      </trkpt>
      <trkpt lat="46.20399667" lon="17.86144667">
        <ele>212.6</ele>
        <time>2025-07-24T06:29:19Z</time>
      </trkpt>
      <trkpt lat="46.20400333" lon="17.86127333">
        <ele>206.1</ele>
        <time>2025-07-24T06:29:36Z</time>
      </trkpt>
      <trkpt lat="46.20398167" lon="17.86143333">
        <ele>209</ele>
        <time>2025-07-24T06:29:50Z</time>
      </trkpt>
      <trkpt lat="46.20388333" lon="17.86132">
        <ele>209.1</ele>
        <time>2025-07-24T06:30:39Z</time>
      </trkpt>
      <trkpt lat="46.203775" lon="17.86136333">
        <ele>204.5</ele>
        <time>2025-07-24T06:31:45Z</time>
      </trkpt>
      <trkpt lat="46.20393333" lon="17.86131667">
        <ele>201.7</ele>
        <time>2025-07-24T06:32:35Z</time>
      </trkpt>
      <trkpt lat="46.20380333" lon="17.86131333">
        <ele>201.3</ele>
        <time>2025-07-24T06:33:24Z</time>
      </trkpt>
      <trkpt lat="46.20378167" lon="17.86105667">
        <ele>204</ele>
        <time>2025-07-24T06:34:04Z</time>
      </trkpt>
      <trkpt lat="46.203825" lon="17.86092833">
        <ele>203.5</ele>
        <time>2025-07-24T06:34:07Z</time>
      </trkpt>
      <trkpt lat="46.20388667" lon="17.860805">
        <ele>203.2</ele>
        <time>2025-07-24T06:34:10Z</time>
      </trkpt>
      <trkpt lat="46.20394833" lon="17.86069333">
        <ele>201.6</ele>
        <time>2025-07-24T06:34:13Z</time>
      </trkpt>
      <trkpt lat="46.20400667" lon="17.86056">
        <ele>200.9</ele>
        <time>2025-07-24T06:34:17Z</time>
      </trkpt>
      <trkpt lat="46.204075" lon="17.86046333">
        <ele>200.1</ele>
        <time>2025-07-24T06:34:20Z</time>
      </trkpt>
      <trkpt lat="46.20413667" lon="17.86033">
        <ele>199</ele>
        <time>2025-07-24T06:34:24Z</time>
      </trkpt>
      <trkpt lat="46.20420167" lon="17.86021">
        <ele>198.7</ele>
        <time>2025-07-24T06:34:28Z</time>
      </trkpt>
      <trkpt lat="46.20427167" lon="17.860105">
        <ele>198.6</ele>
        <time>2025-07-24T06:34:32Z</time>
      </trkpt>
      <trkpt lat="46.20434833" lon="17.85999667">
        <ele>199.8</ele>
        <time>2025-07-24T06:34:36Z</time>
      </trkpt>
      <trkpt lat="46.204425" lon="17.8599">
        <ele>200.6</ele>
        <time>2025-07-24T06:34:40Z</time>
      </trkpt>
      <trkpt lat="46.20450667" lon="17.85982833">
        <ele>200.3</ele>
        <time>2025-07-24T06:34:46Z</time>
      </trkpt>
      <trkpt lat="46.20457667" lon="17.859745">
        <ele>199.9</ele>
        <time>2025-07-24T06:34:52Z</time>
      </trkpt>
      <trkpt lat="46.20464167" lon="17.85964833">
        <ele>200.4</ele>
        <time>2025-07-24T06:34:59Z</time>
      </trkpt>
      <trkpt lat="46.20468833" lon="17.85952667">
        <ele>200.1</ele>
        <time>2025-07-24T06:35:06Z</time>
      </trkpt>
      <trkpt lat="46.20477" lon="17.85943833">
        <ele>200.3</ele>
        <time>2025-07-24T06:35:13Z</time>
      </trkpt>
      <trkpt lat="46.20485167" lon="17.85938167">
        <ele>198.8</ele>
        <time>2025-07-24T06:35:28Z</time>
      </trkpt>
      <trkpt lat="46.20493" lon="17.85931167">
        <ele>200.2</ele>
        <time>2025-07-24T06:35:35Z</time>
      </trkpt>
      <trkpt lat="46.20501" lon="17.859245">
        <ele>201.8</ele>
        <time>2025-07-24T06:35:42Z</time>
      </trkpt>
      <trkpt lat="46.20506333" lon="17.85914">
        <ele>203.5</ele>
        <time>2025-07-24T06:35:49Z</time>
      </trkpt>
      <trkpt lat="46.20512833" lon="17.85904">
        <ele>205.5</ele>
        <time>2025-07-24T06:35:56Z</time>
      </trkpt>
    </trkseg>
  </trk>
</gpx>