<?xml version='1.0' encoding='UTF-8' standalone='yes' ?>
<gpx xmlns="http://www.topografix.com/GPX/1/1" xmlns:geotracker="http://ilyabogdanovich.com/gpx/extensions/geotracker" xmlns:xsi="http://www.w3.org/2001/XMLSchema-instance" xsi:schemaLocation="http://www.topografix.com/GPX/1/1 http://www.topografix.com/GPX/1/1/gpx.xsd" version="1.1" creator="Recorded in Geo Tracker for Android from Ilya Bogdanovich">
  <metadata>
    <name>w_0710_03</name>
    <author>
      <name>Recorded in Geo Tracker for Android from Ilya Bogdanovich</name>
      <link href="https://play.google.com/store/apps/details?id=com.ilyabogdanovich.geotracker" />
    </author>
    <link href="https://play.google.com/store/apps/details?id=com.ilyabogdanovich.geotracker" />
    <time>2025-07-10T09:56:41Z</time>
  </metadata>
  <wpt lat="47.99854333" lon="22.07498833">
    <ele>165</ele>
    <time>2025-07-10T09:59:44Z</time>
    <name>Stop for ~4 min</name>
    <desc>Elevation: 165 m
Time from start: 00:03:02
Distance from start: 105 m</desc>
    <extensions>
      <geotracker:meta visited="1" />
    </extensions>
  </wpt>
  <wpt lat="47.99837167" lon="22.07261167">
    <ele>87.4</ele>
    <time>2025-07-10T10:33:23Z</time>
    <name>Stop for ~12 min</name>
    <desc>Elevation: 87 m
Time from start: 00:36:41
Distance from start: 477 m</desc>
    <extensions>
      <geotracker:meta visited="1" />
    </extensions>
  </wpt>
  <wpt lat="47.99837167" lon="22.07261167">
    <ele>87.4</ele>
    <time>2025-07-10T10:33:23Z</time>
    <name>Stop for ~12 min</name>
    <desc>Elevation: 87 m
Time from start: 00:36:41
Distance from start: 477 m</desc>
    <extensions>
      <geotracker:meta visited="1" />
    </extensions>
  </wpt>
  <wpt lat="47.99822833" lon="22.07388">
    <ele>168.3</ele>
    <time>2025-07-10T10:55:43Z</time>
    <name>Stop for ~3 min</name>
    <desc>Elevation: 168 m
Time from start: 00:59:01
Distance from start: 1 km</desc>
    <extensions>
      <geotracker:meta visited="1" />
    </extensions>
  </wpt>
  <wpt lat="47.99822833" lon="22.07388">
    <ele>168.3</ele>
    <time>2025-07-10T10:55:43Z</time>
    <name>Stop for ~3 min</name>
    <desc>Elevation: 168 m
Time from start: 00:59:01
Distance from start: 1 km</desc>
    <extensions>
      <geotracker:meta visited="1" />
    </extensions>
  </wpt>
  <wpt lat="47.99822833" lon="22.07388">
    <ele>168.3</ele>
    <time>2025-07-10T10:55:43Z</time>
    <name>Stop for ~3 min</name>
    <desc>Elevation: 168 m
Time from start: 00:59:01
Distance from start: 1 km</desc>
    <extensions>
      <geotracker:meta visited="1" />
    </extensions>
  </wpt>
  <trk>
    <name>w_0710_03</name>
    <src>Recorded in Geo Tracker for Android from Ilya Bogdanovich</src>
    <link href="https://play.google.com/store/apps/details?id=com.ilyabogdanovich.geotracker" />
    <extensions>
      <geotracker:meta>
        <geotracker:length>1467.73</geotracker:length>
        <geotracker:duration>4349927</geotracker:duration>
        <geotracker:creationtime>2025-07-10T09:56:41Z</geotracker:creationtime>
        <geotracker:activity>0</geotracker:activity>
      </geotracker:meta>
    </extensions>
    <trkseg>
      <trkpt lat="47.99787167" lon="22.07575667">
        <ele>168.7</ele>
        <time>2025-07-10T09:56:48Z</time>
      </trkpt>
      <trkpt lat="47.99792833" lon="22.07565167">
        <ele>168.7</ele>
        <time>2025-07-10T09:57:05Z</time>
      </trkpt>
      <trkpt lat="47.997975" lon="22.07552667">
        <ele>167.4</ele>
        <time>2025-07-10T09:57:35Z</time>
      </trkpt>
      <trkpt lat="47.998015" lon="22.07539833">
        <ele>164.9</ele>
        <time>2025-07-10T09:57:43Z</time>
      </trkpt>
      <trkpt lat="47.99806167" lon="22.07526667">
        <ele>163</ele>
        <time>2025-07-10T09:57:52Z</time>
      </trkpt>
      <trkpt lat="47.99813833" lon="22.07518833">
        <ele>162.9</ele>
        <time>2025-07-10T09:58:01Z</time>
      </trkpt>
      <trkpt lat="47.99821667" lon="22.07512">
        <ele>164.2</ele>
        <time>2025-07-10T09:58:10Z</time>
      </trkpt>
      <trkpt lat="47.99827167" lon="22.07500167">
        <ele>166.1</ele>
        <time>2025-07-10T09:58:17Z</time>
      </trkpt>
      <trkpt lat="47.99836667" lon="22.07499667">
        <ele>165.8</ele>
        <time>2025-07-10T09:58:38Z</time>
      </trkpt>
      <trkpt lat="47.99845667" lon="22.075035">
        <ele>163.3</ele>
        <time>2025-07-10T09:58:49Z</time>
      </trkpt>
      <trkpt lat="47.99854333" lon="22.07498833">
        <ele>165</ele>
        <time>2025-07-10T09:59:44Z</time>
      </trkpt>
      <trkpt lat="47.99843667" lon="22.075025">
        <ele>167.5</ele>
        <time>2025-07-10T10:03:09Z</time>
      </trkpt>
      <trkpt lat="47.99841" lon="22.07516333">
        <ele>163.9</ele>
        <time>2025-07-10T10:03:27Z</time>
      </trkpt>
      <trkpt lat="47.99847167" lon="22.07527167">
        <ele>162.4</ele>
        <time>2025-07-10T10:03:35Z</time>
      </trkpt>
      <trkpt lat="47.99852833" lon="22.07538833">
        <ele>163.9</ele>
        <time>2025-07-10T10:03:43Z</time>
      </trkpt>
      <trkpt lat="47.99855333" lon="22.07552333">
        <ele>165</ele>
        <time>2025-07-10T10:03:59Z</time>
      </trkpt>
      <trkpt lat="47.99859" lon="22.07566">
        <ele>164.5</ele>
        <time>2025-07-10T10:04:19Z</time>
      </trkpt>
      <trkpt lat="47.99857167" lon="22.07579667">
        <ele>164.1</ele>
        <time>2025-07-10T10:04:27Z</time>
      </trkpt>
      <trkpt lat="47.998515" lon="22.07590833">
        <ele>165</ele>
        <time>2025-07-10T10:05:46Z</time>
      </trkpt>
      <trkpt lat="47.998565" lon="22.07578667">
        <ele>166.3</ele>
        <time>2025-07-10T10:06:14Z</time>
      </trkpt>
      <trkpt lat="47.99861333" lon="22.07567333">
        <ele>165.1</ele>
        <time>2025-07-10T10:06:36Z</time>
      </trkpt>
      <trkpt lat="47.99858833" lon="22.07552667">
        <ele>165.7</ele>
        <time>2025-07-10T10:06:54Z</time>
      </trkpt>
      <trkpt lat="47.99855833" lon="22.07538833">
        <ele>166.7</ele>
        <time>2025-07-10T10:07:02Z</time>
      </trkpt>
      <trkpt lat="47.998515" lon="22.07527">
        <ele>167.3</ele>
        <time>2025-07-10T10:07:12Z</time>
      </trkpt>
      <trkpt lat="47.99845667" lon="22.075165">
        <ele>168</ele>
        <time>2025-07-10T10:07:22Z</time>
      </trkpt>
      <trkpt lat="47.99840333" lon="22.07504333">
        <ele>169.6</ele>
        <time>2025-07-10T10:07:30Z</time>
      </trkpt>
      <trkpt lat="47.99839" lon="22.07491">
        <ele>169.1</ele>
        <time>2025-07-10T10:07:39Z</time>
      </trkpt>
      <trkpt lat="47.99845" lon="22.0748">
        <ele>166.4</ele>
        <time>2025-07-10T10:07:50Z</time>
      </trkpt>
      <trkpt lat="47.99845333" lon="22.07465167">
        <ele>166.2</ele>
        <time>2025-07-10T10:07:59Z</time>
      </trkpt>
      <trkpt lat="47.99844667" lon="22.07450833">
        <ele>166</ele>
        <time>2025-07-10T10:08:08Z</time>
      </trkpt>
      <trkpt lat="47.99847167" lon="22.07436167">
        <ele>166.1</ele>
        <time>2025-07-10T10:08:27Z</time>
      </trkpt>
      <trkpt lat="47.99842333" lon="22.07424">
        <ele>166.4</ele>
        <time>2025-07-10T10:08:34Z</time>
      </trkpt>
      <trkpt lat="47.99837" lon="22.07412">
        <ele>165</ele>
        <time>2025-07-10T10:08:43Z</time>
      </trkpt>
      <trkpt lat="47.99832333" lon="22.07399667">
        <ele>165</ele>
        <time>2025-07-10T10:08:55Z</time>
      </trkpt>
      <trkpt lat="47.998245" lon="22.0739">
        <ele>162.6</ele>
        <time>2025-07-10T10:09:14Z</time>
      </trkpt>
      <trkpt lat="47.99822333" lon="22.073765">
        <ele>164</ele>
        <time>2025-07-10T10:09:22Z</time>
      </trkpt>
      <trkpt lat="47.99815333" lon="22.07366167">
        <ele>167.6</ele>
        <time>2025-07-10T10:09:42Z</time>
      </trkpt>
      <trkpt lat="47.99812" lon="22.07353667">
        <ele>168.5</ele>
        <time>2025-07-10T10:09:54Z</time>
      </trkpt>
      <trkpt lat="47.99809667" lon="22.0734">
        <ele>169</ele>
        <time>2025-07-10T10:10:31Z</time>
      </trkpt>
      <trkpt lat="47.99839333" lon="22.07297167">
        <ele>96.3</ele>
        <time>2025-07-10T10:33:17Z</time>
      </trkpt>
      <trkpt lat="47.99836833" lon="22.07283667">
        <ele>96.1</ele>
        <time>2025-07-10T10:33:19Z</time>
      </trkpt>
      <trkpt lat="47.99837167" lon="22.07261167">
        <ele>87.4</ele>
        <time>2025-07-10T10:33:23Z</time>
      </trkpt>
      <trkpt lat="47.99818667" lon="22.07400833">
        <ele>155.5</ele>
        <time>2025-07-10T10:45:39Z</time>
      </trkpt>
      <trkpt lat="47.99826" lon="22.07392333">
        <ele>172.6</ele>
        <time>2025-07-10T10:46:11Z</time>
      </trkpt>
      <trkpt lat="47.99836" lon="22.073945">
        <ele>172.6</ele>
        <time>2025-07-10T10:46:16Z</time>
      </trkpt>
      <trkpt lat="47.99836833" lon="22.07409">
        <ele>172.4</ele>
        <time>2025-07-10T10:46:23Z</time>
      </trkpt>
      <trkpt lat="47.99831" lon="22.07422">
        <ele>172.4</ele>
        <time>2025-07-10T10:46:26Z</time>
      </trkpt>
      <trkpt lat="47.99833167" lon="22.074055">
        <ele>172.1</ele>
        <time>2025-07-10T10:46:34Z</time>
      </trkpt>
      <trkpt lat="47.99823167" lon="22.07406833">
        <ele>171.6</ele>
        <time>2025-07-10T10:46:49Z</time>
      </trkpt>
      <trkpt lat="47.99816833" lon="22.07417833">
        <ele>171.6</ele>
        <time>2025-07-10T10:46:52Z</time>
      </trkpt>
      <trkpt lat="47.99822833" lon="22.073985">
        <ele>171.5</ele>
        <time>2025-07-10T10:46:54Z</time>
      </trkpt>
      <trkpt lat="47.99828167" lon="22.07385833">
        <ele>171.4</ele>
        <time>2025-07-10T10:46:57Z</time>
      </trkpt>
      <trkpt lat="47.998325" lon="22.07372333">
        <ele>171.4</ele>
        <time>2025-07-10T10:47:01Z</time>
      </trkpt>
      <trkpt lat="47.99836" lon="22.073565">
        <ele>171</ele>
        <time>2025-07-10T10:47:15Z</time>
      </trkpt>
      <trkpt lat="47.99832833" lon="22.07370667">
        <ele>171.4</ele>
        <time>2025-07-10T10:47:24Z</time>
      </trkpt>
      <trkpt lat="47.99825833" lon="22.07379833">
        <ele>170.8</ele>
        <time>2025-07-10T10:47:36Z</time>
      </trkpt>
      <trkpt lat="47.99830667" lon="22.07366167">
        <ele>170.6</ele>
        <time>2025-07-10T10:47:49Z</time>
      </trkpt>
      <trkpt lat="47.99836833" lon="22.07353333">
        <ele>170.8</ele>
        <time>2025-07-10T10:47:57Z</time>
      </trkpt>
      <trkpt lat="47.99843833" lon="22.073445">
        <ele>170.9</ele>
        <time>2025-07-10T10:48:01Z</time>
      </trkpt>
      <trkpt lat="47.99852167" lon="22.07338333">
        <ele>171.1</ele>
        <time>2025-07-10T10:48:07Z</time>
      </trkpt>
      <trkpt lat="47.99847667" lon="22.073245">
        <ele>171.3</ele>
        <time>2025-07-10T10:48:16Z</time>
      </trkpt>
      <trkpt lat="47.99845" lon="22.073375">
        <ele>171.5</ele>
        <time>2025-07-10T10:48:24Z</time>
      </trkpt>
      <trkpt lat="47.99845167" lon="22.07355667">
        <ele>171.4</ele>
        <time>2025-07-10T10:48:36Z</time>
      </trkpt>
      <trkpt lat="47.998465" lon="22.07371333">
        <ele>171.3</ele>
        <time>2025-07-10T10:48:41Z</time>
      </trkpt>
      <trkpt lat="47.99841" lon="22.07382">
        <ele>171.4</ele>
        <time>2025-07-10T10:48:54Z</time>
      </trkpt>
      <trkpt lat="47.99846167" lon="22.07393833">
        <ele>170.6</ele>
        <time>2025-07-10T10:49:16Z</time>
      </trkpt>
      <trkpt lat="47.99853" lon="22.07402833">
        <ele>170.5</ele>
        <time>2025-07-10T10:49:32Z</time>
      </trkpt>
      <trkpt lat="47.99841333" lon="22.07412167">
        <ele>171</ele>
        <time>2025-07-10T10:50:06Z</time>
      </trkpt>
      <trkpt lat="47.99833" lon="22.07404167">
        <ele>168.7</ele>
        <time>2025-07-10T10:50:09Z</time>
      </trkpt>
      <trkpt lat="47.99827667" lon="22.07392167">
        <ele>162</ele>
        <time>2025-07-10T10:50:24Z</time>
      </trkpt>
      <trkpt lat="47.99835833" lon="22.074005">
        <ele>161.1</ele>
        <time>2025-07-10T10:50:58Z</time>
      </trkpt>
      <trkpt lat="47.99835833" lon="22.07385667">
        <ele>160.2</ele>
        <time>2025-07-10T10:50:59Z</time>
      </trkpt>
      <trkpt lat="47.99834" lon="22.07370667">
        <ele>161.2</ele>
        <time>2025-07-10T10:51:04Z</time>
      </trkpt>
      <trkpt lat="47.998255" lon="22.07366">
        <ele>160.7</ele>
        <time>2025-07-10T10:51:08Z</time>
      </trkpt>
      <trkpt lat="47.998265" lon="22.07380333">
        <ele>161.4</ele>
        <time>2025-07-10T10:51:18Z</time>
      </trkpt>
      <trkpt lat="47.99822333" lon="22.07395333">
        <ele>159.9</ele>
        <time>2025-07-10T10:51:24Z</time>
      </trkpt>
      <trkpt lat="47.998245" lon="22.07382167">
        <ele>155.5</ele>
        <time>2025-07-10T10:51:49Z</time>
      </trkpt>
      <trkpt lat="47.998275" lon="22.07369">
        <ele>153.2</ele>
        <time>2025-07-10T10:52:35Z</time>
      </trkpt>
      <trkpt lat="47.998225" lon="22.073885">
        <ele>159.5</ele>
        <time>2025-07-10T10:53:42Z</time>
      </trkpt>
      <trkpt lat="47.99822833" lon="22.07388">
        <ele>168.3</ele>
        <time>2025-07-10T10:55:43Z</time>
      </trkpt>
      <trkpt lat="47.99833167" lon="22.07389833">
        <ele>163.4</ele>
        <time>2025-07-10T10:56:53Z</time>
      </trkpt>
      <trkpt lat="47.998415" lon="22.07395167">
        <ele>167.2</ele>
        <time>2025-07-10T10:58:42Z</time>
      </trkpt>
      <trkpt lat="47.99847833" lon="22.07383833">
        <ele>165.6</ele>
        <time>2025-07-10T10:59:04Z</time>
      </trkpt>
      <trkpt lat="47.99847833" lon="22.07377">
        <ele>166.8</ele>
        <time>2025-07-10T11:01:05Z</time>
      </trkpt>
      <trkpt lat="47.99841" lon="22.07365333">
        <ele>171</ele>
        <time>2025-07-10T11:01:32Z</time>
      </trkpt>
      <trkpt lat="47.998335" lon="22.07357667">
        <ele>170.5</ele>
        <time>2025-07-10T11:01:46Z</time>
      </trkpt>
      <trkpt lat="47.99836167" lon="22.07371333">
        <ele>170</ele>
        <time>2025-07-10T11:02:00Z</time>
      </trkpt>
      <trkpt lat="47.99842" lon="22.07381667">
        <ele>170.1</ele>
        <time>2025-07-10T11:02:16Z</time>
      </trkpt>
      <trkpt lat="47.99836" lon="22.07392333">
        <ele>170.4</ele>
        <time>2025-07-10T11:02:23Z</time>
      </trkpt>
      <trkpt lat="47.99838" lon="22.07378667">
        <ele>168.9</ele>
        <time>2025-07-10T11:02:36Z</time>
      </trkpt>
      <trkpt lat="47.99839667" lon="22.07394333">
        <ele>167.4</ele>
        <time>2025-07-10T11:02:55Z</time>
      </trkpt>
      <trkpt lat="47.99832167" lon="22.07382833">
        <ele>164.7</ele>
        <time>2025-07-10T11:03:41Z</time>
      </trkpt>
      <trkpt lat="47.99841667" lon="22.07383167">
        <ele>163.9</ele>
        <time>2025-07-10T11:04:03Z</time>
      </trkpt>
      <trkpt lat="47.99847667" lon="22.07393333">
        <ele>163.8</ele>
        <time>2025-07-10T11:04:11Z</time>
      </trkpt>
      <trkpt lat="47.998395" lon="22.07406">
        <ele>163.5</ele>
        <time>2025-07-10T11:04:51Z</time>
      </trkpt>
      <trkpt lat="47.99845167" lon="22.073945">
        <ele>163.4</ele>
        <time>2025-07-10T11:04:55Z</time>
      </trkpt>
      <trkpt lat="47.99846833" lon="22.073805">
        <ele>163.5</ele>
        <time>2025-07-10T11:05:05Z</time>
      </trkpt>
      <trkpt lat="47.99841667" lon="22.073685">
        <ele>163.5</ele>
        <time>2025-07-10T11:05:10Z</time>
      </trkpt>
      <trkpt lat="47.99831167" lon="22.07353167">
        <ele>163.4</ele>
        <time>2025-07-10T11:05:19Z</time>
      </trkpt>
      <trkpt lat="47.99835333" lon="22.07372667">
        <ele>163.5</ele>
        <time>2025-07-10T11:05:46Z</time>
      </trkpt>
      <trkpt lat="47.99843" lon="22.07382833">
        <ele>163.9</ele>
        <time>2025-07-10T11:05:47Z</time>
      </trkpt>
      <trkpt lat="47.99832" lon="22.07366333">
        <ele>168.4</ele>
        <time>2025-07-10T11:06:45Z</time>
      </trkpt>
      <trkpt lat="47.99831" lon="22.07350833">
        <ele>166.2</ele>
        <time>2025-07-10T11:06:58Z</time>
      </trkpt>
      <trkpt lat="47.99826333" lon="22.07339333">
        <ele>167</ele>
        <time>2025-07-10T11:07:09Z</time>
      </trkpt>
      <trkpt lat="47.99834" lon="22.07390833">
        <ele>173.5</ele>
        <time>2025-07-10T11:07:29Z</time>
      </trkpt>
      <trkpt lat="47.99858833" lon="22.07392">
        <ele>171.5</ele>
        <time>2025-07-10T11:07:30Z</time>
      </trkpt>
      <trkpt lat="47.99854833" lon="22.073765">
        <ele>170.2</ele>
        <time>2025-07-10T11:07:32Z</time>
      </trkpt>
      <trkpt lat="47.99847333" lon="22.07367833">
        <ele>162.9</ele>
        <time>2025-07-10T11:08:04Z</time>
      </trkpt>
      <trkpt lat="47.99838167" lon="22.07364">
        <ele>159.6</ele>
        <time>2025-07-10T11:08:06Z</time>
      </trkpt>
      <trkpt lat="47.99829167" lon="22.07365167">
        <ele>158.9</ele>
        <time>2025-07-10T11:08:12Z</time>
      </trkpt>
      <trkpt lat="47.99836167" lon="22.07354333">
        <ele>158.1</ele>
        <time>2025-07-10T11:08:20Z</time>
      </trkpt>
      <trkpt lat="47.99846" lon="22.07349667">
        <ele>157.4</ele>
        <time>2025-07-10T11:08:26Z</time>
      </trkpt>
      <trkpt lat="47.99850667" lon="22.07363">
        <ele>156.6</ele>
        <time>2025-07-10T11:08:33Z</time>
      </trkpt>
      <trkpt lat="47.99845167" lon="22.07350833">
        <ele>156.4</ele>
        <time>2025-07-10T11:08:36Z</time>
      </trkpt>
      <trkpt lat="47.998345" lon="22.07344167">
        <ele>155.3</ele>
        <time>2025-07-10T11:08:46Z</time>
      </trkpt>
      <trkpt lat="47.99825833" lon="22.073485">
        <ele>155.1</ele>
        <time>2025-07-10T11:08:49Z</time>
      </trkpt>
      <trkpt lat="47.99816667" lon="22.07348667">
        <ele>154.3</ele>
        <time>2025-07-10T11:09:03Z</time>
      </trkpt>
      <trkpt lat="47.998065" lon="22.073505">
        <ele>154.2</ele>
        <time>2025-07-10T11:09:05Z</time>
      </trkpt>
    </trkseg>
  </trk>
</gpx>