<?xml version='1.0' encoding='UTF-8' standalone='yes' ?>
<gpx xmlns="http://www.topografix.com/GPX/1/1" xmlns:geotracker="http://ilyabogdanovich.com/gpx/extensions/geotracker" xmlns:xsi="http://www.w3.org/2001/XMLSchema-instance" xsi:schemaLocation="http://www.topografix.com/GPX/1/1 http://www.topografix.com/GPX/1/1/gpx.xsd" version="1.1" creator="Recorded in Geo Tracker for Android from Ilya Bogdanovich">
  <metadata>
    <name>w_0722_13</name>
    <author>
      <name>Recorded in Geo Tracker for Android from Ilya Bogdanovich</name>
      <link href="https://play.google.com/store/apps/details?id=com.ilyabogdanovich.geotracker" />
    </author>
    <link href="https://play.google.com/store/apps/details?id=com.ilyabogdanovich.geotracker" />
    <time>2025-07-22T18:19:02Z</time>
  </metadata>
  <trk>
    <name>w_0722_13</name>
    <src>Recorded in Geo Tracker for Android from Ilya Bogdanovich</src>
    <link href="https://play.google.com/store/apps/details?id=com.ilyabogdanovich.geotracker" />
    <extensions>
      <geotracker:meta>
        <geotracker:length>1460.3</geotracker:length>
        <geotracker:duration>1092067</geotracker:duration>
        <geotracker:creationtime>2025-07-22T18:19:02Z</geotracker:creationtime>
        <geotracker:activity>0</geotracker:activity>
      </geotracker:meta>
    </extensions>
    <trkseg>
      <trkpt lat="46.041655" lon="17.98562">
        <ele>171.9</ele>
        <time>2025-07-22T18:19:09Z</time>
      </trkpt>
      <trkpt lat="46.04174167" lon="17.985585">
        <ele>164</ele>
        <time>2025-07-22T18:19:18Z</time>
      </trkpt>
      <trkpt lat="46.04182167" lon="17.985675">
        <ele>166</ele>
        <time>2025-07-22T18:19:32Z</time>
      </trkpt>
      <trkpt lat="46.04191333" lon="17.985715">
        <ele>169.9</ele>
        <time>2025-07-22T18:19:40Z</time>
      </trkpt>
      <trkpt lat="46.042005" lon="17.98574667">
        <ele>167.9</ele>
        <time>2025-07-22T18:19:52Z</time>
      </trkpt>
      <trkpt lat="46.04209167" lon="17.98578333">
        <ele>166.2</ele>
        <time>2025-07-22T18:20:23Z</time>
      </trkpt>
      <trkpt lat="46.04200833" lon="17.98572333">
        <ele>166.3</ele>
        <time>2025-07-22T18:20:31Z</time>
      </trkpt>
      <trkpt lat="46.041905" lon="17.9858">
        <ele>164.4</ele>
        <time>2025-07-22T18:20:40Z</time>
      </trkpt>
      <trkpt lat="46.04181" lon="17.98579833">
        <ele>161.6</ele>
        <time>2025-07-22T18:20:48Z</time>
      </trkpt>
      <trkpt lat="46.041705" lon="17.98582">
        <ele>160.9</ele>
        <time>2025-07-22T18:20:57Z</time>
      </trkpt>
      <trkpt lat="46.04160667" lon="17.98579667">
        <ele>159.3</ele>
        <time>2025-07-22T18:21:04Z</time>
      </trkpt>
      <trkpt lat="46.04150833" lon="17.985785">
        <ele>167.9</ele>
        <time>2025-07-22T18:21:10Z</time>
      </trkpt>
      <trkpt lat="46.041415" lon="17.98579833">
        <ele>168.8</ele>
        <time>2025-07-22T18:21:16Z</time>
      </trkpt>
      <trkpt lat="46.04132333" lon="17.98578333">
        <ele>168.9</ele>
        <time>2025-07-22T18:21:24Z</time>
      </trkpt>
      <trkpt lat="46.04123167" lon="17.98573833">
        <ele>168.9</ele>
        <time>2025-07-22T18:21:31Z</time>
      </trkpt>
      <trkpt lat="46.04113333" lon="17.98574833">
        <ele>167.7</ele>
        <time>2025-07-22T18:21:38Z</time>
      </trkpt>
      <trkpt lat="46.04105" lon="17.98582167">
        <ele>164.3</ele>
        <time>2025-07-22T18:21:46Z</time>
      </trkpt>
      <trkpt lat="46.04095667" lon="17.98584667">
        <ele>163.3</ele>
        <time>2025-07-22T18:21:52Z</time>
      </trkpt>
      <trkpt lat="46.04086333" lon="17.98588333">
        <ele>160.6</ele>
        <time>2025-07-22T18:22:00Z</time>
      </trkpt>
      <trkpt lat="46.04078" lon="17.985945">
        <ele>162.2</ele>
        <time>2025-07-22T18:22:07Z</time>
      </trkpt>
      <trkpt lat="46.04070333" lon="17.98601667">
        <ele>161.8</ele>
        <time>2025-07-22T18:22:13Z</time>
      </trkpt>
      <trkpt lat="46.04063333" lon="17.98612333">
        <ele>161.1</ele>
        <time>2025-07-22T18:22:21Z</time>
      </trkpt>
      <trkpt lat="46.04057167" lon="17.98623">
        <ele>158.6</ele>
        <time>2025-07-22T18:22:28Z</time>
      </trkpt>
      <trkpt lat="46.04051" lon="17.986335">
        <ele>159.3</ele>
        <time>2025-07-22T18:22:37Z</time>
      </trkpt>
      <trkpt lat="46.04041" lon="17.98637667">
        <ele>158.5</ele>
        <time>2025-07-22T18:22:50Z</time>
      </trkpt>
      <trkpt lat="46.040315" lon="17.98636333">
        <ele>159.9</ele>
        <time>2025-07-22T18:22:57Z</time>
      </trkpt>
      <trkpt lat="46.04023833" lon="17.986455">
        <ele>161.2</ele>
        <time>2025-07-22T18:23:11Z</time>
      </trkpt>
      <trkpt lat="46.04014833" lon="17.98648333">
        <ele>159.1</ele>
        <time>2025-07-22T18:23:23Z</time>
      </trkpt>
      <trkpt lat="46.04005833" lon="17.98643667">
        <ele>159</ele>
        <time>2025-07-22T18:23:34Z</time>
      </trkpt>
      <trkpt lat="46.03996667" lon="17.98641167">
        <ele>157.5</ele>
        <time>2025-07-22T18:23:42Z</time>
      </trkpt>
      <trkpt lat="46.03988167" lon="17.98636833">
        <ele>156.3</ele>
        <time>2025-07-22T18:23:48Z</time>
      </trkpt>
      <trkpt lat="46.039785" lon="17.98634667">
        <ele>154.6</ele>
        <time>2025-07-22T18:23:56Z</time>
      </trkpt>
      <trkpt lat="46.03969833" lon="17.9863">
        <ele>154.1</ele>
        <time>2025-07-22T18:24:05Z</time>
      </trkpt>
      <trkpt lat="46.03960667" lon="17.98626333">
        <ele>154.9</ele>
        <time>2025-07-22T18:24:11Z</time>
      </trkpt>
      <trkpt lat="46.03950833" lon="17.98624">
        <ele>154.9</ele>
        <time>2025-07-22T18:24:21Z</time>
      </trkpt>
      <trkpt lat="46.03942667" lon="17.98617833">
        <ele>155.6</ele>
        <time>2025-07-22T18:24:27Z</time>
      </trkpt>
      <trkpt lat="46.03934833" lon="17.98610333">
        <ele>156.6</ele>
        <time>2025-07-22T18:24:33Z</time>
      </trkpt>
      <trkpt lat="46.03925833" lon="17.98606">
        <ele>155.6</ele>
        <time>2025-07-22T18:24:41Z</time>
      </trkpt>
      <trkpt lat="46.039155" lon="17.98606667">
        <ele>155.2</ele>
        <time>2025-07-22T18:24:50Z</time>
      </trkpt>
      <trkpt lat="46.03907167" lon="17.98600167">
        <ele>156.4</ele>
        <time>2025-07-22T18:24:57Z</time>
      </trkpt>
      <trkpt lat="46.038985" lon="17.98594667">
        <ele>157.1</ele>
        <time>2025-07-22T18:25:04Z</time>
      </trkpt>
      <trkpt lat="46.03889667" lon="17.98590667">
        <ele>157.5</ele>
        <time>2025-07-22T18:25:13Z</time>
      </trkpt>
      <trkpt lat="46.03881167" lon="17.98586167">
        <ele>157.2</ele>
        <time>2025-07-22T18:25:20Z</time>
      </trkpt>
      <trkpt lat="46.03872833" lon="17.98580667">
        <ele>158.2</ele>
        <time>2025-07-22T18:25:26Z</time>
      </trkpt>
      <trkpt lat="46.03863833" lon="17.98581667">
        <ele>157.3</ele>
        <time>2025-07-22T18:25:33Z</time>
      </trkpt>
      <trkpt lat="46.03853833" lon="17.98579833">
        <ele>155.6</ele>
        <time>2025-07-22T18:25:42Z</time>
      </trkpt>
      <trkpt lat="46.038455" lon="17.98573667">
        <ele>157.4</ele>
        <time>2025-07-22T18:25:48Z</time>
      </trkpt>
      <trkpt lat="46.03836" lon="17.98569167">
        <ele>158.1</ele>
        <time>2025-07-22T18:25:56Z</time>
      </trkpt>
      <trkpt lat="46.03827333" lon="17.98564833">
        <ele>158.1</ele>
        <time>2025-07-22T18:26:05Z</time>
      </trkpt>
      <trkpt lat="46.03818833" lon="17.98559833">
        <ele>158.4</ele>
        <time>2025-07-22T18:26:12Z</time>
      </trkpt>
      <trkpt lat="46.03809" lon="17.98556833">
        <ele>158</ele>
        <time>2025-07-22T18:26:20Z</time>
      </trkpt>
      <trkpt lat="46.03798833" lon="17.98557833">
        <ele>157.5</ele>
        <time>2025-07-22T18:26:28Z</time>
      </trkpt>
      <trkpt lat="46.037895" lon="17.98553333">
        <ele>157.6</ele>
        <time>2025-07-22T18:26:38Z</time>
      </trkpt>
      <trkpt lat="46.03779833" lon="17.98548167">
        <ele>157.3</ele>
        <time>2025-07-22T18:26:46Z</time>
      </trkpt>
      <trkpt lat="46.03770833" lon="17.98546333">
        <ele>156.3</ele>
        <time>2025-07-22T18:26:55Z</time>
      </trkpt>
      <trkpt lat="46.037615" lon="17.98543833">
        <ele>155.7</ele>
        <time>2025-07-22T18:27:02Z</time>
      </trkpt>
      <trkpt lat="46.037525" lon="17.98540167">
        <ele>154.7</ele>
        <time>2025-07-22T18:27:08Z</time>
      </trkpt>
      <trkpt lat="46.037425" lon="17.98538667">
        <ele>153.6</ele>
        <time>2025-07-22T18:27:16Z</time>
      </trkpt>
      <trkpt lat="46.037335" lon="17.985335">
        <ele>152.2</ele>
        <time>2025-07-22T18:27:24Z</time>
      </trkpt>
      <trkpt lat="46.03723333" lon="17.985335">
        <ele>149</ele>
        <time>2025-07-22T18:27:31Z</time>
      </trkpt>
      <trkpt lat="46.037145" lon="17.985295">
        <ele>150.8</ele>
        <time>2025-07-22T18:27:37Z</time>
      </trkpt>
      <trkpt lat="46.03704833" lon="17.98533167">
        <ele>154.3</ele>
        <time>2025-07-22T18:27:45Z</time>
      </trkpt>
      <trkpt lat="46.037005" lon="17.98545833">
        <ele>155.4</ele>
        <time>2025-07-22T18:27:54Z</time>
      </trkpt>
      <trkpt lat="46.03696" lon="17.98557667">
        <ele>159.5</ele>
        <time>2025-07-22T18:28:07Z</time>
      </trkpt>
      <trkpt lat="46.03693333" lon="17.98572333">
        <ele>160.8</ele>
        <time>2025-07-22T18:28:18Z</time>
      </trkpt>
      <trkpt lat="46.03688167" lon="17.98583">
        <ele>159.2</ele>
        <time>2025-07-22T18:28:24Z</time>
      </trkpt>
      <trkpt lat="46.03686333" lon="17.985965">
        <ele>161</ele>
        <time>2025-07-22T18:28:33Z</time>
      </trkpt>
      <trkpt lat="46.03684" lon="17.98609667">
        <ele>159.7</ele>
        <time>2025-07-22T18:28:40Z</time>
      </trkpt>
      <trkpt lat="46.03677667" lon="17.986195">
        <ele>160.9</ele>
        <time>2025-07-22T18:28:47Z</time>
      </trkpt>
      <trkpt lat="46.03669667" lon="17.98626167">
        <ele>160.9</ele>
        <time>2025-07-22T18:28:53Z</time>
      </trkpt>
      <trkpt lat="46.03660167" lon="17.98626833">
        <ele>161.5</ele>
        <time>2025-07-22T18:29:04Z</time>
      </trkpt>
      <trkpt lat="46.03651333" lon="17.98629333">
        <ele>159.7</ele>
        <time>2025-07-22T18:29:12Z</time>
      </trkpt>
      <trkpt lat="46.03641333" lon="17.986275">
        <ele>159.5</ele>
        <time>2025-07-22T18:29:21Z</time>
      </trkpt>
      <trkpt lat="46.036305" lon="17.98626">
        <ele>160.6</ele>
        <time>2025-07-22T18:29:32Z</time>
      </trkpt>
      <trkpt lat="46.03620167" lon="17.98626667">
        <ele>159.7</ele>
        <time>2025-07-22T18:29:40Z</time>
      </trkpt>
      <trkpt lat="46.03611167" lon="17.9863">
        <ele>160.5</ele>
        <time>2025-07-22T18:29:47Z</time>
      </trkpt>
      <trkpt lat="46.03602167" lon="17.98630833">
        <ele>161.1</ele>
        <time>2025-07-22T18:29:55Z</time>
      </trkpt>
      <trkpt lat="46.035925" lon="17.98628333">
        <ele>162.1</ele>
        <time>2025-07-22T18:30:03Z</time>
      </trkpt>
      <trkpt lat="46.03583167" lon="17.98628">
        <ele>162.1</ele>
        <time>2025-07-22T18:30:15Z</time>
      </trkpt>
      <trkpt lat="46.03573833" lon="17.98629167">
        <ele>162</ele>
        <time>2025-07-22T18:30:21Z</time>
      </trkpt>
      <trkpt lat="46.035645" lon="17.98630833">
        <ele>160.6</ele>
        <time>2025-07-22T18:30:29Z</time>
      </trkpt>
      <trkpt lat="46.035555" lon="17.98631167">
        <ele>159.3</ele>
        <time>2025-07-22T18:30:38Z</time>
      </trkpt>
      <trkpt lat="46.03554" lon="17.98644">
        <ele>157.6</ele>
        <time>2025-07-22T18:30:46Z</time>
      </trkpt>
      <trkpt lat="46.03553" lon="17.98657667">
        <ele>155.2</ele>
        <time>2025-07-22T18:30:54Z</time>
      </trkpt>
      <trkpt lat="46.03554167" lon="17.98671167">
        <ele>156</ele>
        <time>2025-07-22T18:31:00Z</time>
      </trkpt>
      <trkpt lat="46.03556" lon="17.98684333">
        <ele>157.2</ele>
        <time>2025-07-22T18:31:05Z</time>
      </trkpt>
      <trkpt lat="46.03555667" lon="17.98698167">
        <ele>158.9</ele>
        <time>2025-07-22T18:31:13Z</time>
      </trkpt>
      <trkpt lat="46.035535" lon="17.98712">
        <ele>160.1</ele>
        <time>2025-07-22T18:31:19Z</time>
      </trkpt>
      <trkpt lat="46.035505" lon="17.987245">
        <ele>161.4</ele>
        <time>2025-07-22T18:31:25Z</time>
      </trkpt>
      <trkpt lat="46.03542833" lon="17.98731333">
        <ele>161.5</ele>
        <time>2025-07-22T18:31:32Z</time>
      </trkpt>
      <trkpt lat="46.03533667" lon="17.98730333">
        <ele>159.2</ele>
        <time>2025-07-22T18:31:40Z</time>
      </trkpt>
      <trkpt lat="46.03524167" lon="17.98731333">
        <ele>157.5</ele>
        <time>2025-07-22T18:31:47Z</time>
      </trkpt>
      <trkpt lat="46.035145" lon="17.98734">
        <ele>156.8</ele>
        <time>2025-07-22T18:31:54Z</time>
      </trkpt>
      <trkpt lat="46.03505" lon="17.98732833">
        <ele>158.4</ele>
        <time>2025-07-22T18:32:00Z</time>
      </trkpt>
      <trkpt lat="46.03495667" lon="17.98733167">
        <ele>159.2</ele>
        <time>2025-07-22T18:32:06Z</time>
      </trkpt>
      <trkpt lat="46.03485833" lon="17.987325">
        <ele>159.2</ele>
        <time>2025-07-22T18:32:12Z</time>
      </trkpt>
      <trkpt lat="46.03476833" lon="17.98730833">
        <ele>159.2</ele>
        <time>2025-07-22T18:32:20Z</time>
      </trkpt>
      <trkpt lat="46.034685" lon="17.98736333">
        <ele>158.8</ele>
        <time>2025-07-22T18:32:25Z</time>
      </trkpt>
      <trkpt lat="46.03465667" lon="17.98750167">
        <ele>161.1</ele>
        <time>2025-07-22T18:32:32Z</time>
      </trkpt>
      <trkpt lat="46.03463833" lon="17.98764667">
        <ele>162.4</ele>
        <time>2025-07-22T18:32:38Z</time>
      </trkpt>
      <trkpt lat="46.03463333" lon="17.98778167">
        <ele>163</ele>
        <time>2025-07-22T18:32:44Z</time>
      </trkpt>
      <trkpt lat="46.03467333" lon="17.98790667">
        <ele>164.6</ele>
        <time>2025-07-22T18:32:52Z</time>
      </trkpt>
      <trkpt lat="46.03468667" lon="17.988035">
        <ele>164</ele>
        <time>2025-07-22T18:32:58Z</time>
      </trkpt>
      <trkpt lat="46.03468167" lon="17.98819167">
        <ele>163.4</ele>
        <time>2025-07-22T18:33:04Z</time>
      </trkpt>
      <trkpt lat="46.03467667" lon="17.988325">
        <ele>164.3</ele>
        <time>2025-07-22T18:33:09Z</time>
      </trkpt>
      <trkpt lat="46.03468333" lon="17.98847667">
        <ele>165.3</ele>
        <time>2025-07-22T18:33:15Z</time>
      </trkpt>
      <trkpt lat="46.03467833" lon="17.98862333">
        <ele>162.5</ele>
        <time>2025-07-22T18:33:23Z</time>
      </trkpt>
      <trkpt lat="46.03468" lon="17.98876667">
        <ele>162.3</ele>
        <time>2025-07-22T18:33:29Z</time>
      </trkpt>
      <trkpt lat="46.0346" lon="17.98886167">
        <ele>161.4</ele>
        <time>2025-07-22T18:33:35Z</time>
      </trkpt>
      <trkpt lat="46.03450167" lon="17.98888833">
        <ele>159.6</ele>
        <time>2025-07-22T18:33:41Z</time>
      </trkpt>
      <trkpt lat="46.0344" lon="17.988895">
        <ele>159</ele>
        <time>2025-07-22T18:33:48Z</time>
      </trkpt>
      <trkpt lat="46.03430167" lon="17.988905">
        <ele>158.6</ele>
        <time>2025-07-22T18:33:53Z</time>
      </trkpt>
      <trkpt lat="46.03420167" lon="17.988885">
        <ele>158.2</ele>
        <time>2025-07-22T18:33:59Z</time>
      </trkpt>
      <trkpt lat="46.03411167" lon="17.98888833">
        <ele>157.8</ele>
        <time>2025-07-22T18:34:04Z</time>
      </trkpt>
      <trkpt lat="46.03400833" lon="17.98888833">
        <ele>158.6</ele>
        <time>2025-07-22T18:34:09Z</time>
      </trkpt>
      <trkpt lat="46.0339" lon="17.98887833">
        <ele>159.7</ele>
        <time>2025-07-22T18:34:15Z</time>
      </trkpt>
      <trkpt lat="46.03380833" lon="17.98887333">
        <ele>162.2</ele>
        <time>2025-07-22T18:34:20Z</time>
      </trkpt>
      <trkpt lat="46.03371" lon="17.98885167">
        <ele>164.7</ele>
        <time>2025-07-22T18:34:26Z</time>
      </trkpt>
      <trkpt lat="46.03362" lon="17.988855">
        <ele>164.6</ele>
        <time>2025-07-22T18:34:32Z</time>
      </trkpt>
      <trkpt lat="46.03352333" lon="17.98891333">
        <ele>164.1</ele>
        <time>2025-07-22T18:34:37Z</time>
      </trkpt>
      <trkpt lat="46.03344167" lon="17.988975">
        <ele>164</ele>
        <time>2025-07-22T18:34:42Z</time>
      </trkpt>
      <trkpt lat="46.0334" lon="17.98911">
        <ele>165.2</ele>
        <time>2025-07-22T18:34:48Z</time>
      </trkpt>
      <trkpt lat="46.033395" lon="17.98925833">
        <ele>164.8</ele>
        <time>2025-07-22T18:34:54Z</time>
      </trkpt>
      <trkpt lat="46.03338667" lon="17.98939167">
        <ele>164.4</ele>
        <time>2025-07-22T18:34:59Z</time>
      </trkpt>
      <trkpt lat="46.03338" lon="17.98955">
        <ele>164.4</ele>
        <time>2025-07-22T18:35:05Z</time>
      </trkpt>
      <trkpt lat="46.03337333" lon="17.98968667">
        <ele>165.1</ele>
        <time>2025-07-22T18:35:11Z</time>
      </trkpt>
      <trkpt lat="46.03336833" lon="17.98982333">
        <ele>164.5</ele>
        <time>2025-07-22T18:35:17Z</time>
      </trkpt>
      <trkpt lat="46.03336" lon="17.98996833">
        <ele>162.4</ele>
        <time>2025-07-22T18:35:24Z</time>
      </trkpt>
      <trkpt lat="46.033365" lon="17.9901">
        <ele>162.1</ele>
        <time>2025-07-22T18:35:30Z</time>
      </trkpt>
      <trkpt lat="46.03336167" lon="17.99024">
        <ele>161.1</ele>
        <time>2025-07-22T18:35:37Z</time>
      </trkpt>
      <trkpt lat="46.033345" lon="17.99037167">
        <ele>159.9</ele>
        <time>2025-07-22T18:35:44Z</time>
      </trkpt>
      <trkpt lat="46.033335" lon="17.99050333">
        <ele>160.2</ele>
        <time>2025-07-22T18:35:51Z</time>
      </trkpt>
      <trkpt lat="46.03329667" lon="17.99063333">
        <ele>158.8</ele>
        <time>2025-07-22T18:35:59Z</time>
      </trkpt>
      <trkpt lat="46.033285" lon="17.99076333">
        <ele>159.5</ele>
        <time>2025-07-22T18:36:13Z</time>
      </trkpt>
      <trkpt lat="46.03317667" lon="17.99077">
        <ele>160.2</ele>
        <time>2025-07-22T18:36:25Z</time>
      </trkpt>
      <trkpt lat="46.03308667" lon="17.99076167">
        <ele>163.6</ele>
        <time>2025-07-22T18:36:30Z</time>
      </trkpt>
      <trkpt lat="46.033015" lon="17.99084167">
        <ele>167.2</ele>
        <time>2025-07-22T18:36:37Z</time>
      </trkpt>
    </trkseg>
  </trk>
</gpx>