<?xml version='1.0' encoding='UTF-8' standalone='yes' ?>
<gpx xmlns="http://www.topografix.com/GPX/1/1" xmlns:geotracker="http://ilyabogdanovich.com/gpx/extensions/geotracker" xmlns:xsi="http://www.w3.org/2001/XMLSchema-instance" xsi:schemaLocation="http://www.topografix.com/GPX/1/1 http://www.topografix.com/GPX/1/1/gpx.xsd" version="1.1" creator="Recorded in Geo Tracker for Android from Ilya Bogdanovich">
  <metadata>
    <name>w_0713_02</name>
    <author>
      <name>Recorded in Geo Tracker for Android from Ilya Bogdanovich</name>
      <link href="https://play.google.com/store/apps/details?id=com.ilyabogdanovich.geotracker" />
    </author>
    <link href="https://play.google.com/store/apps/details?id=com.ilyabogdanovich.geotracker" />
    <time>2025-07-13T09:25:03Z</time>
  </metadata>
  <wpt lat="47.331855" lon="17.46816833">
    <ele>181.5</ele>
    <time>2025-07-13T09:31:33Z</time>
    <name>Stop for ~2 min</name>
    <desc>Elevation: 182 m
Time from start: 00:06:29
Distance from start: 533 m</desc>
    <extensions>
      <geotracker:meta visited="1" />
    </extensions>
  </wpt>
  <trk>
    <name>w_0713_02</name>
    <src>Recorded in Geo Tracker for Android from Ilya Bogdanovich</src>
    <link href="https://play.google.com/store/apps/details?id=com.ilyabogdanovich.geotracker" />
    <extensions>
      <geotracker:meta>
        <geotracker:length>536.81</geotracker:length>
        <geotracker:duration>525548</geotracker:duration>
        <geotracker:creationtime>2025-07-13T09:25:03Z</geotracker:creationtime>
        <geotracker:activity>0</geotracker:activity>
      </geotracker:meta>
    </extensions>
    <trkseg>
      <trkpt lat="47.32867333" lon="17.46720333">
        <ele>208</ele>
        <time>2025-07-13T09:25:15Z</time>
      </trkpt>
      <trkpt lat="47.328775" lon="17.46718833">
        <ele>207.4</ele>
        <time>2025-07-13T09:25:27Z</time>
      </trkpt>
      <trkpt lat="47.32888833" lon="17.46705333">
        <ele>206.2</ele>
        <time>2025-07-13T09:25:31Z</time>
      </trkpt>
      <trkpt lat="47.32894" lon="17.46689667">
        <ele>201.6</ele>
        <time>2025-07-13T09:25:34Z</time>
      </trkpt>
      <trkpt lat="47.32903167" lon="17.46680833">
        <ele>197.6</ele>
        <time>2025-07-13T09:25:39Z</time>
      </trkpt>
      <trkpt lat="47.32911" lon="17.466725">
        <ele>194.5</ele>
        <time>2025-07-13T09:25:49Z</time>
      </trkpt>
      <trkpt lat="47.32919167" lon="17.46662667">
        <ele>196.7</ele>
        <time>2025-07-13T09:25:58Z</time>
      </trkpt>
      <trkpt lat="47.32927667" lon="17.46658167">
        <ele>198.7</ele>
        <time>2025-07-13T09:26:06Z</time>
      </trkpt>
      <trkpt lat="47.32934833" lon="17.46668167">
        <ele>197.7</ele>
        <time>2025-07-13T09:26:11Z</time>
      </trkpt>
      <trkpt lat="47.32939667" lon="17.46681167">
        <ele>195.8</ele>
        <time>2025-07-13T09:26:17Z</time>
      </trkpt>
      <trkpt lat="47.32943667" lon="17.46694667">
        <ele>195.1</ele>
        <time>2025-07-13T09:26:23Z</time>
      </trkpt>
      <trkpt lat="47.329495" lon="17.46705167">
        <ele>193.3</ele>
        <time>2025-07-13T09:26:30Z</time>
      </trkpt>
      <trkpt lat="47.32953333" lon="17.46719333">
        <ele>206.1</ele>
        <time>2025-07-13T09:26:37Z</time>
      </trkpt>
      <trkpt lat="47.32955333" lon="17.46732667">
        <ele>209.9</ele>
        <time>2025-07-13T09:26:43Z</time>
      </trkpt>
      <trkpt lat="47.32960667" lon="17.467455">
        <ele>205.3</ele>
        <time>2025-07-13T09:26:51Z</time>
      </trkpt>
      <trkpt lat="47.32966833" lon="17.46755333">
        <ele>199.4</ele>
        <time>2025-07-13T09:26:56Z</time>
      </trkpt>
      <trkpt lat="47.32970333" lon="17.46768">
        <ele>192.2</ele>
        <time>2025-07-13T09:27:01Z</time>
      </trkpt>
      <trkpt lat="47.32974667" lon="17.46782667">
        <ele>188.4</ele>
        <time>2025-07-13T09:27:06Z</time>
      </trkpt>
      <trkpt lat="47.3298" lon="17.467935">
        <ele>202.3</ele>
        <time>2025-07-13T09:27:14Z</time>
      </trkpt>
      <trkpt lat="47.32983333" lon="17.468065">
        <ele>205.2</ele>
        <time>2025-07-13T09:27:25Z</time>
      </trkpt>
      <trkpt lat="47.32986833" lon="17.46821167">
        <ele>203.5</ele>
        <time>2025-07-13T09:27:34Z</time>
      </trkpt>
      <trkpt lat="47.32988833" lon="17.46836">
        <ele>203.6</ele>
        <time>2025-07-13T09:27:42Z</time>
      </trkpt>
      <trkpt lat="47.32987333" lon="17.46851167">
        <ele>204</ele>
        <time>2025-07-13T09:27:49Z</time>
      </trkpt>
      <trkpt lat="47.32993333" lon="17.468645">
        <ele>204.1</ele>
        <time>2025-07-13T09:27:55Z</time>
      </trkpt>
      <trkpt lat="47.33000667" lon="17.468735">
        <ele>201.2</ele>
        <time>2025-07-13T09:27:59Z</time>
      </trkpt>
      <trkpt lat="47.33007" lon="17.46883167">
        <ele>194.9</ele>
        <time>2025-07-13T09:28:06Z</time>
      </trkpt>
      <trkpt lat="47.33011" lon="17.468955">
        <ele>190.6</ele>
        <time>2025-07-13T09:28:13Z</time>
      </trkpt>
      <trkpt lat="47.33016167" lon="17.469075">
        <ele>187.4</ele>
        <time>2025-07-13T09:28:20Z</time>
      </trkpt>
      <trkpt lat="47.33020667" lon="17.46921833">
        <ele>187.2</ele>
        <time>2025-07-13T09:28:26Z</time>
      </trkpt>
      <trkpt lat="47.33030667" lon="17.46925167">
        <ele>189.3</ele>
        <time>2025-07-13T09:28:32Z</time>
      </trkpt>
      <trkpt lat="47.33037333" lon="17.46914167">
        <ele>188.2</ele>
        <time>2025-07-13T09:28:38Z</time>
      </trkpt>
      <trkpt lat="47.33044167" lon="17.46903833">
        <ele>186.2</ele>
        <time>2025-07-13T09:28:45Z</time>
      </trkpt>
      <trkpt lat="47.330535" lon="17.46898667">
        <ele>185.3</ele>
        <time>2025-07-13T09:28:52Z</time>
      </trkpt>
      <trkpt lat="47.33061333" lon="17.468905">
        <ele>187.2</ele>
        <time>2025-07-13T09:28:59Z</time>
      </trkpt>
      <trkpt lat="47.33069167" lon="17.46882">
        <ele>187.7</ele>
        <time>2025-07-13T09:29:06Z</time>
      </trkpt>
      <trkpt lat="47.33077333" lon="17.46873167">
        <ele>187.5</ele>
        <time>2025-07-13T09:29:13Z</time>
      </trkpt>
      <trkpt lat="47.330845" lon="17.46863">
        <ele>187.5</ele>
        <time>2025-07-13T09:29:21Z</time>
      </trkpt>
      <trkpt lat="47.33092333" lon="17.46855333">
        <ele>187.5</ele>
        <time>2025-07-13T09:29:27Z</time>
      </trkpt>
      <trkpt lat="47.33100167" lon="17.46848333">
        <ele>187.2</ele>
        <time>2025-07-13T09:29:34Z</time>
      </trkpt>
      <trkpt lat="47.33107667" lon="17.46839667">
        <ele>186.9</ele>
        <time>2025-07-13T09:29:41Z</time>
      </trkpt>
      <trkpt lat="47.33114833" lon="17.46829667">
        <ele>185.7</ele>
        <time>2025-07-13T09:29:48Z</time>
      </trkpt>
      <trkpt lat="47.33124" lon="17.46828333">
        <ele>184.4</ele>
        <time>2025-07-13T09:29:57Z</time>
      </trkpt>
      <trkpt lat="47.33129667" lon="17.46839">
        <ele>182.5</ele>
        <time>2025-07-13T09:30:05Z</time>
      </trkpt>
      <trkpt lat="47.33140167" lon="17.46838">
        <ele>184.2</ele>
        <time>2025-07-13T09:30:14Z</time>
      </trkpt>
      <trkpt lat="47.331485" lon="17.46829833">
        <ele>185.6</ele>
        <time>2025-07-13T09:30:21Z</time>
      </trkpt>
      <trkpt lat="47.33157833" lon="17.46828333">
        <ele>186.3</ele>
        <time>2025-07-13T09:30:28Z</time>
      </trkpt>
      <trkpt lat="47.331675" lon="17.468285">
        <ele>185.1</ele>
        <time>2025-07-13T09:30:35Z</time>
      </trkpt>
      <trkpt lat="47.33177833" lon="17.46825333">
        <ele>185.3</ele>
        <time>2025-07-13T09:30:42Z</time>
      </trkpt>
      <trkpt lat="47.331855" lon="17.46816833">
        <ele>181.5</ele>
        <time>2025-07-13T09:31:33Z</time>
      </trkpt>
      <trkpt lat="47.331825" lon="17.46816667">
        <ele>182.5</ele>
        <time>2025-07-13T09:33:39Z</time>
      </trkpt>
    </trkseg>
  </trk>
</gpx>