<?xml version='1.0' encoding='UTF-8' standalone='yes' ?>
<gpx xmlns="http://www.topografix.com/GPX/1/1" xmlns:geotracker="http://ilyabogdanovich.com/gpx/extensions/geotracker" xmlns:xsi="http://www.w3.org/2001/XMLSchema-instance" xsi:schemaLocation="http://www.topografix.com/GPX/1/1 http://www.topografix.com/GPX/1/1/gpx.xsd" version="1.1" creator="Recorded in Geo Tracker for Android from Ilya Bogdanovich">
  <metadata>
    <name>w_0718_01</name>
    <author>
      <name>Recorded in Geo Tracker for Android from Ilya Bogdanovich</name>
      <link href="https://play.google.com/store/apps/details?id=com.ilyabogdanovich.geotracker" />
    </author>
    <link href="https://play.google.com/store/apps/details?id=com.ilyabogdanovich.geotracker" />
    <time>2025-07-18T08:02:30Z</time>
  </metadata>
  <trk>
    <name>w_0718_01</name>
    <src>Recorded in Geo Tracker for Android from Ilya Bogdanovich</src>
    <link href="https://play.google.com/store/apps/details?id=com.ilyabogdanovich.geotracker" />
    <extensions>
      <geotracker:meta>
        <geotracker:length>575.73</geotracker:length>
        <geotracker:duration>500500</geotracker:duration>
        <geotracker:creationtime>2025-07-18T08:02:30Z</geotracker:creationtime>
        <geotracker:activity>0</geotracker:activity>
      </geotracker:meta>
    </extensions>
    <trkseg>
      <trkpt lat="46.703075" lon="17.37934">
        <ele>161.1</ele>
        <time>2025-07-18T08:02:36Z</time>
      </trkpt>
      <trkpt lat="46.703125" lon="17.37920833">
        <ele>161.4</ele>
        <time>2025-07-18T08:02:54Z</time>
      </trkpt>
      <trkpt lat="46.703115" lon="17.37907333">
        <ele>162.3</ele>
        <time>2025-07-18T08:03:00Z</time>
      </trkpt>
      <trkpt lat="46.70310167" lon="17.37893667">
        <ele>160.9</ele>
        <time>2025-07-18T08:03:05Z</time>
      </trkpt>
      <trkpt lat="46.70311" lon="17.37879333">
        <ele>154.3</ele>
        <time>2025-07-18T08:03:12Z</time>
      </trkpt>
      <trkpt lat="46.70315333" lon="17.37867">
        <ele>150.6</ele>
        <time>2025-07-18T08:03:19Z</time>
      </trkpt>
      <trkpt lat="46.70318" lon="17.37853667">
        <ele>147.6</ele>
        <time>2025-07-18T08:03:26Z</time>
      </trkpt>
      <trkpt lat="46.70315833" lon="17.378395">
        <ele>146.9</ele>
        <time>2025-07-18T08:03:32Z</time>
      </trkpt>
      <trkpt lat="46.70317167" lon="17.378255">
        <ele>146.4</ele>
        <time>2025-07-18T08:03:38Z</time>
      </trkpt>
      <trkpt lat="46.70321" lon="17.37813">
        <ele>144.5</ele>
        <time>2025-07-18T08:03:45Z</time>
      </trkpt>
      <trkpt lat="46.70323333" lon="17.378">
        <ele>142.6</ele>
        <time>2025-07-18T08:03:51Z</time>
      </trkpt>
      <trkpt lat="46.70325667" lon="17.37785667">
        <ele>141.6</ele>
        <time>2025-07-18T08:03:58Z</time>
      </trkpt>
      <trkpt lat="46.703265" lon="17.37772333">
        <ele>139.9</ele>
        <time>2025-07-18T08:04:04Z</time>
      </trkpt>
      <trkpt lat="46.70327167" lon="17.37758667">
        <ele>138.5</ele>
        <time>2025-07-18T08:04:10Z</time>
      </trkpt>
      <trkpt lat="46.70330333" lon="17.377445">
        <ele>138.7</ele>
        <time>2025-07-18T08:04:17Z</time>
      </trkpt>
      <trkpt lat="46.70331333" lon="17.37729333">
        <ele>138.9</ele>
        <time>2025-07-18T08:04:23Z</time>
      </trkpt>
      <trkpt lat="46.703305" lon="17.37715833">
        <ele>140.4</ele>
        <time>2025-07-18T08:04:29Z</time>
      </trkpt>
      <trkpt lat="46.703305" lon="17.37700167">
        <ele>140.4</ele>
        <time>2025-07-18T08:04:35Z</time>
      </trkpt>
      <trkpt lat="46.70332333" lon="17.37687">
        <ele>141</ele>
        <time>2025-07-18T08:04:41Z</time>
      </trkpt>
      <trkpt lat="46.70332" lon="17.376725">
        <ele>142.8</ele>
        <time>2025-07-18T08:04:47Z</time>
      </trkpt>
      <trkpt lat="46.70334167" lon="17.376595">
        <ele>144.3</ele>
        <time>2025-07-18T08:04:52Z</time>
      </trkpt>
      <trkpt lat="46.70337167" lon="17.376465">
        <ele>144.5</ele>
        <time>2025-07-18T08:04:59Z</time>
      </trkpt>
      <trkpt lat="46.70344833" lon="17.37639167">
        <ele>143.5</ele>
        <time>2025-07-18T08:05:12Z</time>
      </trkpt>
      <trkpt lat="46.70355167" lon="17.37640833">
        <ele>144.3</ele>
        <time>2025-07-18T08:05:20Z</time>
      </trkpt>
      <trkpt lat="46.70364667" lon="17.376415">
        <ele>143.7</ele>
        <time>2025-07-18T08:05:27Z</time>
      </trkpt>
      <trkpt lat="46.703735" lon="17.37644167">
        <ele>144.1</ele>
        <time>2025-07-18T08:05:33Z</time>
      </trkpt>
      <trkpt lat="46.703835" lon="17.37645167">
        <ele>144.9</ele>
        <time>2025-07-18T08:05:40Z</time>
      </trkpt>
      <trkpt lat="46.70392333" lon="17.37641833">
        <ele>144.5</ele>
        <time>2025-07-18T08:05:47Z</time>
      </trkpt>
      <trkpt lat="46.703995" lon="17.37630333">
        <ele>144.2</ele>
        <time>2025-07-18T08:05:51Z</time>
      </trkpt>
      <trkpt lat="46.70404167" lon="17.37618333">
        <ele>144.3</ele>
        <time>2025-07-18T08:05:56Z</time>
      </trkpt>
      <trkpt lat="46.704045" lon="17.37605167">
        <ele>146.7</ele>
        <time>2025-07-18T08:06:01Z</time>
      </trkpt>
      <trkpt lat="46.70406" lon="17.37591167">
        <ele>152</ele>
        <time>2025-07-18T08:06:09Z</time>
      </trkpt>
      <trkpt lat="46.70411667" lon="17.3758">
        <ele>152.4</ele>
        <time>2025-07-18T08:06:16Z</time>
      </trkpt>
      <trkpt lat="46.70412667" lon="17.37566">
        <ele>150.9</ele>
        <time>2025-07-18T08:06:23Z</time>
      </trkpt>
      <trkpt lat="46.70412333" lon="17.37551">
        <ele>148.4</ele>
        <time>2025-07-18T08:06:29Z</time>
      </trkpt>
      <trkpt lat="46.70414167" lon="17.37536">
        <ele>147</ele>
        <time>2025-07-18T08:06:36Z</time>
      </trkpt>
      <trkpt lat="46.70416667" lon="17.37522333">
        <ele>145.8</ele>
        <time>2025-07-18T08:06:42Z</time>
      </trkpt>
      <trkpt lat="46.704135" lon="17.37509333">
        <ele>144.1</ele>
        <time>2025-07-18T08:06:50Z</time>
      </trkpt>
      <trkpt lat="46.70412833" lon="17.37494667">
        <ele>144.5</ele>
        <time>2025-07-18T08:06:56Z</time>
      </trkpt>
      <trkpt lat="46.70414833" lon="17.37481333">
        <ele>142.7</ele>
        <time>2025-07-18T08:07:02Z</time>
      </trkpt>
      <trkpt lat="46.70419333" lon="17.37467667">
        <ele>142.9</ele>
        <time>2025-07-18T08:07:07Z</time>
      </trkpt>
      <trkpt lat="46.70422833" lon="17.37452833">
        <ele>144</ele>
        <time>2025-07-18T08:07:27Z</time>
      </trkpt>
      <trkpt lat="46.70423333" lon="17.37438">
        <ele>142.2</ele>
        <time>2025-07-18T08:07:32Z</time>
      </trkpt>
      <trkpt lat="46.70425667" lon="17.37424333">
        <ele>141.3</ele>
        <time>2025-07-18T08:07:39Z</time>
      </trkpt>
      <trkpt lat="46.70433667" lon="17.374315">
        <ele>147.9</ele>
        <time>2025-07-18T08:07:47Z</time>
      </trkpt>
      <trkpt lat="46.70431333" lon="17.37446167">
        <ele>151.5</ele>
        <time>2025-07-18T08:07:54Z</time>
      </trkpt>
      <trkpt lat="46.704285" lon="17.37458833">
        <ele>154.3</ele>
        <time>2025-07-18T08:08:03Z</time>
      </trkpt>
      <trkpt lat="46.70432667" lon="17.37471167">
        <ele>153.4</ele>
        <time>2025-07-18T08:09:03Z</time>
      </trkpt>
      <trkpt lat="46.70430667" lon="17.37485833">
        <ele>152.8</ele>
        <time>2025-07-18T08:09:11Z</time>
      </trkpt>
      <trkpt lat="46.70428667" lon="17.37502333">
        <ele>151.5</ele>
        <time>2025-07-18T08:09:20Z</time>
      </trkpt>
      <trkpt lat="46.704265" lon="17.37515667">
        <ele>152.1</ele>
        <time>2025-07-18T08:09:28Z</time>
      </trkpt>
      <trkpt lat="46.704235" lon="17.375285">
        <ele>150.6</ele>
        <time>2025-07-18T08:09:38Z</time>
      </trkpt>
      <trkpt lat="46.70427" lon="17.375415">
        <ele>152.9</ele>
        <time>2025-07-18T08:10:20Z</time>
      </trkpt>
      <trkpt lat="46.704265" lon="17.37555">
        <ele>154</ele>
        <time>2025-07-18T08:10:30Z</time>
      </trkpt>
    </trkseg>
  </trk>
</gpx>