<?xml version='1.0' encoding='UTF-8' standalone='yes' ?>
<gpx xmlns="http://www.topografix.com/GPX/1/1" xmlns:geotracker="http://ilyabogdanovich.com/gpx/extensions/geotracker" xmlns:xsi="http://www.w3.org/2001/XMLSchema-instance" xsi:schemaLocation="http://www.topografix.com/GPX/1/1 http://www.topografix.com/GPX/1/1/gpx.xsd" version="1.1" creator="Recorded in Geo Tracker for Android from Ilya Bogdanovich">
  <metadata>
    <name>w_0716_08</name>
    <author>
      <name>Recorded in Geo Tracker for Android from Ilya Bogdanovich</name>
      <link href="https://play.google.com/store/apps/details?id=com.ilyabogdanovich.geotracker" />
    </author>
    <link href="https://play.google.com/store/apps/details?id=com.ilyabogdanovich.geotracker" />
    <time>2025-07-16T12:34:20Z</time>
  </metadata>
  <trk>
    <name>w_0716_08</name>
    <src>Recorded in Geo Tracker for Android from Ilya Bogdanovich</src>
    <link href="https://play.google.com/store/apps/details?id=com.ilyabogdanovich.geotracker" />
    <extensions>
      <geotracker:meta>
        <geotracker:length>232.38</geotracker:length>
        <geotracker:duration>356372</geotracker:duration>
        <geotracker:creationtime>2025-07-16T12:34:20Z</geotracker:creationtime>
        <geotracker:activity>0</geotracker:activity>
      </geotracker:meta>
    </extensions>
    <trkseg>
      <trkpt lat="46.85032" lon="16.56956">
        <ele>314.9</ele>
        <time>2025-07-16T12:34:26Z</time>
      </trkpt>
      <trkpt lat="46.85023333" lon="16.569625">
        <ele>316.2</ele>
        <time>2025-07-16T12:34:34Z</time>
      </trkpt>
      <trkpt lat="46.850315" lon="16.56954">
        <ele>312.9</ele>
        <time>2025-07-16T12:34:47Z</time>
      </trkpt>
      <trkpt lat="46.850325" lon="16.56938667">
        <ele>306.2</ele>
        <time>2025-07-16T12:34:55Z</time>
      </trkpt>
      <trkpt lat="46.85031167" lon="16.56925333">
        <ele>289.5</ele>
        <time>2025-07-16T12:35:01Z</time>
      </trkpt>
      <trkpt lat="46.85031667" lon="16.56911">
        <ele>263.8</ele>
        <time>2025-07-16T12:35:11Z</time>
      </trkpt>
      <trkpt lat="46.85036" lon="16.568995">
        <ele>256</ele>
        <time>2025-07-16T12:35:18Z</time>
      </trkpt>
      <trkpt lat="46.85044333" lon="16.56892">
        <ele>251.9</ele>
        <time>2025-07-16T12:35:26Z</time>
      </trkpt>
      <trkpt lat="46.85051167" lon="16.56880667">
        <ele>253</ele>
        <time>2025-07-16T12:35:35Z</time>
      </trkpt>
      <trkpt lat="46.85056333" lon="16.568915">
        <ele>245.6</ele>
        <time>2025-07-16T12:37:11Z</time>
      </trkpt>
      <trkpt lat="46.85067333" lon="16.56881667">
        <ele>246.7</ele>
        <time>2025-07-16T12:37:23Z</time>
      </trkpt>
      <trkpt lat="46.85053833" lon="16.568905">
        <ele>247.5</ele>
        <time>2025-07-16T12:38:22Z</time>
      </trkpt>
      <trkpt lat="46.85046167" lon="16.56898333">
        <ele>247.9</ele>
        <time>2025-07-16T12:38:29Z</time>
      </trkpt>
      <trkpt lat="46.85039333" lon="16.56908">
        <ele>249.8</ele>
        <time>2025-07-16T12:38:37Z</time>
      </trkpt>
      <trkpt lat="46.85031833" lon="16.56916167">
        <ele>252.5</ele>
        <time>2025-07-16T12:38:46Z</time>
      </trkpt>
      <trkpt lat="46.85032333" lon="16.56929667">
        <ele>252</ele>
        <time>2025-07-16T12:38:55Z</time>
      </trkpt>
      <trkpt lat="46.85030667" lon="16.56943167">
        <ele>253.5</ele>
        <time>2025-07-16T12:39:04Z</time>
      </trkpt>
      <trkpt lat="46.85028167" lon="16.569575">
        <ele>254.4</ele>
        <time>2025-07-16T12:39:13Z</time>
      </trkpt>
      <trkpt lat="46.8502" lon="16.56963833">
        <ele>259.6</ele>
        <time>2025-07-16T12:39:49Z</time>
      </trkpt>
      <trkpt lat="46.85017667" lon="16.56976667">
        <ele>261.8</ele>
        <time>2025-07-16T12:39:56Z</time>
      </trkpt>
      <trkpt lat="46.85011667" lon="16.56986833">
        <ele>261.7</ele>
        <time>2025-07-16T12:40:04Z</time>
      </trkpt>
      <trkpt lat="46.85006833" lon="16.56998">
        <ele>263.6</ele>
        <time>2025-07-16T12:40:13Z</time>
      </trkpt>
    </trkseg>
  </trk>
</gpx>