<?xml version='1.0' encoding='UTF-8' standalone='yes' ?>
<gpx xmlns="http://www.topografix.com/GPX/1/1" xmlns:geotracker="http://ilyabogdanovich.com/gpx/extensions/geotracker" xmlns:xsi="http://www.w3.org/2001/XMLSchema-instance" xsi:schemaLocation="http://www.topografix.com/GPX/1/1 http://www.topografix.com/GPX/1/1/gpx.xsd" version="1.1" creator="Recorded in Geo Tracker for Android from Ilya Bogdanovich">
  <metadata>
    <name>w_0715_01</name>
    <author>
      <name>Recorded in Geo Tracker for Android from Ilya Bogdanovich</name>
      <link href="https://play.google.com/store/apps/details?id=com.ilyabogdanovich.geotracker" />
    </author>
    <link href="https://play.google.com/store/apps/details?id=com.ilyabogdanovich.geotracker" />
    <time>2025-07-15T06:56:38Z</time>
  </metadata>
  <trk>
    <name>w_0715_01</name>
    <src>Recorded in Geo Tracker for Android from Ilya Bogdanovich</src>
    <link href="https://play.google.com/store/apps/details?id=com.ilyabogdanovich.geotracker" />
    <extensions>
      <geotracker:meta>
        <geotracker:length>443.11</geotracker:length>
        <geotracker:duration>422462</geotracker:duration>
        <geotracker:creationtime>2025-07-15T06:56:38Z</geotracker:creationtime>
        <geotracker:activity>0</geotracker:activity>
      </geotracker:meta>
    </extensions>
    <trkseg>
      <trkpt lat="46.95368333" lon="16.27072167">
        <ele>184.4</ele>
        <time>2025-07-15T06:56:43Z</time>
      </trkpt>
      <trkpt lat="46.95361667" lon="16.270845">
        <ele>184.9</ele>
        <time>2025-07-15T06:56:45Z</time>
      </trkpt>
      <trkpt lat="46.953525" lon="16.27063833">
        <ele>184.5</ele>
        <time>2025-07-15T06:56:49Z</time>
      </trkpt>
      <trkpt lat="46.95366" lon="16.27064333">
        <ele>183.5</ele>
        <time>2025-07-15T06:56:51Z</time>
      </trkpt>
      <trkpt lat="46.95372" lon="16.27044833">
        <ele>183.4</ele>
        <time>2025-07-15T06:56:53Z</time>
      </trkpt>
      <trkpt lat="46.95367333" lon="16.27030833">
        <ele>183.3</ele>
        <time>2025-07-15T06:56:55Z</time>
      </trkpt>
      <trkpt lat="46.953705" lon="16.27043333">
        <ele>183.2</ele>
        <time>2025-07-15T06:57:02Z</time>
      </trkpt>
      <trkpt lat="46.953765" lon="16.27053667">
        <ele>183.2</ele>
        <time>2025-07-15T06:57:08Z</time>
      </trkpt>
      <trkpt lat="46.95384" lon="16.27065">
        <ele>183.3</ele>
        <time>2025-07-15T06:57:15Z</time>
      </trkpt>
      <trkpt lat="46.95388333" lon="16.27076667">
        <ele>183.8</ele>
        <time>2025-07-15T06:57:25Z</time>
      </trkpt>
      <trkpt lat="46.95387333" lon="16.27092333">
        <ele>184.1</ele>
        <time>2025-07-15T06:57:30Z</time>
      </trkpt>
      <trkpt lat="46.953875" lon="16.27106167">
        <ele>184.3</ele>
        <time>2025-07-15T06:57:35Z</time>
      </trkpt>
      <trkpt lat="46.95376" lon="16.271305">
        <ele>185.5</ele>
        <time>2025-07-15T06:57:40Z</time>
      </trkpt>
      <trkpt lat="46.95376" lon="16.27145167">
        <ele>186.6</ele>
        <time>2025-07-15T06:57:46Z</time>
      </trkpt>
      <trkpt lat="46.95371" lon="16.271565">
        <ele>188.6</ele>
        <time>2025-07-15T06:58:06Z</time>
      </trkpt>
      <trkpt lat="46.95364667" lon="16.27167">
        <ele>189.1</ele>
        <time>2025-07-15T06:58:12Z</time>
      </trkpt>
      <trkpt lat="46.95365667" lon="16.27181">
        <ele>190.3</ele>
        <time>2025-07-15T06:58:20Z</time>
      </trkpt>
      <trkpt lat="46.95356667" lon="16.27191667">
        <ele>192.1</ele>
        <time>2025-07-15T06:58:27Z</time>
      </trkpt>
      <trkpt lat="46.95356167" lon="16.27205333">
        <ele>193</ele>
        <time>2025-07-15T06:58:33Z</time>
      </trkpt>
      <trkpt lat="46.953545" lon="16.27219333">
        <ele>196.1</ele>
        <time>2025-07-15T06:58:43Z</time>
      </trkpt>
      <trkpt lat="46.95350167" lon="16.27233667">
        <ele>198</ele>
        <time>2025-07-15T06:58:49Z</time>
      </trkpt>
      <trkpt lat="46.953415" lon="16.27243333">
        <ele>198.7</ele>
        <time>2025-07-15T06:58:56Z</time>
      </trkpt>
      <trkpt lat="46.95345667" lon="16.27261167">
        <ele>203.1</ele>
        <time>2025-07-15T06:59:07Z</time>
      </trkpt>
      <trkpt lat="46.95342167" lon="16.27273333">
        <ele>206.6</ele>
        <time>2025-07-15T06:59:18Z</time>
      </trkpt>
      <trkpt lat="46.95338167" lon="16.27288833">
        <ele>211.5</ele>
        <time>2025-07-15T06:59:26Z</time>
      </trkpt>
      <trkpt lat="46.95339833" lon="16.27301833">
        <ele>215.2</ele>
        <time>2025-07-15T06:59:36Z</time>
      </trkpt>
      <trkpt lat="46.95342167" lon="16.27317333">
        <ele>217.3</ele>
        <time>2025-07-15T06:59:40Z</time>
      </trkpt>
      <trkpt lat="46.95346333" lon="16.27330833">
        <ele>221</ele>
        <time>2025-07-15T06:59:58Z</time>
      </trkpt>
      <trkpt lat="46.95344833" lon="16.273445">
        <ele>224.1</ele>
        <time>2025-07-15T07:00:20Z</time>
      </trkpt>
      <trkpt lat="46.95339167" lon="16.27355">
        <ele>227.1</ele>
        <time>2025-07-15T07:00:35Z</time>
      </trkpt>
      <trkpt lat="46.95331" lon="16.27369333">
        <ele>230.6</ele>
        <time>2025-07-15T07:00:42Z</time>
      </trkpt>
      <trkpt lat="46.95325167" lon="16.27379667">
        <ele>232.7</ele>
        <time>2025-07-15T07:00:51Z</time>
      </trkpt>
      <trkpt lat="46.95316667" lon="16.27370833">
        <ele>234.6</ele>
        <time>2025-07-15T07:00:58Z</time>
      </trkpt>
      <trkpt lat="46.95308833" lon="16.27363833">
        <ele>235.9</ele>
        <time>2025-07-15T07:01:02Z</time>
      </trkpt>
      <trkpt lat="46.95301" lon="16.27357">
        <ele>238.1</ele>
        <time>2025-07-15T07:01:09Z</time>
      </trkpt>
      <trkpt lat="46.95298667" lon="16.27344167">
        <ele>240.1</ele>
        <time>2025-07-15T07:01:18Z</time>
      </trkpt>
      <trkpt lat="46.95304667" lon="16.27331167">
        <ele>240.4</ele>
        <time>2025-07-15T07:01:23Z</time>
      </trkpt>
      <trkpt lat="46.95307" lon="16.27316833">
        <ele>240.5</ele>
        <time>2025-07-15T07:01:27Z</time>
      </trkpt>
    </trkseg>
  </trk>
</gpx>