<?xml version='1.0' encoding='UTF-8' standalone='yes' ?>
<gpx xmlns="http://www.topografix.com/GPX/1/1" xmlns:geotracker="http://ilyabogdanovich.com/gpx/extensions/geotracker" xmlns:xsi="http://www.w3.org/2001/XMLSchema-instance" xsi:schemaLocation="http://www.topografix.com/GPX/1/1 http://www.topografix.com/GPX/1/1/gpx.xsd" version="1.1" creator="Recorded in Geo Tracker for Android from Ilya Bogdanovich">
  <metadata>
    <name>w_0722_03</name>
    <author>
      <name>Recorded in Geo Tracker for Android from Ilya Bogdanovich</name>
      <link href="https://play.google.com/store/apps/details?id=com.ilyabogdanovich.geotracker" />
    </author>
    <link href="https://play.google.com/store/apps/details?id=com.ilyabogdanovich.geotracker" />
    <time>2025-07-22T08:40:14Z</time>
  </metadata>
  <wpt lat="46.04314" lon="17.80243833">
    <ele>155.5</ele>
    <time>2025-07-22T08:48:09Z</time>
    <name>Stop for ~3 min</name>
    <desc>Elevation: 156 m
Time from start: 00:07:54
Distance from start: 594 m</desc>
    <extensions>
      <geotracker:meta visited="1" />
    </extensions>
  </wpt>
  <trk>
    <name>w_0722_03</name>
    <src>Recorded in Geo Tracker for Android from Ilya Bogdanovich</src>
    <link href="https://play.google.com/store/apps/details?id=com.ilyabogdanovich.geotracker" />
    <extensions>
      <geotracker:meta>
        <geotracker:length>608.38</geotracker:length>
        <geotracker:duration>666704</geotracker:duration>
        <geotracker:creationtime>2025-07-22T08:40:14Z</geotracker:creationtime>
        <geotracker:activity>0</geotracker:activity>
      </geotracker:meta>
    </extensions>
    <trkseg>
      <trkpt lat="46.04746333" lon="17.799765">
        <ele>156.6</ele>
        <time>2025-07-22T08:40:20Z</time>
      </trkpt>
      <trkpt lat="46.0474" lon="17.79963">
        <ele>156.6</ele>
        <time>2025-07-22T08:40:23Z</time>
      </trkpt>
      <trkpt lat="46.04731" lon="17.79957">
        <ele>156.7</ele>
        <time>2025-07-22T08:40:56Z</time>
      </trkpt>
      <trkpt lat="46.04721" lon="17.79951833">
        <ele>155.2</ele>
        <time>2025-07-22T08:41:03Z</time>
      </trkpt>
      <trkpt lat="46.047125" lon="17.79957667">
        <ele>155</ele>
        <time>2025-07-22T08:41:12Z</time>
      </trkpt>
      <trkpt lat="46.04704833" lon="17.79966333">
        <ele>155.5</ele>
        <time>2025-07-22T08:41:21Z</time>
      </trkpt>
      <trkpt lat="46.04696167" lon="17.79972">
        <ele>155</ele>
        <time>2025-07-22T08:41:30Z</time>
      </trkpt>
      <trkpt lat="46.046865" lon="17.79975667">
        <ele>154.4</ele>
        <time>2025-07-22T08:41:37Z</time>
      </trkpt>
      <trkpt lat="46.04677333" lon="17.799805">
        <ele>153.5</ele>
        <time>2025-07-22T08:41:45Z</time>
      </trkpt>
      <trkpt lat="46.04668333" lon="17.79985833">
        <ele>151.3</ele>
        <time>2025-07-22T08:41:53Z</time>
      </trkpt>
      <trkpt lat="46.04659667" lon="17.79993">
        <ele>151.6</ele>
        <time>2025-07-22T08:41:59Z</time>
      </trkpt>
      <trkpt lat="46.04651167" lon="17.79998">
        <ele>152.3</ele>
        <time>2025-07-22T08:42:07Z</time>
      </trkpt>
      <trkpt lat="46.04642333" lon="17.80000833">
        <ele>154.6</ele>
        <time>2025-07-22T08:42:15Z</time>
      </trkpt>
      <trkpt lat="46.046345" lon="17.80007333">
        <ele>156.2</ele>
        <time>2025-07-22T08:42:21Z</time>
      </trkpt>
      <trkpt lat="46.04624167" lon="17.80008667">
        <ele>156.4</ele>
        <time>2025-07-22T08:42:29Z</time>
      </trkpt>
      <trkpt lat="46.04616333" lon="17.80016167">
        <ele>156.5</ele>
        <time>2025-07-22T08:42:36Z</time>
      </trkpt>
      <trkpt lat="46.04607167" lon="17.800175">
        <ele>156.4</ele>
        <time>2025-07-22T08:42:45Z</time>
      </trkpt>
      <trkpt lat="46.04598" lon="17.80017667">
        <ele>155.2</ele>
        <time>2025-07-22T08:42:52Z</time>
      </trkpt>
      <trkpt lat="46.04591" lon="17.80026">
        <ele>155.8</ele>
        <time>2025-07-22T08:42:58Z</time>
      </trkpt>
      <trkpt lat="46.045825" lon="17.80033">
        <ele>156.2</ele>
        <time>2025-07-22T08:43:05Z</time>
      </trkpt>
      <trkpt lat="46.04573" lon="17.80035">
        <ele>155.9</ele>
        <time>2025-07-22T08:43:12Z</time>
      </trkpt>
      <trkpt lat="46.04563167" lon="17.800365">
        <ele>153.8</ele>
        <time>2025-07-22T08:43:21Z</time>
      </trkpt>
      <trkpt lat="46.04553333" lon="17.80040333">
        <ele>151.4</ele>
        <time>2025-07-22T08:43:30Z</time>
      </trkpt>
      <trkpt lat="46.04543333" lon="17.80045833">
        <ele>150.5</ele>
        <time>2025-07-22T08:43:37Z</time>
      </trkpt>
      <trkpt lat="46.04535667" lon="17.80055167">
        <ele>151.5</ele>
        <time>2025-07-22T08:43:43Z</time>
      </trkpt>
      <trkpt lat="46.04526667" lon="17.800585">
        <ele>154.6</ele>
        <time>2025-07-22T08:43:51Z</time>
      </trkpt>
      <trkpt lat="46.04516333" lon="17.80061833">
        <ele>152.9</ele>
        <time>2025-07-22T08:44:01Z</time>
      </trkpt>
      <trkpt lat="46.04508833" lon="17.80069333">
        <ele>152.1</ele>
        <time>2025-07-22T08:44:06Z</time>
      </trkpt>
      <trkpt lat="46.04499833" lon="17.800745">
        <ele>151.7</ele>
        <time>2025-07-22T08:44:13Z</time>
      </trkpt>
      <trkpt lat="46.04490833" lon="17.80076833">
        <ele>151.6</ele>
        <time>2025-07-22T08:44:21Z</time>
      </trkpt>
      <trkpt lat="46.04481667" lon="17.80078167">
        <ele>149.7</ele>
        <time>2025-07-22T08:44:31Z</time>
      </trkpt>
      <trkpt lat="46.04472667" lon="17.80080833">
        <ele>147.3</ele>
        <time>2025-07-22T08:44:41Z</time>
      </trkpt>
      <trkpt lat="46.044635" lon="17.800865">
        <ele>145.4</ele>
        <time>2025-07-22T08:44:46Z</time>
      </trkpt>
      <trkpt lat="46.04454833" lon="17.800935">
        <ele>144.7</ele>
        <time>2025-07-22T08:44:53Z</time>
      </trkpt>
      <trkpt lat="46.04446167" lon="17.80098">
        <ele>144.8</ele>
        <time>2025-07-22T08:44:59Z</time>
      </trkpt>
      <trkpt lat="46.04437333" lon="17.80101333">
        <ele>144.8</ele>
        <time>2025-07-22T08:45:07Z</time>
      </trkpt>
      <trkpt lat="46.04429" lon="17.80108">
        <ele>144.8</ele>
        <time>2025-07-22T08:45:13Z</time>
      </trkpt>
      <trkpt lat="46.04420667" lon="17.80115833">
        <ele>144</ele>
        <time>2025-07-22T08:45:19Z</time>
      </trkpt>
      <trkpt lat="46.04412" lon="17.8012">
        <ele>144.4</ele>
        <time>2025-07-22T08:45:26Z</time>
      </trkpt>
      <trkpt lat="46.04403333" lon="17.80126">
        <ele>145.1</ele>
        <time>2025-07-22T08:45:32Z</time>
      </trkpt>
      <trkpt lat="46.043945" lon="17.80130833">
        <ele>146.7</ele>
        <time>2025-07-22T08:45:41Z</time>
      </trkpt>
      <trkpt lat="46.043845" lon="17.801375">
        <ele>147.2</ele>
        <time>2025-07-22T08:45:49Z</time>
      </trkpt>
      <trkpt lat="46.04376" lon="17.80144">
        <ele>148.4</ele>
        <time>2025-07-22T08:45:54Z</time>
      </trkpt>
      <trkpt lat="46.04367" lon="17.801495">
        <ele>151.6</ele>
        <time>2025-07-22T08:46:01Z</time>
      </trkpt>
      <trkpt lat="46.04362" lon="17.80162833">
        <ele>154.4</ele>
        <time>2025-07-22T08:46:16Z</time>
      </trkpt>
      <trkpt lat="46.04361333" lon="17.80176">
        <ele>154.5</ele>
        <time>2025-07-22T08:46:24Z</time>
      </trkpt>
      <trkpt lat="46.04355667" lon="17.80188">
        <ele>154</ele>
        <time>2025-07-22T08:46:33Z</time>
      </trkpt>
      <trkpt lat="46.04349" lon="17.80198167">
        <ele>153.8</ele>
        <time>2025-07-22T08:46:44Z</time>
      </trkpt>
      <trkpt lat="46.04339167" lon="17.80197833">
        <ele>154.6</ele>
        <time>2025-07-22T08:46:53Z</time>
      </trkpt>
      <trkpt lat="46.043305" lon="17.802025">
        <ele>156.8</ele>
        <time>2025-07-22T08:47:00Z</time>
      </trkpt>
      <trkpt lat="46.04329167" lon="17.80216167">
        <ele>159</ele>
        <time>2025-07-22T08:47:16Z</time>
      </trkpt>
      <trkpt lat="46.04328" lon="17.80230667">
        <ele>159.4</ele>
        <time>2025-07-22T08:47:26Z</time>
      </trkpt>
      <trkpt lat="46.04326667" lon="17.80245167">
        <ele>158.5</ele>
        <time>2025-07-22T08:47:35Z</time>
      </trkpt>
      <trkpt lat="46.04321833" lon="17.80256833">
        <ele>155.5</ele>
        <time>2025-07-22T08:47:44Z</time>
      </trkpt>
      <trkpt lat="46.04312833" lon="17.80257667">
        <ele>157</ele>
        <time>2025-07-22T08:47:59Z</time>
      </trkpt>
      <trkpt lat="46.04314" lon="17.80243833">
        <ele>155.5</ele>
        <time>2025-07-22T08:48:09Z</time>
      </trkpt>
      <trkpt lat="46.04313833" lon="17.802385">
        <ele>156.1</ele>
        <time>2025-07-22T08:51:02Z</time>
      </trkpt>
      <trkpt lat="46.04307833" lon="17.80248667">
        <ele>158.8</ele>
        <time>2025-07-22T08:51:15Z</time>
      </trkpt>
    </trkseg>
  </trk>
</gpx>