<?xml version='1.0' encoding='UTF-8' standalone='yes' ?>
<gpx xmlns="http://www.topografix.com/GPX/1/1" xmlns:geotracker="http://ilyabogdanovich.com/gpx/extensions/geotracker" xmlns:xsi="http://www.w3.org/2001/XMLSchema-instance" xsi:schemaLocation="http://www.topografix.com/GPX/1/1 http://www.topografix.com/GPX/1/1/gpx.xsd" version="1.1" creator="Recorded in Geo Tracker for Android from Ilya Bogdanovich">
  <metadata>
    <name>w_0710_04</name>
    <author>
      <name>Recorded in Geo Tracker for Android from Ilya Bogdanovich</name>
      <link href="https://play.google.com/store/apps/details?id=com.ilyabogdanovich.geotracker" />
    </author>
    <link href="https://play.google.com/store/apps/details?id=com.ilyabogdanovich.geotracker" />
    <time>2025-07-10T12:08:29Z</time>
  </metadata>
  <trk>
    <name>w_0710_04</name>
    <src>Recorded in Geo Tracker for Android from Ilya Bogdanovich</src>
    <link href="https://play.google.com/store/apps/details?id=com.ilyabogdanovich.geotracker" />
    <extensions>
      <geotracker:meta>
        <geotracker:length>321.29</geotracker:length>
        <geotracker:duration>282296</geotracker:duration>
        <geotracker:creationtime>2025-07-10T12:08:29Z</geotracker:creationtime>
        <geotracker:activity>0</geotracker:activity>
      </geotracker:meta>
    </extensions>
    <trkseg>
      <trkpt lat="47.99804833" lon="22.07348833">
        <ele>160</ele>
        <time>2025-07-10T12:08:36Z</time>
      </trkpt>
      <trkpt lat="47.99804833" lon="22.073335">
        <ele>157.8</ele>
        <time>2025-07-10T12:08:42Z</time>
      </trkpt>
      <trkpt lat="47.997955" lon="22.073365">
        <ele>163.4</ele>
        <time>2025-07-10T12:08:50Z</time>
      </trkpt>
      <trkpt lat="47.997865" lon="22.07341833">
        <ele>165.3</ele>
        <time>2025-07-10T12:08:58Z</time>
      </trkpt>
      <trkpt lat="47.99779" lon="22.0735">
        <ele>163.5</ele>
        <time>2025-07-10T12:09:06Z</time>
      </trkpt>
      <trkpt lat="47.99777333" lon="22.07364167">
        <ele>166.3</ele>
        <time>2025-07-10T12:09:19Z</time>
      </trkpt>
      <trkpt lat="47.99782833" lon="22.073765">
        <ele>168.3</ele>
        <time>2025-07-10T12:09:31Z</time>
      </trkpt>
      <trkpt lat="47.99792167" lon="22.07377667">
        <ele>170.1</ele>
        <time>2025-07-10T12:09:43Z</time>
      </trkpt>
      <trkpt lat="47.99799" lon="22.07366">
        <ele>167.5</ele>
        <time>2025-07-10T12:10:01Z</time>
      </trkpt>
      <trkpt lat="47.99806333" lon="22.07357833">
        <ele>166.8</ele>
        <time>2025-07-10T12:10:08Z</time>
      </trkpt>
      <trkpt lat="47.99815167" lon="22.07363667">
        <ele>163.6</ele>
        <time>2025-07-10T12:10:17Z</time>
      </trkpt>
      <trkpt lat="47.99821833" lon="22.07374">
        <ele>162.6</ele>
        <time>2025-07-10T12:10:24Z</time>
      </trkpt>
      <trkpt lat="47.99827167" lon="22.07387667">
        <ele>163</ele>
        <time>2025-07-10T12:10:32Z</time>
      </trkpt>
      <trkpt lat="47.998305" lon="22.07402">
        <ele>163.1</ele>
        <time>2025-07-10T12:10:37Z</time>
      </trkpt>
      <trkpt lat="47.99836" lon="22.07413333">
        <ele>162.4</ele>
        <time>2025-07-10T12:10:43Z</time>
      </trkpt>
      <trkpt lat="47.99841167" lon="22.074245">
        <ele>163.7</ele>
        <time>2025-07-10T12:10:49Z</time>
      </trkpt>
      <trkpt lat="47.99845333" lon="22.07436667">
        <ele>163.7</ele>
        <time>2025-07-10T12:10:55Z</time>
      </trkpt>
      <trkpt lat="47.99844667" lon="22.07450167">
        <ele>164.1</ele>
        <time>2025-07-10T12:11:01Z</time>
      </trkpt>
      <trkpt lat="47.99840167" lon="22.07463667">
        <ele>166.8</ele>
        <time>2025-07-10T12:11:14Z</time>
      </trkpt>
      <trkpt lat="47.99836" lon="22.07477167">
        <ele>167.8</ele>
        <time>2025-07-10T12:11:23Z</time>
      </trkpt>
      <trkpt lat="47.99831333" lon="22.074895">
        <ele>166.6</ele>
        <time>2025-07-10T12:11:29Z</time>
      </trkpt>
      <trkpt lat="47.99825" lon="22.07499833">
        <ele>164.1</ele>
        <time>2025-07-10T12:11:38Z</time>
      </trkpt>
      <trkpt lat="47.99816667" lon="22.075065">
        <ele>164.1</ele>
        <time>2025-07-10T12:11:44Z</time>
      </trkpt>
      <trkpt lat="47.99809167" lon="22.075175">
        <ele>163.7</ele>
        <time>2025-07-10T12:11:51Z</time>
      </trkpt>
      <trkpt lat="47.998035" lon="22.075295">
        <ele>163.3</ele>
        <time>2025-07-10T12:11:57Z</time>
      </trkpt>
      <trkpt lat="47.99799" lon="22.07541833">
        <ele>163.4</ele>
        <time>2025-07-10T12:12:04Z</time>
      </trkpt>
      <trkpt lat="47.99793333" lon="22.07552333">
        <ele>164.4</ele>
        <time>2025-07-10T12:12:17Z</time>
      </trkpt>
      <trkpt lat="47.997905" lon="22.075655">
        <ele>163.5</ele>
        <time>2025-07-10T12:12:24Z</time>
      </trkpt>
      <trkpt lat="47.99781167" lon="22.07563167">
        <ele>165.1</ele>
        <time>2025-07-10T12:12:36Z</time>
      </trkpt>
      <trkpt lat="47.99772" lon="22.075675">
        <ele>166.7</ele>
        <time>2025-07-10T12:12:45Z</time>
      </trkpt>
      <trkpt lat="47.99769167" lon="22.075805">
        <ele>168.3</ele>
        <time>2025-07-10T12:12:54Z</time>
      </trkpt>
    </trkseg>
  </trk>
</gpx>