<?xml version='1.0' encoding='UTF-8' standalone='yes' ?>
<gpx xmlns="http://www.topografix.com/GPX/1/1" xmlns:geotracker="http://ilyabogdanovich.com/gpx/extensions/geotracker" xmlns:xsi="http://www.w3.org/2001/XMLSchema-instance" xsi:schemaLocation="http://www.topografix.com/GPX/1/1 http://www.topografix.com/GPX/1/1/gpx.xsd" version="1.1" creator="Recorded in Geo Tracker for Android from Ilya Bogdanovich">
  <metadata>
    <name>w_0710_01</name>
    <author>
      <name>Recorded in Geo Tracker for Android from Ilya Bogdanovich</name>
      <link href="https://play.google.com/store/apps/details?id=com.ilyabogdanovich.geotracker" />
    </author>
    <link href="https://play.google.com/store/apps/details?id=com.ilyabogdanovich.geotracker" />
    <time>2025-07-10T05:36:52Z</time>
  </metadata>
  <trk>
    <name>w_0710_01</name>
    <src>Recorded in Geo Tracker for Android from Ilya Bogdanovich</src>
    <link href="https://play.google.com/store/apps/details?id=com.ilyabogdanovich.geotracker" />
    <extensions>
      <geotracker:meta>
        <geotracker:length>247.57</geotracker:length>
        <geotracker:duration>356329</geotracker:duration>
        <geotracker:creationtime>2025-07-10T05:36:52Z</geotracker:creationtime>
        <geotracker:activity>0</geotracker:activity>
      </geotracker:meta>
    </extensions>
    <trkseg>
      <trkpt lat="48.15925333" lon="22.27877167">
        <ele>149.3</ele>
        <time>2025-07-10T05:36:57Z</time>
      </trkpt>
      <trkpt lat="48.15919333" lon="22.278875">
        <ele>149.2</ele>
        <time>2025-07-10T05:37:22Z</time>
      </trkpt>
      <trkpt lat="48.15902333" lon="22.27902167">
        <ele>147.4</ele>
        <time>2025-07-10T05:38:47Z</time>
      </trkpt>
      <trkpt lat="48.15911" lon="22.27890667">
        <ele>146.5</ele>
        <time>2025-07-10T05:38:56Z</time>
      </trkpt>
      <trkpt lat="48.15918" lon="22.278815">
        <ele>144.9</ele>
        <time>2025-07-10T05:38:58Z</time>
      </trkpt>
      <trkpt lat="48.15911" lon="22.27872">
        <ele>145.7</ele>
        <time>2025-07-10T05:39:13Z</time>
      </trkpt>
      <trkpt lat="48.159085" lon="22.27857667">
        <ele>148.9</ele>
        <time>2025-07-10T05:39:22Z</time>
      </trkpt>
      <trkpt lat="48.15904167" lon="22.27843">
        <ele>151.2</ele>
        <time>2025-07-10T05:39:28Z</time>
      </trkpt>
      <trkpt lat="48.15897667" lon="22.27833333">
        <ele>152.6</ele>
        <time>2025-07-10T05:39:32Z</time>
      </trkpt>
      <trkpt lat="48.15890333" lon="22.278225">
        <ele>152.8</ele>
        <time>2025-07-10T05:39:37Z</time>
      </trkpt>
      <trkpt lat="48.15883" lon="22.27810333">
        <ele>152.8</ele>
        <time>2025-07-10T05:39:42Z</time>
      </trkpt>
      <trkpt lat="48.15877333" lon="22.27799">
        <ele>153.7</ele>
        <time>2025-07-10T05:39:46Z</time>
      </trkpt>
      <trkpt lat="48.158705" lon="22.27785">
        <ele>155.1</ele>
        <time>2025-07-10T05:39:50Z</time>
      </trkpt>
      <trkpt lat="48.15869167" lon="22.27771">
        <ele>154.2</ele>
        <time>2025-07-10T05:39:54Z</time>
      </trkpt>
      <trkpt lat="48.15873333" lon="22.277585">
        <ele>152.9</ele>
        <time>2025-07-10T05:40:00Z</time>
      </trkpt>
      <trkpt lat="48.15881" lon="22.277505">
        <ele>153.1</ele>
        <time>2025-07-10T05:40:04Z</time>
      </trkpt>
      <trkpt lat="48.15890167" lon="22.277435">
        <ele>152.8</ele>
        <time>2025-07-10T05:40:07Z</time>
      </trkpt>
      <trkpt lat="48.15899" lon="22.27737667">
        <ele>152.8</ele>
        <time>2025-07-10T05:40:11Z</time>
      </trkpt>
      <trkpt lat="48.15908333" lon="22.27730667">
        <ele>153.6</ele>
        <time>2025-07-10T05:40:16Z</time>
      </trkpt>
      <trkpt lat="48.15917167" lon="22.27728">
        <ele>155.3</ele>
        <time>2025-07-10T05:40:21Z</time>
      </trkpt>
      <trkpt lat="48.15927" lon="22.27731">
        <ele>156.8</ele>
        <time>2025-07-10T05:40:29Z</time>
      </trkpt>
      <trkpt lat="48.159365" lon="22.27726667">
        <ele>154.1</ele>
        <time>2025-07-10T05:40:41Z</time>
      </trkpt>
      <trkpt lat="48.15940333" lon="22.27727167">
        <ele>152.2</ele>
        <time>2025-07-10T05:42:42Z</time>
      </trkpt>
    </trkseg>
  </trk>
</gpx>