<?xml version='1.0' encoding='UTF-8' standalone='yes' ?>
<gpx xmlns="http://www.topografix.com/GPX/1/1" xmlns:geotracker="http://ilyabogdanovich.com/gpx/extensions/geotracker" xmlns:xsi="http://www.w3.org/2001/XMLSchema-instance" xsi:schemaLocation="http://www.topografix.com/GPX/1/1 http://www.topografix.com/GPX/1/1/gpx.xsd" version="1.1" creator="Recorded in Geo Tracker for Android from Ilya Bogdanovich">
  <metadata>
    <name>w_0729_04</name>
    <author>
      <name>Recorded in Geo Tracker for Android from Ilya Bogdanovich</name>
      <link href="https://play.google.com/store/apps/details?id=com.ilyabogdanovich.geotracker" />
    </author>
    <link href="https://play.google.com/store/apps/details?id=com.ilyabogdanovich.geotracker" />
    <time>2025-07-29T07:33:39Z</time>
  </metadata>
  <wpt lat="46.491665" lon="16.7439">
    <ele>226.5</ele>
    <time>2025-07-29T07:35:45Z</time>
    <name>Stop for ~2 min</name>
    <desc>Elevation: 227 m
Time from start: 00:02:05
Distance from start: 67 m</desc>
    <extensions>
      <geotracker:meta visited="1" />
    </extensions>
  </wpt>
  <wpt lat="46.4933" lon="16.74318167">
    <ele>218.6</ele>
    <time>2025-07-29T07:44:37Z</time>
    <name>Stop for ~2 min</name>
    <desc>Elevation: 219 m
Time from start: 00:10:57
Distance from start: 318 m</desc>
    <extensions>
      <geotracker:meta visited="1" />
    </extensions>
  </wpt>
  <wpt lat="46.4933" lon="16.74318167">
    <ele>218.6</ele>
    <time>2025-07-29T07:44:37Z</time>
    <name>Stop for ~2 min</name>
    <desc>Elevation: 219 m
Time from start: 00:10:57
Distance from start: 318 m</desc>
    <extensions>
      <geotracker:meta visited="1" />
    </extensions>
  </wpt>
  <wpt lat="46.49337" lon="16.74349833">
    <ele>223.9</ele>
    <time>2025-07-29T07:49:50Z</time>
    <name>Stop for ~16 min</name>
    <desc>Elevation: 224 m
Time from start: 00:16:10
Distance from start: 568 m</desc>
    <extensions>
      <geotracker:meta visited="1" />
    </extensions>
  </wpt>
  <wpt lat="46.49337" lon="16.74349833">
    <ele>223.9</ele>
    <time>2025-07-29T07:49:50Z</time>
    <name>Stop for ~16 min</name>
    <desc>Elevation: 224 m
Time from start: 00:16:10
Distance from start: 568 m</desc>
    <extensions>
      <geotracker:meta visited="1" />
    </extensions>
  </wpt>
  <trk>
    <name>w_0729_04</name>
    <src>Recorded in Geo Tracker for Android from Ilya Bogdanovich</src>
    <link href="https://play.google.com/store/apps/details?id=com.ilyabogdanovich.geotracker" />
    <extensions>
      <geotracker:meta>
        <geotracker:length>4950.41</geotracker:length>
        <geotracker:duration>4669396</geotracker:duration>
        <geotracker:creationtime>2025-07-29T07:33:39Z</geotracker:creationtime>
        <geotracker:activity>0</geotracker:activity>
      </geotracker:meta>
    </extensions>
    <trkseg>
      <trkpt lat="46.491895" lon="16.74400167">
        <ele>225.1</ele>
        <time>2025-07-29T07:33:48Z</time>
      </trkpt>
      <trkpt lat="46.49180333" lon="16.74398333">
        <ele>224.7</ele>
        <time>2025-07-29T07:33:58Z</time>
      </trkpt>
      <trkpt lat="46.49171667" lon="16.74405">
        <ele>224.4</ele>
        <time>2025-07-29T07:34:08Z</time>
      </trkpt>
      <trkpt lat="46.491615" lon="16.74409167">
        <ele>222.7</ele>
        <time>2025-07-29T07:34:29Z</time>
      </trkpt>
      <trkpt lat="46.49151667" lon="16.74408667">
        <ele>221.4</ele>
        <time>2025-07-29T07:34:35Z</time>
      </trkpt>
      <trkpt lat="46.49156667" lon="16.74397167">
        <ele>220.5</ele>
        <time>2025-07-29T07:35:35Z</time>
      </trkpt>
      <trkpt lat="46.491665" lon="16.7439">
        <ele>226.5</ele>
        <time>2025-07-29T07:35:45Z</time>
      </trkpt>
      <trkpt lat="46.49165667" lon="16.74382667">
        <ele>224</ele>
        <time>2025-07-29T07:37:55Z</time>
      </trkpt>
      <trkpt lat="46.49175333" lon="16.74380833">
        <ele>225</ele>
        <time>2025-07-29T07:38:06Z</time>
      </trkpt>
      <trkpt lat="46.491825" lon="16.74371667">
        <ele>224.3</ele>
        <time>2025-07-29T07:38:16Z</time>
      </trkpt>
      <trkpt lat="46.49190333" lon="16.74365">
        <ele>223.5</ele>
        <time>2025-07-29T07:38:28Z</time>
      </trkpt>
      <trkpt lat="46.49199167" lon="16.74367667">
        <ele>223.6</ele>
        <time>2025-07-29T07:38:35Z</time>
      </trkpt>
      <trkpt lat="46.49208" lon="16.743595">
        <ele>222.5</ele>
        <time>2025-07-29T07:39:50Z</time>
      </trkpt>
      <trkpt lat="46.49218" lon="16.7436">
        <ele>223.4</ele>
        <time>2025-07-29T07:39:56Z</time>
      </trkpt>
      <trkpt lat="46.49227167" lon="16.74352833">
        <ele>223.7</ele>
        <time>2025-07-29T07:40:03Z</time>
      </trkpt>
      <trkpt lat="46.49229833" lon="16.743395">
        <ele>223.1</ele>
        <time>2025-07-29T07:40:11Z</time>
      </trkpt>
      <trkpt lat="46.49224833" lon="16.743285">
        <ele>221.9</ele>
        <time>2025-07-29T07:40:18Z</time>
      </trkpt>
      <trkpt lat="46.49217667" lon="16.7432">
        <ele>219.3</ele>
        <time>2025-07-29T07:40:25Z</time>
      </trkpt>
      <trkpt lat="46.49224833" lon="16.74329333">
        <ele>222.2</ele>
        <time>2025-07-29T07:40:46Z</time>
      </trkpt>
      <trkpt lat="46.49233833" lon="16.74338833">
        <ele>222</ele>
        <time>2025-07-29T07:40:56Z</time>
      </trkpt>
      <trkpt lat="46.49243667" lon="16.743415">
        <ele>223.6</ele>
        <time>2025-07-29T07:41:07Z</time>
      </trkpt>
      <trkpt lat="46.49252833" lon="16.74340333">
        <ele>224.1</ele>
        <time>2025-07-29T07:41:14Z</time>
      </trkpt>
      <trkpt lat="46.49261833" lon="16.74338833">
        <ele>222.2</ele>
        <time>2025-07-29T07:41:24Z</time>
      </trkpt>
      <trkpt lat="46.49270333" lon="16.74334167">
        <ele>222</ele>
        <time>2025-07-29T07:41:32Z</time>
      </trkpt>
      <trkpt lat="46.49277167" lon="16.74324833">
        <ele>222.7</ele>
        <time>2025-07-29T07:41:39Z</time>
      </trkpt>
      <trkpt lat="46.49286333" lon="16.74321">
        <ele>221.6</ele>
        <time>2025-07-29T07:41:49Z</time>
      </trkpt>
      <trkpt lat="46.49296333" lon="16.74322167">
        <ele>220.6</ele>
        <time>2025-07-29T07:42:05Z</time>
      </trkpt>
      <trkpt lat="46.49305833" lon="16.74325">
        <ele>220.5</ele>
        <time>2025-07-29T07:42:13Z</time>
      </trkpt>
      <trkpt lat="46.49314333" lon="16.7433">
        <ele>221.5</ele>
        <time>2025-07-29T07:42:24Z</time>
      </trkpt>
      <trkpt lat="46.49323833" lon="16.74327167">
        <ele>223.3</ele>
        <time>2025-07-29T07:42:36Z</time>
      </trkpt>
      <trkpt lat="46.4933" lon="16.74318167">
        <ele>218.6</ele>
        <time>2025-07-29T07:44:37Z</time>
      </trkpt>
      <trkpt lat="46.49336333" lon="16.74341167">
        <ele>224.3</ele>
        <time>2025-07-29T07:45:05Z</time>
      </trkpt>
      <trkpt lat="46.49345167" lon="16.74313">
        <ele>223.3</ele>
        <time>2025-07-29T07:45:40Z</time>
      </trkpt>
      <trkpt lat="46.49335" lon="16.74314833">
        <ele>222.8</ele>
        <time>2025-07-29T07:45:53Z</time>
      </trkpt>
      <trkpt lat="46.49337333" lon="16.7435">
        <ele>223</ele>
        <time>2025-07-29T07:45:59Z</time>
      </trkpt>
      <trkpt lat="46.49342833" lon="16.74360833">
        <ele>223.4</ele>
        <time>2025-07-29T07:46:02Z</time>
      </trkpt>
      <trkpt lat="46.49352833" lon="16.743595">
        <ele>223.9</ele>
        <time>2025-07-29T07:46:07Z</time>
      </trkpt>
      <trkpt lat="46.49352667" lon="16.74345833">
        <ele>224.3</ele>
        <time>2025-07-29T07:46:13Z</time>
      </trkpt>
      <trkpt lat="46.49342667" lon="16.74351833">
        <ele>225</ele>
        <time>2025-07-29T07:46:30Z</time>
      </trkpt>
      <trkpt lat="46.49333167" lon="16.743465">
        <ele>224.9</ele>
        <time>2025-07-29T07:46:35Z</time>
      </trkpt>
      <trkpt lat="46.49344" lon="16.74350667">
        <ele>225.8</ele>
        <time>2025-07-29T07:46:48Z</time>
      </trkpt>
      <trkpt lat="46.49314667" lon="16.74345833">
        <ele>224.3</ele>
        <time>2025-07-29T07:47:25Z</time>
      </trkpt>
      <trkpt lat="46.49323667" lon="16.743485">
        <ele>222.3</ele>
        <time>2025-07-29T07:47:28Z</time>
      </trkpt>
      <trkpt lat="46.49337167" lon="16.74349">
        <ele>221.6</ele>
        <time>2025-07-29T07:47:40Z</time>
      </trkpt>
      <trkpt lat="46.49346167" lon="16.74351667">
        <ele>221.5</ele>
        <time>2025-07-29T07:47:51Z</time>
      </trkpt>
      <trkpt lat="46.49336167" lon="16.74350333">
        <ele>221.4</ele>
        <time>2025-07-29T07:48:11Z</time>
      </trkpt>
      <trkpt lat="46.49346333" lon="16.74351167">
        <ele>224</ele>
        <time>2025-07-29T07:49:42Z</time>
      </trkpt>
      <trkpt lat="46.49337" lon="16.74349833">
        <ele>223.9</ele>
        <time>2025-07-29T07:49:50Z</time>
      </trkpt>
      <trkpt lat="46.49342167" lon="16.74347">
        <ele>225.4</ele>
        <time>2025-07-29T07:52:05Z</time>
      </trkpt>
      <trkpt lat="46.49332667" lon="16.743485">
        <ele>226.4</ele>
        <time>2025-07-29T07:53:20Z</time>
      </trkpt>
      <trkpt lat="46.493405" lon="16.743565">
        <ele>225</ele>
        <time>2025-07-29T07:53:36Z</time>
      </trkpt>
      <trkpt lat="46.49345333" lon="16.74343833">
        <ele>223.9</ele>
        <time>2025-07-29T07:54:14Z</time>
      </trkpt>
      <trkpt lat="46.49341167" lon="16.74347833">
        <ele>225.8</ele>
        <time>2025-07-29T07:56:15Z</time>
      </trkpt>
      <trkpt lat="46.49339667" lon="16.74342333">
        <ele>226</ele>
        <time>2025-07-29T07:59:03Z</time>
      </trkpt>
      <trkpt lat="46.49341667" lon="16.74345167">
        <ele>228</ele>
        <time>2025-07-29T08:01:04Z</time>
      </trkpt>
      <trkpt lat="46.49333833" lon="16.74338333">
        <ele>228.4</ele>
        <time>2025-07-29T08:01:14Z</time>
      </trkpt>
      <trkpt lat="46.49334" lon="16.743375">
        <ele>228.2</ele>
        <time>2025-07-29T08:03:15Z</time>
      </trkpt>
      <trkpt lat="46.49334" lon="16.743375">
        <ele>228.2</ele>
        <time>2025-07-29T08:05:16Z</time>
      </trkpt>
      <trkpt lat="46.49330833" lon="16.74321333">
        <ele>229.6</ele>
        <time>2025-07-29T08:06:06Z</time>
      </trkpt>
      <trkpt lat="46.493375" lon="16.74303833">
        <ele>263.9</ele>
        <time>2025-07-29T08:06:48Z</time>
      </trkpt>
      <trkpt lat="46.49332333" lon="16.743145">
        <ele>220.9</ele>
        <time>2025-07-29T08:08:05Z</time>
      </trkpt>
      <trkpt lat="46.4934" lon="16.743065">
        <ele>220</ele>
        <time>2025-07-29T08:08:13Z</time>
      </trkpt>
      <trkpt lat="46.49349833" lon="16.74307">
        <ele>220.7</ele>
        <time>2025-07-29T08:08:21Z</time>
      </trkpt>
      <trkpt lat="46.49360167" lon="16.74307333">
        <ele>220.3</ele>
        <time>2025-07-29T08:08:37Z</time>
      </trkpt>
      <trkpt lat="46.49370333" lon="16.74306833">
        <ele>220.6</ele>
        <time>2025-07-29T08:08:44Z</time>
      </trkpt>
      <trkpt lat="46.49379167" lon="16.74304333">
        <ele>219.5</ele>
        <time>2025-07-29T08:08:51Z</time>
      </trkpt>
      <trkpt lat="46.49389167" lon="16.743025">
        <ele>218.5</ele>
        <time>2025-07-29T08:08:59Z</time>
      </trkpt>
      <trkpt lat="46.49398167" lon="16.743">
        <ele>219.7</ele>
        <time>2025-07-29T08:09:06Z</time>
      </trkpt>
      <trkpt lat="46.49408333" lon="16.74300167">
        <ele>220.4</ele>
        <time>2025-07-29T08:09:14Z</time>
      </trkpt>
      <trkpt lat="46.49417333" lon="16.742995">
        <ele>221.3</ele>
        <time>2025-07-29T08:09:20Z</time>
      </trkpt>
      <trkpt lat="46.49426333" lon="16.74299333">
        <ele>219.9</ele>
        <time>2025-07-29T08:09:26Z</time>
      </trkpt>
      <trkpt lat="46.49435667" lon="16.74302167">
        <ele>219.5</ele>
        <time>2025-07-29T08:09:34Z</time>
      </trkpt>
      <trkpt lat="46.49444833" lon="16.743">
        <ele>219.6</ele>
        <time>2025-07-29T08:09:40Z</time>
      </trkpt>
      <trkpt lat="46.49455" lon="16.74296333">
        <ele>219</ele>
        <time>2025-07-29T08:09:49Z</time>
      </trkpt>
      <trkpt lat="46.49462833" lon="16.74289333">
        <ele>219.7</ele>
        <time>2025-07-29T08:09:55Z</time>
      </trkpt>
      <trkpt lat="46.49471167" lon="16.74283333">
        <ele>221.7</ele>
        <time>2025-07-29T08:10:00Z</time>
      </trkpt>
      <trkpt lat="46.49479" lon="16.74276667">
        <ele>221.9</ele>
        <time>2025-07-29T08:10:07Z</time>
      </trkpt>
      <trkpt lat="46.49488" lon="16.74269667">
        <ele>222.3</ele>
        <time>2025-07-29T08:10:15Z</time>
      </trkpt>
      <trkpt lat="46.494965" lon="16.74263833">
        <ele>222.2</ele>
        <time>2025-07-29T08:10:22Z</time>
      </trkpt>
      <trkpt lat="46.49505667" lon="16.74260167">
        <ele>223.4</ele>
        <time>2025-07-29T08:10:28Z</time>
      </trkpt>
      <trkpt lat="46.49515833" lon="16.74259333">
        <ele>224.7</ele>
        <time>2025-07-29T08:10:36Z</time>
      </trkpt>
      <trkpt lat="46.49525333" lon="16.742655">
        <ele>222.7</ele>
        <time>2025-07-29T08:10:42Z</time>
      </trkpt>
      <trkpt lat="46.495165" lon="16.74257667">
        <ele>226.8</ele>
        <time>2025-07-29T08:11:13Z</time>
      </trkpt>
      <trkpt lat="46.49513" lon="16.74244167">
        <ele>227.1</ele>
        <time>2025-07-29T08:11:20Z</time>
      </trkpt>
      <trkpt lat="46.49517333" lon="16.74231333">
        <ele>227.6</ele>
        <time>2025-07-29T08:11:26Z</time>
      </trkpt>
      <trkpt lat="46.49523333" lon="16.742185">
        <ele>225.3</ele>
        <time>2025-07-29T08:11:33Z</time>
      </trkpt>
      <trkpt lat="46.4953" lon="16.74205833">
        <ele>223.3</ele>
        <time>2025-07-29T08:11:39Z</time>
      </trkpt>
      <trkpt lat="46.49537" lon="16.74196167">
        <ele>222.4</ele>
        <time>2025-07-29T08:11:45Z</time>
      </trkpt>
      <trkpt lat="46.49544333" lon="16.741875">
        <ele>222.6</ele>
        <time>2025-07-29T08:11:50Z</time>
      </trkpt>
      <trkpt lat="46.49551333" lon="16.74178333">
        <ele>224.4</ele>
        <time>2025-07-29T08:11:56Z</time>
      </trkpt>
      <trkpt lat="46.49559167" lon="16.74169333">
        <ele>225.8</ele>
        <time>2025-07-29T08:12:02Z</time>
      </trkpt>
      <trkpt lat="46.49567167" lon="16.74163167">
        <ele>224.5</ele>
        <time>2025-07-29T08:12:07Z</time>
      </trkpt>
      <trkpt lat="46.49576167" lon="16.74156333">
        <ele>225.2</ele>
        <time>2025-07-29T08:12:13Z</time>
      </trkpt>
      <trkpt lat="46.49586833" lon="16.74147833">
        <ele>226.2</ele>
        <time>2025-07-29T08:12:20Z</time>
      </trkpt>
      <trkpt lat="46.49595667" lon="16.74140167">
        <ele>225.6</ele>
        <time>2025-07-29T08:12:27Z</time>
      </trkpt>
      <trkpt lat="46.49605167" lon="16.741365">
        <ele>224.9</ele>
        <time>2025-07-29T08:12:33Z</time>
      </trkpt>
      <trkpt lat="46.49614833" lon="16.74131667">
        <ele>225.1</ele>
        <time>2025-07-29T08:12:40Z</time>
      </trkpt>
      <trkpt lat="46.49624167" lon="16.74127333">
        <ele>223.3</ele>
        <time>2025-07-29T08:12:46Z</time>
      </trkpt>
      <trkpt lat="46.49633167" lon="16.741225">
        <ele>222.1</ele>
        <time>2025-07-29T08:12:52Z</time>
      </trkpt>
      <trkpt lat="46.496425" lon="16.74117667">
        <ele>222.5</ele>
        <time>2025-07-29T08:12:58Z</time>
      </trkpt>
      <trkpt lat="46.49651" lon="16.74111167">
        <ele>223.8</ele>
        <time>2025-07-29T08:13:04Z</time>
      </trkpt>
      <trkpt lat="46.49659833" lon="16.74106">
        <ele>225.4</ele>
        <time>2025-07-29T08:13:10Z</time>
      </trkpt>
      <trkpt lat="46.49669" lon="16.74100333">
        <ele>225.7</ele>
        <time>2025-07-29T08:13:17Z</time>
      </trkpt>
      <trkpt lat="46.49679667" lon="16.74097">
        <ele>226.1</ele>
        <time>2025-07-29T08:13:23Z</time>
      </trkpt>
      <trkpt lat="46.49688833" lon="16.74094">
        <ele>227.3</ele>
        <time>2025-07-29T08:13:29Z</time>
      </trkpt>
      <trkpt lat="46.496975" lon="16.74089833">
        <ele>229.1</ele>
        <time>2025-07-29T08:13:35Z</time>
      </trkpt>
      <trkpt lat="46.49706167" lon="16.74086167">
        <ele>231.2</ele>
        <time>2025-07-29T08:13:41Z</time>
      </trkpt>
      <trkpt lat="46.49715" lon="16.74080333">
        <ele>235.7</ele>
        <time>2025-07-29T08:13:49Z</time>
      </trkpt>
      <trkpt lat="46.49725" lon="16.740785">
        <ele>235.6</ele>
        <time>2025-07-29T08:13:55Z</time>
      </trkpt>
      <trkpt lat="46.49733667" lon="16.74072667">
        <ele>233</ele>
        <time>2025-07-29T08:14:01Z</time>
      </trkpt>
      <trkpt lat="46.49742333" lon="16.74066667">
        <ele>228</ele>
        <time>2025-07-29T08:14:09Z</time>
      </trkpt>
      <trkpt lat="46.49752333" lon="16.74062833">
        <ele>223.3</ele>
        <time>2025-07-29T08:14:17Z</time>
      </trkpt>
      <trkpt lat="46.49759167" lon="16.74053167">
        <ele>220</ele>
        <time>2025-07-29T08:14:24Z</time>
      </trkpt>
      <trkpt lat="46.49768167" lon="16.74048167">
        <ele>216.8</ele>
        <time>2025-07-29T08:14:32Z</time>
      </trkpt>
      <trkpt lat="46.49777167" lon="16.74042833">
        <ele>217</ele>
        <time>2025-07-29T08:14:40Z</time>
      </trkpt>
      <trkpt lat="46.49787" lon="16.74039667">
        <ele>217.3</ele>
        <time>2025-07-29T08:14:46Z</time>
      </trkpt>
      <trkpt lat="46.49797" lon="16.74035833">
        <ele>216.3</ele>
        <time>2025-07-29T08:14:52Z</time>
      </trkpt>
      <trkpt lat="46.49807" lon="16.740315">
        <ele>217.6</ele>
        <time>2025-07-29T08:14:58Z</time>
      </trkpt>
      <trkpt lat="46.49816833" lon="16.74026667">
        <ele>219.8</ele>
        <time>2025-07-29T08:15:05Z</time>
      </trkpt>
      <trkpt lat="46.49826" lon="16.74022833">
        <ele>222</ele>
        <time>2025-07-29T08:15:10Z</time>
      </trkpt>
      <trkpt lat="46.49836" lon="16.74018833">
        <ele>222.2</ele>
        <time>2025-07-29T08:15:16Z</time>
      </trkpt>
      <trkpt lat="46.498445" lon="16.74014333">
        <ele>222.7</ele>
        <time>2025-07-29T08:15:22Z</time>
      </trkpt>
      <trkpt lat="46.49854167" lon="16.74010667">
        <ele>223.5</ele>
        <time>2025-07-29T08:15:27Z</time>
      </trkpt>
      <trkpt lat="46.49863667" lon="16.74007">
        <ele>226.6</ele>
        <time>2025-07-29T08:15:33Z</time>
      </trkpt>
      <trkpt lat="46.498735" lon="16.74003167">
        <ele>226.9</ele>
        <time>2025-07-29T08:15:40Z</time>
      </trkpt>
      <trkpt lat="46.49882667" lon="16.73997667">
        <ele>226.7</ele>
        <time>2025-07-29T08:15:47Z</time>
      </trkpt>
      <trkpt lat="46.49891" lon="16.73992333">
        <ele>225.6</ele>
        <time>2025-07-29T08:15:54Z</time>
      </trkpt>
      <trkpt lat="46.49900667" lon="16.739875">
        <ele>227</ele>
        <time>2025-07-29T08:16:00Z</time>
      </trkpt>
      <trkpt lat="46.49909833" lon="16.73981167">
        <ele>225.8</ele>
        <time>2025-07-29T08:16:07Z</time>
      </trkpt>
      <trkpt lat="46.49918167" lon="16.73975833">
        <ele>225.3</ele>
        <time>2025-07-29T08:16:14Z</time>
      </trkpt>
      <trkpt lat="46.49926833" lon="16.73971333">
        <ele>225.2</ele>
        <time>2025-07-29T08:16:20Z</time>
      </trkpt>
      <trkpt lat="46.49936333" lon="16.73964833">
        <ele>226.2</ele>
        <time>2025-07-29T08:16:26Z</time>
      </trkpt>
      <trkpt lat="46.499455" lon="16.73959667">
        <ele>225.8</ele>
        <time>2025-07-29T08:16:33Z</time>
      </trkpt>
      <trkpt lat="46.49953833" lon="16.73954333">
        <ele>226.1</ele>
        <time>2025-07-29T08:16:39Z</time>
      </trkpt>
      <trkpt lat="46.499625" lon="16.73948833">
        <ele>226.1</ele>
        <time>2025-07-29T08:16:45Z</time>
      </trkpt>
      <trkpt lat="46.49970833" lon="16.739425">
        <ele>226</ele>
        <time>2025-07-29T08:16:51Z</time>
      </trkpt>
      <trkpt lat="46.49979667" lon="16.73936667">
        <ele>224.9</ele>
        <time>2025-07-29T08:16:58Z</time>
      </trkpt>
      <trkpt lat="46.49988333" lon="16.73930667">
        <ele>225.2</ele>
        <time>2025-07-29T08:17:06Z</time>
      </trkpt>
      <trkpt lat="46.49997" lon="16.73924167">
        <ele>225.7</ele>
        <time>2025-07-29T08:17:13Z</time>
      </trkpt>
      <trkpt lat="46.50004833" lon="16.73917667">
        <ele>225.3</ele>
        <time>2025-07-29T08:17:20Z</time>
      </trkpt>
      <trkpt lat="46.500125" lon="16.73910833">
        <ele>224</ele>
        <time>2025-07-29T08:17:26Z</time>
      </trkpt>
      <trkpt lat="46.50022167" lon="16.73904667">
        <ele>223.3</ele>
        <time>2025-07-29T08:17:33Z</time>
      </trkpt>
      <trkpt lat="46.50031167" lon="16.73896833">
        <ele>223.7</ele>
        <time>2025-07-29T08:17:40Z</time>
      </trkpt>
      <trkpt lat="46.50039833" lon="16.738915">
        <ele>223.4</ele>
        <time>2025-07-29T08:17:46Z</time>
      </trkpt>
      <trkpt lat="46.50049667" lon="16.73887833">
        <ele>224.6</ele>
        <time>2025-07-29T08:17:52Z</time>
      </trkpt>
      <trkpt lat="46.500575" lon="16.738785">
        <ele>226.3</ele>
        <time>2025-07-29T08:17:58Z</time>
      </trkpt>
      <trkpt lat="46.50065167" lon="16.73868667">
        <ele>227.3</ele>
        <time>2025-07-29T08:18:04Z</time>
      </trkpt>
      <trkpt lat="46.50073667" lon="16.738615">
        <ele>227</ele>
        <time>2025-07-29T08:18:11Z</time>
      </trkpt>
      <trkpt lat="46.50082" lon="16.73853833">
        <ele>227.9</ele>
        <time>2025-07-29T08:18:17Z</time>
      </trkpt>
      <trkpt lat="46.50091" lon="16.73847333">
        <ele>227.8</ele>
        <time>2025-07-29T08:18:24Z</time>
      </trkpt>
      <trkpt lat="46.50098167" lon="16.73838833">
        <ele>227.4</ele>
        <time>2025-07-29T08:18:32Z</time>
      </trkpt>
      <trkpt lat="46.50106333" lon="16.73831667">
        <ele>228</ele>
        <time>2025-07-29T08:18:38Z</time>
      </trkpt>
      <trkpt lat="46.50114667" lon="16.73822833">
        <ele>227.8</ele>
        <time>2025-07-29T08:18:45Z</time>
      </trkpt>
      <trkpt lat="46.50122833" lon="16.73814667">
        <ele>227.1</ele>
        <time>2025-07-29T08:18:51Z</time>
      </trkpt>
      <trkpt lat="46.50130333" lon="16.73805667">
        <ele>227.5</ele>
        <time>2025-07-29T08:18:58Z</time>
      </trkpt>
      <trkpt lat="46.50138333" lon="16.73798333">
        <ele>227.7</ele>
        <time>2025-07-29T08:19:05Z</time>
      </trkpt>
      <trkpt lat="46.50146833" lon="16.73790333">
        <ele>226.8</ele>
        <time>2025-07-29T08:19:11Z</time>
      </trkpt>
      <trkpt lat="46.50155167" lon="16.737815">
        <ele>227.9</ele>
        <time>2025-07-29T08:19:18Z</time>
      </trkpt>
      <trkpt lat="46.50162333" lon="16.73772667">
        <ele>226</ele>
        <time>2025-07-29T08:19:48Z</time>
      </trkpt>
      <trkpt lat="46.50170833" lon="16.73764833">
        <ele>225.5</ele>
        <time>2025-07-29T08:19:57Z</time>
      </trkpt>
      <trkpt lat="46.50179667" lon="16.73756667">
        <ele>225.7</ele>
        <time>2025-07-29T08:20:05Z</time>
      </trkpt>
      <trkpt lat="46.50188" lon="16.73747167">
        <ele>226.3</ele>
        <time>2025-07-29T08:20:11Z</time>
      </trkpt>
      <trkpt lat="46.50196333" lon="16.73738333">
        <ele>225.7</ele>
        <time>2025-07-29T08:20:18Z</time>
      </trkpt>
      <trkpt lat="46.502035" lon="16.737295">
        <ele>225.7</ele>
        <time>2025-07-29T08:20:24Z</time>
      </trkpt>
      <trkpt lat="46.50210167" lon="16.73720167">
        <ele>226.5</ele>
        <time>2025-07-29T08:20:30Z</time>
      </trkpt>
      <trkpt lat="46.50218" lon="16.73712167">
        <ele>226.3</ele>
        <time>2025-07-29T08:20:36Z</time>
      </trkpt>
      <trkpt lat="46.50225667" lon="16.73705167">
        <ele>226.5</ele>
        <time>2025-07-29T08:20:41Z</time>
      </trkpt>
      <trkpt lat="46.50232667" lon="16.73695833">
        <ele>227.6</ele>
        <time>2025-07-29T08:20:47Z</time>
      </trkpt>
      <trkpt lat="46.50240667" lon="16.73686">
        <ele>228.6</ele>
        <time>2025-07-29T08:20:54Z</time>
      </trkpt>
      <trkpt lat="46.50247833" lon="16.73677167">
        <ele>228.8</ele>
        <time>2025-07-29T08:21:00Z</time>
      </trkpt>
      <trkpt lat="46.50255167" lon="16.73669333">
        <ele>228.4</ele>
        <time>2025-07-29T08:21:07Z</time>
      </trkpt>
      <trkpt lat="46.502625" lon="16.73661">
        <ele>228.7</ele>
        <time>2025-07-29T08:21:13Z</time>
      </trkpt>
      <trkpt lat="46.50269833" lon="16.73651167">
        <ele>228.5</ele>
        <time>2025-07-29T08:21:20Z</time>
      </trkpt>
      <trkpt lat="46.50278" lon="16.736425">
        <ele>228.4</ele>
        <time>2025-07-29T08:21:26Z</time>
      </trkpt>
      <trkpt lat="46.50286667" lon="16.73633167">
        <ele>228.7</ele>
        <time>2025-07-29T08:21:32Z</time>
      </trkpt>
      <trkpt lat="46.502915" lon="16.73622167">
        <ele>229.1</ele>
        <time>2025-07-29T08:21:41Z</time>
      </trkpt>
      <trkpt lat="46.503005" lon="16.73616">
        <ele>231</ele>
        <time>2025-07-29T08:21:54Z</time>
      </trkpt>
      <trkpt lat="46.503075" lon="16.73607333">
        <ele>230.5</ele>
        <time>2025-07-29T08:22:01Z</time>
      </trkpt>
      <trkpt lat="46.50315" lon="16.73599333">
        <ele>228.6</ele>
        <time>2025-07-29T08:22:08Z</time>
      </trkpt>
      <trkpt lat="46.50322167" lon="16.73591167">
        <ele>227.1</ele>
        <time>2025-07-29T08:22:14Z</time>
      </trkpt>
      <trkpt lat="46.5033" lon="16.735845">
        <ele>226.8</ele>
        <time>2025-07-29T08:22:19Z</time>
      </trkpt>
      <trkpt lat="46.50338" lon="16.73576833">
        <ele>227.4</ele>
        <time>2025-07-29T08:22:25Z</time>
      </trkpt>
      <trkpt lat="46.50346" lon="16.73567167">
        <ele>228.4</ele>
        <time>2025-07-29T08:22:32Z</time>
      </trkpt>
      <trkpt lat="46.50353667" lon="16.73557167">
        <ele>230.5</ele>
        <time>2025-07-29T08:22:39Z</time>
      </trkpt>
      <trkpt lat="46.50361833" lon="16.73548167">
        <ele>231.2</ele>
        <time>2025-07-29T08:22:46Z</time>
      </trkpt>
      <trkpt lat="46.503685" lon="16.73538667">
        <ele>230.5</ele>
        <time>2025-07-29T08:22:54Z</time>
      </trkpt>
      <trkpt lat="46.50377333" lon="16.735305">
        <ele>229.6</ele>
        <time>2025-07-29T08:23:02Z</time>
      </trkpt>
      <trkpt lat="46.50385333" lon="16.73522667">
        <ele>228.9</ele>
        <time>2025-07-29T08:23:08Z</time>
      </trkpt>
      <trkpt lat="46.50392" lon="16.73513">
        <ele>228.7</ele>
        <time>2025-07-29T08:23:14Z</time>
      </trkpt>
      <trkpt lat="46.504005" lon="16.73504167">
        <ele>229.7</ele>
        <time>2025-07-29T08:23:22Z</time>
      </trkpt>
      <trkpt lat="46.50407" lon="16.734945">
        <ele>229</ele>
        <time>2025-07-29T08:23:28Z</time>
      </trkpt>
      <trkpt lat="46.50415167" lon="16.73485167">
        <ele>228.7</ele>
        <time>2025-07-29T08:23:35Z</time>
      </trkpt>
      <trkpt lat="46.50421833" lon="16.73475167">
        <ele>228.3</ele>
        <time>2025-07-29T08:23:41Z</time>
      </trkpt>
      <trkpt lat="46.50429167" lon="16.73465">
        <ele>226.4</ele>
        <time>2025-07-29T08:23:48Z</time>
      </trkpt>
      <trkpt lat="46.50435667" lon="16.73455667">
        <ele>225</ele>
        <time>2025-07-29T08:23:55Z</time>
      </trkpt>
      <trkpt lat="46.50441333" lon="16.73444">
        <ele>223.1</ele>
        <time>2025-07-29T08:24:02Z</time>
      </trkpt>
      <trkpt lat="46.50446833" lon="16.73433667">
        <ele>222.1</ele>
        <time>2025-07-29T08:24:09Z</time>
      </trkpt>
      <trkpt lat="46.50452833" lon="16.73423667">
        <ele>221.9</ele>
        <time>2025-07-29T08:24:16Z</time>
      </trkpt>
      <trkpt lat="46.504615" lon="16.73413833">
        <ele>222</ele>
        <time>2025-07-29T08:24:21Z</time>
      </trkpt>
      <trkpt lat="46.50469333" lon="16.73405167">
        <ele>222.8</ele>
        <time>2025-07-29T08:24:26Z</time>
      </trkpt>
      <trkpt lat="46.50477167" lon="16.73395167">
        <ele>223.8</ele>
        <time>2025-07-29T08:24:32Z</time>
      </trkpt>
      <trkpt lat="46.50484" lon="16.73385833">
        <ele>224.8</ele>
        <time>2025-07-29T08:24:37Z</time>
      </trkpt>
      <trkpt lat="46.50488333" lon="16.73374333">
        <ele>226.1</ele>
        <time>2025-07-29T08:24:43Z</time>
      </trkpt>
      <trkpt lat="46.50492333" lon="16.73362">
        <ele>227.1</ele>
        <time>2025-07-29T08:24:49Z</time>
      </trkpt>
      <trkpt lat="46.50498167" lon="16.73351333">
        <ele>227.5</ele>
        <time>2025-07-29T08:24:55Z</time>
      </trkpt>
      <trkpt lat="46.505035" lon="16.73338">
        <ele>227.4</ele>
        <time>2025-07-29T08:25:02Z</time>
      </trkpt>
      <trkpt lat="46.505115" lon="16.7333">
        <ele>228</ele>
        <time>2025-07-29T08:25:08Z</time>
      </trkpt>
      <trkpt lat="46.50517333" lon="16.73318167">
        <ele>229.2</ele>
        <time>2025-07-29T08:25:14Z</time>
      </trkpt>
      <trkpt lat="46.50523" lon="16.73306667">
        <ele>230.7</ele>
        <time>2025-07-29T08:25:21Z</time>
      </trkpt>
      <trkpt lat="46.505295" lon="16.73296">
        <ele>231.5</ele>
        <time>2025-07-29T08:25:27Z</time>
      </trkpt>
      <trkpt lat="46.505375" lon="16.73286667">
        <ele>231.5</ele>
        <time>2025-07-29T08:25:33Z</time>
      </trkpt>
      <trkpt lat="46.50543" lon="16.73274833">
        <ele>232.8</ele>
        <time>2025-07-29T08:25:39Z</time>
      </trkpt>
      <trkpt lat="46.50547333" lon="16.73260667">
        <ele>233.9</ele>
        <time>2025-07-29T08:25:46Z</time>
      </trkpt>
      <trkpt lat="46.50552667" lon="16.73249667">
        <ele>234.6</ele>
        <time>2025-07-29T08:25:52Z</time>
      </trkpt>
      <trkpt lat="46.50558167" lon="16.73237667">
        <ele>235.3</ele>
        <time>2025-07-29T08:25:58Z</time>
      </trkpt>
      <trkpt lat="46.50564167" lon="16.73225833">
        <ele>234.6</ele>
        <time>2025-07-29T08:26:06Z</time>
      </trkpt>
      <trkpt lat="46.50572" lon="16.73215333">
        <ele>234.5</ele>
        <time>2025-07-29T08:26:13Z</time>
      </trkpt>
      <trkpt lat="46.50577333" lon="16.73204333">
        <ele>233.7</ele>
        <time>2025-07-29T08:26:19Z</time>
      </trkpt>
      <trkpt lat="46.50585667" lon="16.73195833">
        <ele>231.2</ele>
        <time>2025-07-29T08:26:27Z</time>
      </trkpt>
      <trkpt lat="46.50593" lon="16.73187833">
        <ele>228.7</ele>
        <time>2025-07-29T08:26:35Z</time>
      </trkpt>
      <trkpt lat="46.50598333" lon="16.73176833">
        <ele>227.1</ele>
        <time>2025-07-29T08:26:42Z</time>
      </trkpt>
      <trkpt lat="46.50604833" lon="16.73167667">
        <ele>226.1</ele>
        <time>2025-07-29T08:26:49Z</time>
      </trkpt>
      <trkpt lat="46.50612167" lon="16.73155667">
        <ele>225</ele>
        <time>2025-07-29T08:26:56Z</time>
      </trkpt>
      <trkpt lat="46.50617833" lon="16.73145">
        <ele>225.6</ele>
        <time>2025-07-29T08:27:01Z</time>
      </trkpt>
      <trkpt lat="46.506235" lon="16.73133167">
        <ele>226.7</ele>
        <time>2025-07-29T08:27:08Z</time>
      </trkpt>
      <trkpt lat="46.50628167" lon="16.73121">
        <ele>226.4</ele>
        <time>2025-07-29T08:27:16Z</time>
      </trkpt>
      <trkpt lat="46.50633" lon="16.7311">
        <ele>226.8</ele>
        <time>2025-07-29T08:27:22Z</time>
      </trkpt>
      <trkpt lat="46.506375" lon="16.730975">
        <ele>228.1</ele>
        <time>2025-07-29T08:27:29Z</time>
      </trkpt>
      <trkpt lat="46.50640833" lon="16.73084667">
        <ele>226.2</ele>
        <time>2025-07-29T08:27:38Z</time>
      </trkpt>
      <trkpt lat="46.506455" lon="16.73073167">
        <ele>224.8</ele>
        <time>2025-07-29T08:27:45Z</time>
      </trkpt>
      <trkpt lat="46.50652167" lon="16.73061833">
        <ele>223.5</ele>
        <time>2025-07-29T08:27:51Z</time>
      </trkpt>
      <trkpt lat="46.50660333" lon="16.73053667">
        <ele>224.5</ele>
        <time>2025-07-29T08:27:55Z</time>
      </trkpt>
      <trkpt lat="46.50668333" lon="16.730465">
        <ele>226.6</ele>
        <time>2025-07-29T08:27:59Z</time>
      </trkpt>
      <trkpt lat="46.50676333" lon="16.73037">
        <ele>227.1</ele>
        <time>2025-07-29T08:28:06Z</time>
      </trkpt>
      <trkpt lat="46.50683" lon="16.73026833">
        <ele>227.2</ele>
        <time>2025-07-29T08:28:12Z</time>
      </trkpt>
      <trkpt lat="46.506885" lon="16.73015667">
        <ele>226.5</ele>
        <time>2025-07-29T08:28:19Z</time>
      </trkpt>
      <trkpt lat="46.50696833" lon="16.73009167">
        <ele>225.5</ele>
        <time>2025-07-29T08:28:26Z</time>
      </trkpt>
      <trkpt lat="46.50705167" lon="16.72999667">
        <ele>224.5</ele>
        <time>2025-07-29T08:28:33Z</time>
      </trkpt>
      <trkpt lat="46.50713333" lon="16.72993">
        <ele>222.9</ele>
        <time>2025-07-29T08:28:42Z</time>
      </trkpt>
      <trkpt lat="46.50719833" lon="16.72980667">
        <ele>220.1</ele>
        <time>2025-07-29T08:28:48Z</time>
      </trkpt>
      <trkpt lat="46.50727" lon="16.72971833">
        <ele>217</ele>
        <time>2025-07-29T08:28:56Z</time>
      </trkpt>
      <trkpt lat="46.50736667" lon="16.729685">
        <ele>216.4</ele>
        <time>2025-07-29T08:29:01Z</time>
      </trkpt>
      <trkpt lat="46.50743333" lon="16.72959333">
        <ele>215.3</ele>
        <time>2025-07-29T08:29:05Z</time>
      </trkpt>
      <trkpt lat="46.50751167" lon="16.72948833">
        <ele>217.5</ele>
        <time>2025-07-29T08:29:09Z</time>
      </trkpt>
      <trkpt lat="46.50758833" lon="16.729405">
        <ele>221</ele>
        <time>2025-07-29T08:29:12Z</time>
      </trkpt>
      <trkpt lat="46.50767333" lon="16.72930667">
        <ele>225.6</ele>
        <time>2025-07-29T08:29:17Z</time>
      </trkpt>
      <trkpt lat="46.50776167" lon="16.72924167">
        <ele>226.6</ele>
        <time>2025-07-29T08:29:25Z</time>
      </trkpt>
      <trkpt lat="46.50783" lon="16.72913667">
        <ele>226.4</ele>
        <time>2025-07-29T08:29:31Z</time>
      </trkpt>
      <trkpt lat="46.50790167" lon="16.72904667">
        <ele>227.3</ele>
        <time>2025-07-29T08:29:37Z</time>
      </trkpt>
      <trkpt lat="46.50798" lon="16.72895167">
        <ele>227.1</ele>
        <time>2025-07-29T08:29:44Z</time>
      </trkpt>
      <trkpt lat="46.50803667" lon="16.72883833">
        <ele>226.8</ele>
        <time>2025-07-29T08:29:51Z</time>
      </trkpt>
      <trkpt lat="46.508095" lon="16.728735">
        <ele>227.2</ele>
        <time>2025-07-29T08:29:58Z</time>
      </trkpt>
      <trkpt lat="46.50816333" lon="16.72863667">
        <ele>227.9</ele>
        <time>2025-07-29T08:30:05Z</time>
      </trkpt>
      <trkpt lat="46.50822667" lon="16.72854333">
        <ele>227.7</ele>
        <time>2025-07-29T08:30:11Z</time>
      </trkpt>
      <trkpt lat="46.50828833" lon="16.72844333">
        <ele>227.6</ele>
        <time>2025-07-29T08:30:18Z</time>
      </trkpt>
      <trkpt lat="46.50836667" lon="16.72834833">
        <ele>225.5</ele>
        <time>2025-07-29T08:30:26Z</time>
      </trkpt>
      <trkpt lat="46.50841833" lon="16.728235">
        <ele>220.6</ele>
        <time>2025-07-29T08:30:37Z</time>
      </trkpt>
      <trkpt lat="46.508515" lon="16.72822167">
        <ele>218.5</ele>
        <time>2025-07-29T08:30:45Z</time>
      </trkpt>
      <trkpt lat="46.50861833" lon="16.728205">
        <ele>216.1</ele>
        <time>2025-07-29T08:30:51Z</time>
      </trkpt>
      <trkpt lat="46.50871167" lon="16.72818833">
        <ele>215.4</ele>
        <time>2025-07-29T08:30:55Z</time>
      </trkpt>
      <trkpt lat="46.50881333" lon="16.72817167">
        <ele>217.8</ele>
        <time>2025-07-29T08:31:02Z</time>
      </trkpt>
      <trkpt lat="46.50891667" lon="16.728175">
        <ele>220.6</ele>
        <time>2025-07-29T08:31:07Z</time>
      </trkpt>
      <trkpt lat="46.50901833" lon="16.72816">
        <ele>222.7</ele>
        <time>2025-07-29T08:31:11Z</time>
      </trkpt>
      <trkpt lat="46.50913333" lon="16.728135">
        <ele>225.6</ele>
        <time>2025-07-29T08:31:15Z</time>
      </trkpt>
      <trkpt lat="46.509225" lon="16.72813667">
        <ele>228.2</ele>
        <time>2025-07-29T08:31:18Z</time>
      </trkpt>
      <trkpt lat="46.50933" lon="16.72814667">
        <ele>231.6</ele>
        <time>2025-07-29T08:31:21Z</time>
      </trkpt>
      <trkpt lat="46.50943" lon="16.72819333">
        <ele>235.1</ele>
        <time>2025-07-29T08:31:26Z</time>
      </trkpt>
      <trkpt lat="46.50953" lon="16.72821333">
        <ele>237</ele>
        <time>2025-07-29T08:31:32Z</time>
      </trkpt>
      <trkpt lat="46.50963" lon="16.72827167">
        <ele>237.2</ele>
        <time>2025-07-29T08:31:39Z</time>
      </trkpt>
      <trkpt lat="46.509725" lon="16.72832833">
        <ele>238.4</ele>
        <time>2025-07-29T08:31:44Z</time>
      </trkpt>
      <trkpt lat="46.50981667" lon="16.728355">
        <ele>240.1</ele>
        <time>2025-07-29T08:31:49Z</time>
      </trkpt>
      <trkpt lat="46.50991833" lon="16.72838167">
        <ele>241.2</ele>
        <time>2025-07-29T08:31:55Z</time>
      </trkpt>
      <trkpt lat="46.50999667" lon="16.72846">
        <ele>240.1</ele>
        <time>2025-07-29T08:32:02Z</time>
      </trkpt>
      <trkpt lat="46.51007333" lon="16.72854333">
        <ele>241.4</ele>
        <time>2025-07-29T08:32:09Z</time>
      </trkpt>
      <trkpt lat="46.51016" lon="16.72860333">
        <ele>242.5</ele>
        <time>2025-07-29T08:32:18Z</time>
      </trkpt>
      <trkpt lat="46.510255" lon="16.72865833">
        <ele>243.4</ele>
        <time>2025-07-29T08:32:26Z</time>
      </trkpt>
      <trkpt lat="46.51034667" lon="16.72871333">
        <ele>245</ele>
        <time>2025-07-29T08:32:31Z</time>
      </trkpt>
      <trkpt lat="46.51044" lon="16.72877667">
        <ele>248.1</ele>
        <time>2025-07-29T08:32:36Z</time>
      </trkpt>
      <trkpt lat="46.51053167" lon="16.72882667">
        <ele>250.1</ele>
        <time>2025-07-29T08:32:45Z</time>
      </trkpt>
      <trkpt lat="46.51063167" lon="16.72884167">
        <ele>251.4</ele>
        <time>2025-07-29T08:32:54Z</time>
      </trkpt>
      <trkpt lat="46.51073333" lon="16.72885833">
        <ele>251.2</ele>
        <time>2025-07-29T08:33:00Z</time>
      </trkpt>
      <trkpt lat="46.51082833" lon="16.72888">
        <ele>249.1</ele>
        <time>2025-07-29T08:33:06Z</time>
      </trkpt>
      <trkpt lat="46.51093167" lon="16.72892">
        <ele>249.3</ele>
        <time>2025-07-29T08:33:12Z</time>
      </trkpt>
      <trkpt lat="46.51103833" lon="16.7289">
        <ele>248.7</ele>
        <time>2025-07-29T08:33:17Z</time>
      </trkpt>
      <trkpt lat="46.51115333" lon="16.72887167">
        <ele>249.3</ele>
        <time>2025-07-29T08:33:21Z</time>
      </trkpt>
      <trkpt lat="46.51124333" lon="16.72886167">
        <ele>248.4</ele>
        <time>2025-07-29T08:33:25Z</time>
      </trkpt>
      <trkpt lat="46.51134" lon="16.72881333">
        <ele>248.7</ele>
        <time>2025-07-29T08:33:30Z</time>
      </trkpt>
      <trkpt lat="46.51143" lon="16.72876">
        <ele>249</ele>
        <time>2025-07-29T08:33:36Z</time>
      </trkpt>
      <trkpt lat="46.51151667" lon="16.7287">
        <ele>247.2</ele>
        <time>2025-07-29T08:33:43Z</time>
      </trkpt>
      <trkpt lat="46.51160167" lon="16.72865667">
        <ele>245.4</ele>
        <time>2025-07-29T08:33:50Z</time>
      </trkpt>
      <trkpt lat="46.51168667" lon="16.72859667">
        <ele>244.4</ele>
        <time>2025-07-29T08:33:58Z</time>
      </trkpt>
      <trkpt lat="46.51176667" lon="16.72852167">
        <ele>243.5</ele>
        <time>2025-07-29T08:34:05Z</time>
      </trkpt>
      <trkpt lat="46.51184833" lon="16.72844167">
        <ele>243.1</ele>
        <time>2025-07-29T08:34:11Z</time>
      </trkpt>
      <trkpt lat="46.51192167" lon="16.72834167">
        <ele>242.5</ele>
        <time>2025-07-29T08:34:18Z</time>
      </trkpt>
      <trkpt lat="46.51200167" lon="16.72826333">
        <ele>242.3</ele>
        <time>2025-07-29T08:34:26Z</time>
      </trkpt>
      <trkpt lat="46.51207667" lon="16.728185">
        <ele>241.1</ele>
        <time>2025-07-29T08:34:33Z</time>
      </trkpt>
      <trkpt lat="46.512165" lon="16.72813">
        <ele>241.2</ele>
        <time>2025-07-29T08:34:40Z</time>
      </trkpt>
      <trkpt lat="46.51225167" lon="16.72807">
        <ele>242.4</ele>
        <time>2025-07-29T08:34:47Z</time>
      </trkpt>
      <trkpt lat="46.512345" lon="16.72804167">
        <ele>244.1</ele>
        <time>2025-07-29T08:34:54Z</time>
      </trkpt>
      <trkpt lat="46.51244167" lon="16.72802833">
        <ele>248.7</ele>
        <time>2025-07-29T08:35:02Z</time>
      </trkpt>
      <trkpt lat="46.51253" lon="16.72797167">
        <ele>249.3</ele>
        <time>2025-07-29T08:35:09Z</time>
      </trkpt>
      <trkpt lat="46.51261667" lon="16.727915">
        <ele>251</ele>
        <time>2025-07-29T08:35:13Z</time>
      </trkpt>
      <trkpt lat="46.51270667" lon="16.72785">
        <ele>251.8</ele>
        <time>2025-07-29T08:35:19Z</time>
      </trkpt>
      <trkpt lat="46.51280167" lon="16.7278">
        <ele>251.2</ele>
        <time>2025-07-29T08:35:25Z</time>
      </trkpt>
      <trkpt lat="46.51289667" lon="16.72778">
        <ele>250.3</ele>
        <time>2025-07-29T08:35:32Z</time>
      </trkpt>
      <trkpt lat="46.51299333" lon="16.72778333">
        <ele>249.5</ele>
        <time>2025-07-29T08:35:38Z</time>
      </trkpt>
      <trkpt lat="46.513085" lon="16.72776667">
        <ele>245.9</ele>
        <time>2025-07-29T08:35:45Z</time>
      </trkpt>
      <trkpt lat="46.51319" lon="16.72778167">
        <ele>243.1</ele>
        <time>2025-07-29T08:35:54Z</time>
      </trkpt>
      <trkpt lat="46.51329833" lon="16.72779667">
        <ele>242.6</ele>
        <time>2025-07-29T08:35:59Z</time>
      </trkpt>
      <trkpt lat="46.51338833" lon="16.72782667">
        <ele>242.8</ele>
        <time>2025-07-29T08:36:04Z</time>
      </trkpt>
      <trkpt lat="46.51349" lon="16.727825">
        <ele>242.1</ele>
        <time>2025-07-29T08:36:11Z</time>
      </trkpt>
      <trkpt lat="46.51358667" lon="16.72782667">
        <ele>242</ele>
        <time>2025-07-29T08:36:18Z</time>
      </trkpt>
      <trkpt lat="46.513695" lon="16.72782833">
        <ele>242.3</ele>
        <time>2025-07-29T08:36:24Z</time>
      </trkpt>
      <trkpt lat="46.51379" lon="16.72785">
        <ele>241.7</ele>
        <time>2025-07-29T08:36:30Z</time>
      </trkpt>
      <trkpt lat="46.513895" lon="16.72786667">
        <ele>242.6</ele>
        <time>2025-07-29T08:36:36Z</time>
      </trkpt>
      <trkpt lat="46.51399833" lon="16.72787">
        <ele>244.9</ele>
        <time>2025-07-29T08:36:42Z</time>
      </trkpt>
      <trkpt lat="46.51409333" lon="16.727895">
        <ele>246.4</ele>
        <time>2025-07-29T08:36:50Z</time>
      </trkpt>
      <trkpt lat="46.514185" lon="16.72792333">
        <ele>247.4</ele>
        <time>2025-07-29T08:36:57Z</time>
      </trkpt>
      <trkpt lat="46.51428167" lon="16.727935">
        <ele>249.9</ele>
        <time>2025-07-29T08:37:04Z</time>
      </trkpt>
      <trkpt lat="46.51438" lon="16.727915">
        <ele>253.2</ele>
        <time>2025-07-29T08:37:12Z</time>
      </trkpt>
      <trkpt lat="46.51447333" lon="16.72791">
        <ele>256.4</ele>
        <time>2025-07-29T08:37:19Z</time>
      </trkpt>
      <trkpt lat="46.514565" lon="16.727915">
        <ele>256.8</ele>
        <time>2025-07-29T08:37:24Z</time>
      </trkpt>
      <trkpt lat="46.514665" lon="16.72790833">
        <ele>256.8</ele>
        <time>2025-07-29T08:37:30Z</time>
      </trkpt>
      <trkpt lat="46.514755" lon="16.72789833">
        <ele>255.5</ele>
        <time>2025-07-29T08:37:35Z</time>
      </trkpt>
      <trkpt lat="46.51485167" lon="16.72789167">
        <ele>255.5</ele>
        <time>2025-07-29T08:37:40Z</time>
      </trkpt>
      <trkpt lat="46.51494" lon="16.72785">
        <ele>253.7</ele>
        <time>2025-07-29T08:37:48Z</time>
      </trkpt>
      <trkpt lat="46.51501333" lon="16.72775333">
        <ele>253.2</ele>
        <time>2025-07-29T08:37:56Z</time>
      </trkpt>
      <trkpt lat="46.5151" lon="16.727695">
        <ele>253.6</ele>
        <time>2025-07-29T08:38:02Z</time>
      </trkpt>
      <trkpt lat="46.51519333" lon="16.72764833">
        <ele>254.3</ele>
        <time>2025-07-29T08:38:08Z</time>
      </trkpt>
      <trkpt lat="46.51528" lon="16.72757667">
        <ele>256.4</ele>
        <time>2025-07-29T08:38:15Z</time>
      </trkpt>
      <trkpt lat="46.51537333" lon="16.72751833">
        <ele>256.5</ele>
        <time>2025-07-29T08:38:22Z</time>
      </trkpt>
      <trkpt lat="46.51547167" lon="16.72750833">
        <ele>257.2</ele>
        <time>2025-07-29T08:38:27Z</time>
      </trkpt>
      <trkpt lat="46.51556167" lon="16.72748833">
        <ele>258.3</ele>
        <time>2025-07-29T08:38:33Z</time>
      </trkpt>
      <trkpt lat="46.51565" lon="16.72743667">
        <ele>259.1</ele>
        <time>2025-07-29T08:38:40Z</time>
      </trkpt>
      <trkpt lat="46.51573333" lon="16.72735667">
        <ele>259.2</ele>
        <time>2025-07-29T08:38:47Z</time>
      </trkpt>
      <trkpt lat="46.51582833" lon="16.72736333">
        <ele>259.9</ele>
        <time>2025-07-29T08:38:55Z</time>
      </trkpt>
      <trkpt lat="46.515925" lon="16.72736">
        <ele>260.4</ele>
        <time>2025-07-29T08:39:01Z</time>
      </trkpt>
      <trkpt lat="46.51610167" lon="16.7275">
        <ele>300.1</ele>
        <time>2025-07-29T08:39:07Z</time>
      </trkpt>
      <trkpt lat="46.51619167" lon="16.72746333">
        <ele>286.1</ele>
        <time>2025-07-29T08:39:18Z</time>
      </trkpt>
      <trkpt lat="46.51629167" lon="16.72748667">
        <ele>272.2</ele>
        <time>2025-07-29T08:39:28Z</time>
      </trkpt>
      <trkpt lat="46.51638833" lon="16.72753167">
        <ele>264.9</ele>
        <time>2025-07-29T08:39:36Z</time>
      </trkpt>
      <trkpt lat="46.51649" lon="16.727525">
        <ele>260.4</ele>
        <time>2025-07-29T08:39:44Z</time>
      </trkpt>
      <trkpt lat="46.51658333" lon="16.72754">
        <ele>260.1</ele>
        <time>2025-07-29T08:39:49Z</time>
      </trkpt>
      <trkpt lat="46.51667667" lon="16.72756833">
        <ele>259.2</ele>
        <time>2025-07-29T08:39:55Z</time>
      </trkpt>
      <trkpt lat="46.51677833" lon="16.72758833">
        <ele>258.3</ele>
        <time>2025-07-29T08:40:02Z</time>
      </trkpt>
      <trkpt lat="46.51688" lon="16.72762167">
        <ele>258.7</ele>
        <time>2025-07-29T08:40:10Z</time>
      </trkpt>
      <trkpt lat="46.51696667" lon="16.72765667">
        <ele>258.9</ele>
        <time>2025-07-29T08:40:16Z</time>
      </trkpt>
      <trkpt lat="46.51706333" lon="16.72766833">
        <ele>258.1</ele>
        <time>2025-07-29T08:40:23Z</time>
      </trkpt>
      <trkpt lat="46.517165" lon="16.72769167">
        <ele>256.8</ele>
        <time>2025-07-29T08:40:30Z</time>
      </trkpt>
      <trkpt lat="46.51726833" lon="16.72771833">
        <ele>255.8</ele>
        <time>2025-07-29T08:40:38Z</time>
      </trkpt>
      <trkpt lat="46.517365" lon="16.72775">
        <ele>256</ele>
        <time>2025-07-29T08:40:45Z</time>
      </trkpt>
      <trkpt lat="46.517455" lon="16.72775">
        <ele>256.4</ele>
        <time>2025-07-29T08:40:51Z</time>
      </trkpt>
      <trkpt lat="46.51755167" lon="16.72777167">
        <ele>256.2</ele>
        <time>2025-07-29T08:40:56Z</time>
      </trkpt>
      <trkpt lat="46.51764" lon="16.72780167">
        <ele>256.7</ele>
        <time>2025-07-29T08:41:02Z</time>
      </trkpt>
      <trkpt lat="46.51773167" lon="16.72781167">
        <ele>256.1</ele>
        <time>2025-07-29T08:41:08Z</time>
      </trkpt>
      <trkpt lat="46.51783" lon="16.72781667">
        <ele>255.6</ele>
        <time>2025-07-29T08:41:14Z</time>
      </trkpt>
      <trkpt lat="46.51791833" lon="16.727845">
        <ele>253.9</ele>
        <time>2025-07-29T08:41:20Z</time>
      </trkpt>
      <trkpt lat="46.51801" lon="16.72787167">
        <ele>253</ele>
        <time>2025-07-29T08:41:26Z</time>
      </trkpt>
      <trkpt lat="46.518105" lon="16.72787167">
        <ele>252.4</ele>
        <time>2025-07-29T08:41:31Z</time>
      </trkpt>
      <trkpt lat="46.518195" lon="16.727875">
        <ele>251.5</ele>
        <time>2025-07-29T08:41:36Z</time>
      </trkpt>
      <trkpt lat="46.51828833" lon="16.72787833">
        <ele>252.3</ele>
        <time>2025-07-29T08:41:43Z</time>
      </trkpt>
      <trkpt lat="46.51838833" lon="16.72791833">
        <ele>251.4</ele>
        <time>2025-07-29T08:41:50Z</time>
      </trkpt>
      <trkpt lat="46.518485" lon="16.72793333">
        <ele>250.6</ele>
        <time>2025-07-29T08:41:55Z</time>
      </trkpt>
      <trkpt lat="46.51858667" lon="16.727965">
        <ele>249.7</ele>
        <time>2025-07-29T08:42:02Z</time>
      </trkpt>
      <trkpt lat="46.51868167" lon="16.72798">
        <ele>250.4</ele>
        <time>2025-07-29T08:42:10Z</time>
      </trkpt>
      <trkpt lat="46.51877667" lon="16.72801833">
        <ele>250</ele>
        <time>2025-07-29T08:42:16Z</time>
      </trkpt>
      <trkpt lat="46.51887167" lon="16.72802833">
        <ele>251.7</ele>
        <time>2025-07-29T08:42:21Z</time>
      </trkpt>
      <trkpt lat="46.51896333" lon="16.72808">
        <ele>252.1</ele>
        <time>2025-07-29T08:42:27Z</time>
      </trkpt>
      <trkpt lat="46.51907167" lon="16.72810667">
        <ele>252.7</ele>
        <time>2025-07-29T08:42:33Z</time>
      </trkpt>
      <trkpt lat="46.51916167" lon="16.7281">
        <ele>253.4</ele>
        <time>2025-07-29T08:42:39Z</time>
      </trkpt>
      <trkpt lat="46.51925333" lon="16.728095">
        <ele>254.2</ele>
        <time>2025-07-29T08:42:45Z</time>
      </trkpt>
      <trkpt lat="46.51935333" lon="16.728115">
        <ele>255.6</ele>
        <time>2025-07-29T08:42:51Z</time>
      </trkpt>
      <trkpt lat="46.51944833" lon="16.72815">
        <ele>256.4</ele>
        <time>2025-07-29T08:42:57Z</time>
      </trkpt>
      <trkpt lat="46.51955" lon="16.728165">
        <ele>256.9</ele>
        <time>2025-07-29T08:43:03Z</time>
      </trkpt>
      <trkpt lat="46.51965" lon="16.72818">
        <ele>256.1</ele>
        <time>2025-07-29T08:43:09Z</time>
      </trkpt>
      <trkpt lat="46.51975167" lon="16.728205">
        <ele>256.2</ele>
        <time>2025-07-29T08:43:16Z</time>
      </trkpt>
      <trkpt lat="46.51985167" lon="16.72821667">
        <ele>255.3</ele>
        <time>2025-07-29T08:43:22Z</time>
      </trkpt>
      <trkpt lat="46.51994833" lon="16.72824167">
        <ele>254.6</ele>
        <time>2025-07-29T08:43:28Z</time>
      </trkpt>
      <trkpt lat="46.52004167" lon="16.72824167">
        <ele>254.9</ele>
        <time>2025-07-29T08:43:34Z</time>
      </trkpt>
      <trkpt lat="46.52013333" lon="16.72827333">
        <ele>255.2</ele>
        <time>2025-07-29T08:43:40Z</time>
      </trkpt>
      <trkpt lat="46.52022833" lon="16.72830167">
        <ele>254.7</ele>
        <time>2025-07-29T08:43:47Z</time>
      </trkpt>
      <trkpt lat="46.52032333" lon="16.72832">
        <ele>252.7</ele>
        <time>2025-07-29T08:43:54Z</time>
      </trkpt>
      <trkpt lat="46.52042667" lon="16.728325">
        <ele>251.9</ele>
        <time>2025-07-29T08:44:00Z</time>
      </trkpt>
      <trkpt lat="46.52052833" lon="16.72833333">
        <ele>251.1</ele>
        <time>2025-07-29T08:44:06Z</time>
      </trkpt>
      <trkpt lat="46.52062833" lon="16.72836333">
        <ele>249.9</ele>
        <time>2025-07-29T08:44:15Z</time>
      </trkpt>
      <trkpt lat="46.520725" lon="16.72839833">
        <ele>248.7</ele>
        <time>2025-07-29T08:44:22Z</time>
      </trkpt>
      <trkpt lat="46.52081167" lon="16.72843667">
        <ele>248.7</ele>
        <time>2025-07-29T08:44:29Z</time>
      </trkpt>
      <trkpt lat="46.52090667" lon="16.728465">
        <ele>248.7</ele>
        <time>2025-07-29T08:44:35Z</time>
      </trkpt>
      <trkpt lat="46.52100667" lon="16.728495">
        <ele>249.8</ele>
        <time>2025-07-29T08:44:40Z</time>
      </trkpt>
      <trkpt lat="46.52111" lon="16.728505">
        <ele>251.9</ele>
        <time>2025-07-29T08:44:45Z</time>
      </trkpt>
      <trkpt lat="46.52121" lon="16.72852333">
        <ele>253.6</ele>
        <time>2025-07-29T08:44:53Z</time>
      </trkpt>
      <trkpt lat="46.52132" lon="16.72853667">
        <ele>253.4</ele>
        <time>2025-07-29T08:44:59Z</time>
      </trkpt>
      <trkpt lat="46.52141333" lon="16.72854167">
        <ele>254.5</ele>
        <time>2025-07-29T08:45:03Z</time>
      </trkpt>
      <trkpt lat="46.52150667" lon="16.72854833">
        <ele>255.1</ele>
        <time>2025-07-29T08:45:08Z</time>
      </trkpt>
      <trkpt lat="46.52159667" lon="16.72858">
        <ele>253.8</ele>
        <time>2025-07-29T08:45:17Z</time>
      </trkpt>
      <trkpt lat="46.52169167" lon="16.72863">
        <ele>253.1</ele>
        <time>2025-07-29T08:45:24Z</time>
      </trkpt>
      <trkpt lat="46.521785" lon="16.72865833">
        <ele>253.8</ele>
        <time>2025-07-29T08:45:31Z</time>
      </trkpt>
      <trkpt lat="46.52188833" lon="16.72866833">
        <ele>252.9</ele>
        <time>2025-07-29T08:45:38Z</time>
      </trkpt>
      <trkpt lat="46.52198333" lon="16.72867167">
        <ele>252.3</ele>
        <time>2025-07-29T08:45:44Z</time>
      </trkpt>
      <trkpt lat="46.52208167" lon="16.72869167">
        <ele>250.3</ele>
        <time>2025-07-29T08:45:50Z</time>
      </trkpt>
      <trkpt lat="46.52217833" lon="16.72869833">
        <ele>248.9</ele>
        <time>2025-07-29T08:45:55Z</time>
      </trkpt>
      <trkpt lat="46.52226833" lon="16.72872833">
        <ele>247.8</ele>
        <time>2025-07-29T08:46:02Z</time>
      </trkpt>
      <trkpt lat="46.52236167" lon="16.728715">
        <ele>247.3</ele>
        <time>2025-07-29T08:46:07Z</time>
      </trkpt>
      <trkpt lat="46.52245833" lon="16.72872833">
        <ele>248.7</ele>
        <time>2025-07-29T08:46:11Z</time>
      </trkpt>
      <trkpt lat="46.522555" lon="16.72875833">
        <ele>248.3</ele>
        <time>2025-07-29T08:46:17Z</time>
      </trkpt>
      <trkpt lat="46.52265" lon="16.72878333">
        <ele>247.5</ele>
        <time>2025-07-29T08:46:24Z</time>
      </trkpt>
      <trkpt lat="46.52273833" lon="16.72882333">
        <ele>247.4</ele>
        <time>2025-07-29T08:46:30Z</time>
      </trkpt>
      <trkpt lat="46.52284667" lon="16.72881667">
        <ele>249</ele>
        <time>2025-07-29T08:46:35Z</time>
      </trkpt>
      <trkpt lat="46.52294667" lon="16.72883833">
        <ele>248.3</ele>
        <time>2025-07-29T08:46:41Z</time>
      </trkpt>
      <trkpt lat="46.52303833" lon="16.72886">
        <ele>247.3</ele>
        <time>2025-07-29T08:46:46Z</time>
      </trkpt>
      <trkpt lat="46.52314" lon="16.72885">
        <ele>244.8</ele>
        <time>2025-07-29T08:46:52Z</time>
      </trkpt>
      <trkpt lat="46.52325667" lon="16.728845">
        <ele>242.2</ele>
        <time>2025-07-29T08:46:58Z</time>
      </trkpt>
      <trkpt lat="46.523355" lon="16.72884167">
        <ele>241.1</ele>
        <time>2025-07-29T08:47:04Z</time>
      </trkpt>
      <trkpt lat="46.52344333" lon="16.728815">
        <ele>240.5</ele>
        <time>2025-07-29T08:47:10Z</time>
      </trkpt>
      <trkpt lat="46.523535" lon="16.72880167">
        <ele>238.2</ele>
        <time>2025-07-29T08:47:16Z</time>
      </trkpt>
      <trkpt lat="46.523635" lon="16.72879">
        <ele>238.1</ele>
        <time>2025-07-29T08:47:23Z</time>
      </trkpt>
      <trkpt lat="46.52373167" lon="16.72876">
        <ele>237.8</ele>
        <time>2025-07-29T08:47:30Z</time>
      </trkpt>
      <trkpt lat="46.52382833" lon="16.72870667">
        <ele>237.1</ele>
        <time>2025-07-29T08:47:36Z</time>
      </trkpt>
      <trkpt lat="46.52391667" lon="16.728665">
        <ele>235.1</ele>
        <time>2025-07-29T08:47:42Z</time>
      </trkpt>
      <trkpt lat="46.52400667" lon="16.72861667">
        <ele>234.7</ele>
        <time>2025-07-29T08:47:49Z</time>
      </trkpt>
      <trkpt lat="46.52409833" lon="16.72859">
        <ele>234.4</ele>
        <time>2025-07-29T08:47:54Z</time>
      </trkpt>
      <trkpt lat="46.52419833" lon="16.728555">
        <ele>235.4</ele>
        <time>2025-07-29T08:47:59Z</time>
      </trkpt>
      <trkpt lat="46.5243" lon="16.72851">
        <ele>237.2</ele>
        <time>2025-07-29T08:48:05Z</time>
      </trkpt>
      <trkpt lat="46.52438833" lon="16.72847833">
        <ele>238</ele>
        <time>2025-07-29T08:48:11Z</time>
      </trkpt>
      <trkpt lat="46.52447833" lon="16.72844">
        <ele>237.8</ele>
        <time>2025-07-29T08:48:18Z</time>
      </trkpt>
      <trkpt lat="46.524575" lon="16.728405">
        <ele>238.4</ele>
        <time>2025-07-29T08:48:25Z</time>
      </trkpt>
      <trkpt lat="46.52466667" lon="16.728375">
        <ele>238.1</ele>
        <time>2025-07-29T08:48:32Z</time>
      </trkpt>
      <trkpt lat="46.52476167" lon="16.72834333">
        <ele>234.2</ele>
        <time>2025-07-29T08:48:39Z</time>
      </trkpt>
      <trkpt lat="46.52485333" lon="16.72836333">
        <ele>232.5</ele>
        <time>2025-07-29T08:48:44Z</time>
      </trkpt>
      <trkpt lat="46.52494833" lon="16.728345">
        <ele>232.6</ele>
        <time>2025-07-29T08:48:50Z</time>
      </trkpt>
      <trkpt lat="46.52503667" lon="16.72830167">
        <ele>232.7</ele>
        <time>2025-07-29T08:48:57Z</time>
      </trkpt>
      <trkpt lat="46.52513" lon="16.728275">
        <ele>233.1</ele>
        <time>2025-07-29T08:49:03Z</time>
      </trkpt>
      <trkpt lat="46.52523167" lon="16.72825167">
        <ele>233.4</ele>
        <time>2025-07-29T08:49:09Z</time>
      </trkpt>
      <trkpt lat="46.52532167" lon="16.72822167">
        <ele>234.4</ele>
        <time>2025-07-29T08:49:14Z</time>
      </trkpt>
      <trkpt lat="46.52541167" lon="16.72821167">
        <ele>234.6</ele>
        <time>2025-07-29T08:49:20Z</time>
      </trkpt>
      <trkpt lat="46.525495" lon="16.72815833">
        <ele>234.5</ele>
        <time>2025-07-29T08:49:26Z</time>
      </trkpt>
      <trkpt lat="46.52558167" lon="16.72810833">
        <ele>235.5</ele>
        <time>2025-07-29T08:49:33Z</time>
      </trkpt>
      <trkpt lat="46.525685" lon="16.72808333">
        <ele>233.4</ele>
        <time>2025-07-29T08:49:41Z</time>
      </trkpt>
      <trkpt lat="46.52577667" lon="16.72808">
        <ele>232.7</ele>
        <time>2025-07-29T08:49:46Z</time>
      </trkpt>
      <trkpt lat="46.52584667" lon="16.72798833">
        <ele>233.5</ele>
        <time>2025-07-29T08:49:52Z</time>
      </trkpt>
      <trkpt lat="46.52593667" lon="16.72798">
        <ele>233.6</ele>
        <time>2025-07-29T08:49:57Z</time>
      </trkpt>
      <trkpt lat="46.52600333" lon="16.72808833">
        <ele>235.7</ele>
        <time>2025-07-29T08:50:02Z</time>
      </trkpt>
      <trkpt lat="46.52603333" lon="16.728225">
        <ele>236.6</ele>
        <time>2025-07-29T08:50:08Z</time>
      </trkpt>
      <trkpt lat="46.526065" lon="16.72837167">
        <ele>236.4</ele>
        <time>2025-07-29T08:50:13Z</time>
      </trkpt>
      <trkpt lat="46.52608667" lon="16.728505">
        <ele>237.1</ele>
        <time>2025-07-29T08:50:18Z</time>
      </trkpt>
      <trkpt lat="46.52610833" lon="16.72863167">
        <ele>238.1</ele>
        <time>2025-07-29T08:50:23Z</time>
      </trkpt>
      <trkpt lat="46.52612833" lon="16.72876333">
        <ele>238</ele>
        <time>2025-07-29T08:50:29Z</time>
      </trkpt>
      <trkpt lat="46.52615667" lon="16.72890333">
        <ele>237.8</ele>
        <time>2025-07-29T08:50:36Z</time>
      </trkpt>
      <trkpt lat="46.52612" lon="16.72903667">
        <ele>237.6</ele>
        <time>2025-07-29T08:50:42Z</time>
      </trkpt>
      <trkpt lat="46.52607833" lon="16.72917333">
        <ele>238.1</ele>
        <time>2025-07-29T08:50:48Z</time>
      </trkpt>
      <trkpt lat="46.52606833" lon="16.729305">
        <ele>239</ele>
        <time>2025-07-29T08:50:54Z</time>
      </trkpt>
      <trkpt lat="46.5261" lon="16.72942833">
        <ele>239.3</ele>
        <time>2025-07-29T08:51:00Z</time>
      </trkpt>
      <trkpt lat="46.52613833" lon="16.72954667">
        <ele>240</ele>
        <time>2025-07-29T08:51:08Z</time>
      </trkpt>
    </trkseg>
  </trk>
</gpx>