<?xml version='1.0' encoding='UTF-8' standalone='yes' ?>
<gpx xmlns="http://www.topografix.com/GPX/1/1" xmlns:geotracker="http://ilyabogdanovich.com/gpx/extensions/geotracker" xmlns:xsi="http://www.w3.org/2001/XMLSchema-instance" xsi:schemaLocation="http://www.topografix.com/GPX/1/1 http://www.topografix.com/GPX/1/1/gpx.xsd" version="1.1" creator="Recorded in Geo Tracker for Android from Ilya Bogdanovich">
  <metadata>
    <name>w_0727_02</name>
    <author>
      <name>Recorded in Geo Tracker for Android from Ilya Bogdanovich</name>
      <link href="https://play.google.com/store/apps/details?id=com.ilyabogdanovich.geotracker" />
    </author>
    <link href="https://play.google.com/store/apps/details?id=com.ilyabogdanovich.geotracker" />
    <time>2025-07-27T07:34:18Z</time>
  </metadata>
  <trk>
    <name>w_0727_02</name>
    <src>Recorded in Geo Tracker for Android from Ilya Bogdanovich</src>
    <link href="https://play.google.com/store/apps/details?id=com.ilyabogdanovich.geotracker" />
    <extensions>
      <geotracker:meta>
        <geotracker:length>1269.46</geotracker:length>
        <geotracker:duration>925963</geotracker:duration>
        <geotracker:creationtime>2025-07-27T07:34:18Z</geotracker:creationtime>
        <geotracker:activity>0</geotracker:activity>
      </geotracker:meta>
    </extensions>
    <trkseg>
      <trkpt lat="47.67042" lon="19.07932833">
        <ele>206.4</ele>
        <time>2025-07-27T07:34:25Z</time>
      </trkpt>
      <trkpt lat="47.67044167" lon="19.07919">
        <ele>206.1</ele>
        <time>2025-07-27T07:34:34Z</time>
      </trkpt>
      <trkpt lat="47.67038667" lon="19.07908333">
        <ele>201.9</ele>
        <time>2025-07-27T07:34:44Z</time>
      </trkpt>
      <trkpt lat="47.67031333" lon="19.078995">
        <ele>191</ele>
        <time>2025-07-27T07:34:53Z</time>
      </trkpt>
      <trkpt lat="47.67023833" lon="19.07891">
        <ele>163.9</ele>
        <time>2025-07-27T07:35:01Z</time>
      </trkpt>
      <trkpt lat="47.67015" lon="19.07884167">
        <ele>147.9</ele>
        <time>2025-07-27T07:35:08Z</time>
      </trkpt>
      <trkpt lat="47.67006833" lon="19.07876833">
        <ele>144.8</ele>
        <time>2025-07-27T07:35:15Z</time>
      </trkpt>
      <trkpt lat="47.66998167" lon="19.07870667">
        <ele>143.5</ele>
        <time>2025-07-27T07:35:22Z</time>
      </trkpt>
      <trkpt lat="47.66990167" lon="19.078645">
        <ele>143.2</ele>
        <time>2025-07-27T07:35:28Z</time>
      </trkpt>
      <trkpt lat="47.66982167" lon="19.07857833">
        <ele>142.3</ele>
        <time>2025-07-27T07:35:35Z</time>
      </trkpt>
      <trkpt lat="47.66973167" lon="19.07851">
        <ele>141.8</ele>
        <time>2025-07-27T07:35:41Z</time>
      </trkpt>
      <trkpt lat="47.66963833" lon="19.07845167">
        <ele>143.4</ele>
        <time>2025-07-27T07:35:48Z</time>
      </trkpt>
      <trkpt lat="47.66954667" lon="19.07838667">
        <ele>145.1</ele>
        <time>2025-07-27T07:35:54Z</time>
      </trkpt>
      <trkpt lat="47.66945" lon="19.07833833">
        <ele>144.3</ele>
        <time>2025-07-27T07:36:01Z</time>
      </trkpt>
      <trkpt lat="47.66935833" lon="19.078295">
        <ele>141.5</ele>
        <time>2025-07-27T07:36:09Z</time>
      </trkpt>
      <trkpt lat="47.66926333" lon="19.07826833">
        <ele>140.4</ele>
        <time>2025-07-27T07:36:16Z</time>
      </trkpt>
      <trkpt lat="47.66917667" lon="19.078215">
        <ele>142.3</ele>
        <time>2025-07-27T07:36:23Z</time>
      </trkpt>
      <trkpt lat="47.669085" lon="19.078175">
        <ele>144.6</ele>
        <time>2025-07-27T07:36:30Z</time>
      </trkpt>
      <trkpt lat="47.668995" lon="19.078145">
        <ele>144.8</ele>
        <time>2025-07-27T07:36:37Z</time>
      </trkpt>
      <trkpt lat="47.66890833" lon="19.07810333">
        <ele>144.9</ele>
        <time>2025-07-27T07:36:44Z</time>
      </trkpt>
      <trkpt lat="47.66882" lon="19.07803">
        <ele>143.5</ele>
        <time>2025-07-27T07:36:52Z</time>
      </trkpt>
      <trkpt lat="47.66874667" lon="19.07793">
        <ele>142.6</ele>
        <time>2025-07-27T07:36:59Z</time>
      </trkpt>
      <trkpt lat="47.66866" lon="19.077885">
        <ele>141.6</ele>
        <time>2025-07-27T07:37:06Z</time>
      </trkpt>
      <trkpt lat="47.66857" lon="19.077865">
        <ele>141.8</ele>
        <time>2025-07-27T07:37:13Z</time>
      </trkpt>
      <trkpt lat="47.66847167" lon="19.07785333">
        <ele>141.9</ele>
        <time>2025-07-27T07:37:20Z</time>
      </trkpt>
      <trkpt lat="47.66837167" lon="19.07781833">
        <ele>143.4</ele>
        <time>2025-07-27T07:37:29Z</time>
      </trkpt>
      <trkpt lat="47.66827167" lon="19.07779667">
        <ele>143.5</ele>
        <time>2025-07-27T07:37:36Z</time>
      </trkpt>
      <trkpt lat="47.66817333" lon="19.07778333">
        <ele>144.2</ele>
        <time>2025-07-27T07:37:43Z</time>
      </trkpt>
      <trkpt lat="47.66808" lon="19.07777667">
        <ele>144</ele>
        <time>2025-07-27T07:37:50Z</time>
      </trkpt>
      <trkpt lat="47.66798667" lon="19.07778">
        <ele>142.5</ele>
        <time>2025-07-27T07:37:58Z</time>
      </trkpt>
      <trkpt lat="47.66789167" lon="19.07777167">
        <ele>142.8</ele>
        <time>2025-07-27T07:38:05Z</time>
      </trkpt>
      <trkpt lat="47.66779833" lon="19.07773833">
        <ele>142.8</ele>
        <time>2025-07-27T07:38:13Z</time>
      </trkpt>
      <trkpt lat="47.667705" lon="19.07774667">
        <ele>143.1</ele>
        <time>2025-07-27T07:38:21Z</time>
      </trkpt>
      <trkpt lat="47.667605" lon="19.07775333">
        <ele>142.3</ele>
        <time>2025-07-27T07:38:29Z</time>
      </trkpt>
      <trkpt lat="47.66750667" lon="19.07776167">
        <ele>143.8</ele>
        <time>2025-07-27T07:38:37Z</time>
      </trkpt>
      <trkpt lat="47.66740833" lon="19.077725">
        <ele>145.8</ele>
        <time>2025-07-27T07:38:49Z</time>
      </trkpt>
      <trkpt lat="47.66730833" lon="19.077755">
        <ele>144.6</ele>
        <time>2025-07-27T07:38:58Z</time>
      </trkpt>
      <trkpt lat="47.66721" lon="19.07778333">
        <ele>144.7</ele>
        <time>2025-07-27T07:39:06Z</time>
      </trkpt>
      <trkpt lat="47.66711833" lon="19.0778">
        <ele>145.6</ele>
        <time>2025-07-27T07:39:12Z</time>
      </trkpt>
      <trkpt lat="47.66702333" lon="19.07775">
        <ele>146.8</ele>
        <time>2025-07-27T07:39:21Z</time>
      </trkpt>
      <trkpt lat="47.66692167" lon="19.07772833">
        <ele>148.4</ele>
        <time>2025-07-27T07:39:33Z</time>
      </trkpt>
      <trkpt lat="47.666825" lon="19.077715">
        <ele>144.7</ele>
        <time>2025-07-27T07:39:41Z</time>
      </trkpt>
      <trkpt lat="47.66673333" lon="19.07771833">
        <ele>141.5</ele>
        <time>2025-07-27T07:39:49Z</time>
      </trkpt>
      <trkpt lat="47.66664333" lon="19.07770333">
        <ele>138.9</ele>
        <time>2025-07-27T07:39:57Z</time>
      </trkpt>
      <trkpt lat="47.66654667" lon="19.07775333">
        <ele>136.6</ele>
        <time>2025-07-27T07:40:05Z</time>
      </trkpt>
      <trkpt lat="47.666455" lon="19.07780833">
        <ele>136.8</ele>
        <time>2025-07-27T07:40:14Z</time>
      </trkpt>
      <trkpt lat="47.66636833" lon="19.07785667">
        <ele>138.2</ele>
        <time>2025-07-27T07:40:22Z</time>
      </trkpt>
      <trkpt lat="47.66626833" lon="19.07790167">
        <ele>137.7</ele>
        <time>2025-07-27T07:40:36Z</time>
      </trkpt>
      <trkpt lat="47.66618" lon="19.07793667">
        <ele>139.7</ele>
        <time>2025-07-27T07:40:43Z</time>
      </trkpt>
      <trkpt lat="47.666085" lon="19.077945">
        <ele>141.1</ele>
        <time>2025-07-27T07:40:51Z</time>
      </trkpt>
      <trkpt lat="47.66599167" lon="19.07796167">
        <ele>143.7</ele>
        <time>2025-07-27T07:41:00Z</time>
      </trkpt>
      <trkpt lat="47.66592833" lon="19.077855">
        <ele>146.2</ele>
        <time>2025-07-27T07:41:08Z</time>
      </trkpt>
      <trkpt lat="47.66587333" lon="19.07774333">
        <ele>147.1</ele>
        <time>2025-07-27T07:41:15Z</time>
      </trkpt>
      <trkpt lat="47.66583" lon="19.07761167">
        <ele>147.1</ele>
        <time>2025-07-27T07:41:23Z</time>
      </trkpt>
      <trkpt lat="47.665815" lon="19.07746167">
        <ele>146.7</ele>
        <time>2025-07-27T07:41:29Z</time>
      </trkpt>
      <trkpt lat="47.66577833" lon="19.07731833">
        <ele>147.3</ele>
        <time>2025-07-27T07:41:38Z</time>
      </trkpt>
      <trkpt lat="47.66573667" lon="19.07719167">
        <ele>147.5</ele>
        <time>2025-07-27T07:41:45Z</time>
      </trkpt>
      <trkpt lat="47.66569833" lon="19.07706667">
        <ele>146.1</ele>
        <time>2025-07-27T07:41:54Z</time>
      </trkpt>
      <trkpt lat="47.66569333" lon="19.07691833">
        <ele>146.4</ele>
        <time>2025-07-27T07:42:01Z</time>
      </trkpt>
      <trkpt lat="47.66568167" lon="19.07678">
        <ele>145.9</ele>
        <time>2025-07-27T07:42:09Z</time>
      </trkpt>
      <trkpt lat="47.66567333" lon="19.07664167">
        <ele>144.4</ele>
        <time>2025-07-27T07:42:15Z</time>
      </trkpt>
      <trkpt lat="47.6657" lon="19.076505">
        <ele>144</ele>
        <time>2025-07-27T07:42:22Z</time>
      </trkpt>
      <trkpt lat="47.66568333" lon="19.07637167">
        <ele>144.8</ele>
        <time>2025-07-27T07:42:28Z</time>
      </trkpt>
      <trkpt lat="47.66564333" lon="19.076245">
        <ele>144.8</ele>
        <time>2025-07-27T07:42:34Z</time>
      </trkpt>
      <trkpt lat="47.66557833" lon="19.076135">
        <ele>144.8</ele>
        <time>2025-07-27T07:42:42Z</time>
      </trkpt>
      <trkpt lat="47.66550333" lon="19.07604333">
        <ele>147.2</ele>
        <time>2025-07-27T07:42:51Z</time>
      </trkpt>
      <trkpt lat="47.66540667" lon="19.07603333">
        <ele>148</ele>
        <time>2025-07-27T07:42:59Z</time>
      </trkpt>
      <trkpt lat="47.66530667" lon="19.076045">
        <ele>145.7</ele>
        <time>2025-07-27T07:43:08Z</time>
      </trkpt>
      <trkpt lat="47.66521333" lon="19.07608">
        <ele>144.9</ele>
        <time>2025-07-27T07:43:16Z</time>
      </trkpt>
      <trkpt lat="47.665115" lon="19.076075">
        <ele>146.3</ele>
        <time>2025-07-27T07:43:26Z</time>
      </trkpt>
      <trkpt lat="47.66502167" lon="19.07609833">
        <ele>146.8</ele>
        <time>2025-07-27T07:43:33Z</time>
      </trkpt>
      <trkpt lat="47.66492667" lon="19.07609">
        <ele>147.6</ele>
        <time>2025-07-27T07:43:43Z</time>
      </trkpt>
      <trkpt lat="47.66483667" lon="19.07612">
        <ele>147.2</ele>
        <time>2025-07-27T07:43:51Z</time>
      </trkpt>
      <trkpt lat="47.66474667" lon="19.076105">
        <ele>147</ele>
        <time>2025-07-27T07:43:57Z</time>
      </trkpt>
      <trkpt lat="47.66465167" lon="19.07610333">
        <ele>149.6</ele>
        <time>2025-07-27T07:44:06Z</time>
      </trkpt>
      <trkpt lat="47.664555" lon="19.07610833">
        <ele>147.9</ele>
        <time>2025-07-27T07:44:17Z</time>
      </trkpt>
      <trkpt lat="47.664465" lon="19.07606167">
        <ele>145.7</ele>
        <time>2025-07-27T07:44:26Z</time>
      </trkpt>
      <trkpt lat="47.66437333" lon="19.07605667">
        <ele>144</ele>
        <time>2025-07-27T07:44:34Z</time>
      </trkpt>
      <trkpt lat="47.66428167" lon="19.07613167">
        <ele>142.3</ele>
        <time>2025-07-27T07:44:40Z</time>
      </trkpt>
      <trkpt lat="47.664175" lon="19.07617667">
        <ele>141.5</ele>
        <time>2025-07-27T07:44:46Z</time>
      </trkpt>
      <trkpt lat="47.664085" lon="19.07614667">
        <ele>142.6</ele>
        <time>2025-07-27T07:44:51Z</time>
      </trkpt>
      <trkpt lat="47.66398167" lon="19.07613">
        <ele>145.3</ele>
        <time>2025-07-27T07:44:58Z</time>
      </trkpt>
      <trkpt lat="47.66389" lon="19.07617333">
        <ele>147.6</ele>
        <time>2025-07-27T07:45:06Z</time>
      </trkpt>
      <trkpt lat="47.66378833" lon="19.07618333">
        <ele>149.6</ele>
        <time>2025-07-27T07:45:14Z</time>
      </trkpt>
      <trkpt lat="47.66369667" lon="19.076185">
        <ele>150.3</ele>
        <time>2025-07-27T07:45:21Z</time>
      </trkpt>
      <trkpt lat="47.66359667" lon="19.07616833">
        <ele>152.6</ele>
        <time>2025-07-27T07:45:28Z</time>
      </trkpt>
      <trkpt lat="47.66350833" lon="19.07620667">
        <ele>155</ele>
        <time>2025-07-27T07:45:36Z</time>
      </trkpt>
      <trkpt lat="47.66340667" lon="19.07627667">
        <ele>156</ele>
        <time>2025-07-27T07:45:43Z</time>
      </trkpt>
      <trkpt lat="47.66335" lon="19.07639">
        <ele>154.8</ele>
        <time>2025-07-27T07:45:49Z</time>
      </trkpt>
      <trkpt lat="47.66327167" lon="19.07647833">
        <ele>153.7</ele>
        <time>2025-07-27T07:45:57Z</time>
      </trkpt>
      <trkpt lat="47.66320333" lon="19.076565">
        <ele>156</ele>
        <time>2025-07-27T07:46:04Z</time>
      </trkpt>
      <trkpt lat="47.66311333" lon="19.07665833">
        <ele>164.4</ele>
        <time>2025-07-27T07:46:11Z</time>
      </trkpt>
      <trkpt lat="47.66302167" lon="19.07661667">
        <ele>159.7</ele>
        <time>2025-07-27T07:46:19Z</time>
      </trkpt>
      <trkpt lat="47.662925" lon="19.07663167">
        <ele>158.2</ele>
        <time>2025-07-27T07:46:28Z</time>
      </trkpt>
      <trkpt lat="47.66284333" lon="19.07656333">
        <ele>152.2</ele>
        <time>2025-07-27T07:46:35Z</time>
      </trkpt>
      <trkpt lat="47.66275167" lon="19.07655333">
        <ele>149.3</ele>
        <time>2025-07-27T07:46:42Z</time>
      </trkpt>
      <trkpt lat="47.662665" lon="19.07651667">
        <ele>148.2</ele>
        <time>2025-07-27T07:46:49Z</time>
      </trkpt>
      <trkpt lat="47.66257667" lon="19.07655333">
        <ele>148.9</ele>
        <time>2025-07-27T07:46:57Z</time>
      </trkpt>
      <trkpt lat="47.66248" lon="19.07659667">
        <ele>148.8</ele>
        <time>2025-07-27T07:47:02Z</time>
      </trkpt>
      <trkpt lat="47.66239" lon="19.0766">
        <ele>147.4</ele>
        <time>2025-07-27T07:47:10Z</time>
      </trkpt>
      <trkpt lat="47.6623" lon="19.07659667">
        <ele>146.7</ele>
        <time>2025-07-27T07:47:17Z</time>
      </trkpt>
      <trkpt lat="47.66220333" lon="19.076585">
        <ele>145.1</ele>
        <time>2025-07-27T07:47:24Z</time>
      </trkpt>
      <trkpt lat="47.66210833" lon="19.07658667">
        <ele>145.7</ele>
        <time>2025-07-27T07:47:32Z</time>
      </trkpt>
      <trkpt lat="47.66200667" lon="19.07657833">
        <ele>146.7</ele>
        <time>2025-07-27T07:47:38Z</time>
      </trkpt>
      <trkpt lat="47.661915" lon="19.076595">
        <ele>147.8</ele>
        <time>2025-07-27T07:47:45Z</time>
      </trkpt>
      <trkpt lat="47.66182167" lon="19.07657333">
        <ele>148</ele>
        <time>2025-07-27T07:47:55Z</time>
      </trkpt>
      <trkpt lat="47.66173167" lon="19.07654333">
        <ele>148.6</ele>
        <time>2025-07-27T07:48:05Z</time>
      </trkpt>
      <trkpt lat="47.66172833" lon="19.07639833">
        <ele>152.4</ele>
        <time>2025-07-27T07:48:23Z</time>
      </trkpt>
      <trkpt lat="47.66161" lon="19.07647667">
        <ele>154.5</ele>
        <time>2025-07-27T07:48:28Z</time>
      </trkpt>
      <trkpt lat="47.66154667" lon="19.076365">
        <ele>157.1</ele>
        <time>2025-07-27T07:48:34Z</time>
      </trkpt>
      <trkpt lat="47.66145833" lon="19.07639333">
        <ele>157.9</ele>
        <time>2025-07-27T07:48:37Z</time>
      </trkpt>
      <trkpt lat="47.66142833" lon="19.07626333">
        <ele>157.1</ele>
        <time>2025-07-27T07:48:41Z</time>
      </trkpt>
      <trkpt lat="47.66137667" lon="19.07614167">
        <ele>152.8</ele>
        <time>2025-07-27T07:48:53Z</time>
      </trkpt>
      <trkpt lat="47.66130167" lon="19.07605">
        <ele>153.2</ele>
        <time>2025-07-27T07:49:00Z</time>
      </trkpt>
      <trkpt lat="47.66124833" lon="19.07593">
        <ele>154</ele>
        <time>2025-07-27T07:49:08Z</time>
      </trkpt>
      <trkpt lat="47.661165" lon="19.075875">
        <ele>153.3</ele>
        <time>2025-07-27T07:49:16Z</time>
      </trkpt>
      <trkpt lat="47.66108833" lon="19.07578667">
        <ele>149.5</ele>
        <time>2025-07-27T07:49:26Z</time>
      </trkpt>
      <trkpt lat="47.66101833" lon="19.07570167">
        <ele>151.6</ele>
        <time>2025-07-27T07:49:34Z</time>
      </trkpt>
      <trkpt lat="47.66095" lon="19.07559833">
        <ele>167</ele>
        <time>2025-07-27T07:49:45Z</time>
      </trkpt>
    </trkseg>
  </trk>
</gpx>