<?xml version='1.0' encoding='UTF-8' standalone='yes' ?>
<gpx xmlns="http://www.topografix.com/GPX/1/1" xmlns:geotracker="http://ilyabogdanovich.com/gpx/extensions/geotracker" xmlns:xsi="http://www.w3.org/2001/XMLSchema-instance" xsi:schemaLocation="http://www.topografix.com/GPX/1/1 http://www.topografix.com/GPX/1/1/gpx.xsd" version="1.1" creator="Recorded in Geo Tracker for Android from Ilya Bogdanovich">
  <metadata>
    <name>w_0714_07</name>
    <author>
      <name>Recorded in Geo Tracker for Android from Ilya Bogdanovich</name>
      <link href="https://play.google.com/store/apps/details?id=com.ilyabogdanovich.geotracker" />
    </author>
    <link href="https://play.google.com/store/apps/details?id=com.ilyabogdanovich.geotracker" />
    <time>2025-07-14T18:06:44Z</time>
  </metadata>
  <wpt lat="46.95464167" lon="16.27399333">
    <ele>267.3</ele>
    <time>2025-07-14T18:16:41Z</time>
    <name>Stop for ~3 min</name>
    <desc>Elevation: 267 m
Time from start: 00:09:56
Distance from start: 508 m</desc>
    <extensions>
      <geotracker:meta visited="1" />
    </extensions>
  </wpt>
  <trk>
    <name>w_0714_07</name>
    <src>Recorded in Geo Tracker for Android from Ilya Bogdanovich</src>
    <link href="https://play.google.com/store/apps/details?id=com.ilyabogdanovich.geotracker" />
    <extensions>
      <geotracker:meta>
        <geotracker:length>887.02</geotracker:length>
        <geotracker:duration>1193290</geotracker:duration>
        <geotracker:creationtime>2025-07-14T18:06:44Z</geotracker:creationtime>
        <geotracker:activity>0</geotracker:activity>
      </geotracker:meta>
    </extensions>
    <trkseg>
      <trkpt lat="46.95200833" lon="16.27205167">
        <ele>306.4</ele>
        <time>2025-07-14T18:06:50Z</time>
      </trkpt>
      <trkpt lat="46.95195333" lon="16.27192333">
        <ele>306.4</ele>
        <time>2025-07-14T18:07:03Z</time>
      </trkpt>
      <trkpt lat="46.95213" lon="16.27216667">
        <ele>306.3</ele>
        <time>2025-07-14T18:07:28Z</time>
      </trkpt>
      <trkpt lat="46.95222333" lon="16.27219167">
        <ele>299.4</ele>
        <time>2025-07-14T18:07:36Z</time>
      </trkpt>
      <trkpt lat="46.95231" lon="16.27223333">
        <ele>290.8</ele>
        <time>2025-07-14T18:07:44Z</time>
      </trkpt>
      <trkpt lat="46.952395" lon="16.27229667">
        <ele>279.7</ele>
        <time>2025-07-14T18:07:53Z</time>
      </trkpt>
      <trkpt lat="46.95246667" lon="16.27221667">
        <ele>269.5</ele>
        <time>2025-07-14T18:08:03Z</time>
      </trkpt>
      <trkpt lat="46.95253833" lon="16.27231333">
        <ele>267.2</ele>
        <time>2025-07-14T18:08:12Z</time>
      </trkpt>
      <trkpt lat="46.95257" lon="16.27243833">
        <ele>266.8</ele>
        <time>2025-07-14T18:08:20Z</time>
      </trkpt>
      <trkpt lat="46.95264667" lon="16.27252167">
        <ele>264</ele>
        <time>2025-07-14T18:08:30Z</time>
      </trkpt>
      <trkpt lat="46.95269333" lon="16.27264833">
        <ele>265</ele>
        <time>2025-07-14T18:08:43Z</time>
      </trkpt>
      <trkpt lat="46.95272667" lon="16.27278667">
        <ele>264.4</ele>
        <time>2025-07-14T18:08:50Z</time>
      </trkpt>
      <trkpt lat="46.95270167" lon="16.27293">
        <ele>264.2</ele>
        <time>2025-07-14T18:08:57Z</time>
      </trkpt>
      <trkpt lat="46.95267167" lon="16.27306">
        <ele>266.3</ele>
        <time>2025-07-14T18:09:05Z</time>
      </trkpt>
      <trkpt lat="46.95259667" lon="16.27314">
        <ele>271.5</ele>
        <time>2025-07-14T18:09:14Z</time>
      </trkpt>
      <trkpt lat="46.95261333" lon="16.27328167">
        <ele>274.1</ele>
        <time>2025-07-14T18:09:23Z</time>
      </trkpt>
      <trkpt lat="46.95264667" lon="16.27342">
        <ele>273.2</ele>
        <time>2025-07-14T18:09:31Z</time>
      </trkpt>
      <trkpt lat="46.95271" lon="16.27351667">
        <ele>273.1</ele>
        <time>2025-07-14T18:09:36Z</time>
      </trkpt>
      <trkpt lat="46.95272167" lon="16.27369167">
        <ele>277.5</ele>
        <time>2025-07-14T18:09:55Z</time>
      </trkpt>
      <trkpt lat="46.95276667" lon="16.27381833">
        <ele>280.4</ele>
        <time>2025-07-14T18:10:03Z</time>
      </trkpt>
      <trkpt lat="46.95286333" lon="16.27381667">
        <ele>281.2</ele>
        <time>2025-07-14T18:10:12Z</time>
      </trkpt>
      <trkpt lat="46.95295167" lon="16.27385833">
        <ele>281.7</ele>
        <time>2025-07-14T18:10:20Z</time>
      </trkpt>
      <trkpt lat="46.95303" lon="16.27375333">
        <ele>280.2</ele>
        <time>2025-07-14T18:10:29Z</time>
      </trkpt>
      <trkpt lat="46.95311833" lon="16.27366667">
        <ele>279.7</ele>
        <time>2025-07-14T18:10:33Z</time>
      </trkpt>
      <trkpt lat="46.953195" lon="16.27359333">
        <ele>279.7</ele>
        <time>2025-07-14T18:10:39Z</time>
      </trkpt>
      <trkpt lat="46.95328333" lon="16.27363167">
        <ele>272.2</ele>
        <time>2025-07-14T18:11:00Z</time>
      </trkpt>
      <trkpt lat="46.95337333" lon="16.273635">
        <ele>272.7</ele>
        <time>2025-07-14T18:11:13Z</time>
      </trkpt>
      <trkpt lat="46.95346667" lon="16.27362">
        <ele>271.1</ele>
        <time>2025-07-14T18:11:19Z</time>
      </trkpt>
      <trkpt lat="46.95356167" lon="16.27362667">
        <ele>269.1</ele>
        <time>2025-07-14T18:11:26Z</time>
      </trkpt>
      <trkpt lat="46.9536" lon="16.27377833">
        <ele>264.7</ele>
        <time>2025-07-14T18:11:47Z</time>
      </trkpt>
      <trkpt lat="46.95364" lon="16.27364667">
        <ele>265.8</ele>
        <time>2025-07-14T18:12:04Z</time>
      </trkpt>
      <trkpt lat="46.95372" lon="16.27357833">
        <ele>266.1</ele>
        <time>2025-07-14T18:12:12Z</time>
      </trkpt>
      <trkpt lat="46.95381667" lon="16.273585">
        <ele>266.6</ele>
        <time>2025-07-14T18:12:19Z</time>
      </trkpt>
      <trkpt lat="46.953915" lon="16.27360667">
        <ele>268.5</ele>
        <time>2025-07-14T18:12:29Z</time>
      </trkpt>
      <trkpt lat="46.95400833" lon="16.27359167">
        <ele>270</ele>
        <time>2025-07-14T18:13:23Z</time>
      </trkpt>
      <trkpt lat="46.95403333" lon="16.27372167">
        <ele>269.8</ele>
        <time>2025-07-14T18:13:30Z</time>
      </trkpt>
      <trkpt lat="46.95411667" lon="16.27361">
        <ele>270.4</ele>
        <time>2025-07-14T18:13:57Z</time>
      </trkpt>
      <trkpt lat="46.95421167" lon="16.273605">
        <ele>270.9</ele>
        <time>2025-07-14T18:14:10Z</time>
      </trkpt>
      <trkpt lat="46.95431333" lon="16.27358833">
        <ele>272</ele>
        <time>2025-07-14T18:14:18Z</time>
      </trkpt>
      <trkpt lat="46.954375" lon="16.27371">
        <ele>273.7</ele>
        <time>2025-07-14T18:14:24Z</time>
      </trkpt>
      <trkpt lat="46.95441167" lon="16.27384167">
        <ele>276.2</ele>
        <time>2025-07-14T18:14:33Z</time>
      </trkpt>
      <trkpt lat="46.95450333" lon="16.27385">
        <ele>276.3</ele>
        <time>2025-07-14T18:14:45Z</time>
      </trkpt>
      <trkpt lat="46.954595" lon="16.273905">
        <ele>274.4</ele>
        <time>2025-07-14T18:14:52Z</time>
      </trkpt>
      <trkpt lat="46.95461" lon="16.27404333">
        <ele>269.3</ele>
        <time>2025-07-14T18:15:28Z</time>
      </trkpt>
      <trkpt lat="46.95460833" lon="16.27418">
        <ele>269.2</ele>
        <time>2025-07-14T18:15:37Z</time>
      </trkpt>
      <trkpt lat="46.95464167" lon="16.27399333">
        <ele>267.3</ele>
        <time>2025-07-14T18:16:41Z</time>
      </trkpt>
      <trkpt lat="46.95465667" lon="16.27376333">
        <ele>264.3</ele>
        <time>2025-07-14T18:18:37Z</time>
      </trkpt>
      <trkpt lat="46.95475833" lon="16.27374167">
        <ele>265.9</ele>
        <time>2025-07-14T18:18:46Z</time>
      </trkpt>
      <trkpt lat="46.95485" lon="16.273735">
        <ele>267.4</ele>
        <time>2025-07-14T18:18:53Z</time>
      </trkpt>
      <trkpt lat="46.95488833" lon="16.27360333">
        <ele>268.3</ele>
        <time>2025-07-14T18:19:01Z</time>
      </trkpt>
      <trkpt lat="46.954935" lon="16.27348167">
        <ele>269.3</ele>
        <time>2025-07-14T18:19:10Z</time>
      </trkpt>
      <trkpt lat="46.954955" lon="16.27335333">
        <ele>270.7</ele>
        <time>2025-07-14T18:19:18Z</time>
      </trkpt>
      <trkpt lat="46.95498667" lon="16.27322167">
        <ele>270.7</ele>
        <time>2025-07-14T18:19:28Z</time>
      </trkpt>
      <trkpt lat="46.95491667" lon="16.27313833">
        <ele>269.7</ele>
        <time>2025-07-14T18:19:36Z</time>
      </trkpt>
      <trkpt lat="46.95484333" lon="16.27304333">
        <ele>267.2</ele>
        <time>2025-07-14T18:20:07Z</time>
      </trkpt>
      <trkpt lat="46.95479833" lon="16.27292167">
        <ele>264.9</ele>
        <time>2025-07-14T18:20:38Z</time>
      </trkpt>
      <trkpt lat="46.95477667" lon="16.27279">
        <ele>266.8</ele>
        <time>2025-07-14T18:20:43Z</time>
      </trkpt>
      <trkpt lat="46.95471333" lon="16.272695">
        <ele>267.3</ele>
        <time>2025-07-14T18:20:49Z</time>
      </trkpt>
      <trkpt lat="46.95464833" lon="16.27259667">
        <ele>266.5</ele>
        <time>2025-07-14T18:20:56Z</time>
      </trkpt>
      <trkpt lat="46.95458667" lon="16.27249667">
        <ele>264.7</ele>
        <time>2025-07-14T18:21:06Z</time>
      </trkpt>
      <trkpt lat="46.95453167" lon="16.27238167">
        <ele>264</ele>
        <time>2025-07-14T18:21:17Z</time>
      </trkpt>
      <trkpt lat="46.95447667" lon="16.27226">
        <ele>265.2</ele>
        <time>2025-07-14T18:21:24Z</time>
      </trkpt>
      <trkpt lat="46.954415" lon="16.27215333">
        <ele>267.2</ele>
        <time>2025-07-14T18:21:30Z</time>
      </trkpt>
      <trkpt lat="46.95433833" lon="16.27206">
        <ele>268.1</ele>
        <time>2025-07-14T18:21:39Z</time>
      </trkpt>
      <trkpt lat="46.95424667" lon="16.27200167">
        <ele>269.2</ele>
        <time>2025-07-14T18:21:48Z</time>
      </trkpt>
      <trkpt lat="46.95416667" lon="16.27191833">
        <ele>268.7</ele>
        <time>2025-07-14T18:21:56Z</time>
      </trkpt>
      <trkpt lat="46.954075" lon="16.27187167">
        <ele>268.2</ele>
        <time>2025-07-14T18:22:02Z</time>
      </trkpt>
      <trkpt lat="46.95399167" lon="16.27181167">
        <ele>268.4</ele>
        <time>2025-07-14T18:22:10Z</time>
      </trkpt>
      <trkpt lat="46.95390833" lon="16.27174667">
        <ele>270.8</ele>
        <time>2025-07-14T18:22:18Z</time>
      </trkpt>
      <trkpt lat="46.95382333" lon="16.27167">
        <ele>271.4</ele>
        <time>2025-07-14T18:22:25Z</time>
      </trkpt>
      <trkpt lat="46.953755" lon="16.27156333">
        <ele>269.9</ele>
        <time>2025-07-14T18:22:33Z</time>
      </trkpt>
      <trkpt lat="46.95370833" lon="16.27144333">
        <ele>269.8</ele>
        <time>2025-07-14T18:22:41Z</time>
      </trkpt>
      <trkpt lat="46.95370333" lon="16.2713">
        <ele>269.8</ele>
        <time>2025-07-14T18:22:48Z</time>
      </trkpt>
      <trkpt lat="46.953675" lon="16.271175">
        <ele>269.9</ele>
        <time>2025-07-14T18:22:54Z</time>
      </trkpt>
      <trkpt lat="46.953695" lon="16.27104333">
        <ele>271.9</ele>
        <time>2025-07-14T18:23:02Z</time>
      </trkpt>
      <trkpt lat="46.95366667" lon="16.27091333">
        <ele>271.8</ele>
        <time>2025-07-14T18:23:11Z</time>
      </trkpt>
      <trkpt lat="46.95365" lon="16.27078333">
        <ele>270.1</ele>
        <time>2025-07-14T18:23:20Z</time>
      </trkpt>
      <trkpt lat="46.95361667" lon="16.270645">
        <ele>268.4</ele>
        <time>2025-07-14T18:23:29Z</time>
      </trkpt>
      <trkpt lat="46.95370833" lon="16.27058167">
        <ele>269.6</ele>
        <time>2025-07-14T18:23:56Z</time>
      </trkpt>
      <trkpt lat="46.95380167" lon="16.270545">
        <ele>268.9</ele>
        <time>2025-07-14T18:24:21Z</time>
      </trkpt>
      <trkpt lat="46.95374833" lon="16.27065333">
        <ele>270.1</ele>
        <time>2025-07-14T18:24:54Z</time>
      </trkpt>
    </trkseg>
  </trk>
</gpx>