<?xml version='1.0' encoding='UTF-8' standalone='yes' ?>
<gpx xmlns="http://www.topografix.com/GPX/1/1" xmlns:geotracker="http://ilyabogdanovich.com/gpx/extensions/geotracker" xmlns:xsi="http://www.w3.org/2001/XMLSchema-instance" xsi:schemaLocation="http://www.topografix.com/GPX/1/1 http://www.topografix.com/GPX/1/1/gpx.xsd" version="1.1" creator="Recorded in Geo Tracker for Android from Ilya Bogdanovich">
  <metadata>
    <name>w_0724_05</name>
    <author>
      <name>Recorded in Geo Tracker for Android from Ilya Bogdanovich</name>
      <link href="https://play.google.com/store/apps/details?id=com.ilyabogdanovich.geotracker" />
    </author>
    <link href="https://play.google.com/store/apps/details?id=com.ilyabogdanovich.geotracker" />
    <time>2025-07-24T14:54:41Z</time>
  </metadata>
  <trk>
    <name>w_0724_05</name>
    <src>Recorded in Geo Tracker for Android from Ilya Bogdanovich</src>
    <link href="https://play.google.com/store/apps/details?id=com.ilyabogdanovich.geotracker" />
    <extensions>
      <geotracker:meta>
        <geotracker:length>3916.18</geotracker:length>
        <geotracker:duration>3716248</geotracker:duration>
        <geotracker:creationtime>2025-07-24T14:54:41Z</geotracker:creationtime>
        <geotracker:activity>0</geotracker:activity>
      </geotracker:meta>
    </extensions>
    <trkseg>
      <trkpt lat="46.28098167" lon="17.71922333">
        <ele>214.6</ele>
        <time>2025-07-24T14:54:50Z</time>
      </trkpt>
      <trkpt lat="46.28099667" lon="17.71923">
        <ele>214.6</ele>
        <time>2025-07-24T14:58:31Z</time>
      </trkpt>
      <trkpt lat="46.28102667" lon="17.7191">
        <ele>220.1</ele>
        <time>2025-07-24T14:58:49Z</time>
      </trkpt>
      <trkpt lat="46.28098167" lon="17.71898167">
        <ele>218.2</ele>
        <time>2025-07-24T14:59:00Z</time>
      </trkpt>
      <trkpt lat="46.280945" lon="17.71885333">
        <ele>215.7</ele>
        <time>2025-07-24T14:59:10Z</time>
      </trkpt>
      <trkpt lat="46.28091833" lon="17.71871833">
        <ele>213</ele>
        <time>2025-07-24T14:59:23Z</time>
      </trkpt>
      <trkpt lat="46.28089667" lon="17.71858333">
        <ele>211.9</ele>
        <time>2025-07-24T14:59:34Z</time>
      </trkpt>
      <trkpt lat="46.2808" lon="17.71855667">
        <ele>209.9</ele>
        <time>2025-07-24T15:00:04Z</time>
      </trkpt>
      <trkpt lat="46.280825" lon="17.71842">
        <ele>209.9</ele>
        <time>2025-07-24T15:00:27Z</time>
      </trkpt>
      <trkpt lat="46.28085833" lon="17.718295">
        <ele>207.8</ele>
        <time>2025-07-24T15:00:37Z</time>
      </trkpt>
      <trkpt lat="46.28087" lon="17.71815667">
        <ele>207.3</ele>
        <time>2025-07-24T15:00:47Z</time>
      </trkpt>
      <trkpt lat="46.28090667" lon="17.71803167">
        <ele>207.7</ele>
        <time>2025-07-24T15:00:56Z</time>
      </trkpt>
      <trkpt lat="46.28094333" lon="17.71791">
        <ele>209.6</ele>
        <time>2025-07-24T15:01:07Z</time>
      </trkpt>
      <trkpt lat="46.28100167" lon="17.71780833">
        <ele>211.8</ele>
        <time>2025-07-24T15:01:15Z</time>
      </trkpt>
      <trkpt lat="46.28107" lon="17.71771333">
        <ele>211.6</ele>
        <time>2025-07-24T15:01:24Z</time>
      </trkpt>
      <trkpt lat="46.28112" lon="17.71759833">
        <ele>213.6</ele>
        <time>2025-07-24T15:01:37Z</time>
      </trkpt>
      <trkpt lat="46.28119" lon="17.71750333">
        <ele>213.5</ele>
        <time>2025-07-24T15:01:46Z</time>
      </trkpt>
      <trkpt lat="46.28125167" lon="17.71740833">
        <ele>215.5</ele>
        <time>2025-07-24T15:01:53Z</time>
      </trkpt>
      <trkpt lat="46.28130333" lon="17.71729667">
        <ele>216</ele>
        <time>2025-07-24T15:02:02Z</time>
      </trkpt>
      <trkpt lat="46.28135" lon="17.71716833">
        <ele>214.5</ele>
        <time>2025-07-24T15:02:11Z</time>
      </trkpt>
      <trkpt lat="46.28139667" lon="17.71705667">
        <ele>215.3</ele>
        <time>2025-07-24T15:02:20Z</time>
      </trkpt>
      <trkpt lat="46.281405" lon="17.71692167">
        <ele>215.2</ele>
        <time>2025-07-24T15:02:29Z</time>
      </trkpt>
      <trkpt lat="46.28141" lon="17.71679167">
        <ele>215</ele>
        <time>2025-07-24T15:02:37Z</time>
      </trkpt>
      <trkpt lat="46.28139333" lon="17.71665333">
        <ele>214.9</ele>
        <time>2025-07-24T15:02:46Z</time>
      </trkpt>
      <trkpt lat="46.28137333" lon="17.716515">
        <ele>216.1</ele>
        <time>2025-07-24T15:02:58Z</time>
      </trkpt>
      <trkpt lat="46.28132333" lon="17.71639667">
        <ele>215.1</ele>
        <time>2025-07-24T15:03:06Z</time>
      </trkpt>
      <trkpt lat="46.28124333" lon="17.71631">
        <ele>214.8</ele>
        <time>2025-07-24T15:03:16Z</time>
      </trkpt>
      <trkpt lat="46.281155" lon="17.71625167">
        <ele>214.1</ele>
        <time>2025-07-24T15:03:24Z</time>
      </trkpt>
      <trkpt lat="46.2811" lon="17.716145">
        <ele>224.2</ele>
        <time>2025-07-24T15:03:33Z</time>
      </trkpt>
      <trkpt lat="46.28102833" lon="17.71606">
        <ele>223.4</ele>
        <time>2025-07-24T15:03:41Z</time>
      </trkpt>
      <trkpt lat="46.28097667" lon="17.71594833">
        <ele>217.3</ele>
        <time>2025-07-24T15:03:52Z</time>
      </trkpt>
      <trkpt lat="46.28093833" lon="17.71582833">
        <ele>215.5</ele>
        <time>2025-07-24T15:04:02Z</time>
      </trkpt>
      <trkpt lat="46.28090333" lon="17.715705">
        <ele>215.3</ele>
        <time>2025-07-24T15:04:16Z</time>
      </trkpt>
      <trkpt lat="46.28087333" lon="17.71558167">
        <ele>215.3</ele>
        <time>2025-07-24T15:04:27Z</time>
      </trkpt>
      <trkpt lat="46.280845" lon="17.71545833">
        <ele>215.8</ele>
        <time>2025-07-24T15:04:36Z</time>
      </trkpt>
      <trkpt lat="46.28081667" lon="17.71532">
        <ele>216.8</ele>
        <time>2025-07-24T15:04:45Z</time>
      </trkpt>
      <trkpt lat="46.28079667" lon="17.715185">
        <ele>217.5</ele>
        <time>2025-07-24T15:04:54Z</time>
      </trkpt>
      <trkpt lat="46.28078" lon="17.71505333">
        <ele>218.2</ele>
        <time>2025-07-24T15:05:04Z</time>
      </trkpt>
      <trkpt lat="46.28075333" lon="17.71492">
        <ele>219.1</ele>
        <time>2025-07-24T15:05:13Z</time>
      </trkpt>
      <trkpt lat="46.280735" lon="17.71478667">
        <ele>220.9</ele>
        <time>2025-07-24T15:05:21Z</time>
      </trkpt>
      <trkpt lat="46.28072" lon="17.714655">
        <ele>223</ele>
        <time>2025-07-24T15:05:31Z</time>
      </trkpt>
      <trkpt lat="46.28072833" lon="17.71451667">
        <ele>225.8</ele>
        <time>2025-07-24T15:05:41Z</time>
      </trkpt>
      <trkpt lat="46.28078667" lon="17.71440667">
        <ele>227.7</ele>
        <time>2025-07-24T15:05:49Z</time>
      </trkpt>
      <trkpt lat="46.28083" lon="17.71428">
        <ele>229.3</ele>
        <time>2025-07-24T15:05:57Z</time>
      </trkpt>
      <trkpt lat="46.28088167" lon="17.71416833">
        <ele>230.3</ele>
        <time>2025-07-24T15:06:04Z</time>
      </trkpt>
      <trkpt lat="46.28089833" lon="17.71403833">
        <ele>231.6</ele>
        <time>2025-07-24T15:06:16Z</time>
      </trkpt>
      <trkpt lat="46.28087833" lon="17.7139">
        <ele>231.4</ele>
        <time>2025-07-24T15:06:29Z</time>
      </trkpt>
      <trkpt lat="46.28087167" lon="17.71375667">
        <ele>233.1</ele>
        <time>2025-07-24T15:06:45Z</time>
      </trkpt>
      <trkpt lat="46.28086" lon="17.71360833">
        <ele>233.5</ele>
        <time>2025-07-24T15:06:53Z</time>
      </trkpt>
      <trkpt lat="46.28084833" lon="17.71347833">
        <ele>234.5</ele>
        <time>2025-07-24T15:07:01Z</time>
      </trkpt>
      <trkpt lat="46.28082333" lon="17.71334333">
        <ele>235.8</ele>
        <time>2025-07-24T15:07:09Z</time>
      </trkpt>
      <trkpt lat="46.28079" lon="17.71321667">
        <ele>237.4</ele>
        <time>2025-07-24T15:07:17Z</time>
      </trkpt>
      <trkpt lat="46.28073667" lon="17.71309333">
        <ele>238.2</ele>
        <time>2025-07-24T15:07:48Z</time>
      </trkpt>
      <trkpt lat="46.28066167" lon="17.71301167">
        <ele>235.9</ele>
        <time>2025-07-24T15:07:55Z</time>
      </trkpt>
      <trkpt lat="46.28058333" lon="17.712945">
        <ele>236.7</ele>
        <time>2025-07-24T15:08:03Z</time>
      </trkpt>
      <trkpt lat="46.28050667" lon="17.71285833">
        <ele>237.7</ele>
        <time>2025-07-24T15:08:13Z</time>
      </trkpt>
      <trkpt lat="46.28044667" lon="17.71275833">
        <ele>238.8</ele>
        <time>2025-07-24T15:08:22Z</time>
      </trkpt>
      <trkpt lat="46.280365" lon="17.71269167">
        <ele>241.3</ele>
        <time>2025-07-24T15:08:36Z</time>
      </trkpt>
      <trkpt lat="46.28029333" lon="17.712595">
        <ele>243.4</ele>
        <time>2025-07-24T15:08:47Z</time>
      </trkpt>
      <trkpt lat="46.28021833" lon="17.71251">
        <ele>246.2</ele>
        <time>2025-07-24T15:08:56Z</time>
      </trkpt>
      <trkpt lat="46.28014" lon="17.712435">
        <ele>248.3</ele>
        <time>2025-07-24T15:09:04Z</time>
      </trkpt>
      <trkpt lat="46.28006" lon="17.71235667">
        <ele>250.1</ele>
        <time>2025-07-24T15:09:13Z</time>
      </trkpt>
      <trkpt lat="46.27998167" lon="17.712265">
        <ele>250.5</ele>
        <time>2025-07-24T15:09:22Z</time>
      </trkpt>
      <trkpt lat="46.27991167" lon="17.71217833">
        <ele>250.2</ele>
        <time>2025-07-24T15:09:29Z</time>
      </trkpt>
      <trkpt lat="46.27983167" lon="17.71210333">
        <ele>251.7</ele>
        <time>2025-07-24T15:09:36Z</time>
      </trkpt>
      <trkpt lat="46.27976" lon="17.71201333">
        <ele>254.2</ele>
        <time>2025-07-24T15:09:43Z</time>
      </trkpt>
      <trkpt lat="46.27967167" lon="17.71194333">
        <ele>255.6</ele>
        <time>2025-07-24T15:09:50Z</time>
      </trkpt>
      <trkpt lat="46.27959833" lon="17.71185667">
        <ele>259.7</ele>
        <time>2025-07-24T15:09:57Z</time>
      </trkpt>
      <trkpt lat="46.27953833" lon="17.71174833">
        <ele>265.2</ele>
        <time>2025-07-24T15:10:35Z</time>
      </trkpt>
      <trkpt lat="46.27946833" lon="17.711655">
        <ele>263.4</ele>
        <time>2025-07-24T15:10:42Z</time>
      </trkpt>
      <trkpt lat="46.27942" lon="17.71154">
        <ele>263.9</ele>
        <time>2025-07-24T15:10:51Z</time>
      </trkpt>
      <trkpt lat="46.27938167" lon="17.71141667">
        <ele>265.9</ele>
        <time>2025-07-24T15:10:59Z</time>
      </trkpt>
      <trkpt lat="46.27932" lon="17.71130167">
        <ele>267.4</ele>
        <time>2025-07-24T15:11:08Z</time>
      </trkpt>
      <trkpt lat="46.27924833" lon="17.71120333">
        <ele>267.9</ele>
        <time>2025-07-24T15:11:16Z</time>
      </trkpt>
      <trkpt lat="46.27917" lon="17.711105">
        <ele>269.2</ele>
        <time>2025-07-24T15:11:25Z</time>
      </trkpt>
      <trkpt lat="46.27909167" lon="17.711035">
        <ele>271.8</ele>
        <time>2025-07-24T15:11:33Z</time>
      </trkpt>
      <trkpt lat="46.279005" lon="17.710965">
        <ele>272.4</ele>
        <time>2025-07-24T15:11:57Z</time>
      </trkpt>
      <trkpt lat="46.27896667" lon="17.71084333">
        <ele>271.8</ele>
        <time>2025-07-24T15:12:07Z</time>
      </trkpt>
      <trkpt lat="46.27890667" lon="17.71073667">
        <ele>271.7</ele>
        <time>2025-07-24T15:12:18Z</time>
      </trkpt>
      <trkpt lat="46.27884167" lon="17.71064333">
        <ele>271.5</ele>
        <time>2025-07-24T15:12:26Z</time>
      </trkpt>
      <trkpt lat="46.27877667" lon="17.71055333">
        <ele>272.3</ele>
        <time>2025-07-24T15:12:36Z</time>
      </trkpt>
      <trkpt lat="46.27870333" lon="17.71046667">
        <ele>271.6</ele>
        <time>2025-07-24T15:12:45Z</time>
      </trkpt>
      <trkpt lat="46.278635" lon="17.710375">
        <ele>271.3</ele>
        <time>2025-07-24T15:12:58Z</time>
      </trkpt>
      <trkpt lat="46.27854667" lon="17.71032">
        <ele>271.6</ele>
        <time>2025-07-24T15:13:08Z</time>
      </trkpt>
      <trkpt lat="46.27846333" lon="17.71026667">
        <ele>272</ele>
        <time>2025-07-24T15:13:20Z</time>
      </trkpt>
      <trkpt lat="46.278385" lon="17.71019">
        <ele>273.2</ele>
        <time>2025-07-24T15:13:34Z</time>
      </trkpt>
      <trkpt lat="46.27829667" lon="17.71015167">
        <ele>273.9</ele>
        <time>2025-07-24T15:13:43Z</time>
      </trkpt>
      <trkpt lat="46.27820667" lon="17.710095">
        <ele>275.5</ele>
        <time>2025-07-24T15:14:18Z</time>
      </trkpt>
      <trkpt lat="46.278115" lon="17.71006333">
        <ele>274.8</ele>
        <time>2025-07-24T15:14:26Z</time>
      </trkpt>
      <trkpt lat="46.27801667" lon="17.71003833">
        <ele>273.5</ele>
        <time>2025-07-24T15:14:37Z</time>
      </trkpt>
      <trkpt lat="46.27792833" lon="17.70998333">
        <ele>277.7</ele>
        <time>2025-07-24T15:15:11Z</time>
      </trkpt>
      <trkpt lat="46.27783167" lon="17.709985">
        <ele>276.8</ele>
        <time>2025-07-24T15:15:21Z</time>
      </trkpt>
      <trkpt lat="46.27773333" lon="17.709975">
        <ele>275.4</ele>
        <time>2025-07-24T15:15:31Z</time>
      </trkpt>
      <trkpt lat="46.277635" lon="17.70997167">
        <ele>274</ele>
        <time>2025-07-24T15:15:40Z</time>
      </trkpt>
      <trkpt lat="46.27753833" lon="17.70996333">
        <ele>273.6</ele>
        <time>2025-07-24T15:15:48Z</time>
      </trkpt>
      <trkpt lat="46.27744" lon="17.70993833">
        <ele>273.7</ele>
        <time>2025-07-24T15:15:55Z</time>
      </trkpt>
      <trkpt lat="46.277345" lon="17.70992667">
        <ele>275.1</ele>
        <time>2025-07-24T15:16:02Z</time>
      </trkpt>
      <trkpt lat="46.277245" lon="17.70992333">
        <ele>278.8</ele>
        <time>2025-07-24T15:16:09Z</time>
      </trkpt>
      <trkpt lat="46.27715167" lon="17.70992167">
        <ele>279.5</ele>
        <time>2025-07-24T15:16:17Z</time>
      </trkpt>
      <trkpt lat="46.27705833" lon="17.70991833">
        <ele>279.3</ele>
        <time>2025-07-24T15:16:26Z</time>
      </trkpt>
      <trkpt lat="46.276965" lon="17.709905">
        <ele>278.4</ele>
        <time>2025-07-24T15:16:34Z</time>
      </trkpt>
      <trkpt lat="46.27687333" lon="17.70990333">
        <ele>278.7</ele>
        <time>2025-07-24T15:16:43Z</time>
      </trkpt>
      <trkpt lat="46.27678" lon="17.70989667">
        <ele>279.8</ele>
        <time>2025-07-24T15:16:52Z</time>
      </trkpt>
      <trkpt lat="46.27668667" lon="17.70989333">
        <ele>280.3</ele>
        <time>2025-07-24T15:17:00Z</time>
      </trkpt>
      <trkpt lat="46.27658833" lon="17.709885">
        <ele>280.7</ele>
        <time>2025-07-24T15:17:09Z</time>
      </trkpt>
      <trkpt lat="46.27649167" lon="17.70987833">
        <ele>279.5</ele>
        <time>2025-07-24T15:17:17Z</time>
      </trkpt>
      <trkpt lat="46.27639333" lon="17.709855">
        <ele>280.6</ele>
        <time>2025-07-24T15:17:25Z</time>
      </trkpt>
      <trkpt lat="46.27629333" lon="17.70982833">
        <ele>282</ele>
        <time>2025-07-24T15:17:40Z</time>
      </trkpt>
      <trkpt lat="46.2762" lon="17.70979333">
        <ele>281.5</ele>
        <time>2025-07-24T15:17:48Z</time>
      </trkpt>
      <trkpt lat="46.27611" lon="17.709785">
        <ele>280</ele>
        <time>2025-07-24T15:17:56Z</time>
      </trkpt>
      <trkpt lat="46.27601667" lon="17.70975">
        <ele>278.5</ele>
        <time>2025-07-24T15:18:08Z</time>
      </trkpt>
      <trkpt lat="46.27591333" lon="17.70975167">
        <ele>278.6</ele>
        <time>2025-07-24T15:18:16Z</time>
      </trkpt>
      <trkpt lat="46.27582" lon="17.70974333">
        <ele>279</ele>
        <time>2025-07-24T15:18:25Z</time>
      </trkpt>
      <trkpt lat="46.27573" lon="17.70973667">
        <ele>278</ele>
        <time>2025-07-24T15:18:32Z</time>
      </trkpt>
      <trkpt lat="46.27563" lon="17.70972333">
        <ele>277.4</ele>
        <time>2025-07-24T15:18:40Z</time>
      </trkpt>
      <trkpt lat="46.27552833" lon="17.70971">
        <ele>278.8</ele>
        <time>2025-07-24T15:18:48Z</time>
      </trkpt>
      <trkpt lat="46.27543167" lon="17.70969333">
        <ele>280.5</ele>
        <time>2025-07-24T15:18:56Z</time>
      </trkpt>
      <trkpt lat="46.27536" lon="17.70959833">
        <ele>280.7</ele>
        <time>2025-07-24T15:19:04Z</time>
      </trkpt>
      <trkpt lat="46.27529833" lon="17.7095">
        <ele>281.1</ele>
        <time>2025-07-24T15:19:11Z</time>
      </trkpt>
      <trkpt lat="46.27523" lon="17.70940333">
        <ele>278.3</ele>
        <time>2025-07-24T15:19:19Z</time>
      </trkpt>
      <trkpt lat="46.275135" lon="17.70935333">
        <ele>278.2</ele>
        <time>2025-07-24T15:19:47Z</time>
      </trkpt>
      <trkpt lat="46.27503833" lon="17.70931667">
        <ele>278.1</ele>
        <time>2025-07-24T15:19:55Z</time>
      </trkpt>
      <trkpt lat="46.27494667" lon="17.7093">
        <ele>280.3</ele>
        <time>2025-07-24T15:20:02Z</time>
      </trkpt>
      <trkpt lat="46.274855" lon="17.709275">
        <ele>281.3</ele>
        <time>2025-07-24T15:20:10Z</time>
      </trkpt>
      <trkpt lat="46.274775" lon="17.709215">
        <ele>280.3</ele>
        <time>2025-07-24T15:20:20Z</time>
      </trkpt>
      <trkpt lat="46.27468333" lon="17.70920333">
        <ele>281.2</ele>
        <time>2025-07-24T15:20:29Z</time>
      </trkpt>
      <trkpt lat="46.274585" lon="17.709195">
        <ele>281.2</ele>
        <time>2025-07-24T15:20:39Z</time>
      </trkpt>
      <trkpt lat="46.27449" lon="17.70920833">
        <ele>282.2</ele>
        <time>2025-07-24T15:20:49Z</time>
      </trkpt>
      <trkpt lat="46.27439833" lon="17.70922667">
        <ele>283.2</ele>
        <time>2025-07-24T15:20:57Z</time>
      </trkpt>
      <trkpt lat="46.27429833" lon="17.70924667">
        <ele>283.8</ele>
        <time>2025-07-24T15:21:06Z</time>
      </trkpt>
      <trkpt lat="46.27420667" lon="17.70925167">
        <ele>283.9</ele>
        <time>2025-07-24T15:21:15Z</time>
      </trkpt>
      <trkpt lat="46.27411667" lon="17.709245">
        <ele>285.5</ele>
        <time>2025-07-24T15:21:22Z</time>
      </trkpt>
      <trkpt lat="46.27402667" lon="17.70927833">
        <ele>283.4</ele>
        <time>2025-07-24T15:21:34Z</time>
      </trkpt>
      <trkpt lat="46.27392833" lon="17.70931333">
        <ele>283.2</ele>
        <time>2025-07-24T15:21:42Z</time>
      </trkpt>
      <trkpt lat="46.27383833" lon="17.70932333">
        <ele>285</ele>
        <time>2025-07-24T15:21:50Z</time>
      </trkpt>
      <trkpt lat="46.27374833" lon="17.70936667">
        <ele>281.6</ele>
        <time>2025-07-24T15:22:00Z</time>
      </trkpt>
      <trkpt lat="46.273655" lon="17.70940333">
        <ele>279.6</ele>
        <time>2025-07-24T15:22:10Z</time>
      </trkpt>
      <trkpt lat="46.273555" lon="17.70942">
        <ele>280</ele>
        <time>2025-07-24T15:22:18Z</time>
      </trkpt>
      <trkpt lat="46.27345667" lon="17.70944">
        <ele>281.4</ele>
        <time>2025-07-24T15:22:28Z</time>
      </trkpt>
      <trkpt lat="46.27336833" lon="17.70948">
        <ele>283.3</ele>
        <time>2025-07-24T15:22:36Z</time>
      </trkpt>
      <trkpt lat="46.27326833" lon="17.709505">
        <ele>283.3</ele>
        <time>2025-07-24T15:22:44Z</time>
      </trkpt>
      <trkpt lat="46.27317167" lon="17.709535">
        <ele>282.1</ele>
        <time>2025-07-24T15:22:52Z</time>
      </trkpt>
      <trkpt lat="46.27308167" lon="17.70952833">
        <ele>281.7</ele>
        <time>2025-07-24T15:22:59Z</time>
      </trkpt>
      <trkpt lat="46.272985" lon="17.70956833">
        <ele>280.6</ele>
        <time>2025-07-24T15:23:09Z</time>
      </trkpt>
      <trkpt lat="46.27289" lon="17.70958833">
        <ele>280.4</ele>
        <time>2025-07-24T15:23:16Z</time>
      </trkpt>
      <trkpt lat="46.2728" lon="17.709615">
        <ele>281.1</ele>
        <time>2025-07-24T15:23:24Z</time>
      </trkpt>
      <trkpt lat="46.27271333" lon="17.709655">
        <ele>282.3</ele>
        <time>2025-07-24T15:23:33Z</time>
      </trkpt>
      <trkpt lat="46.27261833" lon="17.709655">
        <ele>283.2</ele>
        <time>2025-07-24T15:23:43Z</time>
      </trkpt>
      <trkpt lat="46.272525" lon="17.70968833">
        <ele>282.9</ele>
        <time>2025-07-24T15:23:52Z</time>
      </trkpt>
      <trkpt lat="46.27242167" lon="17.70967167">
        <ele>283.7</ele>
        <time>2025-07-24T15:23:59Z</time>
      </trkpt>
      <trkpt lat="46.272325" lon="17.709705">
        <ele>285.4</ele>
        <time>2025-07-24T15:24:08Z</time>
      </trkpt>
      <trkpt lat="46.272225" lon="17.70968667">
        <ele>287.3</ele>
        <time>2025-07-24T15:24:16Z</time>
      </trkpt>
      <trkpt lat="46.272135" lon="17.70965">
        <ele>288.1</ele>
        <time>2025-07-24T15:24:22Z</time>
      </trkpt>
      <trkpt lat="46.272045" lon="17.7096">
        <ele>289.9</ele>
        <time>2025-07-24T15:24:29Z</time>
      </trkpt>
      <trkpt lat="46.27195" lon="17.70959">
        <ele>291.7</ele>
        <time>2025-07-24T15:24:38Z</time>
      </trkpt>
      <trkpt lat="46.27185" lon="17.70959333">
        <ele>289.5</ele>
        <time>2025-07-24T15:24:49Z</time>
      </trkpt>
      <trkpt lat="46.271765" lon="17.70954333">
        <ele>289.1</ele>
        <time>2025-07-24T15:24:56Z</time>
      </trkpt>
      <trkpt lat="46.27168" lon="17.709495">
        <ele>286.2</ele>
        <time>2025-07-24T15:25:09Z</time>
      </trkpt>
      <trkpt lat="46.271585" lon="17.70948">
        <ele>285.9</ele>
        <time>2025-07-24T15:25:21Z</time>
      </trkpt>
      <trkpt lat="46.27150167" lon="17.70942333">
        <ele>285.7</ele>
        <time>2025-07-24T15:25:27Z</time>
      </trkpt>
      <trkpt lat="46.27143" lon="17.70932">
        <ele>285.6</ele>
        <time>2025-07-24T15:25:34Z</time>
      </trkpt>
      <trkpt lat="46.27133833" lon="17.70932333">
        <ele>286.7</ele>
        <time>2025-07-24T15:25:47Z</time>
      </trkpt>
      <trkpt lat="46.27125167" lon="17.70939833">
        <ele>285.7</ele>
        <time>2025-07-24T15:25:56Z</time>
      </trkpt>
      <trkpt lat="46.27116167" lon="17.70946">
        <ele>284.5</ele>
        <time>2025-07-24T15:26:05Z</time>
      </trkpt>
      <trkpt lat="46.271065" lon="17.70948833">
        <ele>285.4</ele>
        <time>2025-07-24T15:26:14Z</time>
      </trkpt>
      <trkpt lat="46.27097667" lon="17.70953667">
        <ele>286.6</ele>
        <time>2025-07-24T15:26:21Z</time>
      </trkpt>
      <trkpt lat="46.27089167" lon="17.709585">
        <ele>288.1</ele>
        <time>2025-07-24T15:26:28Z</time>
      </trkpt>
      <trkpt lat="46.270805" lon="17.70965167">
        <ele>288.2</ele>
        <time>2025-07-24T15:26:39Z</time>
      </trkpt>
      <trkpt lat="46.27071333" lon="17.70970167">
        <ele>287.3</ele>
        <time>2025-07-24T15:26:48Z</time>
      </trkpt>
      <trkpt lat="46.27061833" lon="17.70974167">
        <ele>286.8</ele>
        <time>2025-07-24T15:26:56Z</time>
      </trkpt>
      <trkpt lat="46.27052667" lon="17.70978167">
        <ele>287.5</ele>
        <time>2025-07-24T15:27:04Z</time>
      </trkpt>
      <trkpt lat="46.270425" lon="17.709815">
        <ele>287.7</ele>
        <time>2025-07-24T15:27:11Z</time>
      </trkpt>
      <trkpt lat="46.27033833" lon="17.70985333">
        <ele>288.2</ele>
        <time>2025-07-24T15:27:22Z</time>
      </trkpt>
      <trkpt lat="46.27024333" lon="17.70990833">
        <ele>287.2</ele>
        <time>2025-07-24T15:27:30Z</time>
      </trkpt>
      <trkpt lat="46.27015667" lon="17.70998667">
        <ele>288.1</ele>
        <time>2025-07-24T15:27:39Z</time>
      </trkpt>
      <trkpt lat="46.27009667" lon="17.71010167">
        <ele>288.8</ele>
        <time>2025-07-24T15:27:47Z</time>
      </trkpt>
      <trkpt lat="46.27003667" lon="17.71021167">
        <ele>287.7</ele>
        <time>2025-07-24T15:27:58Z</time>
      </trkpt>
      <trkpt lat="46.26999667" lon="17.71033333">
        <ele>285.4</ele>
        <time>2025-07-24T15:28:11Z</time>
      </trkpt>
      <trkpt lat="46.26998167" lon="17.71047667">
        <ele>285.6</ele>
        <time>2025-07-24T15:28:19Z</time>
      </trkpt>
      <trkpt lat="46.26996833" lon="17.71061667">
        <ele>286</ele>
        <time>2025-07-24T15:28:27Z</time>
      </trkpt>
      <trkpt lat="46.26997833" lon="17.71074667">
        <ele>286.4</ele>
        <time>2025-07-24T15:28:34Z</time>
      </trkpt>
      <trkpt lat="46.269975" lon="17.71088833">
        <ele>286</ele>
        <time>2025-07-24T15:28:42Z</time>
      </trkpt>
      <trkpt lat="46.26996333" lon="17.71102333">
        <ele>285.9</ele>
        <time>2025-07-24T15:28:51Z</time>
      </trkpt>
      <trkpt lat="46.26997" lon="17.71116333">
        <ele>284.7</ele>
        <time>2025-07-24T15:29:02Z</time>
      </trkpt>
      <trkpt lat="46.26996833" lon="17.71129333">
        <ele>284.6</ele>
        <time>2025-07-24T15:29:10Z</time>
      </trkpt>
      <trkpt lat="46.269965" lon="17.711435">
        <ele>284.6</ele>
        <time>2025-07-24T15:29:19Z</time>
      </trkpt>
      <trkpt lat="46.26995" lon="17.71156667">
        <ele>284.7</ele>
        <time>2025-07-24T15:29:31Z</time>
      </trkpt>
      <trkpt lat="46.26994833" lon="17.7117">
        <ele>284.3</ele>
        <time>2025-07-24T15:29:42Z</time>
      </trkpt>
      <trkpt lat="46.26994667" lon="17.71184167">
        <ele>283.3</ele>
        <time>2025-07-24T15:29:52Z</time>
      </trkpt>
      <trkpt lat="46.26994333" lon="17.71198">
        <ele>282.6</ele>
        <time>2025-07-24T15:30:02Z</time>
      </trkpt>
      <trkpt lat="46.269935" lon="17.71212167">
        <ele>282.7</ele>
        <time>2025-07-24T15:30:12Z</time>
      </trkpt>
      <trkpt lat="46.26991833" lon="17.71225167">
        <ele>282.9</ele>
        <time>2025-07-24T15:30:19Z</time>
      </trkpt>
      <trkpt lat="46.269905" lon="17.71238833">
        <ele>281.6</ele>
        <time>2025-07-24T15:30:27Z</time>
      </trkpt>
      <trkpt lat="46.26990167" lon="17.71252333">
        <ele>282</ele>
        <time>2025-07-24T15:30:35Z</time>
      </trkpt>
      <trkpt lat="46.26988333" lon="17.71265833">
        <ele>282.6</ele>
        <time>2025-07-24T15:30:59Z</time>
      </trkpt>
      <trkpt lat="46.26986167" lon="17.71278833">
        <ele>283.3</ele>
        <time>2025-07-24T15:31:07Z</time>
      </trkpt>
      <trkpt lat="46.26983833" lon="17.71292167">
        <ele>283.1</ele>
        <time>2025-07-24T15:31:15Z</time>
      </trkpt>
      <trkpt lat="46.26982167" lon="17.71306167">
        <ele>283</ele>
        <time>2025-07-24T15:31:23Z</time>
      </trkpt>
      <trkpt lat="46.2698" lon="17.71319">
        <ele>282.4</ele>
        <time>2025-07-24T15:31:31Z</time>
      </trkpt>
      <trkpt lat="46.26979167" lon="17.71333">
        <ele>280.4</ele>
        <time>2025-07-24T15:31:38Z</time>
      </trkpt>
      <trkpt lat="46.26975833" lon="17.713465">
        <ele>278.6</ele>
        <time>2025-07-24T15:31:46Z</time>
      </trkpt>
      <trkpt lat="46.26970833" lon="17.71357833">
        <ele>278.6</ele>
        <time>2025-07-24T15:31:55Z</time>
      </trkpt>
      <trkpt lat="46.26967" lon="17.71369667">
        <ele>280.4</ele>
        <time>2025-07-24T15:32:13Z</time>
      </trkpt>
      <trkpt lat="46.26960833" lon="17.71380167">
        <ele>278.8</ele>
        <time>2025-07-24T15:32:23Z</time>
      </trkpt>
      <trkpt lat="46.269555" lon="17.71391">
        <ele>278</ele>
        <time>2025-07-24T15:32:32Z</time>
      </trkpt>
      <trkpt lat="46.26950833" lon="17.71402667">
        <ele>277.2</ele>
        <time>2025-07-24T15:32:40Z</time>
      </trkpt>
      <trkpt lat="46.26944167" lon="17.71412833">
        <ele>276.9</ele>
        <time>2025-07-24T15:32:49Z</time>
      </trkpt>
      <trkpt lat="46.26936167" lon="17.71421">
        <ele>277.1</ele>
        <time>2025-07-24T15:32:58Z</time>
      </trkpt>
      <trkpt lat="46.26927667" lon="17.71427833">
        <ele>277.7</ele>
        <time>2025-07-24T15:33:07Z</time>
      </trkpt>
      <trkpt lat="46.26918833" lon="17.714345">
        <ele>278.1</ele>
        <time>2025-07-24T15:33:16Z</time>
      </trkpt>
      <trkpt lat="46.26909667" lon="17.71438667">
        <ele>276.8</ele>
        <time>2025-07-24T15:33:25Z</time>
      </trkpt>
      <trkpt lat="46.269015" lon="17.71444667">
        <ele>275.2</ele>
        <time>2025-07-24T15:33:35Z</time>
      </trkpt>
      <trkpt lat="46.26892333" lon="17.71449833">
        <ele>273.5</ele>
        <time>2025-07-24T15:33:43Z</time>
      </trkpt>
      <trkpt lat="46.26883333" lon="17.71454167">
        <ele>272.7</ele>
        <time>2025-07-24T15:33:50Z</time>
      </trkpt>
      <trkpt lat="46.26874333" lon="17.71458333">
        <ele>271.1</ele>
        <time>2025-07-24T15:33:59Z</time>
      </trkpt>
      <trkpt lat="46.26866" lon="17.714635">
        <ele>270.2</ele>
        <time>2025-07-24T15:34:06Z</time>
      </trkpt>
      <trkpt lat="46.26857833" lon="17.71470333">
        <ele>270.2</ele>
        <time>2025-07-24T15:34:13Z</time>
      </trkpt>
      <trkpt lat="46.26849833" lon="17.71477833">
        <ele>270.7</ele>
        <time>2025-07-24T15:34:20Z</time>
      </trkpt>
      <trkpt lat="46.26845" lon="17.714895">
        <ele>270.5</ele>
        <time>2025-07-24T15:34:27Z</time>
      </trkpt>
      <trkpt lat="46.26839833" lon="17.71502">
        <ele>269.9</ele>
        <time>2025-07-24T15:34:36Z</time>
      </trkpt>
      <trkpt lat="46.26835667" lon="17.71516">
        <ele>269.7</ele>
        <time>2025-07-24T15:34:45Z</time>
      </trkpt>
      <trkpt lat="46.26832833" lon="17.71529">
        <ele>271.4</ele>
        <time>2025-07-24T15:34:52Z</time>
      </trkpt>
      <trkpt lat="46.26829333" lon="17.71541333">
        <ele>271.1</ele>
        <time>2025-07-24T15:34:59Z</time>
      </trkpt>
      <trkpt lat="46.26825167" lon="17.71553667">
        <ele>272</ele>
        <time>2025-07-24T15:35:08Z</time>
      </trkpt>
      <trkpt lat="46.2682" lon="17.71564667">
        <ele>270.5</ele>
        <time>2025-07-24T15:35:18Z</time>
      </trkpt>
      <trkpt lat="46.26816333" lon="17.71578333">
        <ele>270.1</ele>
        <time>2025-07-24T15:35:27Z</time>
      </trkpt>
      <trkpt lat="46.26813167" lon="17.71592">
        <ele>270.1</ele>
        <time>2025-07-24T15:35:35Z</time>
      </trkpt>
      <trkpt lat="46.26809833" lon="17.71605667">
        <ele>269.1</ele>
        <time>2025-07-24T15:35:43Z</time>
      </trkpt>
      <trkpt lat="46.26808167" lon="17.71619">
        <ele>270.7</ele>
        <time>2025-07-24T15:35:50Z</time>
      </trkpt>
      <trkpt lat="46.26806833" lon="17.71633333">
        <ele>272.5</ele>
        <time>2025-07-24T15:35:59Z</time>
      </trkpt>
      <trkpt lat="46.26805167" lon="17.716475">
        <ele>272.1</ele>
        <time>2025-07-24T15:36:08Z</time>
      </trkpt>
      <trkpt lat="46.26804" lon="17.71660833">
        <ele>271.1</ele>
        <time>2025-07-24T15:36:15Z</time>
      </trkpt>
      <trkpt lat="46.268035" lon="17.71674833">
        <ele>271.2</ele>
        <time>2025-07-24T15:36:24Z</time>
      </trkpt>
      <trkpt lat="46.26802333" lon="17.71688833">
        <ele>273</ele>
        <time>2025-07-24T15:36:32Z</time>
      </trkpt>
      <trkpt lat="46.26801" lon="17.71701833">
        <ele>273.1</ele>
        <time>2025-07-24T15:36:40Z</time>
      </trkpt>
      <trkpt lat="46.26799333" lon="17.71715667">
        <ele>270.4</ele>
        <time>2025-07-24T15:36:49Z</time>
      </trkpt>
      <trkpt lat="46.267975" lon="17.71729">
        <ele>268.8</ele>
        <time>2025-07-24T15:36:58Z</time>
      </trkpt>
      <trkpt lat="46.26795333" lon="17.71741833">
        <ele>267.8</ele>
        <time>2025-07-24T15:37:06Z</time>
      </trkpt>
      <trkpt lat="46.26791167" lon="17.71754">
        <ele>267.9</ele>
        <time>2025-07-24T15:37:18Z</time>
      </trkpt>
      <trkpt lat="46.26787667" lon="17.717675">
        <ele>269.5</ele>
        <time>2025-07-24T15:37:27Z</time>
      </trkpt>
      <trkpt lat="46.26780833" lon="17.71778">
        <ele>268.8</ele>
        <time>2025-07-24T15:37:36Z</time>
      </trkpt>
      <trkpt lat="46.26773" lon="17.71785167">
        <ele>267.3</ele>
        <time>2025-07-24T15:37:43Z</time>
      </trkpt>
      <trkpt lat="46.26766333" lon="17.71795667">
        <ele>264.7</ele>
        <time>2025-07-24T15:37:50Z</time>
      </trkpt>
      <trkpt lat="46.26760333" lon="17.718075">
        <ele>263.4</ele>
        <time>2025-07-24T15:37:58Z</time>
      </trkpt>
      <trkpt lat="46.267575" lon="17.71820833">
        <ele>261.4</ele>
        <time>2025-07-24T15:38:06Z</time>
      </trkpt>
      <trkpt lat="46.26752333" lon="17.718315">
        <ele>259.3</ele>
        <time>2025-07-24T15:38:12Z</time>
      </trkpt>
      <trkpt lat="46.26747333" lon="17.71842833">
        <ele>257</ele>
        <time>2025-07-24T15:38:19Z</time>
      </trkpt>
      <trkpt lat="46.26743" lon="17.71854333">
        <ele>255</ele>
        <time>2025-07-24T15:38:27Z</time>
      </trkpt>
      <trkpt lat="46.26739167" lon="17.71866667">
        <ele>254.4</ele>
        <time>2025-07-24T15:38:35Z</time>
      </trkpt>
      <trkpt lat="46.26735167" lon="17.71878333">
        <ele>253.9</ele>
        <time>2025-07-24T15:38:42Z</time>
      </trkpt>
      <trkpt lat="46.26731333" lon="17.718905">
        <ele>252.8</ele>
        <time>2025-07-24T15:38:50Z</time>
      </trkpt>
      <trkpt lat="46.26728" lon="17.71902667">
        <ele>252.9</ele>
        <time>2025-07-24T15:38:56Z</time>
      </trkpt>
      <trkpt lat="46.26724833" lon="17.71915">
        <ele>254.8</ele>
        <time>2025-07-24T15:39:01Z</time>
      </trkpt>
      <trkpt lat="46.26723333" lon="17.71928333">
        <ele>255.1</ele>
        <time>2025-07-24T15:39:09Z</time>
      </trkpt>
      <trkpt lat="46.26720833" lon="17.71941833">
        <ele>254</ele>
        <time>2025-07-24T15:39:16Z</time>
      </trkpt>
      <trkpt lat="46.2672" lon="17.71956333">
        <ele>252.2</ele>
        <time>2025-07-24T15:39:24Z</time>
      </trkpt>
      <trkpt lat="46.26723167" lon="17.719705">
        <ele>250.3</ele>
        <time>2025-07-24T15:39:33Z</time>
      </trkpt>
      <trkpt lat="46.26725833" lon="17.71983167">
        <ele>247.7</ele>
        <time>2025-07-24T15:39:40Z</time>
      </trkpt>
      <trkpt lat="46.26727" lon="17.71997667">
        <ele>245.1</ele>
        <time>2025-07-24T15:39:49Z</time>
      </trkpt>
      <trkpt lat="46.26728" lon="17.720115">
        <ele>244.7</ele>
        <time>2025-07-24T15:39:58Z</time>
      </trkpt>
      <trkpt lat="46.26733" lon="17.72022667">
        <ele>244.8</ele>
        <time>2025-07-24T15:40:06Z</time>
      </trkpt>
      <trkpt lat="46.26737667" lon="17.72035667">
        <ele>243.5</ele>
        <time>2025-07-24T15:40:15Z</time>
      </trkpt>
      <trkpt lat="46.26743" lon="17.720465">
        <ele>240.5</ele>
        <time>2025-07-24T15:40:24Z</time>
      </trkpt>
      <trkpt lat="46.267485" lon="17.72058167">
        <ele>238.1</ele>
        <time>2025-07-24T15:40:33Z</time>
      </trkpt>
      <trkpt lat="46.26751667" lon="17.72070333">
        <ele>237.7</ele>
        <time>2025-07-24T15:40:40Z</time>
      </trkpt>
      <trkpt lat="46.26756167" lon="17.72085">
        <ele>265.4</ele>
        <time>2025-07-24T15:40:43Z</time>
      </trkpt>
      <trkpt lat="46.26759" lon="17.720975">
        <ele>252.6</ele>
        <time>2025-07-24T15:40:52Z</time>
      </trkpt>
      <trkpt lat="46.267605" lon="17.721105">
        <ele>243.6</ele>
        <time>2025-07-24T15:41:03Z</time>
      </trkpt>
      <trkpt lat="46.26765167" lon="17.721225">
        <ele>241.1</ele>
        <time>2025-07-24T15:41:09Z</time>
      </trkpt>
      <trkpt lat="46.26770167" lon="17.72134333">
        <ele>236.3</ele>
        <time>2025-07-24T15:41:18Z</time>
      </trkpt>
      <trkpt lat="46.26771333" lon="17.72149167">
        <ele>234.2</ele>
        <time>2025-07-24T15:41:26Z</time>
      </trkpt>
      <trkpt lat="46.26775333" lon="17.72161167">
        <ele>233.8</ele>
        <time>2025-07-24T15:41:32Z</time>
      </trkpt>
      <trkpt lat="46.26777667" lon="17.72177833">
        <ele>233.5</ele>
        <time>2025-07-24T15:41:43Z</time>
      </trkpt>
      <trkpt lat="46.26778333" lon="17.72190833">
        <ele>232.5</ele>
        <time>2025-07-24T15:41:50Z</time>
      </trkpt>
      <trkpt lat="46.267785" lon="17.72203833">
        <ele>228.9</ele>
        <time>2025-07-24T15:41:57Z</time>
      </trkpt>
      <trkpt lat="46.26776667" lon="17.72217">
        <ele>223.7</ele>
        <time>2025-07-24T15:42:07Z</time>
      </trkpt>
      <trkpt lat="46.26777333" lon="17.722305">
        <ele>223.4</ele>
        <time>2025-07-24T15:42:13Z</time>
      </trkpt>
      <trkpt lat="46.26779167" lon="17.72243833">
        <ele>221.1</ele>
        <time>2025-07-24T15:42:22Z</time>
      </trkpt>
      <trkpt lat="46.2678" lon="17.72257167">
        <ele>217.8</ele>
        <time>2025-07-24T15:42:31Z</time>
      </trkpt>
      <trkpt lat="46.26778833" lon="17.72272">
        <ele>216</ele>
        <time>2025-07-24T15:42:45Z</time>
      </trkpt>
      <trkpt lat="46.267825" lon="17.72285333">
        <ele>215.2</ele>
        <time>2025-07-24T15:42:53Z</time>
      </trkpt>
      <trkpt lat="46.267885" lon="17.72296167">
        <ele>214.7</ele>
        <time>2025-07-24T15:43:09Z</time>
      </trkpt>
      <trkpt lat="46.26797667" lon="17.72297333">
        <ele>215.3</ele>
        <time>2025-07-24T15:43:17Z</time>
      </trkpt>
      <trkpt lat="46.26802" lon="17.7231">
        <ele>216.5</ele>
        <time>2025-07-24T15:43:27Z</time>
      </trkpt>
      <trkpt lat="46.26810667" lon="17.72302833">
        <ele>218.9</ele>
        <time>2025-07-24T15:44:13Z</time>
      </trkpt>
      <trkpt lat="46.26820333" lon="17.72301833">
        <ele>217.8</ele>
        <time>2025-07-24T15:44:21Z</time>
      </trkpt>
      <trkpt lat="46.268295" lon="17.723015">
        <ele>216.4</ele>
        <time>2025-07-24T15:44:29Z</time>
      </trkpt>
      <trkpt lat="46.26839" lon="17.72302833">
        <ele>214.9</ele>
        <time>2025-07-24T15:44:37Z</time>
      </trkpt>
      <trkpt lat="46.26848167" lon="17.72302333">
        <ele>216.8</ele>
        <time>2025-07-24T15:44:45Z</time>
      </trkpt>
      <trkpt lat="46.26857667" lon="17.72302">
        <ele>217.6</ele>
        <time>2025-07-24T15:44:52Z</time>
      </trkpt>
      <trkpt lat="46.26866667" lon="17.72302667">
        <ele>218.7</ele>
        <time>2025-07-24T15:44:58Z</time>
      </trkpt>
      <trkpt lat="46.26876667" lon="17.72301167">
        <ele>221.2</ele>
        <time>2025-07-24T15:45:05Z</time>
      </trkpt>
      <trkpt lat="46.26886333" lon="17.72297833">
        <ele>218.2</ele>
        <time>2025-07-24T15:45:19Z</time>
      </trkpt>
      <trkpt lat="46.26896167" lon="17.72298167">
        <ele>218.5</ele>
        <time>2025-07-24T15:45:30Z</time>
      </trkpt>
      <trkpt lat="46.26905333" lon="17.722975">
        <ele>218.4</ele>
        <time>2025-07-24T15:45:36Z</time>
      </trkpt>
      <trkpt lat="46.26915" lon="17.722975">
        <ele>218</ele>
        <time>2025-07-24T15:45:45Z</time>
      </trkpt>
      <trkpt lat="46.26925" lon="17.722985">
        <ele>216.8</ele>
        <time>2025-07-24T15:45:53Z</time>
      </trkpt>
      <trkpt lat="46.26934333" lon="17.72298167">
        <ele>216.9</ele>
        <time>2025-07-24T15:46:00Z</time>
      </trkpt>
      <trkpt lat="46.269435" lon="17.722975">
        <ele>219.1</ele>
        <time>2025-07-24T15:46:09Z</time>
      </trkpt>
      <trkpt lat="46.26952667" lon="17.72296167">
        <ele>219.2</ele>
        <time>2025-07-24T15:46:15Z</time>
      </trkpt>
      <trkpt lat="46.26961667" lon="17.72294833">
        <ele>219.5</ele>
        <time>2025-07-24T15:46:24Z</time>
      </trkpt>
      <trkpt lat="46.26971333" lon="17.72292833">
        <ele>219.5</ele>
        <time>2025-07-24T15:46:32Z</time>
      </trkpt>
      <trkpt lat="46.26981" lon="17.72291833">
        <ele>218.7</ele>
        <time>2025-07-24T15:46:39Z</time>
      </trkpt>
      <trkpt lat="46.26990333" lon="17.72292833">
        <ele>216.4</ele>
        <time>2025-07-24T15:46:47Z</time>
      </trkpt>
      <trkpt lat="46.27" lon="17.72291667">
        <ele>215.8</ele>
        <time>2025-07-24T15:46:55Z</time>
      </trkpt>
      <trkpt lat="46.27009" lon="17.722915">
        <ele>217.1</ele>
        <time>2025-07-24T15:47:03Z</time>
      </trkpt>
      <trkpt lat="46.27019" lon="17.72292">
        <ele>216</ele>
        <time>2025-07-24T15:47:12Z</time>
      </trkpt>
      <trkpt lat="46.27028" lon="17.72292167">
        <ele>217.8</ele>
        <time>2025-07-24T15:47:19Z</time>
      </trkpt>
      <trkpt lat="46.27037167" lon="17.72292833">
        <ele>216.6</ele>
        <time>2025-07-24T15:47:27Z</time>
      </trkpt>
      <trkpt lat="46.270375" lon="17.72306167">
        <ele>218.2</ele>
        <time>2025-07-24T15:48:18Z</time>
      </trkpt>
      <trkpt lat="46.27037833" lon="17.72319833">
        <ele>217.1</ele>
        <time>2025-07-24T15:48:27Z</time>
      </trkpt>
      <trkpt lat="46.27036333" lon="17.72335667">
        <ele>215.7</ele>
        <time>2025-07-24T15:48:43Z</time>
      </trkpt>
      <trkpt lat="46.270365" lon="17.72349833">
        <ele>215.2</ele>
        <time>2025-07-24T15:48:50Z</time>
      </trkpt>
      <trkpt lat="46.27036667" lon="17.72363833">
        <ele>213.3</ele>
        <time>2025-07-24T15:49:01Z</time>
      </trkpt>
      <trkpt lat="46.27037833" lon="17.72377667">
        <ele>211.5</ele>
        <time>2025-07-24T15:49:10Z</time>
      </trkpt>
      <trkpt lat="46.27038167" lon="17.723915">
        <ele>210.9</ele>
        <time>2025-07-24T15:49:17Z</time>
      </trkpt>
      <trkpt lat="46.27038833" lon="17.724065">
        <ele>209.5</ele>
        <time>2025-07-24T15:49:25Z</time>
      </trkpt>
      <trkpt lat="46.27039833" lon="17.724205">
        <ele>207.9</ele>
        <time>2025-07-24T15:49:32Z</time>
      </trkpt>
      <trkpt lat="46.27038667" lon="17.724335">
        <ele>204.6</ele>
        <time>2025-07-24T15:49:40Z</time>
      </trkpt>
      <trkpt lat="46.27038333" lon="17.72446833">
        <ele>204.1</ele>
        <time>2025-07-24T15:49:47Z</time>
      </trkpt>
      <trkpt lat="46.27039167" lon="17.72461">
        <ele>204.2</ele>
        <time>2025-07-24T15:49:53Z</time>
      </trkpt>
      <trkpt lat="46.2704" lon="17.72475167">
        <ele>204.3</ele>
        <time>2025-07-24T15:49:58Z</time>
      </trkpt>
      <trkpt lat="46.27040333" lon="17.72489">
        <ele>203.9</ele>
        <time>2025-07-24T15:50:05Z</time>
      </trkpt>
      <trkpt lat="46.27042333" lon="17.72503">
        <ele>204</ele>
        <time>2025-07-24T15:50:12Z</time>
      </trkpt>
      <trkpt lat="46.27042" lon="17.72517667">
        <ele>203.7</ele>
        <time>2025-07-24T15:50:19Z</time>
      </trkpt>
      <trkpt lat="46.27042167" lon="17.72530833">
        <ele>204.3</ele>
        <time>2025-07-24T15:50:46Z</time>
      </trkpt>
      <trkpt lat="46.27052" lon="17.72528167">
        <ele>202</ele>
        <time>2025-07-24T15:51:10Z</time>
      </trkpt>
      <trkpt lat="46.270635" lon="17.72525167">
        <ele>202.1</ele>
        <time>2025-07-24T15:51:20Z</time>
      </trkpt>
      <trkpt lat="46.27068" lon="17.72537667">
        <ele>202.5</ele>
        <time>2025-07-24T15:51:27Z</time>
      </trkpt>
      <trkpt lat="46.27074333" lon="17.72549">
        <ele>204</ele>
        <time>2025-07-24T15:51:33Z</time>
      </trkpt>
      <trkpt lat="46.27083333" lon="17.72556667">
        <ele>204.5</ele>
        <time>2025-07-24T15:51:39Z</time>
      </trkpt>
      <trkpt lat="46.27091833" lon="17.72564333">
        <ele>203.6</ele>
        <time>2025-07-24T15:51:46Z</time>
      </trkpt>
      <trkpt lat="46.27084" lon="17.72555">
        <ele>202.3</ele>
        <time>2025-07-24T15:52:26Z</time>
      </trkpt>
      <trkpt lat="46.27072" lon="17.72544667">
        <ele>205.2</ele>
        <time>2025-07-24T15:52:35Z</time>
      </trkpt>
      <trkpt lat="46.27062833" lon="17.72539">
        <ele>205.3</ele>
        <time>2025-07-24T15:52:42Z</time>
      </trkpt>
      <trkpt lat="46.270535" lon="17.72533667">
        <ele>205.2</ele>
        <time>2025-07-24T15:52:47Z</time>
      </trkpt>
      <trkpt lat="46.270475" lon="17.725225">
        <ele>204.5</ele>
        <time>2025-07-24T15:52:53Z</time>
      </trkpt>
      <trkpt lat="46.27043833" lon="17.725105">
        <ele>205.1</ele>
        <time>2025-07-24T15:52:59Z</time>
      </trkpt>
      <trkpt lat="46.27043" lon="17.72496833">
        <ele>207.3</ele>
        <time>2025-07-24T15:53:05Z</time>
      </trkpt>
      <trkpt lat="46.27042" lon="17.72483833">
        <ele>208.4</ele>
        <time>2025-07-24T15:53:10Z</time>
      </trkpt>
      <trkpt lat="46.27041833" lon="17.724705">
        <ele>209.8</ele>
        <time>2025-07-24T15:53:16Z</time>
      </trkpt>
      <trkpt lat="46.27042333" lon="17.72457333">
        <ele>210</ele>
        <time>2025-07-24T15:53:25Z</time>
      </trkpt>
      <trkpt lat="46.27041667" lon="17.72444">
        <ele>208.8</ele>
        <time>2025-07-24T15:53:33Z</time>
      </trkpt>
      <trkpt lat="46.27041167" lon="17.72430667">
        <ele>207.3</ele>
        <time>2025-07-24T15:53:41Z</time>
      </trkpt>
      <trkpt lat="46.27040667" lon="17.724165">
        <ele>206.9</ele>
        <time>2025-07-24T15:53:48Z</time>
      </trkpt>
      <trkpt lat="46.27040833" lon="17.72400667">
        <ele>207.9</ele>
        <time>2025-07-24T15:53:54Z</time>
      </trkpt>
      <trkpt lat="46.270375" lon="17.72387">
        <ele>208.2</ele>
        <time>2025-07-24T15:53:59Z</time>
      </trkpt>
      <trkpt lat="46.27038667" lon="17.72372">
        <ele>208</ele>
        <time>2025-07-24T15:54:07Z</time>
      </trkpt>
      <trkpt lat="46.270405" lon="17.72356833">
        <ele>209.3</ele>
        <time>2025-07-24T15:54:14Z</time>
      </trkpt>
      <trkpt lat="46.2704" lon="17.72343833">
        <ele>209.8</ele>
        <time>2025-07-24T15:54:18Z</time>
      </trkpt>
      <trkpt lat="46.27037667" lon="17.723285">
        <ele>209.9</ele>
        <time>2025-07-24T15:54:24Z</time>
      </trkpt>
      <trkpt lat="46.27037333" lon="17.72315">
        <ele>211.2</ele>
        <time>2025-07-24T15:54:29Z</time>
      </trkpt>
      <trkpt lat="46.27041667" lon="17.72301833">
        <ele>213.8</ele>
        <time>2025-07-24T15:54:34Z</time>
      </trkpt>
      <trkpt lat="46.27048667" lon="17.72292833">
        <ele>216.1</ele>
        <time>2025-07-24T15:54:39Z</time>
      </trkpt>
      <trkpt lat="46.27058" lon="17.72290167">
        <ele>217.3</ele>
        <time>2025-07-24T15:54:45Z</time>
      </trkpt>
      <trkpt lat="46.27067" lon="17.72289167">
        <ele>219.3</ele>
        <time>2025-07-24T15:54:51Z</time>
      </trkpt>
      <trkpt lat="46.270765" lon="17.72290167">
        <ele>218.7</ele>
        <time>2025-07-24T15:54:57Z</time>
      </trkpt>
      <trkpt lat="46.27087" lon="17.72289167">
        <ele>219.1</ele>
        <time>2025-07-24T15:55:11Z</time>
      </trkpt>
      <trkpt lat="46.27097167" lon="17.72287333">
        <ele>218.9</ele>
        <time>2025-07-24T15:55:18Z</time>
      </trkpt>
      <trkpt lat="46.27106833" lon="17.72287333">
        <ele>218.6</ele>
        <time>2025-07-24T15:55:23Z</time>
      </trkpt>
      <trkpt lat="46.27115833" lon="17.72284667">
        <ele>219.1</ele>
        <time>2025-07-24T15:55:28Z</time>
      </trkpt>
      <trkpt lat="46.27124833" lon="17.722825">
        <ele>220.1</ele>
        <time>2025-07-24T15:55:34Z</time>
      </trkpt>
      <trkpt lat="46.27133833" lon="17.72284667">
        <ele>219.5</ele>
        <time>2025-07-24T15:55:40Z</time>
      </trkpt>
      <trkpt lat="46.27143167" lon="17.72284667">
        <ele>220.7</ele>
        <time>2025-07-24T15:55:46Z</time>
      </trkpt>
      <trkpt lat="46.27153167" lon="17.72282167">
        <ele>223.2</ele>
        <time>2025-07-24T15:55:57Z</time>
      </trkpt>
      <trkpt lat="46.27162833" lon="17.72284">
        <ele>223.8</ele>
        <time>2025-07-24T15:56:03Z</time>
      </trkpt>
      <trkpt lat="46.271725" lon="17.722835">
        <ele>224.4</ele>
        <time>2025-07-24T15:56:09Z</time>
      </trkpt>
      <trkpt lat="46.27183" lon="17.72286833">
        <ele>221.4</ele>
        <time>2025-07-24T15:56:17Z</time>
      </trkpt>
    </trkseg>
  </trk>
</gpx>