<?xml version='1.0' encoding='UTF-8' standalone='yes' ?>
<gpx xmlns="http://www.topografix.com/GPX/1/1" xmlns:geotracker="http://ilyabogdanovich.com/gpx/extensions/geotracker" xmlns:xsi="http://www.w3.org/2001/XMLSchema-instance" xsi:schemaLocation="http://www.topografix.com/GPX/1/1 http://www.topografix.com/GPX/1/1/gpx.xsd" version="1.1" creator="Recorded in Geo Tracker for Android from Ilya Bogdanovich">
  <metadata>
    <name>w_0712_10</name>
    <author>
      <name>Recorded in Geo Tracker for Android from Ilya Bogdanovich</name>
      <link href="https://play.google.com/store/apps/details?id=com.ilyabogdanovich.geotracker" />
    </author>
    <link href="https://play.google.com/store/apps/details?id=com.ilyabogdanovich.geotracker" />
    <time>2025-07-12T18:40:25Z</time>
  </metadata>
  <wpt lat="47.32305667" lon="17.473165">
    <ele>186.1</ele>
    <time>2025-07-12T18:53:21Z</time>
    <name>Stop for ~10 min</name>
    <desc>Elevation: 186 m
Time from start: 00:12:55
Distance from start: 1,08 km</desc>
    <extensions>
      <geotracker:meta visited="1" />
    </extensions>
  </wpt>
  <trk>
    <name>w_0712_10</name>
    <src>Recorded in Geo Tracker for Android from Ilya Bogdanovich</src>
    <link href="https://play.google.com/store/apps/details?id=com.ilyabogdanovich.geotracker" />
    <extensions>
      <geotracker:meta>
        <geotracker:length>2539.12</geotracker:length>
        <geotracker:duration>2541530</geotracker:duration>
        <geotracker:creationtime>2025-07-12T18:40:25Z</geotracker:creationtime>
        <geotracker:activity>0</geotracker:activity>
      </geotracker:meta>
    </extensions>
    <trkseg>
      <trkpt lat="47.32861667" lon="17.46718167">
        <ele>197.4</ele>
        <time>2025-07-12T18:40:37Z</time>
      </trkpt>
      <trkpt lat="47.32856667" lon="17.46731167">
        <ele>197.3</ele>
        <time>2025-07-12T18:40:48Z</time>
      </trkpt>
      <trkpt lat="47.328475" lon="17.46733667">
        <ele>195.8</ele>
        <time>2025-07-12T18:40:58Z</time>
      </trkpt>
      <trkpt lat="47.32842" lon="17.46745833">
        <ele>194.2</ele>
        <time>2025-07-12T18:41:06Z</time>
      </trkpt>
      <trkpt lat="47.32836667" lon="17.46757333">
        <ele>192.3</ele>
        <time>2025-07-12T18:41:14Z</time>
      </trkpt>
      <trkpt lat="47.3283" lon="17.46767667">
        <ele>188.7</ele>
        <time>2025-07-12T18:41:21Z</time>
      </trkpt>
      <trkpt lat="47.3282" lon="17.46773333">
        <ele>186.1</ele>
        <time>2025-07-12T18:41:28Z</time>
      </trkpt>
      <trkpt lat="47.328135" lon="17.46782667">
        <ele>185.1</ele>
        <time>2025-07-12T18:41:34Z</time>
      </trkpt>
      <trkpt lat="47.32806167" lon="17.467915">
        <ele>184.3</ele>
        <time>2025-07-12T18:41:40Z</time>
      </trkpt>
      <trkpt lat="47.32799833" lon="17.46801667">
        <ele>184</ele>
        <time>2025-07-12T18:41:47Z</time>
      </trkpt>
      <trkpt lat="47.32794333" lon="17.468135">
        <ele>184.1</ele>
        <time>2025-07-12T18:41:53Z</time>
      </trkpt>
      <trkpt lat="47.32788333" lon="17.46827333">
        <ele>186</ele>
        <time>2025-07-12T18:42:03Z</time>
      </trkpt>
      <trkpt lat="47.32783833" lon="17.46841">
        <ele>189.6</ele>
        <time>2025-07-12T18:42:07Z</time>
      </trkpt>
      <trkpt lat="47.32782833" lon="17.46855333">
        <ele>192.6</ele>
        <time>2025-07-12T18:42:12Z</time>
      </trkpt>
      <trkpt lat="47.327815" lon="17.46869333">
        <ele>192.8</ele>
        <time>2025-07-12T18:42:21Z</time>
      </trkpt>
      <trkpt lat="47.32781833" lon="17.46884833">
        <ele>194.8</ele>
        <time>2025-07-12T18:42:29Z</time>
      </trkpt>
      <trkpt lat="47.327815" lon="17.46899167">
        <ele>196.8</ele>
        <time>2025-07-12T18:42:36Z</time>
      </trkpt>
      <trkpt lat="47.32781" lon="17.46913833">
        <ele>197.7</ele>
        <time>2025-07-12T18:42:44Z</time>
      </trkpt>
      <trkpt lat="47.32783333" lon="17.46927667">
        <ele>197.7</ele>
        <time>2025-07-12T18:42:51Z</time>
      </trkpt>
      <trkpt lat="47.327905" lon="17.46938667">
        <ele>197.5</ele>
        <time>2025-07-12T18:42:58Z</time>
      </trkpt>
      <trkpt lat="47.327975" lon="17.469485">
        <ele>197.1</ele>
        <time>2025-07-12T18:43:03Z</time>
      </trkpt>
      <trkpt lat="47.32801833" lon="17.46961">
        <ele>196.4</ele>
        <time>2025-07-12T18:43:08Z</time>
      </trkpt>
      <trkpt lat="47.32804167" lon="17.46974833">
        <ele>196.7</ele>
        <time>2025-07-12T18:43:13Z</time>
      </trkpt>
      <trkpt lat="47.327965" lon="17.46985667">
        <ele>194.5</ele>
        <time>2025-07-12T18:43:20Z</time>
      </trkpt>
      <trkpt lat="47.32787667" lon="17.46988833">
        <ele>190.5</ele>
        <time>2025-07-12T18:43:27Z</time>
      </trkpt>
      <trkpt lat="47.32777833" lon="17.46993333">
        <ele>187.1</ele>
        <time>2025-07-12T18:43:35Z</time>
      </trkpt>
      <trkpt lat="47.32769333" lon="17.47000667">
        <ele>186</ele>
        <time>2025-07-12T18:43:41Z</time>
      </trkpt>
      <trkpt lat="47.32760167" lon="17.47006167">
        <ele>182.9</ele>
        <time>2025-07-12T18:43:50Z</time>
      </trkpt>
      <trkpt lat="47.32753833" lon="17.47015667">
        <ele>182.4</ele>
        <time>2025-07-12T18:43:55Z</time>
      </trkpt>
      <trkpt lat="47.32745333" lon="17.470265">
        <ele>179.6</ele>
        <time>2025-07-12T18:44:03Z</time>
      </trkpt>
      <trkpt lat="47.32736333" lon="17.47031167">
        <ele>177.9</ele>
        <time>2025-07-12T18:44:10Z</time>
      </trkpt>
      <trkpt lat="47.327275" lon="17.47036833">
        <ele>175.1</ele>
        <time>2025-07-12T18:44:20Z</time>
      </trkpt>
      <trkpt lat="47.32718667" lon="17.47040667">
        <ele>173.9</ele>
        <time>2025-07-12T18:44:27Z</time>
      </trkpt>
      <trkpt lat="47.32710167" lon="17.470475">
        <ele>172.9</ele>
        <time>2025-07-12T18:44:33Z</time>
      </trkpt>
      <trkpt lat="47.327025" lon="17.470555">
        <ele>172.1</ele>
        <time>2025-07-12T18:44:39Z</time>
      </trkpt>
      <trkpt lat="47.32694667" lon="17.47062833">
        <ele>172.3</ele>
        <time>2025-07-12T18:44:45Z</time>
      </trkpt>
      <trkpt lat="47.326865" lon="17.470705">
        <ele>172.9</ele>
        <time>2025-07-12T18:44:50Z</time>
      </trkpt>
      <trkpt lat="47.32678667" lon="17.47080333">
        <ele>173.2</ele>
        <time>2025-07-12T18:44:58Z</time>
      </trkpt>
      <trkpt lat="47.32671333" lon="17.47090333">
        <ele>172.9</ele>
        <time>2025-07-12T18:45:04Z</time>
      </trkpt>
      <trkpt lat="47.32664167" lon="17.47100167">
        <ele>175</ele>
        <time>2025-07-12T18:45:08Z</time>
      </trkpt>
      <trkpt lat="47.32657667" lon="17.47112333">
        <ele>177.9</ele>
        <time>2025-07-12T18:45:13Z</time>
      </trkpt>
      <trkpt lat="47.326485" lon="17.47122">
        <ele>180</ele>
        <time>2025-07-12T18:45:21Z</time>
      </trkpt>
      <trkpt lat="47.32642167" lon="17.47131667">
        <ele>181.3</ele>
        <time>2025-07-12T18:45:27Z</time>
      </trkpt>
      <trkpt lat="47.32638167" lon="17.47162667">
        <ele>201.5</ele>
        <time>2025-07-12T18:45:28Z</time>
      </trkpt>
      <trkpt lat="47.32629833" lon="17.471695">
        <ele>201.5</ele>
        <time>2025-07-12T18:45:32Z</time>
      </trkpt>
      <trkpt lat="47.32620167" lon="17.47171667">
        <ele>201</ele>
        <time>2025-07-12T18:45:39Z</time>
      </trkpt>
      <trkpt lat="47.326105" lon="17.471765">
        <ele>198.5</ele>
        <time>2025-07-12T18:45:48Z</time>
      </trkpt>
      <trkpt lat="47.32603" lon="17.47184">
        <ele>196.8</ele>
        <time>2025-07-12T18:45:53Z</time>
      </trkpt>
      <trkpt lat="47.32594333" lon="17.47188167">
        <ele>196.4</ele>
        <time>2025-07-12T18:45:59Z</time>
      </trkpt>
      <trkpt lat="47.32585167" lon="17.47190833">
        <ele>193.2</ele>
        <time>2025-07-12T18:46:08Z</time>
      </trkpt>
      <trkpt lat="47.32579833" lon="17.472015">
        <ele>192.2</ele>
        <time>2025-07-12T18:46:13Z</time>
      </trkpt>
      <trkpt lat="47.32571833" lon="17.47208167">
        <ele>191.2</ele>
        <time>2025-07-12T18:46:19Z</time>
      </trkpt>
      <trkpt lat="47.32563" lon="17.47212333">
        <ele>189.9</ele>
        <time>2025-07-12T18:46:26Z</time>
      </trkpt>
      <trkpt lat="47.32555167" lon="17.47221">
        <ele>188.5</ele>
        <time>2025-07-12T18:46:32Z</time>
      </trkpt>
      <trkpt lat="47.32547333" lon="17.47231833">
        <ele>188.9</ele>
        <time>2025-07-12T18:46:38Z</time>
      </trkpt>
      <trkpt lat="47.32539833" lon="17.4724">
        <ele>187.6</ele>
        <time>2025-07-12T18:46:44Z</time>
      </trkpt>
      <trkpt lat="47.32532" lon="17.47249">
        <ele>187.9</ele>
        <time>2025-07-12T18:46:49Z</time>
      </trkpt>
      <trkpt lat="47.32522167" lon="17.472525">
        <ele>186.7</ele>
        <time>2025-07-12T18:46:57Z</time>
      </trkpt>
      <trkpt lat="47.32512833" lon="17.47257">
        <ele>184</ele>
        <time>2025-07-12T18:47:05Z</time>
      </trkpt>
      <trkpt lat="47.32503833" lon="17.47264833">
        <ele>182.6</ele>
        <time>2025-07-12T18:47:12Z</time>
      </trkpt>
      <trkpt lat="47.324965" lon="17.47272667">
        <ele>181</ele>
        <time>2025-07-12T18:47:21Z</time>
      </trkpt>
      <trkpt lat="47.32489" lon="17.472805">
        <ele>179.9</ele>
        <time>2025-07-12T18:47:26Z</time>
      </trkpt>
      <trkpt lat="47.32481167" lon="17.47287333">
        <ele>179.2</ele>
        <time>2025-07-12T18:47:31Z</time>
      </trkpt>
      <trkpt lat="47.32471833" lon="17.47292333">
        <ele>178.3</ele>
        <time>2025-07-12T18:47:38Z</time>
      </trkpt>
      <trkpt lat="47.324645" lon="17.473005">
        <ele>176.4</ele>
        <time>2025-07-12T18:47:44Z</time>
      </trkpt>
      <trkpt lat="47.32455333" lon="17.47305333">
        <ele>173.5</ele>
        <time>2025-07-12T18:47:53Z</time>
      </trkpt>
      <trkpt lat="47.32446" lon="17.47309333">
        <ele>171.3</ele>
        <time>2025-07-12T18:48:00Z</time>
      </trkpt>
      <trkpt lat="47.32438167" lon="17.47316167">
        <ele>170.3</ele>
        <time>2025-07-12T18:48:04Z</time>
      </trkpt>
      <trkpt lat="47.32430333" lon="17.47323333">
        <ele>169.9</ele>
        <time>2025-07-12T18:48:09Z</time>
      </trkpt>
      <trkpt lat="47.32423667" lon="17.47334">
        <ele>170.4</ele>
        <time>2025-07-12T18:48:16Z</time>
      </trkpt>
      <trkpt lat="47.32419167" lon="17.47345667">
        <ele>170.2</ele>
        <time>2025-07-12T18:48:21Z</time>
      </trkpt>
      <trkpt lat="47.32414" lon="17.473585">
        <ele>171.4</ele>
        <time>2025-07-12T18:48:25Z</time>
      </trkpt>
      <trkpt lat="47.32407333" lon="17.47369">
        <ele>173.9</ele>
        <time>2025-07-12T18:48:28Z</time>
      </trkpt>
      <trkpt lat="47.32401667" lon="17.47380333">
        <ele>176.6</ele>
        <time>2025-07-12T18:48:31Z</time>
      </trkpt>
      <trkpt lat="47.32396333" lon="17.47391">
        <ele>181.2</ele>
        <time>2025-07-12T18:48:35Z</time>
      </trkpt>
      <trkpt lat="47.323905" lon="17.47401167">
        <ele>184.6</ele>
        <time>2025-07-12T18:48:40Z</time>
      </trkpt>
      <trkpt lat="47.32382667" lon="17.47409">
        <ele>185.7</ele>
        <time>2025-07-12T18:48:46Z</time>
      </trkpt>
      <trkpt lat="47.32374" lon="17.47415333">
        <ele>186.5</ele>
        <time>2025-07-12T18:48:53Z</time>
      </trkpt>
      <trkpt lat="47.32367" lon="17.47425167">
        <ele>187.5</ele>
        <time>2025-07-12T18:48:58Z</time>
      </trkpt>
      <trkpt lat="47.32359833" lon="17.47433667">
        <ele>188.1</ele>
        <time>2025-07-12T18:49:04Z</time>
      </trkpt>
      <trkpt lat="47.32352333" lon="17.47443167">
        <ele>189.8</ele>
        <time>2025-07-12T18:49:10Z</time>
      </trkpt>
      <trkpt lat="47.32344833" lon="17.47453">
        <ele>189.2</ele>
        <time>2025-07-12T18:49:18Z</time>
      </trkpt>
      <trkpt lat="47.32334833" lon="17.474585">
        <ele>187.7</ele>
        <time>2025-07-12T18:49:27Z</time>
      </trkpt>
      <trkpt lat="47.32327167" lon="17.47470167">
        <ele>188.5</ele>
        <time>2025-07-12T18:49:36Z</time>
      </trkpt>
      <trkpt lat="47.32318167" lon="17.47471167">
        <ele>187.5</ele>
        <time>2025-07-12T18:49:40Z</time>
      </trkpt>
      <trkpt lat="47.32309167" lon="17.47469333">
        <ele>189.5</ele>
        <time>2025-07-12T18:49:46Z</time>
      </trkpt>
      <trkpt lat="47.32301833" lon="17.47459833">
        <ele>189.9</ele>
        <time>2025-07-12T18:49:52Z</time>
      </trkpt>
      <trkpt lat="47.32294167" lon="17.47450667">
        <ele>190.1</ele>
        <time>2025-07-12T18:49:57Z</time>
      </trkpt>
      <trkpt lat="47.32288" lon="17.4744">
        <ele>189.6</ele>
        <time>2025-07-12T18:50:03Z</time>
      </trkpt>
      <trkpt lat="47.322815" lon="17.47428333">
        <ele>189.1</ele>
        <time>2025-07-12T18:50:10Z</time>
      </trkpt>
      <trkpt lat="47.32276333" lon="17.47415833">
        <ele>189.9</ele>
        <time>2025-07-12T18:50:16Z</time>
      </trkpt>
      <trkpt lat="47.32275667" lon="17.47401833">
        <ele>188.4</ele>
        <time>2025-07-12T18:50:23Z</time>
      </trkpt>
      <trkpt lat="47.32271167" lon="17.47390333">
        <ele>183.6</ele>
        <time>2025-07-12T18:50:30Z</time>
      </trkpt>
      <trkpt lat="47.32270333" lon="17.47376333">
        <ele>179.9</ele>
        <time>2025-07-12T18:50:38Z</time>
      </trkpt>
      <trkpt lat="47.32279" lon="17.47362">
        <ele>181.8</ele>
        <time>2025-07-12T18:51:12Z</time>
      </trkpt>
      <trkpt lat="47.32285" lon="17.47350667">
        <ele>186.6</ele>
        <time>2025-07-12T18:52:47Z</time>
      </trkpt>
      <trkpt lat="47.32294667" lon="17.47338">
        <ele>186.6</ele>
        <time>2025-07-12T18:53:00Z</time>
      </trkpt>
      <trkpt lat="47.323015" lon="17.47328667">
        <ele>186</ele>
        <time>2025-07-12T18:53:07Z</time>
      </trkpt>
      <trkpt lat="47.32305667" lon="17.473165">
        <ele>186.1</ele>
        <time>2025-07-12T18:53:21Z</time>
      </trkpt>
      <trkpt lat="47.32309833" lon="17.47332">
        <ele>190.2</ele>
        <time>2025-07-12T18:55:35Z</time>
      </trkpt>
      <trkpt lat="47.32313" lon="17.47318">
        <ele>193</ele>
        <time>2025-07-12T18:56:27Z</time>
      </trkpt>
      <trkpt lat="47.32306333" lon="17.47327333">
        <ele>192.4</ele>
        <time>2025-07-12T18:56:42Z</time>
      </trkpt>
      <trkpt lat="47.32297667" lon="17.473375">
        <ele>187.4</ele>
        <time>2025-07-12T18:57:12Z</time>
      </trkpt>
      <trkpt lat="47.32288167" lon="17.47347333">
        <ele>194</ele>
        <time>2025-07-12T18:58:33Z</time>
      </trkpt>
      <trkpt lat="47.32282" lon="17.47357833">
        <ele>194.4</ele>
        <time>2025-07-12T18:58:52Z</time>
      </trkpt>
      <trkpt lat="47.32285167" lon="17.47370667">
        <ele>192.6</ele>
        <time>2025-07-12T18:59:48Z</time>
      </trkpt>
      <trkpt lat="47.32285833" lon="17.47370667">
        <ele>196.5</ele>
        <time>2025-07-12T19:01:49Z</time>
      </trkpt>
      <trkpt lat="47.32279" lon="17.47371">
        <ele>190.3</ele>
        <time>2025-07-12T19:03:54Z</time>
      </trkpt>
      <trkpt lat="47.32269667" lon="17.47370833">
        <ele>187.9</ele>
        <time>2025-07-12T19:04:09Z</time>
      </trkpt>
      <trkpt lat="47.32267" lon="17.47357">
        <ele>187.7</ele>
        <time>2025-07-12T19:04:20Z</time>
      </trkpt>
      <trkpt lat="47.32262333" lon="17.4737">
        <ele>187.1</ele>
        <time>2025-07-12T19:05:44Z</time>
      </trkpt>
      <trkpt lat="47.32262667" lon="17.47383333">
        <ele>188.6</ele>
        <time>2025-07-12T19:05:50Z</time>
      </trkpt>
      <trkpt lat="47.32265" lon="17.47398333">
        <ele>187.9</ele>
        <time>2025-07-12T19:05:58Z</time>
      </trkpt>
      <trkpt lat="47.32269667" lon="17.47409667">
        <ele>188.9</ele>
        <time>2025-07-12T19:06:05Z</time>
      </trkpt>
      <trkpt lat="47.32275167" lon="17.47420333">
        <ele>189.8</ele>
        <time>2025-07-12T19:06:11Z</time>
      </trkpt>
      <trkpt lat="47.32280333" lon="17.47432833">
        <ele>190.5</ele>
        <time>2025-07-12T19:06:17Z</time>
      </trkpt>
      <trkpt lat="47.32287667" lon="17.47443667">
        <ele>191.2</ele>
        <time>2025-07-12T19:06:24Z</time>
      </trkpt>
      <trkpt lat="47.322955" lon="17.47450667">
        <ele>192.1</ele>
        <time>2025-07-12T19:06:31Z</time>
      </trkpt>
      <trkpt lat="47.323025" lon="17.47460833">
        <ele>193.3</ele>
        <time>2025-07-12T19:06:38Z</time>
      </trkpt>
      <trkpt lat="47.32308167" lon="17.47472">
        <ele>192</ele>
        <time>2025-07-12T19:06:44Z</time>
      </trkpt>
      <trkpt lat="47.32315333" lon="17.47480833">
        <ele>190.5</ele>
        <time>2025-07-12T19:06:51Z</time>
      </trkpt>
      <trkpt lat="47.32320833" lon="17.47492333">
        <ele>189.4</ele>
        <time>2025-07-12T19:06:59Z</time>
      </trkpt>
      <trkpt lat="47.32329667" lon="17.47497167">
        <ele>190.1</ele>
        <time>2025-07-12T19:07:05Z</time>
      </trkpt>
      <trkpt lat="47.32339" lon="17.47496333">
        <ele>190.9</ele>
        <time>2025-07-12T19:07:11Z</time>
      </trkpt>
      <trkpt lat="47.32347333" lon="17.47489333">
        <ele>189.5</ele>
        <time>2025-07-12T19:07:18Z</time>
      </trkpt>
      <trkpt lat="47.32356167" lon="17.47486">
        <ele>187.2</ele>
        <time>2025-07-12T19:07:25Z</time>
      </trkpt>
      <trkpt lat="47.32363667" lon="17.47476">
        <ele>187</ele>
        <time>2025-07-12T19:07:34Z</time>
      </trkpt>
      <trkpt lat="47.32369333" lon="17.47465333">
        <ele>187.1</ele>
        <time>2025-07-12T19:07:40Z</time>
      </trkpt>
      <trkpt lat="47.32378333" lon="17.47460667">
        <ele>184.9</ele>
        <time>2025-07-12T19:07:48Z</time>
      </trkpt>
      <trkpt lat="47.32383833" lon="17.47448167">
        <ele>184.2</ele>
        <time>2025-07-12T19:07:55Z</time>
      </trkpt>
      <trkpt lat="47.32392" lon="17.47440833">
        <ele>185</ele>
        <time>2025-07-12T19:08:03Z</time>
      </trkpt>
      <trkpt lat="47.32401667" lon="17.47440333">
        <ele>184</ele>
        <time>2025-07-12T19:08:10Z</time>
      </trkpt>
      <trkpt lat="47.32408333" lon="17.47431333">
        <ele>182.3</ele>
        <time>2025-07-12T19:08:16Z</time>
      </trkpt>
      <trkpt lat="47.32413667" lon="17.47419667">
        <ele>182</ele>
        <time>2025-07-12T19:08:22Z</time>
      </trkpt>
      <trkpt lat="47.32422333" lon="17.47411167">
        <ele>182.6</ele>
        <time>2025-07-12T19:08:29Z</time>
      </trkpt>
      <trkpt lat="47.32429167" lon="17.474025">
        <ele>182.5</ele>
        <time>2025-07-12T19:08:35Z</time>
      </trkpt>
      <trkpt lat="47.32436833" lon="17.47393333">
        <ele>181.5</ele>
        <time>2025-07-12T19:08:42Z</time>
      </trkpt>
      <trkpt lat="47.32440333" lon="17.4738">
        <ele>181.6</ele>
        <time>2025-07-12T19:08:47Z</time>
      </trkpt>
      <trkpt lat="47.32449" lon="17.47372">
        <ele>183.8</ele>
        <time>2025-07-12T19:08:54Z</time>
      </trkpt>
      <trkpt lat="47.32458" lon="17.47366667">
        <ele>183.2</ele>
        <time>2025-07-12T19:09:01Z</time>
      </trkpt>
      <trkpt lat="47.324655" lon="17.47358667">
        <ele>181.7</ele>
        <time>2025-07-12T19:09:08Z</time>
      </trkpt>
      <trkpt lat="47.324725" lon="17.473485">
        <ele>181.1</ele>
        <time>2025-07-12T19:09:14Z</time>
      </trkpt>
      <trkpt lat="47.32479667" lon="17.473385">
        <ele>181.9</ele>
        <time>2025-07-12T19:09:20Z</time>
      </trkpt>
      <trkpt lat="47.32488" lon="17.473325">
        <ele>183.1</ele>
        <time>2025-07-12T19:09:27Z</time>
      </trkpt>
      <trkpt lat="47.32493333" lon="17.47321">
        <ele>185.3</ele>
        <time>2025-07-12T19:09:33Z</time>
      </trkpt>
      <trkpt lat="47.32500333" lon="17.47311667">
        <ele>185.6</ele>
        <time>2025-07-12T19:09:39Z</time>
      </trkpt>
      <trkpt lat="47.32509167" lon="17.47304333">
        <ele>186.5</ele>
        <time>2025-07-12T19:09:45Z</time>
      </trkpt>
      <trkpt lat="47.325195" lon="17.47301333">
        <ele>187.8</ele>
        <time>2025-07-12T19:09:52Z</time>
      </trkpt>
      <trkpt lat="47.325245" lon="17.47289333">
        <ele>190.6</ele>
        <time>2025-07-12T19:09:59Z</time>
      </trkpt>
      <trkpt lat="47.3253" lon="17.47276667">
        <ele>192.5</ele>
        <time>2025-07-12T19:10:05Z</time>
      </trkpt>
      <trkpt lat="47.32537667" lon="17.47268333">
        <ele>192.7</ele>
        <time>2025-07-12T19:10:12Z</time>
      </trkpt>
      <trkpt lat="47.32546167" lon="17.472625">
        <ele>193.6</ele>
        <time>2025-07-12T19:10:20Z</time>
      </trkpt>
      <trkpt lat="47.32555" lon="17.472585">
        <ele>191.6</ele>
        <time>2025-07-12T19:10:26Z</time>
      </trkpt>
      <trkpt lat="47.32565333" lon="17.47256833">
        <ele>189.5</ele>
        <time>2025-07-12T19:10:33Z</time>
      </trkpt>
      <trkpt lat="47.32573833" lon="17.47249833">
        <ele>187</ele>
        <time>2025-07-12T19:10:40Z</time>
      </trkpt>
      <trkpt lat="47.32578667" lon="17.47236333">
        <ele>185.8</ele>
        <time>2025-07-12T19:10:45Z</time>
      </trkpt>
      <trkpt lat="47.325845" lon="17.47226">
        <ele>186.7</ele>
        <time>2025-07-12T19:10:52Z</time>
      </trkpt>
      <trkpt lat="47.32589667" lon="17.472145">
        <ele>188.3</ele>
        <time>2025-07-12T19:11:00Z</time>
      </trkpt>
      <trkpt lat="47.32598167" lon="17.47209">
        <ele>189.2</ele>
        <time>2025-07-12T19:11:06Z</time>
      </trkpt>
      <trkpt lat="47.32607333" lon="17.47208333">
        <ele>189.7</ele>
        <time>2025-07-12T19:11:11Z</time>
      </trkpt>
      <trkpt lat="47.32614833" lon="17.472">
        <ele>190.1</ele>
        <time>2025-07-12T19:11:18Z</time>
      </trkpt>
      <trkpt lat="47.326215" lon="17.47189833">
        <ele>192</ele>
        <time>2025-07-12T19:11:23Z</time>
      </trkpt>
      <trkpt lat="47.32629833" lon="17.47182333">
        <ele>193.8</ele>
        <time>2025-07-12T19:11:28Z</time>
      </trkpt>
      <trkpt lat="47.32638667" lon="17.47175833">
        <ele>194.5</ele>
        <time>2025-07-12T19:11:36Z</time>
      </trkpt>
      <trkpt lat="47.32644833" lon="17.47163167">
        <ele>193.2</ele>
        <time>2025-07-12T19:11:45Z</time>
      </trkpt>
      <trkpt lat="47.32652167" lon="17.47155167">
        <ele>192.5</ele>
        <time>2025-07-12T19:11:51Z</time>
      </trkpt>
      <trkpt lat="47.32658833" lon="17.47144167">
        <ele>193.4</ele>
        <time>2025-07-12T19:11:56Z</time>
      </trkpt>
      <trkpt lat="47.326635" lon="17.47131667">
        <ele>195.1</ele>
        <time>2025-07-12T19:12:03Z</time>
      </trkpt>
      <trkpt lat="47.32672667" lon="17.47127667">
        <ele>194.9</ele>
        <time>2025-07-12T19:12:10Z</time>
      </trkpt>
      <trkpt lat="47.32680333" lon="17.47119167">
        <ele>195</ele>
        <time>2025-07-12T19:12:18Z</time>
      </trkpt>
      <trkpt lat="47.326885" lon="17.47111833">
        <ele>195</ele>
        <time>2025-07-12T19:12:23Z</time>
      </trkpt>
      <trkpt lat="47.326985" lon="17.47107333">
        <ele>195.4</ele>
        <time>2025-07-12T19:12:29Z</time>
      </trkpt>
      <trkpt lat="47.32707833" lon="17.47103333">
        <ele>192.9</ele>
        <time>2025-07-12T19:12:36Z</time>
      </trkpt>
      <trkpt lat="47.32717333" lon="17.47099">
        <ele>189.3</ele>
        <time>2025-07-12T19:12:44Z</time>
      </trkpt>
      <trkpt lat="47.32725833" lon="17.47093833">
        <ele>185.3</ele>
        <time>2025-07-12T19:12:52Z</time>
      </trkpt>
      <trkpt lat="47.32735" lon="17.47088333">
        <ele>182.5</ele>
        <time>2025-07-12T19:12:59Z</time>
      </trkpt>
      <trkpt lat="47.32743833" lon="17.47084">
        <ele>180.9</ele>
        <time>2025-07-12T19:13:06Z</time>
      </trkpt>
      <trkpt lat="47.32752" lon="17.470755">
        <ele>180.3</ele>
        <time>2025-07-12T19:13:12Z</time>
      </trkpt>
      <trkpt lat="47.32760167" lon="17.47068833">
        <ele>181</ele>
        <time>2025-07-12T19:13:18Z</time>
      </trkpt>
      <trkpt lat="47.32768" lon="17.47061167">
        <ele>181.6</ele>
        <time>2025-07-12T19:13:24Z</time>
      </trkpt>
      <trkpt lat="47.327735" lon="17.47050333">
        <ele>180.4</ele>
        <time>2025-07-12T19:13:31Z</time>
      </trkpt>
      <trkpt lat="47.32781167" lon="17.47042167">
        <ele>180.1</ele>
        <time>2025-07-12T19:13:37Z</time>
      </trkpt>
      <trkpt lat="47.32788833" lon="17.47034833">
        <ele>181</ele>
        <time>2025-07-12T19:13:43Z</time>
      </trkpt>
      <trkpt lat="47.32795667" lon="17.47025167">
        <ele>180.8</ele>
        <time>2025-07-12T19:13:50Z</time>
      </trkpt>
      <trkpt lat="47.32804333" lon="17.470175">
        <ele>180.7</ele>
        <time>2025-07-12T19:13:56Z</time>
      </trkpt>
      <trkpt lat="47.32811833" lon="17.470075">
        <ele>180.2</ele>
        <time>2025-07-12T19:14:04Z</time>
      </trkpt>
      <trkpt lat="47.32819833" lon="17.47000167">
        <ele>182.3</ele>
        <time>2025-07-12T19:14:11Z</time>
      </trkpt>
      <trkpt lat="47.32830167" lon="17.46994333">
        <ele>183</ele>
        <time>2025-07-12T19:14:18Z</time>
      </trkpt>
      <trkpt lat="47.32840833" lon="17.469925">
        <ele>183.6</ele>
        <time>2025-07-12T19:14:24Z</time>
      </trkpt>
      <trkpt lat="47.32849833" lon="17.46984667">
        <ele>184</ele>
        <time>2025-07-12T19:14:30Z</time>
      </trkpt>
      <trkpt lat="47.32857833" lon="17.46978167">
        <ele>184.6</ele>
        <time>2025-07-12T19:14:35Z</time>
      </trkpt>
      <trkpt lat="47.32866667" lon="17.469725">
        <ele>185.2</ele>
        <time>2025-07-12T19:14:42Z</time>
      </trkpt>
      <trkpt lat="47.32875" lon="17.46965333">
        <ele>186.3</ele>
        <time>2025-07-12T19:14:50Z</time>
      </trkpt>
      <trkpt lat="47.32885333" lon="17.46965833">
        <ele>183.3</ele>
        <time>2025-07-12T19:14:57Z</time>
      </trkpt>
      <trkpt lat="47.32892167" lon="17.46956167">
        <ele>183.6</ele>
        <time>2025-07-12T19:15:05Z</time>
      </trkpt>
      <trkpt lat="47.32896333" lon="17.46944333">
        <ele>185.6</ele>
        <time>2025-07-12T19:15:10Z</time>
      </trkpt>
      <trkpt lat="47.32899167" lon="17.46931333">
        <ele>190.2</ele>
        <time>2025-07-12T19:15:19Z</time>
      </trkpt>
      <trkpt lat="47.32893667" lon="17.46919333">
        <ele>193</ele>
        <time>2025-07-12T19:16:00Z</time>
      </trkpt>
      <trkpt lat="47.32894" lon="17.469045">
        <ele>194.7</ele>
        <time>2025-07-12T19:16:20Z</time>
      </trkpt>
      <trkpt lat="47.328915" lon="17.46886333">
        <ele>195.1</ele>
        <time>2025-07-12T19:16:23Z</time>
      </trkpt>
      <trkpt lat="47.32894" lon="17.469065">
        <ele>196.6</ele>
        <time>2025-07-12T19:16:35Z</time>
      </trkpt>
      <trkpt lat="47.32890833" lon="17.46923667">
        <ele>197.5</ele>
        <time>2025-07-12T19:16:43Z</time>
      </trkpt>
      <trkpt lat="47.32900667" lon="17.46923333">
        <ele>197.2</ele>
        <time>2025-07-12T19:16:54Z</time>
      </trkpt>
      <trkpt lat="47.32897" lon="17.46936167">
        <ele>205.1</ele>
        <time>2025-07-12T19:17:19Z</time>
      </trkpt>
      <trkpt lat="47.32886833" lon="17.46935">
        <ele>206.8</ele>
        <time>2025-07-12T19:17:36Z</time>
      </trkpt>
      <trkpt lat="47.32897" lon="17.46925167">
        <ele>206.3</ele>
        <time>2025-07-12T19:17:44Z</time>
      </trkpt>
      <trkpt lat="47.32891667" lon="17.46914">
        <ele>211.2</ele>
        <time>2025-07-12T19:17:48Z</time>
      </trkpt>
      <trkpt lat="47.32888667" lon="17.469">
        <ele>217</ele>
        <time>2025-07-12T19:17:52Z</time>
      </trkpt>
      <trkpt lat="47.32898167" lon="17.46894333">
        <ele>216</ele>
        <time>2025-07-12T19:17:59Z</time>
      </trkpt>
      <trkpt lat="47.32907333" lon="17.46891667">
        <ele>209.4</ele>
        <time>2025-07-12T19:18:09Z</time>
      </trkpt>
      <trkpt lat="47.32915333" lon="17.46883833">
        <ele>204.2</ele>
        <time>2025-07-12T19:18:19Z</time>
      </trkpt>
      <trkpt lat="47.32921333" lon="17.46873333">
        <ele>200.4</ele>
        <time>2025-07-12T19:18:26Z</time>
      </trkpt>
      <trkpt lat="47.32922167" lon="17.468585">
        <ele>199.5</ele>
        <time>2025-07-12T19:18:32Z</time>
      </trkpt>
      <trkpt lat="47.32917833" lon="17.46872833">
        <ele>200.4</ele>
        <time>2025-07-12T19:18:52Z</time>
      </trkpt>
      <trkpt lat="47.32909333" lon="17.468835">
        <ele>200.1</ele>
        <time>2025-07-12T19:19:00Z</time>
      </trkpt>
      <trkpt lat="47.32901167" lon="17.46875167">
        <ele>199.8</ele>
        <time>2025-07-12T19:19:08Z</time>
      </trkpt>
      <trkpt lat="47.328955" lon="17.468635">
        <ele>196.9</ele>
        <time>2025-07-12T19:19:13Z</time>
      </trkpt>
      <trkpt lat="47.32888" lon="17.468535">
        <ele>193.8</ele>
        <time>2025-07-12T19:19:20Z</time>
      </trkpt>
      <trkpt lat="47.32891167" lon="17.468395">
        <ele>192.7</ele>
        <time>2025-07-12T19:19:27Z</time>
      </trkpt>
      <trkpt lat="47.32883333" lon="17.46830167">
        <ele>191.7</ele>
        <time>2025-07-12T19:19:38Z</time>
      </trkpt>
      <trkpt lat="47.328795" lon="17.46817833">
        <ele>189.9</ele>
        <time>2025-07-12T19:19:46Z</time>
      </trkpt>
      <trkpt lat="47.32874333" lon="17.46806333">
        <ele>189.5</ele>
        <time>2025-07-12T19:19:54Z</time>
      </trkpt>
      <trkpt lat="47.328695" lon="17.46793833">
        <ele>187.1</ele>
        <time>2025-07-12T19:20:02Z</time>
      </trkpt>
      <trkpt lat="47.328715" lon="17.46780333">
        <ele>184.3</ele>
        <time>2025-07-12T19:20:09Z</time>
      </trkpt>
      <trkpt lat="47.32866333" lon="17.467685">
        <ele>180.9</ele>
        <time>2025-07-12T19:20:19Z</time>
      </trkpt>
      <trkpt lat="47.32857667" lon="17.46760667">
        <ele>180.9</ele>
        <time>2025-07-12T19:20:25Z</time>
      </trkpt>
      <trkpt lat="47.32853833" lon="17.46748667">
        <ele>180.2</ele>
        <time>2025-07-12T19:20:31Z</time>
      </trkpt>
      <trkpt lat="47.32857167" lon="17.46734333">
        <ele>182.7</ele>
        <time>2025-07-12T19:20:40Z</time>
      </trkpt>
      <trkpt lat="47.32864833" lon="17.46727">
        <ele>188.6</ele>
        <time>2025-07-12T19:20:49Z</time>
      </trkpt>
      <trkpt lat="47.32874333" lon="17.46721833">
        <ele>191.8</ele>
        <time>2025-07-12T19:21:06Z</time>
      </trkpt>
      <trkpt lat="47.32874167" lon="17.46736167">
        <ele>192.6</ele>
        <time>2025-07-12T19:21:16Z</time>
      </trkpt>
      <trkpt lat="47.328835" lon="17.46729833">
        <ele>192.8</ele>
        <time>2025-07-12T19:21:25Z</time>
      </trkpt>
      <trkpt lat="47.32869833" lon="17.46742333">
        <ele>191.8</ele>
        <time>2025-07-12T19:21:33Z</time>
      </trkpt>
    </trkseg>
  </trk>
</gpx>