<?xml version='1.0' encoding='UTF-8' standalone='yes' ?>
<gpx xmlns="http://www.topografix.com/GPX/1/1" xmlns:geotracker="http://ilyabogdanovich.com/gpx/extensions/geotracker" xmlns:xsi="http://www.w3.org/2001/XMLSchema-instance" xsi:schemaLocation="http://www.topografix.com/GPX/1/1 http://www.topografix.com/GPX/1/1/gpx.xsd" version="1.1" creator="Recorded in Geo Tracker for Android from Ilya Bogdanovich">
  <metadata>
    <name>w_0724_06</name>
    <author>
      <name>Recorded in Geo Tracker for Android from Ilya Bogdanovich</name>
      <link href="https://play.google.com/store/apps/details?id=com.ilyabogdanovich.geotracker" />
    </author>
    <link href="https://play.google.com/store/apps/details?id=com.ilyabogdanovich.geotracker" />
    <time>2025-07-24T16:13:39Z</time>
  </metadata>
  <trk>
    <name>w_0724_06</name>
    <src>Recorded in Geo Tracker for Android from Ilya Bogdanovich</src>
    <link href="https://play.google.com/store/apps/details?id=com.ilyabogdanovich.geotracker" />
    <extensions>
      <geotracker:meta>
        <geotracker:length>244.28</geotracker:length>
        <geotracker:duration>304305</geotracker:duration>
        <geotracker:creationtime>2025-07-24T16:13:39Z</geotracker:creationtime>
        <geotracker:activity>0</geotracker:activity>
      </geotracker:meta>
    </extensions>
    <trkseg>
      <trkpt lat="46.30481833" lon="17.72773167">
        <ele>202.6</ele>
        <time>2025-07-24T16:13:44Z</time>
      </trkpt>
      <trkpt lat="46.30479667" lon="17.72758167">
        <ele>203.2</ele>
        <time>2025-07-24T16:13:55Z</time>
      </trkpt>
      <trkpt lat="46.30472167" lon="17.727485">
        <ele>201.9</ele>
        <time>2025-07-24T16:14:06Z</time>
      </trkpt>
      <trkpt lat="46.30467333" lon="17.72736833">
        <ele>200.9</ele>
        <time>2025-07-24T16:14:14Z</time>
      </trkpt>
      <trkpt lat="46.3046" lon="17.72728667">
        <ele>200.9</ele>
        <time>2025-07-24T16:14:25Z</time>
      </trkpt>
      <trkpt lat="46.304535" lon="17.72718167">
        <ele>201.7</ele>
        <time>2025-07-24T16:14:32Z</time>
      </trkpt>
      <trkpt lat="46.30449667" lon="17.72705833">
        <ele>202.9</ele>
        <time>2025-07-24T16:14:41Z</time>
      </trkpt>
      <trkpt lat="46.30443333" lon="17.72695667">
        <ele>203.7</ele>
        <time>2025-07-24T16:14:51Z</time>
      </trkpt>
      <trkpt lat="46.30444167" lon="17.72682333">
        <ele>204.1</ele>
        <time>2025-07-24T16:14:57Z</time>
      </trkpt>
      <trkpt lat="46.30449167" lon="17.72671167">
        <ele>204.8</ele>
        <time>2025-07-24T16:15:05Z</time>
      </trkpt>
      <trkpt lat="46.30454833" lon="17.72660167">
        <ele>203.4</ele>
        <time>2025-07-24T16:15:13Z</time>
      </trkpt>
      <trkpt lat="46.30461333" lon="17.72649167">
        <ele>203.5</ele>
        <time>2025-07-24T16:15:20Z</time>
      </trkpt>
      <trkpt lat="46.30468167" lon="17.72640667">
        <ele>202.5</ele>
        <time>2025-07-24T16:15:31Z</time>
      </trkpt>
      <trkpt lat="46.30473" lon="17.72627667">
        <ele>203.5</ele>
        <time>2025-07-24T16:15:39Z</time>
      </trkpt>
      <trkpt lat="46.30477667" lon="17.72616167">
        <ele>203</ele>
        <time>2025-07-24T16:15:48Z</time>
      </trkpt>
      <trkpt lat="46.30484" lon="17.72605">
        <ele>200.8</ele>
        <time>2025-07-24T16:15:57Z</time>
      </trkpt>
      <trkpt lat="46.30490833" lon="17.72595833">
        <ele>202.4</ele>
        <time>2025-07-24T16:16:10Z</time>
      </trkpt>
      <trkpt lat="46.30483833" lon="17.726065">
        <ele>203.5</ele>
        <time>2025-07-24T16:16:27Z</time>
      </trkpt>
      <trkpt lat="46.30488333" lon="17.7262">
        <ele>203.2</ele>
        <time>2025-07-24T16:16:32Z</time>
      </trkpt>
      <trkpt lat="46.30506833" lon="17.72610833">
        <ele>195.5</ele>
        <time>2025-07-24T16:17:12Z</time>
      </trkpt>
      <trkpt lat="46.30497333" lon="17.72593333">
        <ele>202.2</ele>
        <time>2025-07-24T16:17:23Z</time>
      </trkpt>
      <trkpt lat="46.30491" lon="17.72581333">
        <ele>205.8</ele>
        <time>2025-07-24T16:18:38Z</time>
      </trkpt>
    </trkseg>
  </trk>
</gpx>