<?xml version='1.0' encoding='UTF-8' standalone='yes' ?>
<gpx xmlns="http://www.topografix.com/GPX/1/1" xmlns:geotracker="http://ilyabogdanovich.com/gpx/extensions/geotracker" xmlns:xsi="http://www.w3.org/2001/XMLSchema-instance" xsi:schemaLocation="http://www.topografix.com/GPX/1/1 http://www.topografix.com/GPX/1/1/gpx.xsd" version="1.1" creator="Recorded in Geo Tracker for Android from Ilya Bogdanovich">
  <metadata>
    <name>w_0723_06</name>
    <author>
      <name>Recorded in Geo Tracker for Android from Ilya Bogdanovich</name>
      <link href="https://play.google.com/store/apps/details?id=com.ilyabogdanovich.geotracker" />
    </author>
    <link href="https://play.google.com/store/apps/details?id=com.ilyabogdanovich.geotracker" />
    <time>2025-07-23T11:16:12Z</time>
  </metadata>
  <wpt lat="46.148435" lon="17.64374833">
    <ele>230</ele>
    <time>2025-07-23T12:01:22Z</time>
    <name>Stop for ~5 min</name>
    <desc>Elevation: 230 m
Time from start: 00:45:09
Distance from start: 2,16 km</desc>
    <extensions>
      <geotracker:meta visited="1" />
    </extensions>
  </wpt>
  <trk>
    <name>w_0723_06</name>
    <src>Recorded in Geo Tracker for Android from Ilya Bogdanovich</src>
    <link href="https://play.google.com/store/apps/details?id=com.ilyabogdanovich.geotracker" />
    <extensions>
      <geotracker:meta>
        <geotracker:length>3163.68</geotracker:length>
        <geotracker:duration>7697213</geotracker:duration>
        <geotracker:creationtime>2025-07-23T11:16:12Z</geotracker:creationtime>
        <geotracker:activity>0</geotracker:activity>
      </geotracker:meta>
    </extensions>
    <trkseg>
      <trkpt lat="46.16167" lon="17.62754833">
        <ele>229</ele>
        <time>2025-07-23T11:16:18Z</time>
      </trkpt>
      <trkpt lat="46.16169833" lon="17.62754">
        <ele>227.1</ele>
        <time>2025-07-23T11:19:59Z</time>
      </trkpt>
      <trkpt lat="46.16169833" lon="17.62754">
        <ele>227.1</ele>
        <time>2025-07-23T11:22:00Z</time>
      </trkpt>
      <trkpt lat="46.161715" lon="17.62756667">
        <ele>226.8</ele>
        <time>2025-07-23T11:24:01Z</time>
      </trkpt>
      <trkpt lat="46.161715" lon="17.62756667">
        <ele>226.8</ele>
        <time>2025-07-23T11:26:02Z</time>
      </trkpt>
      <trkpt lat="46.161665" lon="17.62768167">
        <ele>229.1</ele>
        <time>2025-07-23T11:26:55Z</time>
      </trkpt>
      <trkpt lat="46.161565" lon="17.62768833">
        <ele>227</ele>
        <time>2025-07-23T11:27:04Z</time>
      </trkpt>
      <trkpt lat="46.161465" lon="17.6277">
        <ele>225.7</ele>
        <time>2025-07-23T11:27:12Z</time>
      </trkpt>
      <trkpt lat="46.16136" lon="17.62772333">
        <ele>225.3</ele>
        <time>2025-07-23T11:27:20Z</time>
      </trkpt>
      <trkpt lat="46.16127" lon="17.62773667">
        <ele>224.5</ele>
        <time>2025-07-23T11:27:27Z</time>
      </trkpt>
      <trkpt lat="46.16117167" lon="17.627755">
        <ele>224.8</ele>
        <time>2025-07-23T11:27:34Z</time>
      </trkpt>
      <trkpt lat="46.16108" lon="17.62776167">
        <ele>225.8</ele>
        <time>2025-07-23T11:27:42Z</time>
      </trkpt>
      <trkpt lat="46.16097833" lon="17.62777667">
        <ele>226.3</ele>
        <time>2025-07-23T11:27:50Z</time>
      </trkpt>
      <trkpt lat="46.16088167" lon="17.627785">
        <ele>225.7</ele>
        <time>2025-07-23T11:27:57Z</time>
      </trkpt>
      <trkpt lat="46.16078" lon="17.627805">
        <ele>225.3</ele>
        <time>2025-07-23T11:28:05Z</time>
      </trkpt>
      <trkpt lat="46.160675" lon="17.62782">
        <ele>224.8</ele>
        <time>2025-07-23T11:28:13Z</time>
      </trkpt>
      <trkpt lat="46.16058167" lon="17.62784167">
        <ele>224</ele>
        <time>2025-07-23T11:28:21Z</time>
      </trkpt>
      <trkpt lat="46.16049333" lon="17.627875">
        <ele>225.3</ele>
        <time>2025-07-23T11:28:33Z</time>
      </trkpt>
      <trkpt lat="46.16039333" lon="17.62791167">
        <ele>225.6</ele>
        <time>2025-07-23T11:28:42Z</time>
      </trkpt>
      <trkpt lat="46.16030667" lon="17.62796">
        <ele>225.2</ele>
        <time>2025-07-23T11:28:49Z</time>
      </trkpt>
      <trkpt lat="46.16021833" lon="17.62799667">
        <ele>225.9</ele>
        <time>2025-07-23T11:28:59Z</time>
      </trkpt>
      <trkpt lat="46.16012167" lon="17.62805167">
        <ele>226</ele>
        <time>2025-07-23T11:29:07Z</time>
      </trkpt>
      <trkpt lat="46.16004333" lon="17.62811667">
        <ele>225.8</ele>
        <time>2025-07-23T11:29:14Z</time>
      </trkpt>
      <trkpt lat="46.159955" lon="17.62817667">
        <ele>224.9</ele>
        <time>2025-07-23T11:29:21Z</time>
      </trkpt>
      <trkpt lat="46.15986333" lon="17.62824833">
        <ele>226</ele>
        <time>2025-07-23T11:29:29Z</time>
      </trkpt>
      <trkpt lat="46.15978167" lon="17.62831667">
        <ele>225.8</ele>
        <time>2025-07-23T11:29:37Z</time>
      </trkpt>
      <trkpt lat="46.15970167" lon="17.62838667">
        <ele>226.7</ele>
        <time>2025-07-23T11:29:43Z</time>
      </trkpt>
      <trkpt lat="46.15961833" lon="17.62845833">
        <ele>226.6</ele>
        <time>2025-07-23T11:29:50Z</time>
      </trkpt>
      <trkpt lat="46.15953667" lon="17.62851833">
        <ele>226.1</ele>
        <time>2025-07-23T11:29:58Z</time>
      </trkpt>
      <trkpt lat="46.15945167" lon="17.62858833">
        <ele>225.4</ele>
        <time>2025-07-23T11:30:06Z</time>
      </trkpt>
      <trkpt lat="46.15942" lon="17.62871833">
        <ele>226.3</ele>
        <time>2025-07-23T11:30:13Z</time>
      </trkpt>
      <trkpt lat="46.15937167" lon="17.628845">
        <ele>227.7</ele>
        <time>2025-07-23T11:30:20Z</time>
      </trkpt>
      <trkpt lat="46.15929" lon="17.628935">
        <ele>226.9</ele>
        <time>2025-07-23T11:30:27Z</time>
      </trkpt>
      <trkpt lat="46.15921833" lon="17.62903167">
        <ele>225.8</ele>
        <time>2025-07-23T11:30:33Z</time>
      </trkpt>
      <trkpt lat="46.159145" lon="17.62911833">
        <ele>226.2</ele>
        <time>2025-07-23T11:30:40Z</time>
      </trkpt>
      <trkpt lat="46.15906833" lon="17.62921167">
        <ele>225.4</ele>
        <time>2025-07-23T11:30:48Z</time>
      </trkpt>
      <trkpt lat="46.15899167" lon="17.6293">
        <ele>225.4</ele>
        <time>2025-07-23T11:30:54Z</time>
      </trkpt>
      <trkpt lat="46.15891667" lon="17.62939">
        <ele>225.7</ele>
        <time>2025-07-23T11:31:01Z</time>
      </trkpt>
      <trkpt lat="46.15884167" lon="17.62948667">
        <ele>226.9</ele>
        <time>2025-07-23T11:31:09Z</time>
      </trkpt>
      <trkpt lat="46.15877" lon="17.62957833">
        <ele>226.5</ele>
        <time>2025-07-23T11:31:17Z</time>
      </trkpt>
      <trkpt lat="46.15869833" lon="17.62968167">
        <ele>226.1</ele>
        <time>2025-07-23T11:31:25Z</time>
      </trkpt>
      <trkpt lat="46.15862667" lon="17.62977">
        <ele>225.4</ele>
        <time>2025-07-23T11:31:32Z</time>
      </trkpt>
      <trkpt lat="46.15855833" lon="17.629855">
        <ele>226.6</ele>
        <time>2025-07-23T11:31:39Z</time>
      </trkpt>
      <trkpt lat="46.15848667" lon="17.62996333">
        <ele>227.7</ele>
        <time>2025-07-23T11:31:47Z</time>
      </trkpt>
      <trkpt lat="46.15842333" lon="17.63006333">
        <ele>227.6</ele>
        <time>2025-07-23T11:31:54Z</time>
      </trkpt>
      <trkpt lat="46.15834833" lon="17.63015167">
        <ele>226.7</ele>
        <time>2025-07-23T11:32:02Z</time>
      </trkpt>
      <trkpt lat="46.15828" lon="17.63023667">
        <ele>226.6</ele>
        <time>2025-07-23T11:32:08Z</time>
      </trkpt>
      <trkpt lat="46.15820833" lon="17.63032833">
        <ele>225.7</ele>
        <time>2025-07-23T11:32:16Z</time>
      </trkpt>
      <trkpt lat="46.15813833" lon="17.63043333">
        <ele>225.7</ele>
        <time>2025-07-23T11:32:25Z</time>
      </trkpt>
      <trkpt lat="46.158065" lon="17.63051167">
        <ele>225</ele>
        <time>2025-07-23T11:32:32Z</time>
      </trkpt>
      <trkpt lat="46.15798833" lon="17.6306">
        <ele>225.3</ele>
        <time>2025-07-23T11:32:40Z</time>
      </trkpt>
      <trkpt lat="46.15792333" lon="17.63069">
        <ele>225.8</ele>
        <time>2025-07-23T11:32:47Z</time>
      </trkpt>
      <trkpt lat="46.15784667" lon="17.63078833">
        <ele>226.9</ele>
        <time>2025-07-23T11:32:55Z</time>
      </trkpt>
      <trkpt lat="46.15777333" lon="17.63088">
        <ele>227.9</ele>
        <time>2025-07-23T11:33:02Z</time>
      </trkpt>
      <trkpt lat="46.15770667" lon="17.63097333">
        <ele>229.1</ele>
        <time>2025-07-23T11:33:08Z</time>
      </trkpt>
      <trkpt lat="46.15763333" lon="17.63106333">
        <ele>228.6</ele>
        <time>2025-07-23T11:33:16Z</time>
      </trkpt>
      <trkpt lat="46.15756167" lon="17.63115167">
        <ele>227.7</ele>
        <time>2025-07-23T11:33:23Z</time>
      </trkpt>
      <trkpt lat="46.15748667" lon="17.63124833">
        <ele>227.1</ele>
        <time>2025-07-23T11:33:31Z</time>
      </trkpt>
      <trkpt lat="46.15741833" lon="17.63133833">
        <ele>227.1</ele>
        <time>2025-07-23T11:33:39Z</time>
      </trkpt>
      <trkpt lat="46.15734333" lon="17.631435">
        <ele>226.1</ele>
        <time>2025-07-23T11:33:48Z</time>
      </trkpt>
      <trkpt lat="46.15727667" lon="17.631525">
        <ele>226.7</ele>
        <time>2025-07-23T11:33:55Z</time>
      </trkpt>
      <trkpt lat="46.157205" lon="17.63162333">
        <ele>227.5</ele>
        <time>2025-07-23T11:34:02Z</time>
      </trkpt>
      <trkpt lat="46.157125" lon="17.63171333">
        <ele>228.1</ele>
        <time>2025-07-23T11:34:10Z</time>
      </trkpt>
      <trkpt lat="46.157055" lon="17.63180333">
        <ele>229.3</ele>
        <time>2025-07-23T11:34:18Z</time>
      </trkpt>
      <trkpt lat="46.156985" lon="17.6319">
        <ele>228.6</ele>
        <time>2025-07-23T11:34:26Z</time>
      </trkpt>
      <trkpt lat="46.15691" lon="17.63199333">
        <ele>227.6</ele>
        <time>2025-07-23T11:34:33Z</time>
      </trkpt>
      <trkpt lat="46.15683833" lon="17.632085">
        <ele>228.3</ele>
        <time>2025-07-23T11:34:40Z</time>
      </trkpt>
      <trkpt lat="46.156765" lon="17.63218833">
        <ele>228.3</ele>
        <time>2025-07-23T11:34:49Z</time>
      </trkpt>
      <trkpt lat="46.15669667" lon="17.632275">
        <ele>230.1</ele>
        <time>2025-07-23T11:34:56Z</time>
      </trkpt>
      <trkpt lat="46.15662" lon="17.63235333">
        <ele>231</ele>
        <time>2025-07-23T11:35:04Z</time>
      </trkpt>
      <trkpt lat="46.15654333" lon="17.63244833">
        <ele>229.6</ele>
        <time>2025-07-23T11:35:13Z</time>
      </trkpt>
      <trkpt lat="46.15647833" lon="17.632545">
        <ele>228.9</ele>
        <time>2025-07-23T11:35:20Z</time>
      </trkpt>
      <trkpt lat="46.15640833" lon="17.63262667">
        <ele>228</ele>
        <time>2025-07-23T11:35:29Z</time>
      </trkpt>
      <trkpt lat="46.15633833" lon="17.63271667">
        <ele>227.6</ele>
        <time>2025-07-23T11:35:36Z</time>
      </trkpt>
      <trkpt lat="46.15626" lon="17.6328">
        <ele>228.9</ele>
        <time>2025-07-23T11:35:44Z</time>
      </trkpt>
      <trkpt lat="46.15619333" lon="17.63289667">
        <ele>230.4</ele>
        <time>2025-07-23T11:35:51Z</time>
      </trkpt>
      <trkpt lat="46.156115" lon="17.63299">
        <ele>231.3</ele>
        <time>2025-07-23T11:35:58Z</time>
      </trkpt>
      <trkpt lat="46.15604667" lon="17.63309833">
        <ele>230.6</ele>
        <time>2025-07-23T11:36:07Z</time>
      </trkpt>
      <trkpt lat="46.15597" lon="17.63319">
        <ele>229.5</ele>
        <time>2025-07-23T11:36:15Z</time>
      </trkpt>
      <trkpt lat="46.15590833" lon="17.63329">
        <ele>228.3</ele>
        <time>2025-07-23T11:36:22Z</time>
      </trkpt>
      <trkpt lat="46.15583667" lon="17.63339">
        <ele>228.8</ele>
        <time>2025-07-23T11:36:30Z</time>
      </trkpt>
      <trkpt lat="46.15576833" lon="17.633485">
        <ele>229.7</ele>
        <time>2025-07-23T11:36:37Z</time>
      </trkpt>
      <trkpt lat="46.15569667" lon="17.63358167">
        <ele>230.8</ele>
        <time>2025-07-23T11:36:47Z</time>
      </trkpt>
      <trkpt lat="46.15562167" lon="17.633665">
        <ele>231</ele>
        <time>2025-07-23T11:36:53Z</time>
      </trkpt>
      <trkpt lat="46.15555167" lon="17.63375333">
        <ele>230.5</ele>
        <time>2025-07-23T11:36:59Z</time>
      </trkpt>
      <trkpt lat="46.15547667" lon="17.633845">
        <ele>230.7</ele>
        <time>2025-07-23T11:37:06Z</time>
      </trkpt>
      <trkpt lat="46.1554" lon="17.633935">
        <ele>231.1</ele>
        <time>2025-07-23T11:37:13Z</time>
      </trkpt>
      <trkpt lat="46.15533" lon="17.63402833">
        <ele>229.7</ele>
        <time>2025-07-23T11:37:21Z</time>
      </trkpt>
      <trkpt lat="46.155255" lon="17.63412833">
        <ele>230.4</ele>
        <time>2025-07-23T11:37:29Z</time>
      </trkpt>
      <trkpt lat="46.155185" lon="17.63421167">
        <ele>231.1</ele>
        <time>2025-07-23T11:37:38Z</time>
      </trkpt>
      <trkpt lat="46.15512333" lon="17.63431167">
        <ele>230.2</ele>
        <time>2025-07-23T11:37:47Z</time>
      </trkpt>
      <trkpt lat="46.15504167" lon="17.63439">
        <ele>229.5</ele>
        <time>2025-07-23T11:37:55Z</time>
      </trkpt>
      <trkpt lat="46.15497333" lon="17.634495">
        <ele>228.4</ele>
        <time>2025-07-23T11:38:05Z</time>
      </trkpt>
      <trkpt lat="46.15490333" lon="17.63458833">
        <ele>226.8</ele>
        <time>2025-07-23T11:38:13Z</time>
      </trkpt>
      <trkpt lat="46.154835" lon="17.634685">
        <ele>224.3</ele>
        <time>2025-07-23T11:38:21Z</time>
      </trkpt>
      <trkpt lat="46.15477167" lon="17.63478667">
        <ele>222.9</ele>
        <time>2025-07-23T11:38:29Z</time>
      </trkpt>
      <trkpt lat="46.1547" lon="17.63487">
        <ele>223.2</ele>
        <time>2025-07-23T11:38:36Z</time>
      </trkpt>
      <trkpt lat="46.15462833" lon="17.634955">
        <ele>223.7</ele>
        <time>2025-07-23T11:38:43Z</time>
      </trkpt>
      <trkpt lat="46.15454667" lon="17.63504333">
        <ele>225.5</ele>
        <time>2025-07-23T11:38:50Z</time>
      </trkpt>
      <trkpt lat="46.15446833" lon="17.63514">
        <ele>225.9</ele>
        <time>2025-07-23T11:38:58Z</time>
      </trkpt>
      <trkpt lat="46.15441" lon="17.63524333">
        <ele>227.3</ele>
        <time>2025-07-23T11:39:06Z</time>
      </trkpt>
      <trkpt lat="46.15434667" lon="17.63535667">
        <ele>227.7</ele>
        <time>2025-07-23T11:39:14Z</time>
      </trkpt>
      <trkpt lat="46.154275" lon="17.635455">
        <ele>227.3</ele>
        <time>2025-07-23T11:39:24Z</time>
      </trkpt>
      <trkpt lat="46.154205" lon="17.63556167">
        <ele>227.1</ele>
        <time>2025-07-23T11:39:32Z</time>
      </trkpt>
      <trkpt lat="46.15414333" lon="17.63567333">
        <ele>226.8</ele>
        <time>2025-07-23T11:39:39Z</time>
      </trkpt>
      <trkpt lat="46.15408" lon="17.63578">
        <ele>227.8</ele>
        <time>2025-07-23T11:39:46Z</time>
      </trkpt>
      <trkpt lat="46.15401833" lon="17.63589167">
        <ele>226.9</ele>
        <time>2025-07-23T11:39:54Z</time>
      </trkpt>
      <trkpt lat="46.15396333" lon="17.63601667">
        <ele>226</ele>
        <time>2025-07-23T11:40:02Z</time>
      </trkpt>
      <trkpt lat="46.15389667" lon="17.636125">
        <ele>226.9</ele>
        <time>2025-07-23T11:40:11Z</time>
      </trkpt>
      <trkpt lat="46.153835" lon="17.636235">
        <ele>228.5</ele>
        <time>2025-07-23T11:40:19Z</time>
      </trkpt>
      <trkpt lat="46.15376667" lon="17.63632333">
        <ele>230.4</ele>
        <time>2025-07-23T11:40:26Z</time>
      </trkpt>
      <trkpt lat="46.15370333" lon="17.63643667">
        <ele>230.6</ele>
        <time>2025-07-23T11:40:34Z</time>
      </trkpt>
      <trkpt lat="46.15362833" lon="17.63653667">
        <ele>232.3</ele>
        <time>2025-07-23T11:40:41Z</time>
      </trkpt>
      <trkpt lat="46.15359833" lon="17.63666">
        <ele>232.1</ele>
        <time>2025-07-23T11:40:50Z</time>
      </trkpt>
      <trkpt lat="46.15354" lon="17.63678167">
        <ele>229.7</ele>
        <time>2025-07-23T11:42:11Z</time>
      </trkpt>
      <trkpt lat="46.153485" lon="17.636885">
        <ele>229.8</ele>
        <time>2025-07-23T11:42:19Z</time>
      </trkpt>
      <trkpt lat="46.15340167" lon="17.637">
        <ele>229.9</ele>
        <time>2025-07-23T11:42:29Z</time>
      </trkpt>
      <trkpt lat="46.15335" lon="17.63711333">
        <ele>229.2</ele>
        <time>2025-07-23T11:42:39Z</time>
      </trkpt>
      <trkpt lat="46.153285" lon="17.63721">
        <ele>228.9</ele>
        <time>2025-07-23T11:42:46Z</time>
      </trkpt>
      <trkpt lat="46.15321333" lon="17.63731333">
        <ele>228.3</ele>
        <time>2025-07-23T11:42:53Z</time>
      </trkpt>
      <trkpt lat="46.153165" lon="17.63743833">
        <ele>226.9</ele>
        <time>2025-07-23T11:43:00Z</time>
      </trkpt>
      <trkpt lat="46.15309333" lon="17.63754333">
        <ele>226.8</ele>
        <time>2025-07-23T11:43:08Z</time>
      </trkpt>
      <trkpt lat="46.15303333" lon="17.63765333">
        <ele>226.8</ele>
        <time>2025-07-23T11:43:15Z</time>
      </trkpt>
      <trkpt lat="46.15296167" lon="17.63776167">
        <ele>228.3</ele>
        <time>2025-07-23T11:43:23Z</time>
      </trkpt>
      <trkpt lat="46.15290333" lon="17.63788">
        <ele>230.2</ele>
        <time>2025-07-23T11:43:32Z</time>
      </trkpt>
      <trkpt lat="46.15283667" lon="17.63798333">
        <ele>229.4</ele>
        <time>2025-07-23T11:43:40Z</time>
      </trkpt>
      <trkpt lat="46.15277" lon="17.63808167">
        <ele>228.4</ele>
        <time>2025-07-23T11:43:48Z</time>
      </trkpt>
      <trkpt lat="46.1527" lon="17.63818333">
        <ele>228.1</ele>
        <time>2025-07-23T11:43:55Z</time>
      </trkpt>
      <trkpt lat="46.15264833" lon="17.63829667">
        <ele>226.2</ele>
        <time>2025-07-23T11:44:02Z</time>
      </trkpt>
      <trkpt lat="46.15258333" lon="17.63840167">
        <ele>226.7</ele>
        <time>2025-07-23T11:44:09Z</time>
      </trkpt>
      <trkpt lat="46.15252833" lon="17.63851667">
        <ele>226.1</ele>
        <time>2025-07-23T11:44:16Z</time>
      </trkpt>
      <trkpt lat="46.15246" lon="17.63861333">
        <ele>225.3</ele>
        <time>2025-07-23T11:44:24Z</time>
      </trkpt>
      <trkpt lat="46.15240667" lon="17.63873167">
        <ele>225</ele>
        <time>2025-07-23T11:44:33Z</time>
      </trkpt>
      <trkpt lat="46.15234" lon="17.638835">
        <ele>225.6</ele>
        <time>2025-07-23T11:44:40Z</time>
      </trkpt>
      <trkpt lat="46.15228167" lon="17.63893833">
        <ele>227.1</ele>
        <time>2025-07-23T11:44:46Z</time>
      </trkpt>
      <trkpt lat="46.15222333" lon="17.63904667">
        <ele>227.8</ele>
        <time>2025-07-23T11:44:53Z</time>
      </trkpt>
      <trkpt lat="46.15216" lon="17.63914">
        <ele>227.8</ele>
        <time>2025-07-23T11:45:01Z</time>
      </trkpt>
      <trkpt lat="46.1521" lon="17.63924">
        <ele>227.9</ele>
        <time>2025-07-23T11:45:08Z</time>
      </trkpt>
      <trkpt lat="46.15203167" lon="17.639355">
        <ele>226.7</ele>
        <time>2025-07-23T11:45:18Z</time>
      </trkpt>
      <trkpt lat="46.15197667" lon="17.63947">
        <ele>226.2</ele>
        <time>2025-07-23T11:45:26Z</time>
      </trkpt>
      <trkpt lat="46.15190667" lon="17.63957333">
        <ele>227.1</ele>
        <time>2025-07-23T11:45:34Z</time>
      </trkpt>
      <trkpt lat="46.15185833" lon="17.63968333">
        <ele>226.8</ele>
        <time>2025-07-23T11:45:40Z</time>
      </trkpt>
      <trkpt lat="46.15178667" lon="17.63978">
        <ele>226.6</ele>
        <time>2025-07-23T11:45:47Z</time>
      </trkpt>
      <trkpt lat="46.151725" lon="17.63990333">
        <ele>227</ele>
        <time>2025-07-23T11:45:56Z</time>
      </trkpt>
      <trkpt lat="46.15166167" lon="17.64001333">
        <ele>227.6</ele>
        <time>2025-07-23T11:46:03Z</time>
      </trkpt>
      <trkpt lat="46.15159333" lon="17.64009833">
        <ele>227.8</ele>
        <time>2025-07-23T11:46:10Z</time>
      </trkpt>
      <trkpt lat="46.151535" lon="17.64021167">
        <ele>227.8</ele>
        <time>2025-07-23T11:46:18Z</time>
      </trkpt>
      <trkpt lat="46.15147333" lon="17.64031833">
        <ele>226.5</ele>
        <time>2025-07-23T11:46:25Z</time>
      </trkpt>
      <trkpt lat="46.15140667" lon="17.64042833">
        <ele>226.9</ele>
        <time>2025-07-23T11:46:33Z</time>
      </trkpt>
      <trkpt lat="46.15134333" lon="17.64053">
        <ele>227</ele>
        <time>2025-07-23T11:46:43Z</time>
      </trkpt>
      <trkpt lat="46.151285" lon="17.64064167">
        <ele>227.1</ele>
        <time>2025-07-23T11:46:50Z</time>
      </trkpt>
      <trkpt lat="46.151225" lon="17.64075">
        <ele>227.5</ele>
        <time>2025-07-23T11:46:59Z</time>
      </trkpt>
      <trkpt lat="46.151155" lon="17.64085167">
        <ele>226</ele>
        <time>2025-07-23T11:47:07Z</time>
      </trkpt>
      <trkpt lat="46.15109333" lon="17.64095">
        <ele>224.3</ele>
        <time>2025-07-23T11:47:16Z</time>
      </trkpt>
      <trkpt lat="46.15103" lon="17.641055">
        <ele>224.8</ele>
        <time>2025-07-23T11:47:24Z</time>
      </trkpt>
      <trkpt lat="46.150985" lon="17.64117167">
        <ele>224.3</ele>
        <time>2025-07-23T11:47:29Z</time>
      </trkpt>
      <trkpt lat="46.15091" lon="17.64126667">
        <ele>223.7</ele>
        <time>2025-07-23T11:47:37Z</time>
      </trkpt>
      <trkpt lat="46.15084167" lon="17.64138">
        <ele>223.5</ele>
        <time>2025-07-23T11:47:44Z</time>
      </trkpt>
      <trkpt lat="46.15078" lon="17.64148167">
        <ele>224.1</ele>
        <time>2025-07-23T11:47:49Z</time>
      </trkpt>
      <trkpt lat="46.15072833" lon="17.64160667">
        <ele>230.2</ele>
        <time>2025-07-23T11:48:47Z</time>
      </trkpt>
      <trkpt lat="46.15066667" lon="17.64170333">
        <ele>228.2</ele>
        <time>2025-07-23T11:48:57Z</time>
      </trkpt>
      <trkpt lat="46.15059167" lon="17.64179333">
        <ele>226.2</ele>
        <time>2025-07-23T11:49:06Z</time>
      </trkpt>
      <trkpt lat="46.15052667" lon="17.64190333">
        <ele>224</ele>
        <time>2025-07-23T11:49:14Z</time>
      </trkpt>
      <trkpt lat="46.15046667" lon="17.64201">
        <ele>224</ele>
        <time>2025-07-23T11:49:20Z</time>
      </trkpt>
      <trkpt lat="46.150405" lon="17.64211">
        <ele>223.9</ele>
        <time>2025-07-23T11:49:28Z</time>
      </trkpt>
      <trkpt lat="46.15034833" lon="17.642215">
        <ele>223.8</ele>
        <time>2025-07-23T11:49:38Z</time>
      </trkpt>
      <trkpt lat="46.15028167" lon="17.64231">
        <ele>224.9</ele>
        <time>2025-07-23T11:49:45Z</time>
      </trkpt>
      <trkpt lat="46.15022333" lon="17.642415">
        <ele>225.8</ele>
        <time>2025-07-23T11:49:52Z</time>
      </trkpt>
      <trkpt lat="46.15015333" lon="17.64252667">
        <ele>228.2</ele>
        <time>2025-07-23T11:49:59Z</time>
      </trkpt>
      <trkpt lat="46.150095" lon="17.64265167">
        <ele>227.6</ele>
        <time>2025-07-23T11:50:06Z</time>
      </trkpt>
      <trkpt lat="46.150035" lon="17.642765">
        <ele>225.7</ele>
        <time>2025-07-23T11:50:14Z</time>
      </trkpt>
      <trkpt lat="46.14997" lon="17.64286833">
        <ele>226.1</ele>
        <time>2025-07-23T11:50:22Z</time>
      </trkpt>
      <trkpt lat="46.149905" lon="17.642965">
        <ele>228.1</ele>
        <time>2025-07-23T11:50:29Z</time>
      </trkpt>
      <trkpt lat="46.14983833" lon="17.64308">
        <ele>228.2</ele>
        <time>2025-07-23T11:50:36Z</time>
      </trkpt>
      <trkpt lat="46.14979" lon="17.643195">
        <ele>228.3</ele>
        <time>2025-07-23T11:50:48Z</time>
      </trkpt>
      <trkpt lat="46.14973" lon="17.643295">
        <ele>227.6</ele>
        <time>2025-07-23T11:50:54Z</time>
      </trkpt>
      <trkpt lat="46.14967333" lon="17.64339833">
        <ele>228.3</ele>
        <time>2025-07-23T11:51:00Z</time>
      </trkpt>
      <trkpt lat="46.14961333" lon="17.64351167">
        <ele>228.8</ele>
        <time>2025-07-23T11:51:08Z</time>
      </trkpt>
      <trkpt lat="46.149545" lon="17.64361">
        <ele>228.9</ele>
        <time>2025-07-23T11:51:16Z</time>
      </trkpt>
      <trkpt lat="46.14948" lon="17.64371167">
        <ele>226.1</ele>
        <time>2025-07-23T11:51:24Z</time>
      </trkpt>
      <trkpt lat="46.14939" lon="17.64375833">
        <ele>224.6</ele>
        <time>2025-07-23T11:51:37Z</time>
      </trkpt>
      <trkpt lat="46.14929667" lon="17.643775">
        <ele>227.2</ele>
        <time>2025-07-23T11:51:42Z</time>
      </trkpt>
      <trkpt lat="46.149215" lon="17.64371167">
        <ele>224.5</ele>
        <time>2025-07-23T11:52:27Z</time>
      </trkpt>
      <trkpt lat="46.14921833" lon="17.64358167">
        <ele>225</ele>
        <time>2025-07-23T11:52:41Z</time>
      </trkpt>
      <trkpt lat="46.14928167" lon="17.64376667">
        <ele>227.9</ele>
        <time>2025-07-23T11:52:58Z</time>
      </trkpt>
      <trkpt lat="46.14933833" lon="17.64387667">
        <ele>227.8</ele>
        <time>2025-07-23T11:53:06Z</time>
      </trkpt>
      <trkpt lat="46.14936667" lon="17.644015">
        <ele>225</ele>
        <time>2025-07-23T11:53:15Z</time>
      </trkpt>
      <trkpt lat="46.14939833" lon="17.64414667">
        <ele>222.9</ele>
        <time>2025-07-23T11:53:23Z</time>
      </trkpt>
      <trkpt lat="46.14937667" lon="17.644285">
        <ele>223</ele>
        <time>2025-07-23T11:53:34Z</time>
      </trkpt>
      <trkpt lat="46.14935167" lon="17.64441833">
        <ele>222.1</ele>
        <time>2025-07-23T11:53:41Z</time>
      </trkpt>
      <trkpt lat="46.149375" lon="17.64428667">
        <ele>225.3</ele>
        <time>2025-07-23T11:55:01Z</time>
      </trkpt>
      <trkpt lat="46.149385" lon="17.64407333">
        <ele>223.6</ele>
        <time>2025-07-23T11:55:13Z</time>
      </trkpt>
      <trkpt lat="46.14933" lon="17.64396667">
        <ele>224.1</ele>
        <time>2025-07-23T11:55:21Z</time>
      </trkpt>
      <trkpt lat="46.14931667" lon="17.643835">
        <ele>223.9</ele>
        <time>2025-07-23T11:55:27Z</time>
      </trkpt>
      <trkpt lat="46.14926167" lon="17.64372667">
        <ele>224.1</ele>
        <time>2025-07-23T11:55:35Z</time>
      </trkpt>
      <trkpt lat="46.14917833" lon="17.64365167">
        <ele>224.1</ele>
        <time>2025-07-23T11:55:49Z</time>
      </trkpt>
      <trkpt lat="46.149085" lon="17.64363333">
        <ele>227.8</ele>
        <time>2025-07-23T11:56:27Z</time>
      </trkpt>
      <trkpt lat="46.14899333" lon="17.64367667">
        <ele>225.6</ele>
        <time>2025-07-23T11:56:37Z</time>
      </trkpt>
      <trkpt lat="46.14889333" lon="17.64370167">
        <ele>224.6</ele>
        <time>2025-07-23T11:56:46Z</time>
      </trkpt>
      <trkpt lat="46.148785" lon="17.64371">
        <ele>224.9</ele>
        <time>2025-07-23T11:56:57Z</time>
      </trkpt>
      <trkpt lat="46.148685" lon="17.643695">
        <ele>226</ele>
        <time>2025-07-23T11:57:04Z</time>
      </trkpt>
      <trkpt lat="46.14859167" lon="17.64369333">
        <ele>227.6</ele>
        <time>2025-07-23T11:57:12Z</time>
      </trkpt>
      <trkpt lat="46.14849333" lon="17.64369">
        <ele>227.2</ele>
        <time>2025-07-23T11:57:20Z</time>
      </trkpt>
      <trkpt lat="46.148435" lon="17.64374833">
        <ele>230</ele>
        <time>2025-07-23T11:59:21Z</time>
      </trkpt>
      <trkpt lat="46.148435" lon="17.64374833">
        <ele>230</ele>
        <time>2025-07-23T12:01:22Z</time>
      </trkpt>
      <trkpt lat="46.148435" lon="17.64374833">
        <ele>230</ele>
        <time>2025-07-23T12:05:01Z</time>
      </trkpt>
      <trkpt lat="46.148435" lon="17.64374833">
        <ele>230</ele>
        <time>2025-07-23T12:07:02Z</time>
      </trkpt>
      <trkpt lat="46.148435" lon="17.64374833">
        <ele>230</ele>
        <time>2025-07-23T12:09:03Z</time>
      </trkpt>
      <trkpt lat="46.148435" lon="17.64374833">
        <ele>230</ele>
        <time>2025-07-23T12:11:04Z</time>
      </trkpt>
      <trkpt lat="46.148435" lon="17.64374833">
        <ele>230</ele>
        <time>2025-07-23T12:13:05Z</time>
      </trkpt>
      <trkpt lat="46.148435" lon="17.64374833">
        <ele>230</ele>
        <time>2025-07-23T12:15:06Z</time>
      </trkpt>
      <trkpt lat="46.148435" lon="17.64374833">
        <ele>230</ele>
        <time>2025-07-23T12:17:07Z</time>
      </trkpt>
      <trkpt lat="46.148435" lon="17.64374833">
        <ele>230</ele>
        <time>2025-07-23T12:19:08Z</time>
      </trkpt>
      <trkpt lat="46.148435" lon="17.64374833">
        <ele>230</ele>
        <time>2025-07-23T12:21:09Z</time>
      </trkpt>
      <trkpt lat="46.148435" lon="17.64374833">
        <ele>230</ele>
        <time>2025-07-23T12:23:10Z</time>
      </trkpt>
      <trkpt lat="46.148435" lon="17.64374833">
        <ele>230</ele>
        <time>2025-07-23T12:25:11Z</time>
      </trkpt>
      <trkpt lat="46.148435" lon="17.64374833">
        <ele>230</ele>
        <time>2025-07-23T12:27:12Z</time>
      </trkpt>
      <trkpt lat="46.148435" lon="17.64374833">
        <ele>230</ele>
        <time>2025-07-23T12:29:13Z</time>
      </trkpt>
      <trkpt lat="46.148435" lon="17.64374833">
        <ele>230</ele>
        <time>2025-07-23T12:31:14Z</time>
      </trkpt>
      <trkpt lat="46.148435" lon="17.64374833">
        <ele>230</ele>
        <time>2025-07-23T12:33:15Z</time>
      </trkpt>
      <trkpt lat="46.148435" lon="17.64374833">
        <ele>230</ele>
        <time>2025-07-23T12:35:16Z</time>
      </trkpt>
      <trkpt lat="46.148435" lon="17.64374833">
        <ele>230</ele>
        <time>2025-07-23T12:37:17Z</time>
      </trkpt>
      <trkpt lat="46.148435" lon="17.64374833">
        <ele>230</ele>
        <time>2025-07-23T12:39:18Z</time>
      </trkpt>
      <trkpt lat="46.148435" lon="17.64374833">
        <ele>230</ele>
        <time>2025-07-23T12:41:19Z</time>
      </trkpt>
      <trkpt lat="46.148435" lon="17.64374833">
        <ele>230</ele>
        <time>2025-07-23T12:43:20Z</time>
      </trkpt>
      <trkpt lat="46.148435" lon="17.64374833">
        <ele>230</ele>
        <time>2025-07-23T12:45:21Z</time>
      </trkpt>
      <trkpt lat="46.148435" lon="17.64374833">
        <ele>230</ele>
        <time>2025-07-23T12:47:22Z</time>
      </trkpt>
      <trkpt lat="46.148435" lon="17.64374833">
        <ele>230</ele>
        <time>2025-07-23T12:49:23Z</time>
      </trkpt>
      <trkpt lat="46.148435" lon="17.64374833">
        <ele>230</ele>
        <time>2025-07-23T12:51:24Z</time>
      </trkpt>
      <trkpt lat="46.148435" lon="17.64374833">
        <ele>230</ele>
        <time>2025-07-23T12:53:25Z</time>
      </trkpt>
      <trkpt lat="46.148435" lon="17.64374833">
        <ele>230</ele>
        <time>2025-07-23T12:55:26Z</time>
      </trkpt>
      <trkpt lat="46.148435" lon="17.64374833">
        <ele>230</ele>
        <time>2025-07-23T12:57:27Z</time>
      </trkpt>
      <trkpt lat="46.148435" lon="17.64374833">
        <ele>230</ele>
        <time>2025-07-23T12:59:28Z</time>
      </trkpt>
      <trkpt lat="46.148435" lon="17.64374833">
        <ele>230</ele>
        <time>2025-07-23T13:01:29Z</time>
      </trkpt>
      <trkpt lat="46.148435" lon="17.64374833">
        <ele>230</ele>
        <time>2025-07-23T13:03:30Z</time>
      </trkpt>
      <trkpt lat="46.14847333" lon="17.643905">
        <ele>286</ele>
        <time>2025-07-23T13:05:11Z</time>
      </trkpt>
      <trkpt lat="46.14848167" lon="17.64377167">
        <ele>233.5</ele>
        <time>2025-07-23T13:05:50Z</time>
      </trkpt>
      <trkpt lat="46.14855333" lon="17.64368333">
        <ele>228.2</ele>
        <time>2025-07-23T13:06:11Z</time>
      </trkpt>
      <trkpt lat="46.148645" lon="17.64366833">
        <ele>226.6</ele>
        <time>2025-07-23T13:06:22Z</time>
      </trkpt>
      <trkpt lat="46.148735" lon="17.64366">
        <ele>226.1</ele>
        <time>2025-07-23T13:06:31Z</time>
      </trkpt>
      <trkpt lat="46.14883" lon="17.64367833">
        <ele>225.8</ele>
        <time>2025-07-23T13:06:47Z</time>
      </trkpt>
      <trkpt lat="46.14892833" lon="17.64368333">
        <ele>222.1</ele>
        <time>2025-07-23T13:06:54Z</time>
      </trkpt>
      <trkpt lat="46.149005" lon="17.64375167">
        <ele>223.5</ele>
        <time>2025-07-23T13:07:05Z</time>
      </trkpt>
      <trkpt lat="46.14908833" lon="17.64380667">
        <ele>225.4</ele>
        <time>2025-07-23T13:07:33Z</time>
      </trkpt>
      <trkpt lat="46.14918833" lon="17.64382167">
        <ele>224.2</ele>
        <time>2025-07-23T13:07:45Z</time>
      </trkpt>
      <trkpt lat="46.14928833" lon="17.64382667">
        <ele>224.1</ele>
        <time>2025-07-23T13:07:53Z</time>
      </trkpt>
      <trkpt lat="46.149345" lon="17.64393333">
        <ele>222.7</ele>
        <time>2025-07-23T13:08:02Z</time>
      </trkpt>
      <trkpt lat="46.14937333" lon="17.64405833">
        <ele>222.7</ele>
        <time>2025-07-23T13:08:09Z</time>
      </trkpt>
      <trkpt lat="46.14939" lon="17.64420333">
        <ele>223.6</ele>
        <time>2025-07-23T13:08:16Z</time>
      </trkpt>
      <trkpt lat="46.14937167" lon="17.64434667">
        <ele>221.7</ele>
        <time>2025-07-23T13:08:26Z</time>
      </trkpt>
      <trkpt lat="46.14936667" lon="17.64449">
        <ele>220.8</ele>
        <time>2025-07-23T13:08:35Z</time>
      </trkpt>
      <trkpt lat="46.14934167" lon="17.64462333">
        <ele>219.9</ele>
        <time>2025-07-23T13:08:43Z</time>
      </trkpt>
      <trkpt lat="46.14931667" lon="17.64475">
        <ele>217.7</ele>
        <time>2025-07-23T13:08:52Z</time>
      </trkpt>
      <trkpt lat="46.149305" lon="17.64489167">
        <ele>215.2</ele>
        <time>2025-07-23T13:09:01Z</time>
      </trkpt>
      <trkpt lat="46.14929" lon="17.64503167">
        <ele>214.1</ele>
        <time>2025-07-23T13:09:09Z</time>
      </trkpt>
      <trkpt lat="46.14926" lon="17.64516">
        <ele>213</ele>
        <time>2025-07-23T13:09:17Z</time>
      </trkpt>
      <trkpt lat="46.14923167" lon="17.645285">
        <ele>211.8</ele>
        <time>2025-07-23T13:09:24Z</time>
      </trkpt>
      <trkpt lat="46.14921" lon="17.64542333">
        <ele>211.3</ele>
        <time>2025-07-23T13:09:31Z</time>
      </trkpt>
      <trkpt lat="46.14917667" lon="17.64555">
        <ele>211.3</ele>
        <time>2025-07-23T13:09:40Z</time>
      </trkpt>
      <trkpt lat="46.14917167" lon="17.64569333">
        <ele>210.5</ele>
        <time>2025-07-23T13:09:49Z</time>
      </trkpt>
      <trkpt lat="46.14917167" lon="17.645825">
        <ele>210.5</ele>
        <time>2025-07-23T13:09:56Z</time>
      </trkpt>
      <trkpt lat="46.14915167" lon="17.64595167">
        <ele>209.3</ele>
        <time>2025-07-23T13:10:03Z</time>
      </trkpt>
      <trkpt lat="46.14914167" lon="17.64608333">
        <ele>208.4</ele>
        <time>2025-07-23T13:10:11Z</time>
      </trkpt>
      <trkpt lat="46.1491" lon="17.64621167">
        <ele>209</ele>
        <time>2025-07-23T13:10:18Z</time>
      </trkpt>
      <trkpt lat="46.14906667" lon="17.646345">
        <ele>210.7</ele>
        <time>2025-07-23T13:10:25Z</time>
      </trkpt>
      <trkpt lat="46.14902333" lon="17.64647333">
        <ele>212</ele>
        <time>2025-07-23T13:10:34Z</time>
      </trkpt>
      <trkpt lat="46.148975" lon="17.64659">
        <ele>212.5</ele>
        <time>2025-07-23T13:10:42Z</time>
      </trkpt>
      <trkpt lat="46.14892167" lon="17.64672167">
        <ele>213.2</ele>
        <time>2025-07-23T13:10:51Z</time>
      </trkpt>
      <trkpt lat="46.14887" lon="17.64685">
        <ele>214.6</ele>
        <time>2025-07-23T13:10:57Z</time>
      </trkpt>
      <trkpt lat="46.148805" lon="17.64695">
        <ele>213.9</ele>
        <time>2025-07-23T13:11:05Z</time>
      </trkpt>
      <trkpt lat="46.14872333" lon="17.64701">
        <ele>212.3</ele>
        <time>2025-07-23T13:11:11Z</time>
      </trkpt>
      <trkpt lat="46.14863333" lon="17.64707333">
        <ele>209</ele>
        <time>2025-07-23T13:11:20Z</time>
      </trkpt>
      <trkpt lat="46.14854833" lon="17.647125">
        <ele>206.4</ele>
        <time>2025-07-23T13:11:27Z</time>
      </trkpt>
      <trkpt lat="46.14847167" lon="17.64720667">
        <ele>202.7</ele>
        <time>2025-07-23T13:11:35Z</time>
      </trkpt>
      <trkpt lat="46.14837667" lon="17.64722">
        <ele>198.9</ele>
        <time>2025-07-23T13:11:44Z</time>
      </trkpt>
      <trkpt lat="46.14829167" lon="17.64728">
        <ele>198.2</ele>
        <time>2025-07-23T13:11:50Z</time>
      </trkpt>
      <trkpt lat="46.148205" lon="17.64733333">
        <ele>199</ele>
        <time>2025-07-23T13:11:59Z</time>
      </trkpt>
      <trkpt lat="46.14812167" lon="17.64741333">
        <ele>199.4</ele>
        <time>2025-07-23T13:12:06Z</time>
      </trkpt>
      <trkpt lat="46.14807167" lon="17.647525">
        <ele>199</ele>
        <time>2025-07-23T13:12:13Z</time>
      </trkpt>
      <trkpt lat="46.14798333" lon="17.647585">
        <ele>199</ele>
        <time>2025-07-23T13:12:25Z</time>
      </trkpt>
      <trkpt lat="46.14791667" lon="17.64768">
        <ele>200.1</ele>
        <time>2025-07-23T13:12:33Z</time>
      </trkpt>
      <trkpt lat="46.14784833" lon="17.64777333">
        <ele>200.3</ele>
        <time>2025-07-23T13:12:43Z</time>
      </trkpt>
      <trkpt lat="46.14776833" lon="17.64786667">
        <ele>201</ele>
        <time>2025-07-23T13:12:51Z</time>
      </trkpt>
      <trkpt lat="46.14767833" lon="17.64793667">
        <ele>201.1</ele>
        <time>2025-07-23T13:12:59Z</time>
      </trkpt>
      <trkpt lat="46.14759167" lon="17.648">
        <ele>199.7</ele>
        <time>2025-07-23T13:13:05Z</time>
      </trkpt>
      <trkpt lat="46.1475" lon="17.64801667">
        <ele>197.4</ele>
        <time>2025-07-23T13:13:14Z</time>
      </trkpt>
      <trkpt lat="46.14740833" lon="17.64799667">
        <ele>198.1</ele>
        <time>2025-07-23T13:13:22Z</time>
      </trkpt>
      <trkpt lat="46.14732" lon="17.648025">
        <ele>198.7</ele>
        <time>2025-07-23T13:13:37Z</time>
      </trkpt>
      <trkpt lat="46.147235" lon="17.64798167">
        <ele>199</ele>
        <time>2025-07-23T13:13:45Z</time>
      </trkpt>
      <trkpt lat="46.14714167" lon="17.647955">
        <ele>200.4</ele>
        <time>2025-07-23T13:13:54Z</time>
      </trkpt>
      <trkpt lat="46.14704833" lon="17.64797333">
        <ele>201.2</ele>
        <time>2025-07-23T13:13:59Z</time>
      </trkpt>
      <trkpt lat="46.14695" lon="17.647985">
        <ele>201.5</ele>
        <time>2025-07-23T13:14:07Z</time>
      </trkpt>
      <trkpt lat="46.14685667" lon="17.64797">
        <ele>201.1</ele>
        <time>2025-07-23T13:14:14Z</time>
      </trkpt>
      <trkpt lat="46.146765" lon="17.64792">
        <ele>200.5</ele>
        <time>2025-07-23T13:14:24Z</time>
      </trkpt>
      <trkpt lat="46.14666167" lon="17.64790833">
        <ele>198.6</ele>
        <time>2025-07-23T13:14:32Z</time>
      </trkpt>
      <trkpt lat="46.146575" lon="17.64786333">
        <ele>199.2</ele>
        <time>2025-07-23T13:14:40Z</time>
      </trkpt>
      <trkpt lat="46.14648167" lon="17.647825">
        <ele>199.2</ele>
        <time>2025-07-23T13:14:47Z</time>
      </trkpt>
      <trkpt lat="46.14639167" lon="17.64778">
        <ele>201.8</ele>
        <time>2025-07-23T13:14:55Z</time>
      </trkpt>
      <trkpt lat="46.14629667" lon="17.64773333">
        <ele>202.6</ele>
        <time>2025-07-23T13:15:02Z</time>
      </trkpt>
      <trkpt lat="46.14620333" lon="17.64767667">
        <ele>201.1</ele>
        <time>2025-07-23T13:15:11Z</time>
      </trkpt>
      <trkpt lat="46.14610833" lon="17.64764667">
        <ele>200.6</ele>
        <time>2025-07-23T13:15:21Z</time>
      </trkpt>
      <trkpt lat="46.146005" lon="17.64763833">
        <ele>201.9</ele>
        <time>2025-07-23T13:15:29Z</time>
      </trkpt>
      <trkpt lat="46.145905" lon="17.647625">
        <ele>203</ele>
        <time>2025-07-23T13:15:37Z</time>
      </trkpt>
      <trkpt lat="46.14581167" lon="17.64763833">
        <ele>206.1</ele>
        <time>2025-07-23T13:15:45Z</time>
      </trkpt>
      <trkpt lat="46.14572" lon="17.64759333">
        <ele>207.4</ele>
        <time>2025-07-23T13:15:54Z</time>
      </trkpt>
      <trkpt lat="46.14563167" lon="17.64756">
        <ele>207.5</ele>
        <time>2025-07-23T13:16:03Z</time>
      </trkpt>
      <trkpt lat="46.14554167" lon="17.64754333">
        <ele>209</ele>
        <time>2025-07-23T13:16:29Z</time>
      </trkpt>
      <trkpt lat="46.14544333" lon="17.64753167">
        <ele>210</ele>
        <time>2025-07-23T13:16:37Z</time>
      </trkpt>
      <trkpt lat="46.14535" lon="17.64756667">
        <ele>210.3</ele>
        <time>2025-07-23T13:16:45Z</time>
      </trkpt>
      <trkpt lat="46.14525333" lon="17.64755167">
        <ele>210.1</ele>
        <time>2025-07-23T13:16:53Z</time>
      </trkpt>
      <trkpt lat="46.14516667" lon="17.64751667">
        <ele>209.7</ele>
        <time>2025-07-23T13:17:00Z</time>
      </trkpt>
      <trkpt lat="46.14507167" lon="17.64747667">
        <ele>210.3</ele>
        <time>2025-07-23T13:17:07Z</time>
      </trkpt>
      <trkpt lat="46.14498167" lon="17.647445">
        <ele>212.8</ele>
        <time>2025-07-23T13:17:16Z</time>
      </trkpt>
      <trkpt lat="46.14489" lon="17.64748667">
        <ele>216.5</ele>
        <time>2025-07-23T13:17:27Z</time>
      </trkpt>
      <trkpt lat="46.14482167" lon="17.64759">
        <ele>218.5</ele>
        <time>2025-07-23T13:17:36Z</time>
      </trkpt>
      <trkpt lat="46.14472833" lon="17.647565">
        <ele>218.5</ele>
        <time>2025-07-23T13:17:57Z</time>
      </trkpt>
      <trkpt lat="46.14465" lon="17.647485">
        <ele>217</ele>
        <time>2025-07-23T13:18:04Z</time>
      </trkpt>
      <trkpt lat="46.14456333" lon="17.64741667">
        <ele>215.2</ele>
        <time>2025-07-23T13:18:10Z</time>
      </trkpt>
      <trkpt lat="46.14448667" lon="17.64733667">
        <ele>214</ele>
        <time>2025-07-23T13:18:17Z</time>
      </trkpt>
      <trkpt lat="46.144405" lon="17.64726167">
        <ele>209.3</ele>
        <time>2025-07-23T13:18:27Z</time>
      </trkpt>
      <trkpt lat="46.14432333" lon="17.6472">
        <ele>208.6</ele>
        <time>2025-07-23T13:18:33Z</time>
      </trkpt>
      <trkpt lat="46.14424667" lon="17.64713167">
        <ele>208.3</ele>
        <time>2025-07-23T13:18:40Z</time>
      </trkpt>
      <trkpt lat="46.14416" lon="17.64709333">
        <ele>209.7</ele>
        <time>2025-07-23T13:18:46Z</time>
      </trkpt>
      <trkpt lat="46.14407167" lon="17.64705">
        <ele>212.9</ele>
        <time>2025-07-23T13:18:54Z</time>
      </trkpt>
      <trkpt lat="46.14399167" lon="17.64696833">
        <ele>213.5</ele>
        <time>2025-07-23T13:19:02Z</time>
      </trkpt>
      <trkpt lat="46.14391167" lon="17.64690333">
        <ele>213.9</ele>
        <time>2025-07-23T13:19:09Z</time>
      </trkpt>
      <trkpt lat="46.14382667" lon="17.64683333">
        <ele>213.5</ele>
        <time>2025-07-23T13:19:18Z</time>
      </trkpt>
      <trkpt lat="46.143745" lon="17.64675833">
        <ele>213.8</ele>
        <time>2025-07-23T13:19:26Z</time>
      </trkpt>
      <trkpt lat="46.1437" lon="17.64671667">
        <ele>213.3</ele>
        <time>2025-07-23T13:21:27Z</time>
      </trkpt>
      <trkpt lat="46.14369167" lon="17.646695">
        <ele>216.7</ele>
        <time>2025-07-23T13:23:28Z</time>
      </trkpt>
    </trkseg>
  </trk>
</gpx>