<?xml version='1.0' encoding='UTF-8' standalone='yes' ?>
<gpx xmlns="http://www.topografix.com/GPX/1/1" xmlns:geotracker="http://ilyabogdanovich.com/gpx/extensions/geotracker" xmlns:xsi="http://www.w3.org/2001/XMLSchema-instance" xsi:schemaLocation="http://www.topografix.com/GPX/1/1 http://www.topografix.com/GPX/1/1/gpx.xsd" version="1.1" creator="Recorded in Geo Tracker for Android from Ilya Bogdanovich">
  <metadata>
    <name>w_0717_10</name>
    <author>
      <name>Recorded in Geo Tracker for Android from Ilya Bogdanovich</name>
      <link href="https://play.google.com/store/apps/details?id=com.ilyabogdanovich.geotracker" />
    </author>
    <link href="https://play.google.com/store/apps/details?id=com.ilyabogdanovich.geotracker" />
    <time>2025-07-17T12:58:13Z</time>
  </metadata>
  <wpt lat="46.56061833" lon="17.12289667">
    <ele>187.1</ele>
    <time>2025-07-17T13:10:15Z</time>
    <name>Stop for ~5 min</name>
    <desc>Elevation: 187 m
Time from start: 00:12:01
Distance from start: 415 m</desc>
    <extensions>
      <geotracker:meta visited="1" />
    </extensions>
  </wpt>
  <trk>
    <name>w_0717_10</name>
    <src>Recorded in Geo Tracker for Android from Ilya Bogdanovich</src>
    <link href="https://play.google.com/store/apps/details?id=com.ilyabogdanovich.geotracker" />
    <extensions>
      <geotracker:meta>
        <geotracker:length>432.98</geotracker:length>
        <geotracker:duration>1882005</geotracker:duration>
        <geotracker:creationtime>2025-07-17T12:58:13Z</geotracker:creationtime>
        <geotracker:activity>0</geotracker:activity>
      </geotracker:meta>
    </extensions>
    <trkseg>
      <trkpt lat="46.56094167" lon="17.12233167">
        <ele>225.7</ele>
        <time>2025-07-17T12:58:20Z</time>
      </trkpt>
      <trkpt lat="46.56081" lon="17.12223833">
        <ele>200.8</ele>
        <time>2025-07-17T12:59:12Z</time>
      </trkpt>
      <trkpt lat="46.56072" lon="17.12223833">
        <ele>193</ele>
        <time>2025-07-17T12:59:24Z</time>
      </trkpt>
      <trkpt lat="46.56080833" lon="17.12204167">
        <ele>189.6</ele>
        <time>2025-07-17T12:59:59Z</time>
      </trkpt>
      <trkpt lat="46.56070667" lon="17.12202">
        <ele>194.9</ele>
        <time>2025-07-17T13:00:09Z</time>
      </trkpt>
      <trkpt lat="46.560615" lon="17.12206167">
        <ele>195.4</ele>
        <time>2025-07-17T13:00:13Z</time>
      </trkpt>
      <trkpt lat="46.56052333" lon="17.12203333">
        <ele>195.8</ele>
        <time>2025-07-17T13:00:21Z</time>
      </trkpt>
      <trkpt lat="46.56060833" lon="17.12212">
        <ele>196</ele>
        <time>2025-07-17T13:00:26Z</time>
      </trkpt>
      <trkpt lat="46.5607" lon="17.12230667">
        <ele>195.4</ele>
        <time>2025-07-17T13:00:29Z</time>
      </trkpt>
      <trkpt lat="46.56072" lon="17.122165">
        <ele>193</ele>
        <time>2025-07-17T13:00:36Z</time>
      </trkpt>
      <trkpt lat="46.56072833" lon="17.12203">
        <ele>191.1</ele>
        <time>2025-07-17T13:00:52Z</time>
      </trkpt>
      <trkpt lat="46.56068833" lon="17.12190333">
        <ele>189.9</ele>
        <time>2025-07-17T13:01:05Z</time>
      </trkpt>
      <trkpt lat="46.56061333" lon="17.12179">
        <ele>189.9</ele>
        <time>2025-07-17T13:01:09Z</time>
      </trkpt>
      <trkpt lat="46.560535" lon="17.12166667">
        <ele>189.8</ele>
        <time>2025-07-17T13:01:11Z</time>
      </trkpt>
      <trkpt lat="46.56056333" lon="17.12179333">
        <ele>189.8</ele>
        <time>2025-07-17T13:01:14Z</time>
      </trkpt>
      <trkpt lat="46.560625" lon="17.12190167">
        <ele>190.7</ele>
        <time>2025-07-17T13:01:29Z</time>
      </trkpt>
      <trkpt lat="46.56067333" lon="17.12202833">
        <ele>190.4</ele>
        <time>2025-07-17T13:01:33Z</time>
      </trkpt>
      <trkpt lat="46.56077" lon="17.12197167">
        <ele>183.1</ele>
        <time>2025-07-17T13:01:52Z</time>
      </trkpt>
      <trkpt lat="46.56072667" lon="17.12209333">
        <ele>179.3</ele>
        <time>2025-07-17T13:02:13Z</time>
      </trkpt>
      <trkpt lat="46.56062" lon="17.12221">
        <ele>182.7</ele>
        <time>2025-07-17T13:02:57Z</time>
      </trkpt>
      <trkpt lat="46.56071833" lon="17.12216833">
        <ele>181.6</ele>
        <time>2025-07-17T13:03:26Z</time>
      </trkpt>
      <trkpt lat="46.560685" lon="17.12204167">
        <ele>180.2</ele>
        <time>2025-07-17T13:03:36Z</time>
      </trkpt>
      <trkpt lat="46.56059333" lon="17.12192">
        <ele>178.3</ele>
        <time>2025-07-17T13:03:59Z</time>
      </trkpt>
      <trkpt lat="46.56052833" lon="17.12201333">
        <ele>178.1</ele>
        <time>2025-07-17T13:04:03Z</time>
      </trkpt>
      <trkpt lat="46.56062" lon="17.121985">
        <ele>178.1</ele>
        <time>2025-07-17T13:04:15Z</time>
      </trkpt>
      <trkpt lat="46.56076" lon="17.12195833">
        <ele>178.6</ele>
        <time>2025-07-17T13:04:20Z</time>
      </trkpt>
      <trkpt lat="46.560705" lon="17.12209167">
        <ele>180.6</ele>
        <time>2025-07-17T13:04:26Z</time>
      </trkpt>
      <trkpt lat="46.56071" lon="17.122265">
        <ele>187.3</ele>
        <time>2025-07-17T13:05:50Z</time>
      </trkpt>
      <trkpt lat="46.56080333" lon="17.12225">
        <ele>187.3</ele>
        <time>2025-07-17T13:06:04Z</time>
      </trkpt>
      <trkpt lat="46.56087833" lon="17.12217167">
        <ele>184.1</ele>
        <time>2025-07-17T13:06:15Z</time>
      </trkpt>
      <trkpt lat="46.560755" lon="17.12229333">
        <ele>191.3</ele>
        <time>2025-07-17T13:07:44Z</time>
      </trkpt>
      <trkpt lat="46.56073167" lon="17.122435">
        <ele>191.7</ele>
        <time>2025-07-17T13:07:51Z</time>
      </trkpt>
      <trkpt lat="46.56071167" lon="17.12258">
        <ele>192.5</ele>
        <time>2025-07-17T13:07:58Z</time>
      </trkpt>
      <trkpt lat="46.560675" lon="17.12272">
        <ele>191.3</ele>
        <time>2025-07-17T13:08:06Z</time>
      </trkpt>
      <trkpt lat="46.56064" lon="17.12285833">
        <ele>189.3</ele>
        <time>2025-07-17T13:08:14Z</time>
      </trkpt>
      <trkpt lat="46.56061833" lon="17.12289667">
        <ele>187.1</ele>
        <time>2025-07-17T13:10:15Z</time>
      </trkpt>
      <trkpt lat="46.56061833" lon="17.12289667">
        <ele>187.1</ele>
        <time>2025-07-17T13:13:55Z</time>
      </trkpt>
      <trkpt lat="46.56061833" lon="17.12289667">
        <ele>187.1</ele>
        <time>2025-07-17T13:15:56Z</time>
      </trkpt>
      <trkpt lat="46.56061833" lon="17.12289667">
        <ele>187.1</ele>
        <time>2025-07-17T13:17:57Z</time>
      </trkpt>
      <trkpt lat="46.56061833" lon="17.12289667">
        <ele>187.1</ele>
        <time>2025-07-17T13:19:58Z</time>
      </trkpt>
      <trkpt lat="46.56061833" lon="17.12289667">
        <ele>187.1</ele>
        <time>2025-07-17T13:21:59Z</time>
      </trkpt>
      <trkpt lat="46.56061833" lon="17.12289667">
        <ele>187.1</ele>
        <time>2025-07-17T13:24:00Z</time>
      </trkpt>
      <trkpt lat="46.56061833" lon="17.12289667">
        <ele>187.1</ele>
        <time>2025-07-17T13:26:01Z</time>
      </trkpt>
      <trkpt lat="46.56061833" lon="17.12289667">
        <ele>187.1</ele>
        <time>2025-07-17T13:28:02Z</time>
      </trkpt>
      <trkpt lat="46.560655" lon="17.12311833">
        <ele>213.1</ele>
        <time>2025-07-17T13:29:30Z</time>
      </trkpt>
    </trkseg>
  </trk>
</gpx>