<?xml version='1.0' encoding='UTF-8' standalone='yes' ?>
<gpx xmlns="http://www.topografix.com/GPX/1/1" xmlns:geotracker="http://ilyabogdanovich.com/gpx/extensions/geotracker" xmlns:xsi="http://www.w3.org/2001/XMLSchema-instance" xsi:schemaLocation="http://www.topografix.com/GPX/1/1 http://www.topografix.com/GPX/1/1/gpx.xsd" version="1.1" creator="Recorded in Geo Tracker for Android from Ilya Bogdanovich">
  <metadata>
    <name>w_0720_05</name>
    <author>
      <name>Recorded in Geo Tracker for Android from Ilya Bogdanovich</name>
      <link href="https://play.google.com/store/apps/details?id=com.ilyabogdanovich.geotracker" />
    </author>
    <link href="https://play.google.com/store/apps/details?id=com.ilyabogdanovich.geotracker" />
    <time>2025-07-20T10:31:15Z</time>
  </metadata>
  <trk>
    <name>w_0720_05</name>
    <src>Recorded in Geo Tracker for Android from Ilya Bogdanovich</src>
    <link href="https://play.google.com/store/apps/details?id=com.ilyabogdanovich.geotracker" />
    <extensions>
      <geotracker:meta>
        <geotracker:length>1722.09</geotracker:length>
        <geotracker:duration>1578462</geotracker:duration>
        <geotracker:creationtime>2025-07-20T10:31:15Z</geotracker:creationtime>
        <geotracker:activity>0</geotracker:activity>
      </geotracker:meta>
    </extensions>
    <trkseg>
      <trkpt lat="46.28984" lon="18.60657667">
        <ele>212.3</ele>
        <time>2025-07-20T10:31:21Z</time>
      </trkpt>
      <trkpt lat="46.28973333" lon="18.60672167">
        <ele>184.3</ele>
        <time>2025-07-20T10:32:24Z</time>
      </trkpt>
      <trkpt lat="46.28965333" lon="18.60680667">
        <ele>180.1</ele>
        <time>2025-07-20T10:32:32Z</time>
      </trkpt>
      <trkpt lat="46.28958167" lon="18.60689833">
        <ele>176.6</ele>
        <time>2025-07-20T10:32:42Z</time>
      </trkpt>
      <trkpt lat="46.28949833" lon="18.606975">
        <ele>175.6</ele>
        <time>2025-07-20T10:32:50Z</time>
      </trkpt>
      <trkpt lat="46.28941833" lon="18.607035">
        <ele>175.8</ele>
        <time>2025-07-20T10:32:58Z</time>
      </trkpt>
      <trkpt lat="46.28933167" lon="18.6071">
        <ele>176.3</ele>
        <time>2025-07-20T10:33:07Z</time>
      </trkpt>
      <trkpt lat="46.28924167" lon="18.607165">
        <ele>175.5</ele>
        <time>2025-07-20T10:33:15Z</time>
      </trkpt>
      <trkpt lat="46.28916" lon="18.60723667">
        <ele>175.7</ele>
        <time>2025-07-20T10:33:23Z</time>
      </trkpt>
      <trkpt lat="46.28908667" lon="18.607315">
        <ele>176.8</ele>
        <time>2025-07-20T10:33:31Z</time>
      </trkpt>
      <trkpt lat="46.28899833" lon="18.607365">
        <ele>177.7</ele>
        <time>2025-07-20T10:33:40Z</time>
      </trkpt>
      <trkpt lat="46.28893167" lon="18.60746833">
        <ele>177.5</ele>
        <time>2025-07-20T10:33:49Z</time>
      </trkpt>
      <trkpt lat="46.28887667" lon="18.60757167">
        <ele>177.6</ele>
        <time>2025-07-20T10:33:58Z</time>
      </trkpt>
      <trkpt lat="46.28879667" lon="18.60764">
        <ele>178.3</ele>
        <time>2025-07-20T10:34:08Z</time>
      </trkpt>
      <trkpt lat="46.28870333" lon="18.607585">
        <ele>178.1</ele>
        <time>2025-07-20T10:34:16Z</time>
      </trkpt>
      <trkpt lat="46.28861" lon="18.60761667">
        <ele>177.5</ele>
        <time>2025-07-20T10:34:24Z</time>
      </trkpt>
      <trkpt lat="46.28852667" lon="18.60769167">
        <ele>177.3</ele>
        <time>2025-07-20T10:34:31Z</time>
      </trkpt>
      <trkpt lat="46.28846" lon="18.607795">
        <ele>177.5</ele>
        <time>2025-07-20T10:34:40Z</time>
      </trkpt>
      <trkpt lat="46.28841333" lon="18.607915">
        <ele>177.5</ele>
        <time>2025-07-20T10:34:49Z</time>
      </trkpt>
      <trkpt lat="46.28835" lon="18.608015">
        <ele>178.8</ele>
        <time>2025-07-20T10:34:57Z</time>
      </trkpt>
      <trkpt lat="46.28830667" lon="18.60814167">
        <ele>179.2</ele>
        <time>2025-07-20T10:35:06Z</time>
      </trkpt>
      <trkpt lat="46.28823667" lon="18.608235">
        <ele>180.8</ele>
        <time>2025-07-20T10:35:13Z</time>
      </trkpt>
      <trkpt lat="46.28818" lon="18.60833667">
        <ele>181.7</ele>
        <time>2025-07-20T10:35:23Z</time>
      </trkpt>
      <trkpt lat="46.28812667" lon="18.60846">
        <ele>181.9</ele>
        <time>2025-07-20T10:35:31Z</time>
      </trkpt>
      <trkpt lat="46.28807833" lon="18.608585">
        <ele>181.2</ele>
        <time>2025-07-20T10:35:39Z</time>
      </trkpt>
      <trkpt lat="46.288035" lon="18.60870833">
        <ele>181.2</ele>
        <time>2025-07-20T10:35:47Z</time>
      </trkpt>
      <trkpt lat="46.288" lon="18.60883833">
        <ele>180.8</ele>
        <time>2025-07-20T10:35:57Z</time>
      </trkpt>
      <trkpt lat="46.28796167" lon="18.60897167">
        <ele>180.7</ele>
        <time>2025-07-20T10:36:06Z</time>
      </trkpt>
      <trkpt lat="46.28792667" lon="18.60910667">
        <ele>180.3</ele>
        <time>2025-07-20T10:36:14Z</time>
      </trkpt>
      <trkpt lat="46.28789167" lon="18.60923667">
        <ele>180.5</ele>
        <time>2025-07-20T10:36:23Z</time>
      </trkpt>
      <trkpt lat="46.28786333" lon="18.60937">
        <ele>179.8</ele>
        <time>2025-07-20T10:36:33Z</time>
      </trkpt>
      <trkpt lat="46.28783667" lon="18.60950667">
        <ele>180.4</ele>
        <time>2025-07-20T10:36:42Z</time>
      </trkpt>
      <trkpt lat="46.28779333" lon="18.609625">
        <ele>181.1</ele>
        <time>2025-07-20T10:36:49Z</time>
      </trkpt>
      <trkpt lat="46.28776333" lon="18.60974833">
        <ele>182</ele>
        <time>2025-07-20T10:36:57Z</time>
      </trkpt>
      <trkpt lat="46.28774667" lon="18.60988">
        <ele>184.2</ele>
        <time>2025-07-20T10:37:07Z</time>
      </trkpt>
      <trkpt lat="46.287725" lon="18.61001833">
        <ele>186.3</ele>
        <time>2025-07-20T10:37:16Z</time>
      </trkpt>
      <trkpt lat="46.28768333" lon="18.61013667">
        <ele>187.3</ele>
        <time>2025-07-20T10:37:26Z</time>
      </trkpt>
      <trkpt lat="46.28766667" lon="18.61027167">
        <ele>188.1</ele>
        <time>2025-07-20T10:37:39Z</time>
      </trkpt>
      <trkpt lat="46.28766167" lon="18.61043833">
        <ele>187.3</ele>
        <time>2025-07-20T10:37:48Z</time>
      </trkpt>
      <trkpt lat="46.28766833" lon="18.61057167">
        <ele>186.4</ele>
        <time>2025-07-20T10:37:54Z</time>
      </trkpt>
      <trkpt lat="46.28768" lon="18.61071833">
        <ele>186.2</ele>
        <time>2025-07-20T10:38:03Z</time>
      </trkpt>
      <trkpt lat="46.2877" lon="18.61085667">
        <ele>185.2</ele>
        <time>2025-07-20T10:38:12Z</time>
      </trkpt>
      <trkpt lat="46.28770167" lon="18.61099333">
        <ele>185.1</ele>
        <time>2025-07-20T10:38:19Z</time>
      </trkpt>
      <trkpt lat="46.28771667" lon="18.61112333">
        <ele>185.6</ele>
        <time>2025-07-20T10:38:25Z</time>
      </trkpt>
      <trkpt lat="46.287785" lon="18.61121167">
        <ele>185.3</ele>
        <time>2025-07-20T10:38:34Z</time>
      </trkpt>
      <trkpt lat="46.28788333" lon="18.61124">
        <ele>186</ele>
        <time>2025-07-20T10:38:43Z</time>
      </trkpt>
      <trkpt lat="46.28797" lon="18.61129667">
        <ele>186.6</ele>
        <time>2025-07-20T10:38:54Z</time>
      </trkpt>
      <trkpt lat="46.28803833" lon="18.611385">
        <ele>187.6</ele>
        <time>2025-07-20T10:39:07Z</time>
      </trkpt>
      <trkpt lat="46.288105" lon="18.6115">
        <ele>188.1</ele>
        <time>2025-07-20T10:39:19Z</time>
      </trkpt>
      <trkpt lat="46.28817167" lon="18.61162833">
        <ele>188.3</ele>
        <time>2025-07-20T10:39:25Z</time>
      </trkpt>
      <trkpt lat="46.288075" lon="18.61157">
        <ele>188.9</ele>
        <time>2025-07-20T10:39:40Z</time>
      </trkpt>
      <trkpt lat="46.28780833" lon="18.61191333">
        <ele>188.8</ele>
        <time>2025-07-20T10:40:55Z</time>
      </trkpt>
      <trkpt lat="46.28798" lon="18.61188667">
        <ele>188.5</ele>
        <time>2025-07-20T10:41:10Z</time>
      </trkpt>
      <trkpt lat="46.28804833" lon="18.61169">
        <ele>187.9</ele>
        <time>2025-07-20T10:41:11Z</time>
      </trkpt>
      <trkpt lat="46.28812833" lon="18.61162167">
        <ele>187.5</ele>
        <time>2025-07-20T10:41:15Z</time>
      </trkpt>
      <trkpt lat="46.28811333" lon="18.61149167">
        <ele>188</ele>
        <time>2025-07-20T10:41:22Z</time>
      </trkpt>
      <trkpt lat="46.28805667" lon="18.61161333">
        <ele>189.9</ele>
        <time>2025-07-20T10:41:37Z</time>
      </trkpt>
      <trkpt lat="46.28796" lon="18.61164">
        <ele>188.6</ele>
        <time>2025-07-20T10:41:47Z</time>
      </trkpt>
      <trkpt lat="46.28805667" lon="18.61160833">
        <ele>187.9</ele>
        <time>2025-07-20T10:42:05Z</time>
      </trkpt>
      <trkpt lat="46.28815667" lon="18.611635">
        <ele>188.5</ele>
        <time>2025-07-20T10:42:15Z</time>
      </trkpt>
      <trkpt lat="46.28806833" lon="18.61166">
        <ele>190.4</ele>
        <time>2025-07-20T10:42:57Z</time>
      </trkpt>
      <trkpt lat="46.287975" lon="18.61168667">
        <ele>190.5</ele>
        <time>2025-07-20T10:43:03Z</time>
      </trkpt>
      <trkpt lat="46.28801333" lon="18.61121167">
        <ele>190.6</ele>
        <time>2025-07-20T10:43:14Z</time>
      </trkpt>
      <trkpt lat="46.28809667" lon="18.6111">
        <ele>190.7</ele>
        <time>2025-07-20T10:43:17Z</time>
      </trkpt>
      <trkpt lat="46.28815833" lon="18.61121667">
        <ele>190.7</ele>
        <time>2025-07-20T10:43:20Z</time>
      </trkpt>
      <trkpt lat="46.28811667" lon="18.61138667">
        <ele>190.8</ele>
        <time>2025-07-20T10:43:21Z</time>
      </trkpt>
      <trkpt lat="46.288075" lon="18.611515">
        <ele>190.9</ele>
        <time>2025-07-20T10:43:22Z</time>
      </trkpt>
      <trkpt lat="46.28805" lon="18.611655">
        <ele>191.1</ele>
        <time>2025-07-20T10:43:24Z</time>
      </trkpt>
      <trkpt lat="46.28811833" lon="18.6115">
        <ele>192.5</ele>
        <time>2025-07-20T10:44:12Z</time>
      </trkpt>
      <trkpt lat="46.28822667" lon="18.61131833">
        <ele>192.6</ele>
        <time>2025-07-20T10:44:16Z</time>
      </trkpt>
      <trkpt lat="46.288255" lon="18.61117167">
        <ele>192.2</ele>
        <time>2025-07-20T10:44:22Z</time>
      </trkpt>
      <trkpt lat="46.288315" lon="18.61105167">
        <ele>192.1</ele>
        <time>2025-07-20T10:44:24Z</time>
      </trkpt>
      <trkpt lat="46.28819667" lon="18.61114667">
        <ele>195.9</ele>
        <time>2025-07-20T10:44:28Z</time>
      </trkpt>
      <trkpt lat="46.28807667" lon="18.61144167">
        <ele>196.6</ele>
        <time>2025-07-20T10:44:43Z</time>
      </trkpt>
      <trkpt lat="46.28817" lon="18.61156667">
        <ele>196.3</ele>
        <time>2025-07-20T10:44:50Z</time>
      </trkpt>
      <trkpt lat="46.28826833" lon="18.61157333">
        <ele>196.3</ele>
        <time>2025-07-20T10:44:51Z</time>
      </trkpt>
      <trkpt lat="46.288375" lon="18.611555">
        <ele>196.7</ele>
        <time>2025-07-20T10:44:56Z</time>
      </trkpt>
      <trkpt lat="46.28827833" lon="18.61146">
        <ele>198.6</ele>
        <time>2025-07-20T10:45:04Z</time>
      </trkpt>
      <trkpt lat="46.28821167" lon="18.61136">
        <ele>198.1</ele>
        <time>2025-07-20T10:45:10Z</time>
      </trkpt>
      <trkpt lat="46.28811333" lon="18.61131333">
        <ele>198.4</ele>
        <time>2025-07-20T10:45:19Z</time>
      </trkpt>
      <trkpt lat="46.28801833" lon="18.61129833">
        <ele>194.8</ele>
        <time>2025-07-20T10:45:30Z</time>
      </trkpt>
      <trkpt lat="46.28799167" lon="18.61143167">
        <ele>192.9</ele>
        <time>2025-07-20T10:46:37Z</time>
      </trkpt>
      <trkpt lat="46.287905" lon="18.61134167">
        <ele>193.4</ele>
        <time>2025-07-20T10:46:51Z</time>
      </trkpt>
      <trkpt lat="46.28780167" lon="18.61133167">
        <ele>192.9</ele>
        <time>2025-07-20T10:47:10Z</time>
      </trkpt>
      <trkpt lat="46.28771333" lon="18.61127833">
        <ele>193.1</ele>
        <time>2025-07-20T10:47:17Z</time>
      </trkpt>
      <trkpt lat="46.28769333" lon="18.61113333">
        <ele>193.1</ele>
        <time>2025-07-20T10:47:22Z</time>
      </trkpt>
      <trkpt lat="46.28779333" lon="18.61111667">
        <ele>193.2</ele>
        <time>2025-07-20T10:47:25Z</time>
      </trkpt>
      <trkpt lat="46.28791" lon="18.61131">
        <ele>193.1</ele>
        <time>2025-07-20T10:47:28Z</time>
      </trkpt>
      <trkpt lat="46.287945" lon="18.61147667">
        <ele>192.3</ele>
        <time>2025-07-20T10:47:49Z</time>
      </trkpt>
      <trkpt lat="46.28794" lon="18.61161333">
        <ele>190.9</ele>
        <time>2025-07-20T10:47:58Z</time>
      </trkpt>
      <trkpt lat="46.287935" lon="18.611755">
        <ele>189.5</ele>
        <time>2025-07-20T10:48:07Z</time>
      </trkpt>
      <trkpt lat="46.287915" lon="18.61189333">
        <ele>188.1</ele>
        <time>2025-07-20T10:48:16Z</time>
      </trkpt>
      <trkpt lat="46.28790167" lon="18.61203">
        <ele>186.1</ele>
        <time>2025-07-20T10:48:25Z</time>
      </trkpt>
      <trkpt lat="46.28787833" lon="18.61215667">
        <ele>185.4</ele>
        <time>2025-07-20T10:48:36Z</time>
      </trkpt>
      <trkpt lat="46.28788333" lon="18.61229667">
        <ele>185</ele>
        <time>2025-07-20T10:48:50Z</time>
      </trkpt>
      <trkpt lat="46.28793333" lon="18.612175">
        <ele>182.9</ele>
        <time>2025-07-20T10:49:37Z</time>
      </trkpt>
      <trkpt lat="46.28794833" lon="18.61201">
        <ele>184.2</ele>
        <time>2025-07-20T10:49:48Z</time>
      </trkpt>
      <trkpt lat="46.28800167" lon="18.6119">
        <ele>186.8</ele>
        <time>2025-07-20T10:49:57Z</time>
      </trkpt>
      <trkpt lat="46.28799333" lon="18.61176833">
        <ele>187.6</ele>
        <time>2025-07-20T10:50:06Z</time>
      </trkpt>
      <trkpt lat="46.28800167" lon="18.61163833">
        <ele>189.8</ele>
        <time>2025-07-20T10:50:16Z</time>
      </trkpt>
      <trkpt lat="46.28803167" lon="18.61151167">
        <ele>191.4</ele>
        <time>2025-07-20T10:50:24Z</time>
      </trkpt>
      <trkpt lat="46.28805" lon="18.61136833">
        <ele>190.9</ele>
        <time>2025-07-20T10:50:34Z</time>
      </trkpt>
      <trkpt lat="46.28797333" lon="18.61127">
        <ele>188.4</ele>
        <time>2025-07-20T10:50:42Z</time>
      </trkpt>
      <trkpt lat="46.28788" lon="18.61124">
        <ele>187.9</ele>
        <time>2025-07-20T10:50:48Z</time>
      </trkpt>
      <trkpt lat="46.28779333" lon="18.61118333">
        <ele>188.1</ele>
        <time>2025-07-20T10:50:56Z</time>
      </trkpt>
      <trkpt lat="46.28773833" lon="18.61106667">
        <ele>189.4</ele>
        <time>2025-07-20T10:51:05Z</time>
      </trkpt>
      <trkpt lat="46.28771167" lon="18.61093167">
        <ele>186.8</ele>
        <time>2025-07-20T10:51:14Z</time>
      </trkpt>
      <trkpt lat="46.287705" lon="18.61079833">
        <ele>186.8</ele>
        <time>2025-07-20T10:51:21Z</time>
      </trkpt>
      <trkpt lat="46.2877" lon="18.61065833">
        <ele>188</ele>
        <time>2025-07-20T10:51:30Z</time>
      </trkpt>
      <trkpt lat="46.28766333" lon="18.61052667">
        <ele>188.6</ele>
        <time>2025-07-20T10:51:40Z</time>
      </trkpt>
      <trkpt lat="46.28768" lon="18.61038667">
        <ele>188.9</ele>
        <time>2025-07-20T10:51:58Z</time>
      </trkpt>
      <trkpt lat="46.287705" lon="18.610255">
        <ele>189</ele>
        <time>2025-07-20T10:52:07Z</time>
      </trkpt>
      <trkpt lat="46.287725" lon="18.61012667">
        <ele>188.9</ele>
        <time>2025-07-20T10:52:15Z</time>
      </trkpt>
      <trkpt lat="46.28775" lon="18.61000167">
        <ele>188.7</ele>
        <time>2025-07-20T10:52:23Z</time>
      </trkpt>
      <trkpt lat="46.287775" lon="18.60987167">
        <ele>188.2</ele>
        <time>2025-07-20T10:52:30Z</time>
      </trkpt>
      <trkpt lat="46.287805" lon="18.60974">
        <ele>186.4</ele>
        <time>2025-07-20T10:52:39Z</time>
      </trkpt>
      <trkpt lat="46.28785167" lon="18.60962667">
        <ele>185.9</ele>
        <time>2025-07-20T10:52:47Z</time>
      </trkpt>
      <trkpt lat="46.28789" lon="18.60950333">
        <ele>184.6</ele>
        <time>2025-07-20T10:52:58Z</time>
      </trkpt>
      <trkpt lat="46.28790167" lon="18.60937333">
        <ele>184.7</ele>
        <time>2025-07-20T10:53:06Z</time>
      </trkpt>
      <trkpt lat="46.287925" lon="18.60924167">
        <ele>184.1</ele>
        <time>2025-07-20T10:53:13Z</time>
      </trkpt>
      <trkpt lat="46.28795333" lon="18.60910667">
        <ele>183.3</ele>
        <time>2025-07-20T10:53:22Z</time>
      </trkpt>
      <trkpt lat="46.28799333" lon="18.60897333">
        <ele>183.4</ele>
        <time>2025-07-20T10:53:31Z</time>
      </trkpt>
      <trkpt lat="46.28802333" lon="18.60884">
        <ele>183.3</ele>
        <time>2025-07-20T10:53:39Z</time>
      </trkpt>
      <trkpt lat="46.28806167" lon="18.60871667">
        <ele>182.9</ele>
        <time>2025-07-20T10:53:46Z</time>
      </trkpt>
      <trkpt lat="46.28810333" lon="18.60858667">
        <ele>182.2</ele>
        <time>2025-07-20T10:53:56Z</time>
      </trkpt>
      <trkpt lat="46.288155" lon="18.60847667">
        <ele>181.5</ele>
        <time>2025-07-20T10:54:04Z</time>
      </trkpt>
      <trkpt lat="46.28821167" lon="18.60836167">
        <ele>181.6</ele>
        <time>2025-07-20T10:54:12Z</time>
      </trkpt>
      <trkpt lat="46.288265" lon="18.60824667">
        <ele>181</ele>
        <time>2025-07-20T10:54:21Z</time>
      </trkpt>
      <trkpt lat="46.28832" lon="18.60813">
        <ele>180.2</ele>
        <time>2025-07-20T10:54:29Z</time>
      </trkpt>
      <trkpt lat="46.28837333" lon="18.60802333">
        <ele>180.4</ele>
        <time>2025-07-20T10:54:37Z</time>
      </trkpt>
      <trkpt lat="46.28844" lon="18.60793">
        <ele>180.2</ele>
        <time>2025-07-20T10:54:46Z</time>
      </trkpt>
      <trkpt lat="46.288475" lon="18.60780667">
        <ele>179.5</ele>
        <time>2025-07-20T10:54:53Z</time>
      </trkpt>
      <trkpt lat="46.28854" lon="18.60771667">
        <ele>180.4</ele>
        <time>2025-07-20T10:55:00Z</time>
      </trkpt>
      <trkpt lat="46.288615" lon="18.607635">
        <ele>180.6</ele>
        <time>2025-07-20T10:55:10Z</time>
      </trkpt>
      <trkpt lat="46.28870333" lon="18.607665">
        <ele>178.6</ele>
        <time>2025-07-20T10:55:20Z</time>
      </trkpt>
      <trkpt lat="46.28880167" lon="18.60764833">
        <ele>177.7</ele>
        <time>2025-07-20T10:55:30Z</time>
      </trkpt>
      <trkpt lat="46.288885" lon="18.60758167">
        <ele>177.7</ele>
        <time>2025-07-20T10:55:37Z</time>
      </trkpt>
      <trkpt lat="46.28895833" lon="18.60748167">
        <ele>178.2</ele>
        <time>2025-07-20T10:55:44Z</time>
      </trkpt>
      <trkpt lat="46.28902167" lon="18.60737833">
        <ele>179.8</ele>
        <time>2025-07-20T10:55:53Z</time>
      </trkpt>
      <trkpt lat="46.28909833" lon="18.607295">
        <ele>179.9</ele>
        <time>2025-07-20T10:56:02Z</time>
      </trkpt>
      <trkpt lat="46.28917667" lon="18.60721667">
        <ele>180</ele>
        <time>2025-07-20T10:56:10Z</time>
      </trkpt>
      <trkpt lat="46.28926833" lon="18.60718167">
        <ele>179.7</ele>
        <time>2025-07-20T10:56:18Z</time>
      </trkpt>
      <trkpt lat="46.28935333" lon="18.60710667">
        <ele>178</ele>
        <time>2025-07-20T10:56:27Z</time>
      </trkpt>
      <trkpt lat="46.28943667" lon="18.607035">
        <ele>177</ele>
        <time>2025-07-20T10:56:37Z</time>
      </trkpt>
      <trkpt lat="46.28952833" lon="18.60697667">
        <ele>178</ele>
        <time>2025-07-20T10:56:45Z</time>
      </trkpt>
      <trkpt lat="46.28960833" lon="18.606905">
        <ele>179.6</ele>
        <time>2025-07-20T10:56:53Z</time>
      </trkpt>
      <trkpt lat="46.289675" lon="18.60681333">
        <ele>178.4</ele>
        <time>2025-07-20T10:57:02Z</time>
      </trkpt>
      <trkpt lat="46.28976333" lon="18.60675333">
        <ele>177.7</ele>
        <time>2025-07-20T10:57:11Z</time>
      </trkpt>
      <trkpt lat="46.28983" lon="18.60664833">
        <ele>175.7</ele>
        <time>2025-07-20T10:57:21Z</time>
      </trkpt>
    </trkseg>
  </trk>
</gpx>