<?xml version='1.0' encoding='UTF-8' standalone='yes' ?>
<gpx xmlns="http://www.topografix.com/GPX/1/1" xmlns:geotracker="http://ilyabogdanovich.com/gpx/extensions/geotracker" xmlns:xsi="http://www.w3.org/2001/XMLSchema-instance" xsi:schemaLocation="http://www.topografix.com/GPX/1/1 http://www.topografix.com/GPX/1/1/gpx.xsd" version="1.1" creator="Recorded in Geo Tracker for Android from Ilya Bogdanovich">
  <metadata>
    <name>w_0714_06</name>
    <author>
      <name>Recorded in Geo Tracker for Android from Ilya Bogdanovich</name>
      <link href="https://play.google.com/store/apps/details?id=com.ilyabogdanovich.geotracker" />
    </author>
    <link href="https://play.google.com/store/apps/details?id=com.ilyabogdanovich.geotracker" />
    <time>2025-07-14T16:52:06Z</time>
  </metadata>
  <trk>
    <name>w_0714_06</name>
    <src>Recorded in Geo Tracker for Android from Ilya Bogdanovich</src>
    <link href="https://play.google.com/store/apps/details?id=com.ilyabogdanovich.geotracker" />
    <extensions>
      <geotracker:meta>
        <geotracker:length>510.93</geotracker:length>
        <geotracker:duration>520469</geotracker:duration>
        <geotracker:creationtime>2025-07-14T16:52:06Z</geotracker:creationtime>
        <geotracker:activity>0</geotracker:activity>
      </geotracker:meta>
    </extensions>
    <trkseg>
      <trkpt lat="46.95383833" lon="16.27073333">
        <ele>275.4</ele>
        <time>2025-07-14T16:52:16Z</time>
      </trkpt>
      <trkpt lat="46.95378167" lon="16.27062">
        <ele>275.1</ele>
        <time>2025-07-14T16:52:55Z</time>
      </trkpt>
      <trkpt lat="46.95371" lon="16.27049">
        <ele>274.2</ele>
        <time>2025-07-14T16:53:27Z</time>
      </trkpt>
      <trkpt lat="46.95362333" lon="16.27054167">
        <ele>274.5</ele>
        <time>2025-07-14T16:53:39Z</time>
      </trkpt>
      <trkpt lat="46.953545" lon="16.27061167">
        <ele>273.9</ele>
        <time>2025-07-14T16:53:48Z</time>
      </trkpt>
      <trkpt lat="46.95351333" lon="16.27048667">
        <ele>277.2</ele>
        <time>2025-07-14T16:53:58Z</time>
      </trkpt>
      <trkpt lat="46.953495" lon="16.27033833">
        <ele>273.4</ele>
        <time>2025-07-14T16:54:08Z</time>
      </trkpt>
      <trkpt lat="46.95343" lon="16.27024167">
        <ele>270.1</ele>
        <time>2025-07-14T16:54:15Z</time>
      </trkpt>
      <trkpt lat="46.953365" lon="16.270135">
        <ele>270.6</ele>
        <time>2025-07-14T16:54:22Z</time>
      </trkpt>
      <trkpt lat="46.953285" lon="16.27004667">
        <ele>272.6</ele>
        <time>2025-07-14T16:54:30Z</time>
      </trkpt>
      <trkpt lat="46.95319333" lon="16.27000667">
        <ele>271.9</ele>
        <time>2025-07-14T16:54:38Z</time>
      </trkpt>
      <trkpt lat="46.95310167" lon="16.269995">
        <ele>270.5</ele>
        <time>2025-07-14T16:54:47Z</time>
      </trkpt>
      <trkpt lat="46.95300833" lon="16.270005">
        <ele>271.1</ele>
        <time>2025-07-14T16:54:54Z</time>
      </trkpt>
      <trkpt lat="46.95291833" lon="16.27000333">
        <ele>271.6</ele>
        <time>2025-07-14T16:55:02Z</time>
      </trkpt>
      <trkpt lat="46.95282833" lon="16.27003">
        <ele>270.7</ele>
        <time>2025-07-14T16:55:11Z</time>
      </trkpt>
      <trkpt lat="46.95273333" lon="16.270025">
        <ele>269.2</ele>
        <time>2025-07-14T16:55:21Z</time>
      </trkpt>
      <trkpt lat="46.95264333" lon="16.27003333">
        <ele>269.1</ele>
        <time>2025-07-14T16:55:28Z</time>
      </trkpt>
      <trkpt lat="46.952555" lon="16.27006">
        <ele>271</ele>
        <time>2025-07-14T16:55:35Z</time>
      </trkpt>
      <trkpt lat="46.95245667" lon="16.270075">
        <ele>273.2</ele>
        <time>2025-07-14T16:55:45Z</time>
      </trkpt>
      <trkpt lat="46.95235667" lon="16.27004667">
        <ele>273.8</ele>
        <time>2025-07-14T16:55:53Z</time>
      </trkpt>
      <trkpt lat="46.952265" lon="16.27003">
        <ele>273.3</ele>
        <time>2025-07-14T16:56:03Z</time>
      </trkpt>
      <trkpt lat="46.95217167" lon="16.27002667">
        <ele>272.2</ele>
        <time>2025-07-14T16:56:11Z</time>
      </trkpt>
      <trkpt lat="46.95209333" lon="16.270095">
        <ele>274.2</ele>
        <time>2025-07-14T16:56:18Z</time>
      </trkpt>
      <trkpt lat="46.95209167" lon="16.27024167">
        <ele>276</ele>
        <time>2025-07-14T16:56:24Z</time>
      </trkpt>
      <trkpt lat="46.95213167" lon="16.27036167">
        <ele>274.3</ele>
        <time>2025-07-14T16:56:29Z</time>
      </trkpt>
      <trkpt lat="46.95214167" lon="16.270495">
        <ele>277</ele>
        <time>2025-07-14T16:56:34Z</time>
      </trkpt>
      <trkpt lat="46.95205167" lon="16.27047167">
        <ele>271.4</ele>
        <time>2025-07-14T16:56:53Z</time>
      </trkpt>
      <trkpt lat="46.95197667" lon="16.27039333">
        <ele>270.5</ele>
        <time>2025-07-14T16:57:03Z</time>
      </trkpt>
      <trkpt lat="46.95190167" lon="16.27028667">
        <ele>269.3</ele>
        <time>2025-07-14T16:57:11Z</time>
      </trkpt>
      <trkpt lat="46.95180167" lon="16.27022167">
        <ele>269.3</ele>
        <time>2025-07-14T16:57:20Z</time>
      </trkpt>
      <trkpt lat="46.95170333" lon="16.27022167">
        <ele>271.1</ele>
        <time>2025-07-14T16:57:27Z</time>
      </trkpt>
      <trkpt lat="46.95161167" lon="16.27028">
        <ele>272.7</ele>
        <time>2025-07-14T16:57:34Z</time>
      </trkpt>
      <trkpt lat="46.95152167" lon="16.270355">
        <ele>274.6</ele>
        <time>2025-07-14T16:57:41Z</time>
      </trkpt>
      <trkpt lat="46.95149167" lon="16.27048">
        <ele>274.7</ele>
        <time>2025-07-14T16:57:51Z</time>
      </trkpt>
      <trkpt lat="46.95155" lon="16.27059167">
        <ele>274.7</ele>
        <time>2025-07-14T16:57:58Z</time>
      </trkpt>
      <trkpt lat="46.95161333" lon="16.270695">
        <ele>273.8</ele>
        <time>2025-07-14T16:58:06Z</time>
      </trkpt>
      <trkpt lat="46.951665" lon="16.27080833">
        <ele>273.8</ele>
        <time>2025-07-14T16:58:12Z</time>
      </trkpt>
      <trkpt lat="46.95168833" lon="16.27093833">
        <ele>273.5</ele>
        <time>2025-07-14T16:58:19Z</time>
      </trkpt>
      <trkpt lat="46.95175833" lon="16.27103333">
        <ele>271.8</ele>
        <time>2025-07-14T16:58:28Z</time>
      </trkpt>
      <trkpt lat="46.95181167" lon="16.27115167">
        <ele>270.8</ele>
        <time>2025-07-14T16:58:36Z</time>
      </trkpt>
      <trkpt lat="46.95185167" lon="16.27127333">
        <ele>269.8</ele>
        <time>2025-07-14T16:58:43Z</time>
      </trkpt>
      <trkpt lat="46.95189167" lon="16.27139167">
        <ele>269.4</ele>
        <time>2025-07-14T16:58:50Z</time>
      </trkpt>
      <trkpt lat="46.951945" lon="16.2715">
        <ele>267.4</ele>
        <time>2025-07-14T16:58:58Z</time>
      </trkpt>
      <trkpt lat="46.95197333" lon="16.271635">
        <ele>265.4</ele>
        <time>2025-07-14T16:59:06Z</time>
      </trkpt>
      <trkpt lat="46.95202" lon="16.27175">
        <ele>263.2</ele>
        <time>2025-07-14T16:59:14Z</time>
      </trkpt>
      <trkpt lat="46.95205" lon="16.27188833">
        <ele>262.1</ele>
        <time>2025-07-14T16:59:21Z</time>
      </trkpt>
      <trkpt lat="46.9521" lon="16.27202167">
        <ele>263.3</ele>
        <time>2025-07-14T16:59:26Z</time>
      </trkpt>
      <trkpt lat="46.952145" lon="16.27213833">
        <ele>266.7</ele>
        <time>2025-07-14T16:59:33Z</time>
      </trkpt>
      <trkpt lat="46.952055" lon="16.27208167">
        <ele>270.4</ele>
        <time>2025-07-14T17:00:03Z</time>
      </trkpt>
    </trkseg>
  </trk>
</gpx>