<?xml version='1.0' encoding='UTF-8' standalone='yes' ?>
<gpx xmlns="http://www.topografix.com/GPX/1/1" xmlns:geotracker="http://ilyabogdanovich.com/gpx/extensions/geotracker" xmlns:xsi="http://www.w3.org/2001/XMLSchema-instance" xsi:schemaLocation="http://www.topografix.com/GPX/1/1 http://www.topografix.com/GPX/1/1/gpx.xsd" version="1.1" creator="Recorded in Geo Tracker for Android from Ilya Bogdanovich">
  <metadata>
    <name>w_0722_11</name>
    <author>
      <name>Recorded in Geo Tracker for Android from Ilya Bogdanovich</name>
      <link href="https://play.google.com/store/apps/details?id=com.ilyabogdanovich.geotracker" />
    </author>
    <link href="https://play.google.com/store/apps/details?id=com.ilyabogdanovich.geotracker" />
    <time>2025-07-22T16:41:35Z</time>
  </metadata>
  <trk>
    <name>w_0722_11</name>
    <src>Recorded in Geo Tracker for Android from Ilya Bogdanovich</src>
    <link href="https://play.google.com/store/apps/details?id=com.ilyabogdanovich.geotracker" />
    <extensions>
      <geotracker:meta>
        <geotracker:length>53.22</geotracker:length>
        <geotracker:duration>168173</geotracker:duration>
        <geotracker:creationtime>2025-07-22T16:41:35Z</geotracker:creationtime>
        <geotracker:activity>0</geotracker:activity>
      </geotracker:meta>
    </extensions>
    <trkseg>
      <trkpt lat="46.03285833" lon="17.99053167">
        <ele>159.3</ele>
        <time>2025-07-22T16:41:41Z</time>
      </trkpt>
      <trkpt lat="46.03294" lon="17.99059667">
        <ele>159.2</ele>
        <time>2025-07-22T16:41:46Z</time>
      </trkpt>
      <trkpt lat="46.03309667" lon="17.99070333">
        <ele>162</ele>
        <time>2025-07-22T16:43:20Z</time>
      </trkpt>
      <trkpt lat="46.03318667" lon="17.990735">
        <ele>163.7</ele>
        <time>2025-07-22T16:43:31Z</time>
      </trkpt>
      <trkpt lat="46.03329667" lon="17.99080167">
        <ele>165.9</ele>
        <time>2025-07-22T16:43:53Z</time>
      </trkpt>
    </trkseg>
  </trk>
</gpx>