<?xml version='1.0' encoding='UTF-8' standalone='yes' ?>
<gpx xmlns="http://www.topografix.com/GPX/1/1" xmlns:geotracker="http://ilyabogdanovich.com/gpx/extensions/geotracker" xmlns:xsi="http://www.w3.org/2001/XMLSchema-instance" xsi:schemaLocation="http://www.topografix.com/GPX/1/1 http://www.topografix.com/GPX/1/1/gpx.xsd" version="1.1" creator="Recorded in Geo Tracker for Android from Ilya Bogdanovich">
  <metadata>
    <name>w_0705_06</name>
    <author>
      <name>Recorded in Geo Tracker for Android from Ilya Bogdanovich</name>
      <link href="https://play.google.com/store/apps/details?id=com.ilyabogdanovich.geotracker" />
    </author>
    <link href="https://play.google.com/store/apps/details?id=com.ilyabogdanovich.geotracker" />
    <time>2025-07-05T17:43:02Z</time>
  </metadata>
  <wpt lat="47.71589167" lon="20.948015">
    <ele>133.9</ele>
    <time>2025-07-05T17:45:24Z</time>
    <name>Stop for ~5 min</name>
    <desc>Elevation: 134 m
Time from start: 00:02:21
Distance from start: 3 m</desc>
    <extensions>
      <geotracker:meta visited="1" />
    </extensions>
  </wpt>
  <trk>
    <name>w_0705_06</name>
    <src>Recorded in Geo Tracker for Android from Ilya Bogdanovich</src>
    <link href="https://play.google.com/store/apps/details?id=com.ilyabogdanovich.geotracker" />
    <extensions>
      <geotracker:meta>
        <geotracker:length>31.92</geotracker:length>
        <geotracker:duration>346337</geotracker:duration>
        <geotracker:creationtime>2025-07-05T17:43:02Z</geotracker:creationtime>
        <geotracker:activity>0</geotracker:activity>
      </geotracker:meta>
    </extensions>
    <trkseg>
      <trkpt lat="47.715885" lon="20.94797833">
        <ele>134.1</ele>
        <time>2025-07-05T17:43:08Z</time>
      </trkpt>
      <trkpt lat="47.71589167" lon="20.948015">
        <ele>133.9</ele>
        <time>2025-07-05T17:45:24Z</time>
      </trkpt>
      <trkpt lat="47.71585" lon="20.947935">
        <ele>126.6</ele>
        <time>2025-07-05T17:48:17Z</time>
      </trkpt>
      <trkpt lat="47.715835" lon="20.948075">
        <ele>126.6</ele>
        <time>2025-07-05T17:48:27Z</time>
      </trkpt>
      <trkpt lat="47.71577167" lon="20.948185">
        <ele>130.3</ele>
        <time>2025-07-05T17:48:40Z</time>
      </trkpt>
    </trkseg>
  </trk>
</gpx>