<?xml version='1.0' encoding='UTF-8' standalone='yes' ?>
<gpx xmlns="http://www.topografix.com/GPX/1/1" xmlns:geotracker="http://ilyabogdanovich.com/gpx/extensions/geotracker" xmlns:xsi="http://www.w3.org/2001/XMLSchema-instance" xsi:schemaLocation="http://www.topografix.com/GPX/1/1 http://www.topografix.com/GPX/1/1/gpx.xsd" version="1.1" creator="Recorded in Geo Tracker for Android from Ilya Bogdanovich">
  <metadata>
    <name>w_0707_07</name>
    <author>
      <name>Recorded in Geo Tracker for Android from Ilya Bogdanovich</name>
      <link href="https://play.google.com/store/apps/details?id=com.ilyabogdanovich.geotracker" />
    </author>
    <link href="https://play.google.com/store/apps/details?id=com.ilyabogdanovich.geotracker" />
    <time>2025-07-07T13:33:16Z</time>
  </metadata>
  <wpt lat="47.95404333" lon="22.32100333">
    <ele>170.5</ele>
    <time>2025-07-07T13:43:00Z</time>
    <name>Stop for ~2 min</name>
    <desc>Elevation: 171 m
Time from start: 00:09:43
Distance from start: 0,66 km</desc>
    <extensions>
      <geotracker:meta visited="1" />
    </extensions>
  </wpt>
  <wpt lat="47.94603167" lon="22.3239">
    <ele>130</ele>
    <time>2025-07-07T14:29:12Z</time>
    <name>Stop for ~2 min</name>
    <desc>Elevation: 130 m
Time from start: 00:55:55
Distance from start: 3,23 km</desc>
    <extensions>
      <geotracker:meta visited="1" />
    </extensions>
  </wpt>
  <wpt lat="47.94652667" lon="22.323745">
    <ele>167.3</ele>
    <time>2025-07-07T14:34:57Z</time>
    <name>Stop for ~11 min</name>
    <desc>Elevation: 167 m
Time from start: 01:01:40
Distance from start: 3,38 km</desc>
    <extensions>
      <geotracker:meta visited="1" />
    </extensions>
  </wpt>
  <trk>
    <name>w_0707_07</name>
    <src>Recorded in Geo Tracker for Android from Ilya Bogdanovich</src>
    <link href="https://play.google.com/store/apps/details?id=com.ilyabogdanovich.geotracker" />
    <extensions>
      <geotracker:meta>
        <geotracker:length>3693.8</geotracker:length>
        <geotracker:duration>4535633</geotracker:duration>
        <geotracker:creationtime>2025-07-07T13:33:16Z</geotracker:creationtime>
        <geotracker:activity>0</geotracker:activity>
      </geotracker:meta>
    </extensions>
    <trkseg>
      <trkpt lat="47.95134167" lon="22.31404833">
        <ele>197.6</ele>
        <time>2025-07-07T13:33:22Z</time>
      </trkpt>
      <trkpt lat="47.95124833" lon="22.31408667">
        <ele>196.4</ele>
        <time>2025-07-07T13:33:35Z</time>
      </trkpt>
      <trkpt lat="47.95117333" lon="22.31416167">
        <ele>193.3</ele>
        <time>2025-07-07T13:33:48Z</time>
      </trkpt>
      <trkpt lat="47.95111167" lon="22.31427">
        <ele>185.6</ele>
        <time>2025-07-07T13:33:54Z</time>
      </trkpt>
      <trkpt lat="47.951145" lon="22.314395">
        <ele>177.5</ele>
        <time>2025-07-07T13:34:15Z</time>
      </trkpt>
      <trkpt lat="47.95122333" lon="22.31446333">
        <ele>175.7</ele>
        <time>2025-07-07T13:34:22Z</time>
      </trkpt>
      <trkpt lat="47.95127167" lon="22.31459">
        <ele>172.9</ele>
        <time>2025-07-07T13:34:31Z</time>
      </trkpt>
      <trkpt lat="47.95133333" lon="22.31470333">
        <ele>171.1</ele>
        <time>2025-07-07T13:34:39Z</time>
      </trkpt>
      <trkpt lat="47.95133667" lon="22.31484167">
        <ele>169.5</ele>
        <time>2025-07-07T13:34:48Z</time>
      </trkpt>
      <trkpt lat="47.95139833" lon="22.31495833">
        <ele>169</ele>
        <time>2025-07-07T13:34:58Z</time>
      </trkpt>
      <trkpt lat="47.951435" lon="22.31509167">
        <ele>167.5</ele>
        <time>2025-07-07T13:35:06Z</time>
      </trkpt>
      <trkpt lat="47.95147167" lon="22.31521833">
        <ele>167.8</ele>
        <time>2025-07-07T13:35:14Z</time>
      </trkpt>
      <trkpt lat="47.95152833" lon="22.31533833">
        <ele>167.3</ele>
        <time>2025-07-07T13:35:22Z</time>
      </trkpt>
      <trkpt lat="47.95157833" lon="22.31545167">
        <ele>165.7</ele>
        <time>2025-07-07T13:35:29Z</time>
      </trkpt>
      <trkpt lat="47.95162167" lon="22.31557667">
        <ele>164.2</ele>
        <time>2025-07-07T13:35:37Z</time>
      </trkpt>
      <trkpt lat="47.95166667" lon="22.315695">
        <ele>165</ele>
        <time>2025-07-07T13:35:44Z</time>
      </trkpt>
      <trkpt lat="47.95169667" lon="22.31584">
        <ele>166.9</ele>
        <time>2025-07-07T13:35:52Z</time>
      </trkpt>
      <trkpt lat="47.95173667" lon="22.31596333">
        <ele>168.5</ele>
        <time>2025-07-07T13:35:59Z</time>
      </trkpt>
      <trkpt lat="47.95178667" lon="22.31609333">
        <ele>169.8</ele>
        <time>2025-07-07T13:36:07Z</time>
      </trkpt>
      <trkpt lat="47.951825" lon="22.31622667">
        <ele>169</ele>
        <time>2025-07-07T13:36:15Z</time>
      </trkpt>
      <trkpt lat="47.95188833" lon="22.31634167">
        <ele>167.6</ele>
        <time>2025-07-07T13:36:23Z</time>
      </trkpt>
      <trkpt lat="47.95193333" lon="22.31647667">
        <ele>168</ele>
        <time>2025-07-07T13:36:31Z</time>
      </trkpt>
      <trkpt lat="47.95198833" lon="22.316585">
        <ele>166.1</ele>
        <time>2025-07-07T13:36:41Z</time>
      </trkpt>
      <trkpt lat="47.95203667" lon="22.3167">
        <ele>164.7</ele>
        <time>2025-07-07T13:36:48Z</time>
      </trkpt>
      <trkpt lat="47.95209833" lon="22.31680833">
        <ele>162</ele>
        <time>2025-07-07T13:36:57Z</time>
      </trkpt>
      <trkpt lat="47.95216167" lon="22.316905">
        <ele>160.5</ele>
        <time>2025-07-07T13:37:05Z</time>
      </trkpt>
      <trkpt lat="47.95219" lon="22.31703333">
        <ele>160.4</ele>
        <time>2025-07-07T13:37:12Z</time>
      </trkpt>
      <trkpt lat="47.95225333" lon="22.31713833">
        <ele>158.3</ele>
        <time>2025-07-07T13:37:21Z</time>
      </trkpt>
      <trkpt lat="47.95231333" lon="22.317265">
        <ele>156.9</ele>
        <time>2025-07-07T13:37:31Z</time>
      </trkpt>
      <trkpt lat="47.95238333" lon="22.31736333">
        <ele>156.9</ele>
        <time>2025-07-07T13:37:39Z</time>
      </trkpt>
      <trkpt lat="47.95240833" lon="22.31750833">
        <ele>159.6</ele>
        <time>2025-07-07T13:37:44Z</time>
      </trkpt>
      <trkpt lat="47.95243333" lon="22.31764333">
        <ele>162.7</ele>
        <time>2025-07-07T13:37:50Z</time>
      </trkpt>
      <trkpt lat="47.95246333" lon="22.317785">
        <ele>165.3</ele>
        <time>2025-07-07T13:37:59Z</time>
      </trkpt>
      <trkpt lat="47.95251667" lon="22.317895">
        <ele>164.3</ele>
        <time>2025-07-07T13:38:07Z</time>
      </trkpt>
      <trkpt lat="47.95256833" lon="22.31801333">
        <ele>163.5</ele>
        <time>2025-07-07T13:38:14Z</time>
      </trkpt>
      <trkpt lat="47.95264167" lon="22.31809333">
        <ele>162.7</ele>
        <time>2025-07-07T13:38:22Z</time>
      </trkpt>
      <trkpt lat="47.95267833" lon="22.31823333">
        <ele>161</ele>
        <time>2025-07-07T13:38:31Z</time>
      </trkpt>
      <trkpt lat="47.9527" lon="22.318375">
        <ele>162.7</ele>
        <time>2025-07-07T13:38:37Z</time>
      </trkpt>
      <trkpt lat="47.95274833" lon="22.31850833">
        <ele>166.1</ele>
        <time>2025-07-07T13:38:45Z</time>
      </trkpt>
      <trkpt lat="47.95278" lon="22.31864667">
        <ele>167.4</ele>
        <time>2025-07-07T13:38:53Z</time>
      </trkpt>
      <trkpt lat="47.952825" lon="22.31877667">
        <ele>167.3</ele>
        <time>2025-07-07T13:39:03Z</time>
      </trkpt>
      <trkpt lat="47.95286667" lon="22.31890833">
        <ele>167.1</ele>
        <time>2025-07-07T13:39:11Z</time>
      </trkpt>
      <trkpt lat="47.9529" lon="22.31903833">
        <ele>166.9</ele>
        <time>2025-07-07T13:39:17Z</time>
      </trkpt>
      <trkpt lat="47.95292" lon="22.31917333">
        <ele>167.5</ele>
        <time>2025-07-07T13:39:23Z</time>
      </trkpt>
      <trkpt lat="47.95296833" lon="22.31929667">
        <ele>165.8</ele>
        <time>2025-07-07T13:39:32Z</time>
      </trkpt>
      <trkpt lat="47.95299833" lon="22.319445">
        <ele>165.4</ele>
        <time>2025-07-07T13:39:39Z</time>
      </trkpt>
      <trkpt lat="47.953035" lon="22.31957167">
        <ele>167.1</ele>
        <time>2025-07-07T13:39:49Z</time>
      </trkpt>
      <trkpt lat="47.95308667" lon="22.31970167">
        <ele>167.1</ele>
        <time>2025-07-07T13:39:59Z</time>
      </trkpt>
      <trkpt lat="47.95314" lon="22.31981">
        <ele>165.8</ele>
        <time>2025-07-07T13:40:08Z</time>
      </trkpt>
      <trkpt lat="47.95316333" lon="22.319945">
        <ele>166</ele>
        <time>2025-07-07T13:40:16Z</time>
      </trkpt>
      <trkpt lat="47.95319833" lon="22.32008167">
        <ele>165.3</ele>
        <time>2025-07-07T13:40:24Z</time>
      </trkpt>
      <trkpt lat="47.95324" lon="22.32021167">
        <ele>166.4</ele>
        <time>2025-07-07T13:40:59Z</time>
      </trkpt>
      <trkpt lat="47.95327333" lon="22.32033667">
        <ele>166.3</ele>
        <time>2025-07-07T13:41:07Z</time>
      </trkpt>
      <trkpt lat="47.95336" lon="22.320375">
        <ele>166.1</ele>
        <time>2025-07-07T13:41:18Z</time>
      </trkpt>
      <trkpt lat="47.95345" lon="22.32039">
        <ele>168.1</ele>
        <time>2025-07-07T13:41:41Z</time>
      </trkpt>
      <trkpt lat="47.953545" lon="22.32041667">
        <ele>168.2</ele>
        <time>2025-07-07T13:41:52Z</time>
      </trkpt>
      <trkpt lat="47.95361833" lon="22.32051167">
        <ele>168.2</ele>
        <time>2025-07-07T13:42:00Z</time>
      </trkpt>
      <trkpt lat="47.95368" lon="22.32061667">
        <ele>169.3</ele>
        <time>2025-07-07T13:42:09Z</time>
      </trkpt>
      <trkpt lat="47.953765" lon="22.32068167">
        <ele>169.6</ele>
        <time>2025-07-07T13:42:22Z</time>
      </trkpt>
      <trkpt lat="47.953845" lon="22.320745">
        <ele>170.5</ele>
        <time>2025-07-07T13:42:33Z</time>
      </trkpt>
      <trkpt lat="47.95392333" lon="22.32082333">
        <ele>171</ele>
        <time>2025-07-07T13:42:43Z</time>
      </trkpt>
      <trkpt lat="47.95394667" lon="22.32096833">
        <ele>170.6</ele>
        <time>2025-07-07T13:42:52Z</time>
      </trkpt>
      <trkpt lat="47.95404333" lon="22.32100333">
        <ele>170.5</ele>
        <time>2025-07-07T13:43:00Z</time>
      </trkpt>
      <trkpt lat="47.95408" lon="22.320975">
        <ele>168.6</ele>
        <time>2025-07-07T13:45:27Z</time>
      </trkpt>
      <trkpt lat="47.95409333" lon="22.32097667">
        <ele>169.3</ele>
        <time>2025-07-07T13:49:08Z</time>
      </trkpt>
      <trkpt lat="47.954" lon="22.32093667">
        <ele>165.5</ele>
        <time>2025-07-07T13:49:26Z</time>
      </trkpt>
      <trkpt lat="47.95393833" lon="22.32081667">
        <ele>166.1</ele>
        <time>2025-07-07T13:49:36Z</time>
      </trkpt>
      <trkpt lat="47.953985" lon="22.32068833">
        <ele>166.8</ele>
        <time>2025-07-07T13:49:44Z</time>
      </trkpt>
      <trkpt lat="47.95405333" lon="22.32058333">
        <ele>167.3</ele>
        <time>2025-07-07T13:49:51Z</time>
      </trkpt>
      <trkpt lat="47.95409833" lon="22.32046">
        <ele>165.5</ele>
        <time>2025-07-07T13:50:00Z</time>
      </trkpt>
      <trkpt lat="47.95415333" lon="22.32035167">
        <ele>165.1</ele>
        <time>2025-07-07T13:50:08Z</time>
      </trkpt>
      <trkpt lat="47.954135" lon="22.32021667">
        <ele>166.1</ele>
        <time>2025-07-07T13:50:13Z</time>
      </trkpt>
      <trkpt lat="47.95413333" lon="22.32007833">
        <ele>167.5</ele>
        <time>2025-07-07T13:50:20Z</time>
      </trkpt>
      <trkpt lat="47.95421833" lon="22.32002333">
        <ele>166.8</ele>
        <time>2025-07-07T13:50:38Z</time>
      </trkpt>
      <trkpt lat="47.95424333" lon="22.31988167">
        <ele>169.1</ele>
        <time>2025-07-07T13:50:58Z</time>
      </trkpt>
      <trkpt lat="47.95429667" lon="22.31976333">
        <ele>168</ele>
        <time>2025-07-07T13:51:06Z</time>
      </trkpt>
      <trkpt lat="47.95436" lon="22.31966">
        <ele>168.1</ele>
        <time>2025-07-07T13:51:20Z</time>
      </trkpt>
      <trkpt lat="47.954455" lon="22.31965833">
        <ele>166</ele>
        <time>2025-07-07T13:52:49Z</time>
      </trkpt>
      <trkpt lat="47.95453167" lon="22.31973167">
        <ele>165.1</ele>
        <time>2025-07-07T13:52:56Z</time>
      </trkpt>
      <trkpt lat="47.95462" lon="22.31976167">
        <ele>163.6</ele>
        <time>2025-07-07T13:53:02Z</time>
      </trkpt>
      <trkpt lat="47.95471833" lon="22.31976">
        <ele>162.7</ele>
        <time>2025-07-07T13:53:08Z</time>
      </trkpt>
      <trkpt lat="47.95482167" lon="22.319735">
        <ele>162.6</ele>
        <time>2025-07-07T13:53:16Z</time>
      </trkpt>
      <trkpt lat="47.95490333" lon="22.31980667">
        <ele>163</ele>
        <time>2025-07-07T13:53:26Z</time>
      </trkpt>
      <trkpt lat="47.95493667" lon="22.31995">
        <ele>163.8</ele>
        <time>2025-07-07T13:53:35Z</time>
      </trkpt>
      <trkpt lat="47.95497833" lon="22.32008167">
        <ele>165.7</ele>
        <time>2025-07-07T13:53:42Z</time>
      </trkpt>
      <trkpt lat="47.95504167" lon="22.320185">
        <ele>164.1</ele>
        <time>2025-07-07T13:53:49Z</time>
      </trkpt>
      <trkpt lat="47.95512333" lon="22.320265">
        <ele>163.6</ele>
        <time>2025-07-07T13:53:57Z</time>
      </trkpt>
      <trkpt lat="47.95519333" lon="22.32035667">
        <ele>163.2</ele>
        <time>2025-07-07T13:54:05Z</time>
      </trkpt>
      <trkpt lat="47.95528" lon="22.320405">
        <ele>163</ele>
        <time>2025-07-07T13:54:14Z</time>
      </trkpt>
      <trkpt lat="47.95536167" lon="22.32048667">
        <ele>161.8</ele>
        <time>2025-07-07T13:54:21Z</time>
      </trkpt>
      <trkpt lat="47.95544833" lon="22.32053667">
        <ele>161.3</ele>
        <time>2025-07-07T13:54:27Z</time>
      </trkpt>
      <trkpt lat="47.95552167" lon="22.320625">
        <ele>162</ele>
        <time>2025-07-07T13:54:36Z</time>
      </trkpt>
      <trkpt lat="47.95560333" lon="22.32070667">
        <ele>161.5</ele>
        <time>2025-07-07T13:54:45Z</time>
      </trkpt>
      <trkpt lat="47.95558" lon="22.320845">
        <ele>162.8</ele>
        <time>2025-07-07T13:54:57Z</time>
      </trkpt>
      <trkpt lat="47.95552" lon="22.32095667">
        <ele>164.2</ele>
        <time>2025-07-07T13:55:11Z</time>
      </trkpt>
      <trkpt lat="47.95543833" lon="22.32104667">
        <ele>163.4</ele>
        <time>2025-07-07T13:55:18Z</time>
      </trkpt>
      <trkpt lat="47.95536333" lon="22.32114">
        <ele>162.8</ele>
        <time>2025-07-07T13:55:25Z</time>
      </trkpt>
      <trkpt lat="47.95534167" lon="22.32128333">
        <ele>161.8</ele>
        <time>2025-07-07T13:55:38Z</time>
      </trkpt>
      <trkpt lat="47.95524167" lon="22.32132667">
        <ele>161.3</ele>
        <time>2025-07-07T13:55:45Z</time>
      </trkpt>
      <trkpt lat="47.95528333" lon="22.32145">
        <ele>167.3</ele>
        <time>2025-07-07T13:57:18Z</time>
      </trkpt>
      <trkpt lat="47.95537333" lon="22.32149833">
        <ele>166</ele>
        <time>2025-07-07T13:57:28Z</time>
      </trkpt>
      <trkpt lat="47.95544" lon="22.32159167">
        <ele>165.4</ele>
        <time>2025-07-07T13:57:37Z</time>
      </trkpt>
      <trkpt lat="47.95548333" lon="22.32171167">
        <ele>166.8</ele>
        <time>2025-07-07T13:57:45Z</time>
      </trkpt>
      <trkpt lat="47.955525" lon="22.32183833">
        <ele>169.6</ele>
        <time>2025-07-07T13:57:53Z</time>
      </trkpt>
      <trkpt lat="47.95558333" lon="22.32196333">
        <ele>173.5</ele>
        <time>2025-07-07T13:58:01Z</time>
      </trkpt>
      <trkpt lat="47.95560833" lon="22.32210833">
        <ele>173.8</ele>
        <time>2025-07-07T13:58:09Z</time>
      </trkpt>
      <trkpt lat="47.95556333" lon="22.32224333">
        <ele>172.4</ele>
        <time>2025-07-07T13:58:17Z</time>
      </trkpt>
      <trkpt lat="47.95551833" lon="22.322365">
        <ele>170.3</ele>
        <time>2025-07-07T13:58:23Z</time>
      </trkpt>
      <trkpt lat="47.955445" lon="22.32244333">
        <ele>169.1</ele>
        <time>2025-07-07T13:58:29Z</time>
      </trkpt>
      <trkpt lat="47.95537333" lon="22.32255167">
        <ele>167.9</ele>
        <time>2025-07-07T13:58:36Z</time>
      </trkpt>
      <trkpt lat="47.95530833" lon="22.32265333">
        <ele>166.5</ele>
        <time>2025-07-07T13:58:44Z</time>
      </trkpt>
      <trkpt lat="47.95523167" lon="22.32273167">
        <ele>165</ele>
        <time>2025-07-07T13:58:53Z</time>
      </trkpt>
      <trkpt lat="47.95514333" lon="22.322775">
        <ele>163.3</ele>
        <time>2025-07-07T13:59:09Z</time>
      </trkpt>
      <trkpt lat="47.95505333" lon="22.32281833">
        <ele>161.8</ele>
        <time>2025-07-07T13:59:20Z</time>
      </trkpt>
      <trkpt lat="47.95496333" lon="22.32285833">
        <ele>161.2</ele>
        <time>2025-07-07T13:59:27Z</time>
      </trkpt>
      <trkpt lat="47.95489" lon="22.32293833">
        <ele>160</ele>
        <time>2025-07-07T13:59:32Z</time>
      </trkpt>
      <trkpt lat="47.95481833" lon="22.32302">
        <ele>159</ele>
        <time>2025-07-07T13:59:40Z</time>
      </trkpt>
      <trkpt lat="47.95475833" lon="22.32313667">
        <ele>159.4</ele>
        <time>2025-07-07T13:59:46Z</time>
      </trkpt>
      <trkpt lat="47.95466667" lon="22.32318167">
        <ele>159.3</ele>
        <time>2025-07-07T13:59:52Z</time>
      </trkpt>
      <trkpt lat="47.95460833" lon="22.32329833">
        <ele>157.4</ele>
        <time>2025-07-07T14:00:01Z</time>
      </trkpt>
      <trkpt lat="47.95459333" lon="22.32343833">
        <ele>157.6</ele>
        <time>2025-07-07T14:00:09Z</time>
      </trkpt>
      <trkpt lat="47.95451667" lon="22.32353833">
        <ele>158.7</ele>
        <time>2025-07-07T14:00:17Z</time>
      </trkpt>
      <trkpt lat="47.95451833" lon="22.32367833">
        <ele>157.5</ele>
        <time>2025-07-07T14:00:29Z</time>
      </trkpt>
      <trkpt lat="47.95459167" lon="22.32376167">
        <ele>155.7</ele>
        <time>2025-07-07T14:00:38Z</time>
      </trkpt>
      <trkpt lat="47.95468" lon="22.32385167">
        <ele>158.2</ele>
        <time>2025-07-07T14:00:47Z</time>
      </trkpt>
      <trkpt lat="47.95476" lon="22.32394333">
        <ele>160.9</ele>
        <time>2025-07-07T14:00:54Z</time>
      </trkpt>
      <trkpt lat="47.954815" lon="22.32407167">
        <ele>162.7</ele>
        <time>2025-07-07T14:01:02Z</time>
      </trkpt>
      <trkpt lat="47.95486333" lon="22.32419167">
        <ele>164.2</ele>
        <time>2025-07-07T14:01:08Z</time>
      </trkpt>
      <trkpt lat="47.95490167" lon="22.32431333">
        <ele>166.3</ele>
        <time>2025-07-07T14:01:15Z</time>
      </trkpt>
      <trkpt lat="47.95491833" lon="22.32445167">
        <ele>166.7</ele>
        <time>2025-07-07T14:01:22Z</time>
      </trkpt>
      <trkpt lat="47.95492667" lon="22.32458667">
        <ele>166.9</ele>
        <time>2025-07-07T14:01:32Z</time>
      </trkpt>
      <trkpt lat="47.95493" lon="22.32472667">
        <ele>164.6</ele>
        <time>2025-07-07T14:01:43Z</time>
      </trkpt>
      <trkpt lat="47.95495333" lon="22.32486167">
        <ele>162.1</ele>
        <time>2025-07-07T14:01:52Z</time>
      </trkpt>
      <trkpt lat="47.95495" lon="22.32499667">
        <ele>160.1</ele>
        <time>2025-07-07T14:02:04Z</time>
      </trkpt>
      <trkpt lat="47.95495667" lon="22.32514">
        <ele>159.5</ele>
        <time>2025-07-07T14:02:44Z</time>
      </trkpt>
      <trkpt lat="47.95498333" lon="22.32527">
        <ele>159.5</ele>
        <time>2025-07-07T14:02:51Z</time>
      </trkpt>
      <trkpt lat="47.95499667" lon="22.32541333">
        <ele>158.3</ele>
        <time>2025-07-07T14:03:00Z</time>
      </trkpt>
      <trkpt lat="47.955045" lon="22.32554167">
        <ele>157.2</ele>
        <time>2025-07-07T14:03:08Z</time>
      </trkpt>
      <trkpt lat="47.95505" lon="22.32569">
        <ele>157.3</ele>
        <time>2025-07-07T14:03:18Z</time>
      </trkpt>
      <trkpt lat="47.95506" lon="22.32583333">
        <ele>157.2</ele>
        <time>2025-07-07T14:03:26Z</time>
      </trkpt>
      <trkpt lat="47.955065" lon="22.32597833">
        <ele>155.3</ele>
        <time>2025-07-07T14:03:32Z</time>
      </trkpt>
      <trkpt lat="47.955255" lon="22.32615167">
        <ele>195.4</ele>
        <time>2025-07-07T14:03:37Z</time>
      </trkpt>
      <trkpt lat="47.95521667" lon="22.32627333">
        <ele>185.8</ele>
        <time>2025-07-07T14:03:49Z</time>
      </trkpt>
      <trkpt lat="47.95522333" lon="22.32641333">
        <ele>179.6</ele>
        <time>2025-07-07T14:03:59Z</time>
      </trkpt>
      <trkpt lat="47.955185" lon="22.32656">
        <ele>177.2</ele>
        <time>2025-07-07T14:04:06Z</time>
      </trkpt>
      <trkpt lat="47.95509833" lon="22.32662667">
        <ele>173.8</ele>
        <time>2025-07-07T14:04:10Z</time>
      </trkpt>
      <trkpt lat="47.95500333" lon="22.32665333">
        <ele>170.3</ele>
        <time>2025-07-07T14:04:17Z</time>
      </trkpt>
      <trkpt lat="47.95490667" lon="22.32665">
        <ele>167.3</ele>
        <time>2025-07-07T14:04:23Z</time>
      </trkpt>
      <trkpt lat="47.95481667" lon="22.32667333">
        <ele>163.5</ele>
        <time>2025-07-07T14:04:30Z</time>
      </trkpt>
      <trkpt lat="47.954725" lon="22.32670833">
        <ele>160.9</ele>
        <time>2025-07-07T14:04:37Z</time>
      </trkpt>
      <trkpt lat="47.95462167" lon="22.32675">
        <ele>159.1</ele>
        <time>2025-07-07T14:04:45Z</time>
      </trkpt>
      <trkpt lat="47.95454" lon="22.32682667">
        <ele>158.4</ele>
        <time>2025-07-07T14:04:52Z</time>
      </trkpt>
      <trkpt lat="47.95444167" lon="22.32683833">
        <ele>157.9</ele>
        <time>2025-07-07T14:05:00Z</time>
      </trkpt>
      <trkpt lat="47.95434333" lon="22.32682167">
        <ele>156.3</ele>
        <time>2025-07-07T14:05:08Z</time>
      </trkpt>
      <trkpt lat="47.95424833" lon="22.32681167">
        <ele>155.4</ele>
        <time>2025-07-07T14:05:16Z</time>
      </trkpt>
      <trkpt lat="47.95415667" lon="22.32684667">
        <ele>155.5</ele>
        <time>2025-07-07T14:05:23Z</time>
      </trkpt>
      <trkpt lat="47.954075" lon="22.326905">
        <ele>156.5</ele>
        <time>2025-07-07T14:05:27Z</time>
      </trkpt>
      <trkpt lat="47.953975" lon="22.32689167">
        <ele>156.2</ele>
        <time>2025-07-07T14:05:33Z</time>
      </trkpt>
      <trkpt lat="47.95388333" lon="22.326875">
        <ele>156.6</ele>
        <time>2025-07-07T14:05:39Z</time>
      </trkpt>
      <trkpt lat="47.953795" lon="22.32690333">
        <ele>157.5</ele>
        <time>2025-07-07T14:05:46Z</time>
      </trkpt>
      <trkpt lat="47.953725" lon="22.32698833">
        <ele>158.2</ele>
        <time>2025-07-07T14:05:56Z</time>
      </trkpt>
      <trkpt lat="47.953615" lon="22.32705333">
        <ele>158</ele>
        <time>2025-07-07T14:06:37Z</time>
      </trkpt>
      <trkpt lat="47.95353167" lon="22.32713667">
        <ele>160.5</ele>
        <time>2025-07-07T14:06:46Z</time>
      </trkpt>
      <trkpt lat="47.95344333" lon="22.3271">
        <ele>160.3</ele>
        <time>2025-07-07T14:07:02Z</time>
      </trkpt>
      <trkpt lat="47.95340167" lon="22.32722833">
        <ele>163.8</ele>
        <time>2025-07-07T14:07:35Z</time>
      </trkpt>
      <trkpt lat="47.95330833" lon="22.32727">
        <ele>164.5</ele>
        <time>2025-07-07T14:07:47Z</time>
      </trkpt>
      <trkpt lat="47.95321833" lon="22.32728667">
        <ele>165.7</ele>
        <time>2025-07-07T14:07:59Z</time>
      </trkpt>
      <trkpt lat="47.95312667" lon="22.32726833">
        <ele>163.7</ele>
        <time>2025-07-07T14:08:14Z</time>
      </trkpt>
      <trkpt lat="47.95304" lon="22.32721167">
        <ele>163.5</ele>
        <time>2025-07-07T14:08:22Z</time>
      </trkpt>
      <trkpt lat="47.95295" lon="22.32721">
        <ele>163.6</ele>
        <time>2025-07-07T14:08:32Z</time>
      </trkpt>
      <trkpt lat="47.95286" lon="22.32724667">
        <ele>161.6</ele>
        <time>2025-07-07T14:09:04Z</time>
      </trkpt>
      <trkpt lat="47.95277" lon="22.32720333">
        <ele>161.5</ele>
        <time>2025-07-07T14:09:18Z</time>
      </trkpt>
      <trkpt lat="47.952675" lon="22.32721167">
        <ele>160</ele>
        <time>2025-07-07T14:09:29Z</time>
      </trkpt>
      <trkpt lat="47.952585" lon="22.32726833">
        <ele>158.9</ele>
        <time>2025-07-07T14:09:35Z</time>
      </trkpt>
      <trkpt lat="47.95251667" lon="22.327365">
        <ele>159.4</ele>
        <time>2025-07-07T14:09:45Z</time>
      </trkpt>
      <trkpt lat="47.95249333" lon="22.327495">
        <ele>160.3</ele>
        <time>2025-07-07T14:10:01Z</time>
      </trkpt>
      <trkpt lat="47.9524" lon="22.32745667">
        <ele>163.7</ele>
        <time>2025-07-07T14:10:24Z</time>
      </trkpt>
      <trkpt lat="47.95231167" lon="22.32741">
        <ele>164.4</ele>
        <time>2025-07-07T14:10:34Z</time>
      </trkpt>
      <trkpt lat="47.95220833" lon="22.32743667">
        <ele>166.1</ele>
        <time>2025-07-07T14:10:58Z</time>
      </trkpt>
      <trkpt lat="47.95212" lon="22.32749833">
        <ele>165.6</ele>
        <time>2025-07-07T14:11:04Z</time>
      </trkpt>
      <trkpt lat="47.95201333" lon="22.32758">
        <ele>169.2</ele>
        <time>2025-07-07T14:11:29Z</time>
      </trkpt>
      <trkpt lat="47.95192167" lon="22.32760167">
        <ele>164.7</ele>
        <time>2025-07-07T14:12:19Z</time>
      </trkpt>
      <trkpt lat="47.951825" lon="22.32761167">
        <ele>162.4</ele>
        <time>2025-07-07T14:12:28Z</time>
      </trkpt>
      <trkpt lat="47.95172833" lon="22.327645">
        <ele>162</ele>
        <time>2025-07-07T14:12:38Z</time>
      </trkpt>
      <trkpt lat="47.95164" lon="22.32770667">
        <ele>162.2</ele>
        <time>2025-07-07T14:12:46Z</time>
      </trkpt>
      <trkpt lat="47.95155" lon="22.32770167">
        <ele>161.9</ele>
        <time>2025-07-07T14:12:56Z</time>
      </trkpt>
      <trkpt lat="47.95145333" lon="22.32774167">
        <ele>160.7</ele>
        <time>2025-07-07T14:13:06Z</time>
      </trkpt>
      <trkpt lat="47.95136833" lon="22.32778833">
        <ele>158.8</ele>
        <time>2025-07-07T14:13:14Z</time>
      </trkpt>
      <trkpt lat="47.95127167" lon="22.32777333">
        <ele>157.9</ele>
        <time>2025-07-07T14:13:38Z</time>
      </trkpt>
      <trkpt lat="47.95119333" lon="22.32785667">
        <ele>156.4</ele>
        <time>2025-07-07T14:13:44Z</time>
      </trkpt>
      <trkpt lat="47.95113333" lon="22.32796167">
        <ele>157.3</ele>
        <time>2025-07-07T14:13:54Z</time>
      </trkpt>
      <trkpt lat="47.951045" lon="22.32803167">
        <ele>153.9</ele>
        <time>2025-07-07T14:14:13Z</time>
      </trkpt>
      <trkpt lat="47.95096" lon="22.32810167">
        <ele>154.8</ele>
        <time>2025-07-07T14:14:22Z</time>
      </trkpt>
      <trkpt lat="47.95090667" lon="22.32821833">
        <ele>153.6</ele>
        <time>2025-07-07T14:14:33Z</time>
      </trkpt>
      <trkpt lat="47.950815" lon="22.32824167">
        <ele>154.4</ele>
        <time>2025-07-07T14:14:47Z</time>
      </trkpt>
      <trkpt lat="47.95073" lon="22.32819333">
        <ele>155.8</ele>
        <time>2025-07-07T14:14:54Z</time>
      </trkpt>
      <trkpt lat="47.95064667" lon="22.32811333">
        <ele>158.2</ele>
        <time>2025-07-07T14:15:01Z</time>
      </trkpt>
      <trkpt lat="47.950665" lon="22.327925">
        <ele>187.9</ele>
        <time>2025-07-07T14:15:05Z</time>
      </trkpt>
      <trkpt lat="47.950585" lon="22.32784333">
        <ele>165.9</ele>
        <time>2025-07-07T14:15:20Z</time>
      </trkpt>
      <trkpt lat="47.95053167" lon="22.32773167">
        <ele>160.7</ele>
        <time>2025-07-07T14:15:27Z</time>
      </trkpt>
      <trkpt lat="47.95051833" lon="22.32759167">
        <ele>159.2</ele>
        <time>2025-07-07T14:15:33Z</time>
      </trkpt>
      <trkpt lat="47.95050167" lon="22.32744667">
        <ele>156.8</ele>
        <time>2025-07-07T14:15:40Z</time>
      </trkpt>
      <trkpt lat="47.95048333" lon="22.32731">
        <ele>155</ele>
        <time>2025-07-07T14:15:48Z</time>
      </trkpt>
      <trkpt lat="47.950465" lon="22.327165">
        <ele>154.6</ele>
        <time>2025-07-07T14:15:56Z</time>
      </trkpt>
      <trkpt lat="47.95046833" lon="22.327025">
        <ele>155.3</ele>
        <time>2025-07-07T14:16:03Z</time>
      </trkpt>
      <trkpt lat="47.95048" lon="22.326885">
        <ele>155.6</ele>
        <time>2025-07-07T14:16:10Z</time>
      </trkpt>
      <trkpt lat="47.95048833" lon="22.32674167">
        <ele>156.1</ele>
        <time>2025-07-07T14:16:18Z</time>
      </trkpt>
      <trkpt lat="47.95049167" lon="22.326605">
        <ele>157</ele>
        <time>2025-07-07T14:16:24Z</time>
      </trkpt>
      <trkpt lat="47.95050167" lon="22.32645167">
        <ele>160.3</ele>
        <time>2025-07-07T14:16:30Z</time>
      </trkpt>
      <trkpt lat="47.950495" lon="22.32630667">
        <ele>160.5</ele>
        <time>2025-07-07T14:16:39Z</time>
      </trkpt>
      <trkpt lat="47.95052" lon="22.32616">
        <ele>160.5</ele>
        <time>2025-07-07T14:16:47Z</time>
      </trkpt>
      <trkpt lat="47.95052833" lon="22.32601">
        <ele>159.5</ele>
        <time>2025-07-07T14:16:54Z</time>
      </trkpt>
      <trkpt lat="47.950505" lon="22.32587833">
        <ele>160.4</ele>
        <time>2025-07-07T14:16:59Z</time>
      </trkpt>
      <trkpt lat="47.95057167" lon="22.32577333">
        <ele>160.1</ele>
        <time>2025-07-07T14:17:07Z</time>
      </trkpt>
      <trkpt lat="47.95064667" lon="22.32567667">
        <ele>160.5</ele>
        <time>2025-07-07T14:17:15Z</time>
      </trkpt>
      <trkpt lat="47.950695" lon="22.32554333">
        <ele>159</ele>
        <time>2025-07-07T14:17:23Z</time>
      </trkpt>
      <trkpt lat="47.95072833" lon="22.32541">
        <ele>158.1</ele>
        <time>2025-07-07T14:17:31Z</time>
      </trkpt>
      <trkpt lat="47.95077667" lon="22.32528667">
        <ele>157.5</ele>
        <time>2025-07-07T14:17:39Z</time>
      </trkpt>
      <trkpt lat="47.95082167" lon="22.32516333">
        <ele>158.1</ele>
        <time>2025-07-07T14:17:47Z</time>
      </trkpt>
      <trkpt lat="47.950825" lon="22.325015">
        <ele>160.9</ele>
        <time>2025-07-07T14:17:55Z</time>
      </trkpt>
      <trkpt lat="47.95077667" lon="22.3249">
        <ele>162.5</ele>
        <time>2025-07-07T14:18:04Z</time>
      </trkpt>
      <trkpt lat="47.95068333" lon="22.32485667">
        <ele>162.3</ele>
        <time>2025-07-07T14:18:12Z</time>
      </trkpt>
      <trkpt lat="47.95058667" lon="22.32484667">
        <ele>160.6</ele>
        <time>2025-07-07T14:18:20Z</time>
      </trkpt>
      <trkpt lat="47.95049667" lon="22.32488667">
        <ele>160.6</ele>
        <time>2025-07-07T14:18:27Z</time>
      </trkpt>
      <trkpt lat="47.950395" lon="22.32489667">
        <ele>160.1</ele>
        <time>2025-07-07T14:18:34Z</time>
      </trkpt>
      <trkpt lat="47.95029833" lon="22.324875">
        <ele>159</ele>
        <time>2025-07-07T14:18:41Z</time>
      </trkpt>
      <trkpt lat="47.950205" lon="22.32486167">
        <ele>158.6</ele>
        <time>2025-07-07T14:18:48Z</time>
      </trkpt>
      <trkpt lat="47.950115" lon="22.32485333">
        <ele>157.5</ele>
        <time>2025-07-07T14:18:56Z</time>
      </trkpt>
      <trkpt lat="47.95001167" lon="22.32484333">
        <ele>156.3</ele>
        <time>2025-07-07T14:19:04Z</time>
      </trkpt>
      <trkpt lat="47.94991" lon="22.32483833">
        <ele>157.7</ele>
        <time>2025-07-07T14:19:11Z</time>
      </trkpt>
      <trkpt lat="47.949815" lon="22.324835">
        <ele>159</ele>
        <time>2025-07-07T14:19:18Z</time>
      </trkpt>
      <trkpt lat="47.94971833" lon="22.32481833">
        <ele>159.2</ele>
        <time>2025-07-07T14:19:25Z</time>
      </trkpt>
      <trkpt lat="47.94962833" lon="22.32481667">
        <ele>157.2</ele>
        <time>2025-07-07T14:19:32Z</time>
      </trkpt>
      <trkpt lat="47.94953167" lon="22.32479667">
        <ele>154.7</ele>
        <time>2025-07-07T14:19:40Z</time>
      </trkpt>
      <trkpt lat="47.94944" lon="22.32479167">
        <ele>154.3</ele>
        <time>2025-07-07T14:19:46Z</time>
      </trkpt>
      <trkpt lat="47.94934333" lon="22.32478667">
        <ele>155.9</ele>
        <time>2025-07-07T14:19:53Z</time>
      </trkpt>
      <trkpt lat="47.94925333" lon="22.32478667">
        <ele>158.2</ele>
        <time>2025-07-07T14:20:00Z</time>
      </trkpt>
      <trkpt lat="47.94916167" lon="22.32479333">
        <ele>158.8</ele>
        <time>2025-07-07T14:20:08Z</time>
      </trkpt>
      <trkpt lat="47.94907" lon="22.32477167">
        <ele>159.2</ele>
        <time>2025-07-07T14:20:15Z</time>
      </trkpt>
      <trkpt lat="47.94896833" lon="22.32478">
        <ele>159.2</ele>
        <time>2025-07-07T14:20:21Z</time>
      </trkpt>
      <trkpt lat="47.94887333" lon="22.32478333">
        <ele>160</ele>
        <time>2025-07-07T14:20:28Z</time>
      </trkpt>
      <trkpt lat="47.94878" lon="22.32479333">
        <ele>160.8</ele>
        <time>2025-07-07T14:20:35Z</time>
      </trkpt>
      <trkpt lat="47.948675" lon="22.32479">
        <ele>159.1</ele>
        <time>2025-07-07T14:20:42Z</time>
      </trkpt>
      <trkpt lat="47.948585" lon="22.32479333">
        <ele>159.5</ele>
        <time>2025-07-07T14:20:48Z</time>
      </trkpt>
      <trkpt lat="47.94848667" lon="22.32478333">
        <ele>159.4</ele>
        <time>2025-07-07T14:20:55Z</time>
      </trkpt>
      <trkpt lat="47.94839333" lon="22.32478333">
        <ele>157.8</ele>
        <time>2025-07-07T14:21:02Z</time>
      </trkpt>
      <trkpt lat="47.94830167" lon="22.32475833">
        <ele>157.7</ele>
        <time>2025-07-07T14:21:09Z</time>
      </trkpt>
      <trkpt lat="47.94821" lon="22.32474667">
        <ele>158.9</ele>
        <time>2025-07-07T14:21:16Z</time>
      </trkpt>
      <trkpt lat="47.94811333" lon="22.32475">
        <ele>158.8</ele>
        <time>2025-07-07T14:21:25Z</time>
      </trkpt>
      <trkpt lat="47.94802333" lon="22.32475167">
        <ele>157.8</ele>
        <time>2025-07-07T14:21:31Z</time>
      </trkpt>
      <trkpt lat="47.94792167" lon="22.32476667">
        <ele>157.7</ele>
        <time>2025-07-07T14:21:37Z</time>
      </trkpt>
      <trkpt lat="47.94782833" lon="22.324785">
        <ele>158.6</ele>
        <time>2025-07-07T14:21:43Z</time>
      </trkpt>
      <trkpt lat="47.94773833" lon="22.32478667">
        <ele>158.9</ele>
        <time>2025-07-07T14:21:49Z</time>
      </trkpt>
      <trkpt lat="47.947645" lon="22.32479667">
        <ele>159.9</ele>
        <time>2025-07-07T14:21:55Z</time>
      </trkpt>
      <trkpt lat="47.947555" lon="22.32481167">
        <ele>160.6</ele>
        <time>2025-07-07T14:22:02Z</time>
      </trkpt>
      <trkpt lat="47.94746" lon="22.32482667">
        <ele>163.4</ele>
        <time>2025-07-07T14:22:08Z</time>
      </trkpt>
      <trkpt lat="47.947375" lon="22.32487333">
        <ele>163.3</ele>
        <time>2025-07-07T14:22:15Z</time>
      </trkpt>
      <trkpt lat="47.94727333" lon="22.32487167">
        <ele>164.8</ele>
        <time>2025-07-07T14:22:36Z</time>
      </trkpt>
      <trkpt lat="47.94717" lon="22.32489">
        <ele>163.4</ele>
        <time>2025-07-07T14:22:45Z</time>
      </trkpt>
      <trkpt lat="47.94709333" lon="22.32480833">
        <ele>161.5</ele>
        <time>2025-07-07T14:22:54Z</time>
      </trkpt>
      <trkpt lat="47.94702667" lon="22.32471333">
        <ele>160.2</ele>
        <time>2025-07-07T14:23:01Z</time>
      </trkpt>
      <trkpt lat="47.94695" lon="22.32463">
        <ele>159.2</ele>
        <time>2025-07-07T14:23:08Z</time>
      </trkpt>
      <trkpt lat="47.94687167" lon="22.32452833">
        <ele>158.9</ele>
        <time>2025-07-07T14:23:16Z</time>
      </trkpt>
      <trkpt lat="47.94678833" lon="22.32446167">
        <ele>159.4</ele>
        <time>2025-07-07T14:23:22Z</time>
      </trkpt>
      <trkpt lat="47.946725" lon="22.32434333">
        <ele>162.1</ele>
        <time>2025-07-07T14:23:29Z</time>
      </trkpt>
      <trkpt lat="47.94672333" lon="22.32419667">
        <ele>163.9</ele>
        <time>2025-07-07T14:23:38Z</time>
      </trkpt>
      <trkpt lat="47.946785" lon="22.32431833">
        <ele>165</ele>
        <time>2025-07-07T14:23:54Z</time>
      </trkpt>
      <trkpt lat="47.94625833" lon="22.32384667">
        <ele>195.7</ele>
        <time>2025-07-07T14:25:25Z</time>
      </trkpt>
      <trkpt lat="47.94616333" lon="22.32374833">
        <ele>200.4</ele>
        <time>2025-07-07T14:25:27Z</time>
      </trkpt>
      <trkpt lat="47.94605667" lon="22.32359833">
        <ele>189.3</ele>
        <time>2025-07-07T14:25:34Z</time>
      </trkpt>
      <trkpt lat="47.94585667" lon="22.32362333">
        <ele>169.5</ele>
        <time>2025-07-07T14:25:44Z</time>
      </trkpt>
      <trkpt lat="47.94595" lon="22.323585">
        <ele>171.3</ele>
        <time>2025-07-07T14:25:45Z</time>
      </trkpt>
      <trkpt lat="47.94606833" lon="22.32357">
        <ele>172.6</ele>
        <time>2025-07-07T14:25:48Z</time>
      </trkpt>
      <trkpt lat="47.94617333" lon="22.32362167">
        <ele>169.1</ele>
        <time>2025-07-07T14:25:55Z</time>
      </trkpt>
      <trkpt lat="47.946255" lon="22.323695">
        <ele>167.1</ele>
        <time>2025-07-07T14:26:00Z</time>
      </trkpt>
      <trkpt lat="47.94633667" lon="22.32356333">
        <ele>161.8</ele>
        <time>2025-07-07T14:26:09Z</time>
      </trkpt>
      <trkpt lat="47.94623833" lon="22.32357">
        <ele>157.9</ele>
        <time>2025-07-07T14:26:22Z</time>
      </trkpt>
      <trkpt lat="47.94619833" lon="22.32373833">
        <ele>164.2</ele>
        <time>2025-07-07T14:26:37Z</time>
      </trkpt>
      <trkpt lat="47.94614667" lon="22.323625">
        <ele>163.6</ele>
        <time>2025-07-07T14:26:40Z</time>
      </trkpt>
      <trkpt lat="47.94605333" lon="22.32356833">
        <ele>164.3</ele>
        <time>2025-07-07T14:26:46Z</time>
      </trkpt>
      <trkpt lat="47.94580667" lon="22.323625">
        <ele>164.4</ele>
        <time>2025-07-07T14:27:46Z</time>
      </trkpt>
      <trkpt lat="47.94594167" lon="22.32362167">
        <ele>165.7</ele>
        <time>2025-07-07T14:27:49Z</time>
      </trkpt>
      <trkpt lat="47.94626333" lon="22.32374833">
        <ele>168.3</ele>
        <time>2025-07-07T14:27:53Z</time>
      </trkpt>
      <trkpt lat="47.946175" lon="22.32370167">
        <ele>168.7</ele>
        <time>2025-07-07T14:27:58Z</time>
      </trkpt>
      <trkpt lat="47.94622833" lon="22.32381333">
        <ele>151.6</ele>
        <time>2025-07-07T14:28:03Z</time>
      </trkpt>
      <trkpt lat="47.9461" lon="22.32381667">
        <ele>156</ele>
        <time>2025-07-07T14:28:16Z</time>
      </trkpt>
      <trkpt lat="47.946255" lon="22.323715">
        <ele>156.4</ele>
        <time>2025-07-07T14:28:23Z</time>
      </trkpt>
      <trkpt lat="47.94603167" lon="22.3239">
        <ele>130</ele>
        <time>2025-07-07T14:29:12Z</time>
      </trkpt>
      <trkpt lat="47.94612333" lon="22.32380667">
        <ele>143.7</ele>
        <time>2025-07-07T14:30:39Z</time>
      </trkpt>
      <trkpt lat="47.94603667" lon="22.32373667">
        <ele>151.9</ele>
        <time>2025-07-07T14:30:46Z</time>
      </trkpt>
      <trkpt lat="47.94617667" lon="22.32373833">
        <ele>154.7</ele>
        <time>2025-07-07T14:30:50Z</time>
      </trkpt>
      <trkpt lat="47.946735" lon="22.32417333">
        <ele>158</ele>
        <time>2025-07-07T14:31:21Z</time>
      </trkpt>
      <trkpt lat="47.94663833" lon="22.32410333">
        <ele>159.1</ele>
        <time>2025-07-07T14:31:27Z</time>
      </trkpt>
      <trkpt lat="47.94652667" lon="22.323745">
        <ele>167.3</ele>
        <time>2025-07-07T14:34:57Z</time>
      </trkpt>
      <trkpt lat="47.94636833" lon="22.323595">
        <ele>152.9</ele>
        <time>2025-07-07T14:36:18Z</time>
      </trkpt>
      <trkpt lat="47.94644667" lon="22.32367333">
        <ele>150.4</ele>
        <time>2025-07-07T14:36:25Z</time>
      </trkpt>
      <trkpt lat="47.94652" lon="22.323755">
        <ele>154.6</ele>
        <time>2025-07-07T14:36:42Z</time>
      </trkpt>
      <trkpt lat="47.94606167" lon="22.32367333">
        <ele>146.2</ele>
        <time>2025-07-07T14:42:35Z</time>
      </trkpt>
      <trkpt lat="47.94616" lon="22.32368667">
        <ele>146.4</ele>
        <time>2025-07-07T14:42:38Z</time>
      </trkpt>
      <trkpt lat="47.94625" lon="22.32366833">
        <ele>146.8</ele>
        <time>2025-07-07T14:42:40Z</time>
      </trkpt>
      <trkpt lat="47.94637167" lon="22.323665">
        <ele>147.4</ele>
        <time>2025-07-07T14:42:41Z</time>
      </trkpt>
      <trkpt lat="47.94650167" lon="22.32365333">
        <ele>147.9</ele>
        <time>2025-07-07T14:42:43Z</time>
      </trkpt>
      <trkpt lat="47.9466" lon="22.32369333">
        <ele>148.1</ele>
        <time>2025-07-07T14:42:47Z</time>
      </trkpt>
      <trkpt lat="47.94667333" lon="22.323775">
        <ele>148.4</ele>
        <time>2025-07-07T14:42:58Z</time>
      </trkpt>
      <trkpt lat="47.94699833" lon="22.32405833">
        <ele>191</ele>
        <time>2025-07-07T14:43:43Z</time>
      </trkpt>
      <trkpt lat="47.94689167" lon="22.32408">
        <ele>166.7</ele>
        <time>2025-07-07T14:43:46Z</time>
      </trkpt>
      <trkpt lat="47.94681833" lon="22.32417">
        <ele>156.8</ele>
        <time>2025-07-07T14:43:51Z</time>
      </trkpt>
      <trkpt lat="47.946785" lon="22.32430667">
        <ele>158.5</ele>
        <time>2025-07-07T14:43:59Z</time>
      </trkpt>
      <trkpt lat="47.94674" lon="22.32444833">
        <ele>157.4</ele>
        <time>2025-07-07T14:44:05Z</time>
      </trkpt>
      <trkpt lat="47.94674833" lon="22.32459833">
        <ele>157.3</ele>
        <time>2025-07-07T14:44:12Z</time>
      </trkpt>
      <trkpt lat="47.94676333" lon="22.32474167">
        <ele>158</ele>
        <time>2025-07-07T14:44:20Z</time>
      </trkpt>
      <trkpt lat="47.94676667" lon="22.324895">
        <ele>157.9</ele>
        <time>2025-07-07T14:44:29Z</time>
      </trkpt>
      <trkpt lat="47.94669167" lon="22.324995">
        <ele>159</ele>
        <time>2025-07-07T14:44:37Z</time>
      </trkpt>
      <trkpt lat="47.94659833" lon="22.325035">
        <ele>159.6</ele>
        <time>2025-07-07T14:44:44Z</time>
      </trkpt>
      <trkpt lat="47.94654" lon="22.32506">
        <ele>159.6</ele>
        <time>2025-07-07T14:46:45Z</time>
      </trkpt>
      <trkpt lat="47.94654" lon="22.32506">
        <ele>159.6</ele>
        <time>2025-07-07T14:48:46Z</time>
      </trkpt>
    </trkseg>
  </trk>
</gpx>