<?xml version='1.0' encoding='UTF-8' standalone='yes' ?>
<gpx xmlns="http://www.topografix.com/GPX/1/1" xmlns:geotracker="http://ilyabogdanovich.com/gpx/extensions/geotracker" xmlns:xsi="http://www.w3.org/2001/XMLSchema-instance" xsi:schemaLocation="http://www.topografix.com/GPX/1/1 http://www.topografix.com/GPX/1/1/gpx.xsd" version="1.1" creator="Recorded in Geo Tracker for Android from Ilya Bogdanovich">
  <metadata>
    <name>w_0716_10</name>
    <author>
      <name>Recorded in Geo Tracker for Android from Ilya Bogdanovich</name>
      <link href="https://play.google.com/store/apps/details?id=com.ilyabogdanovich.geotracker" />
    </author>
    <link href="https://play.google.com/store/apps/details?id=com.ilyabogdanovich.geotracker" />
    <time>2025-07-16T13:07:26Z</time>
  </metadata>
  <trk>
    <name>w_0716_10</name>
    <src>Recorded in Geo Tracker for Android from Ilya Bogdanovich</src>
    <link href="https://play.google.com/store/apps/details?id=com.ilyabogdanovich.geotracker" />
    <extensions>
      <geotracker:meta>
        <geotracker:length>741.87</geotracker:length>
        <geotracker:duration>541523</geotracker:duration>
        <geotracker:creationtime>2025-07-16T13:07:26Z</geotracker:creationtime>
        <geotracker:activity>0</geotracker:activity>
      </geotracker:meta>
    </extensions>
    <trkseg>
      <trkpt lat="46.84722" lon="16.58283333">
        <ele>248.6</ele>
        <time>2025-07-16T13:07:32Z</time>
      </trkpt>
      <trkpt lat="46.84727" lon="16.58272">
        <ele>246.9</ele>
        <time>2025-07-16T13:07:50Z</time>
      </trkpt>
      <trkpt lat="46.84728667" lon="16.58257667">
        <ele>246.4</ele>
        <time>2025-07-16T13:07:57Z</time>
      </trkpt>
      <trkpt lat="46.84729667" lon="16.582435">
        <ele>247.5</ele>
        <time>2025-07-16T13:08:06Z</time>
      </trkpt>
      <trkpt lat="46.847325" lon="16.58229167">
        <ele>247.5</ele>
        <time>2025-07-16T13:08:13Z</time>
      </trkpt>
      <trkpt lat="46.84735833" lon="16.58215833">
        <ele>245.3</ele>
        <time>2025-07-16T13:08:23Z</time>
      </trkpt>
      <trkpt lat="46.84737833" lon="16.58202667">
        <ele>244.3</ele>
        <time>2025-07-16T13:08:30Z</time>
      </trkpt>
      <trkpt lat="46.847395" lon="16.58189667">
        <ele>242.3</ele>
        <time>2025-07-16T13:08:38Z</time>
      </trkpt>
      <trkpt lat="46.847405" lon="16.58175833">
        <ele>241.4</ele>
        <time>2025-07-16T13:08:45Z</time>
      </trkpt>
      <trkpt lat="46.847405" lon="16.58161833">
        <ele>241</ele>
        <time>2025-07-16T13:08:52Z</time>
      </trkpt>
      <trkpt lat="46.84741167" lon="16.58148">
        <ele>239.5</ele>
        <time>2025-07-16T13:08:59Z</time>
      </trkpt>
      <trkpt lat="46.84741333" lon="16.58134833">
        <ele>238.7</ele>
        <time>2025-07-16T13:09:05Z</time>
      </trkpt>
      <trkpt lat="46.84739" lon="16.58121833">
        <ele>238.4</ele>
        <time>2025-07-16T13:09:10Z</time>
      </trkpt>
      <trkpt lat="46.84738" lon="16.58108">
        <ele>239.6</ele>
        <time>2025-07-16T13:09:15Z</time>
      </trkpt>
      <trkpt lat="46.847365" lon="16.58094833">
        <ele>240.9</ele>
        <time>2025-07-16T13:09:21Z</time>
      </trkpt>
      <trkpt lat="46.84734833" lon="16.580815">
        <ele>241.8</ele>
        <time>2025-07-16T13:09:27Z</time>
      </trkpt>
      <trkpt lat="46.84733" lon="16.58068167">
        <ele>242.4</ele>
        <time>2025-07-16T13:09:33Z</time>
      </trkpt>
      <trkpt lat="46.84730333" lon="16.580555">
        <ele>242.9</ele>
        <time>2025-07-16T13:09:39Z</time>
      </trkpt>
      <trkpt lat="46.84729" lon="16.58042167">
        <ele>240.8</ele>
        <time>2025-07-16T13:09:46Z</time>
      </trkpt>
      <trkpt lat="46.84727333" lon="16.58028333">
        <ele>239.3</ele>
        <time>2025-07-16T13:09:53Z</time>
      </trkpt>
      <trkpt lat="46.84724667" lon="16.58015333">
        <ele>238.8</ele>
        <time>2025-07-16T13:10:00Z</time>
      </trkpt>
      <trkpt lat="46.84723667" lon="16.58001333">
        <ele>237.9</ele>
        <time>2025-07-16T13:10:10Z</time>
      </trkpt>
      <trkpt lat="46.84722333" lon="16.579875">
        <ele>239.4</ele>
        <time>2025-07-16T13:10:16Z</time>
      </trkpt>
      <trkpt lat="46.84723167" lon="16.57974">
        <ele>241.8</ele>
        <time>2025-07-16T13:10:22Z</time>
      </trkpt>
      <trkpt lat="46.84724" lon="16.579605">
        <ele>243.1</ele>
        <time>2025-07-16T13:10:28Z</time>
      </trkpt>
      <trkpt lat="46.84725667" lon="16.579475">
        <ele>242.1</ele>
        <time>2025-07-16T13:10:34Z</time>
      </trkpt>
      <trkpt lat="46.8473" lon="16.57935167">
        <ele>240.5</ele>
        <time>2025-07-16T13:10:40Z</time>
      </trkpt>
      <trkpt lat="46.84734" lon="16.57923167">
        <ele>239.2</ele>
        <time>2025-07-16T13:10:46Z</time>
      </trkpt>
      <trkpt lat="46.84739667" lon="16.57911333">
        <ele>237.2</ele>
        <time>2025-07-16T13:10:53Z</time>
      </trkpt>
      <trkpt lat="46.84743333" lon="16.57899333">
        <ele>237</ele>
        <time>2025-07-16T13:10:59Z</time>
      </trkpt>
      <trkpt lat="46.847465" lon="16.57885833">
        <ele>238.7</ele>
        <time>2025-07-16T13:11:05Z</time>
      </trkpt>
      <trkpt lat="46.84750333" lon="16.57872">
        <ele>241.4</ele>
        <time>2025-07-16T13:11:12Z</time>
      </trkpt>
      <trkpt lat="46.847545" lon="16.57859167">
        <ele>242.4</ele>
        <time>2025-07-16T13:11:19Z</time>
      </trkpt>
      <trkpt lat="46.84759333" lon="16.578465">
        <ele>242.2</ele>
        <time>2025-07-16T13:11:25Z</time>
      </trkpt>
      <trkpt lat="46.847635" lon="16.57833333">
        <ele>240.1</ele>
        <time>2025-07-16T13:11:32Z</time>
      </trkpt>
      <trkpt lat="46.84761833" lon="16.57818333">
        <ele>239.1</ele>
        <time>2025-07-16T13:11:39Z</time>
      </trkpt>
      <trkpt lat="46.84757333" lon="16.57805667">
        <ele>240.1</ele>
        <time>2025-07-16T13:11:44Z</time>
      </trkpt>
      <trkpt lat="46.847485" lon="16.577995">
        <ele>241.5</ele>
        <time>2025-07-16T13:11:49Z</time>
      </trkpt>
      <trkpt lat="46.84738667" lon="16.57799">
        <ele>242.2</ele>
        <time>2025-07-16T13:11:58Z</time>
      </trkpt>
      <trkpt lat="46.84728333" lon="16.57799333">
        <ele>241</ele>
        <time>2025-07-16T13:12:05Z</time>
      </trkpt>
      <trkpt lat="46.84718333" lon="16.57794333">
        <ele>240.4</ele>
        <time>2025-07-16T13:12:11Z</time>
      </trkpt>
      <trkpt lat="46.84708667" lon="16.57792">
        <ele>240.6</ele>
        <time>2025-07-16T13:12:16Z</time>
      </trkpt>
      <trkpt lat="46.84698167" lon="16.57793833">
        <ele>241.6</ele>
        <time>2025-07-16T13:12:23Z</time>
      </trkpt>
      <trkpt lat="46.84688667" lon="16.57795833">
        <ele>240.4</ele>
        <time>2025-07-16T13:12:29Z</time>
      </trkpt>
      <trkpt lat="46.846795" lon="16.57799333">
        <ele>239.2</ele>
        <time>2025-07-16T13:12:35Z</time>
      </trkpt>
      <trkpt lat="46.84670167" lon="16.57803833">
        <ele>238.8</ele>
        <time>2025-07-16T13:12:41Z</time>
      </trkpt>
      <trkpt lat="46.846605" lon="16.578075">
        <ele>236.1</ele>
        <time>2025-07-16T13:12:46Z</time>
      </trkpt>
      <trkpt lat="46.84649667" lon="16.57812667">
        <ele>233</ele>
        <time>2025-07-16T13:12:52Z</time>
      </trkpt>
      <trkpt lat="46.846405" lon="16.57817">
        <ele>233.2</ele>
        <time>2025-07-16T13:12:56Z</time>
      </trkpt>
      <trkpt lat="46.84630667" lon="16.57820667">
        <ele>234.1</ele>
        <time>2025-07-16T13:13:00Z</time>
      </trkpt>
      <trkpt lat="46.84620667" lon="16.57822333">
        <ele>234</ele>
        <time>2025-07-16T13:13:04Z</time>
      </trkpt>
      <trkpt lat="46.84610333" lon="16.57825333">
        <ele>234.3</ele>
        <time>2025-07-16T13:13:11Z</time>
      </trkpt>
      <trkpt lat="46.84600667" lon="16.57826333">
        <ele>234.9</ele>
        <time>2025-07-16T13:13:16Z</time>
      </trkpt>
      <trkpt lat="46.84590667" lon="16.57828333">
        <ele>237.1</ele>
        <time>2025-07-16T13:13:21Z</time>
      </trkpt>
      <trkpt lat="46.84581333" lon="16.57826667">
        <ele>237.6</ele>
        <time>2025-07-16T13:13:26Z</time>
      </trkpt>
      <trkpt lat="46.84575667" lon="16.57816167">
        <ele>237.3</ele>
        <time>2025-07-16T13:13:31Z</time>
      </trkpt>
      <trkpt lat="46.84570667" lon="16.57803833">
        <ele>234.8</ele>
        <time>2025-07-16T13:13:38Z</time>
      </trkpt>
      <trkpt lat="46.84570667" lon="16.57789833">
        <ele>232.8</ele>
        <time>2025-07-16T13:13:46Z</time>
      </trkpt>
      <trkpt lat="46.8457" lon="16.57776167">
        <ele>233.1</ele>
        <time>2025-07-16T13:13:54Z</time>
      </trkpt>
      <trkpt lat="46.8457" lon="16.57761667">
        <ele>234.3</ele>
        <time>2025-07-16T13:14:00Z</time>
      </trkpt>
      <trkpt lat="46.84570833" lon="16.57748">
        <ele>232.8</ele>
        <time>2025-07-16T13:14:07Z</time>
      </trkpt>
      <trkpt lat="46.845695" lon="16.57735">
        <ele>231.6</ele>
        <time>2025-07-16T13:14:13Z</time>
      </trkpt>
      <trkpt lat="46.84568" lon="16.57721333">
        <ele>232</ele>
        <time>2025-07-16T13:14:21Z</time>
      </trkpt>
      <trkpt lat="46.84568167" lon="16.577075">
        <ele>231.9</ele>
        <time>2025-07-16T13:14:28Z</time>
      </trkpt>
      <trkpt lat="46.84567667" lon="16.57694167">
        <ele>231.5</ele>
        <time>2025-07-16T13:14:35Z</time>
      </trkpt>
      <trkpt lat="46.84562" lon="16.57683667">
        <ele>232.3</ele>
        <time>2025-07-16T13:14:43Z</time>
      </trkpt>
      <trkpt lat="46.84558" lon="16.57671333">
        <ele>235.6</ele>
        <time>2025-07-16T13:15:01Z</time>
      </trkpt>
      <trkpt lat="46.84558833" lon="16.57658167">
        <ele>239.3</ele>
        <time>2025-07-16T13:15:48Z</time>
      </trkpt>
      <trkpt lat="46.84553167" lon="16.576475">
        <ele>236.9</ele>
        <time>2025-07-16T13:16:00Z</time>
      </trkpt>
      <trkpt lat="46.84547" lon="16.576625">
        <ele>237.9</ele>
        <time>2025-07-16T13:16:13Z</time>
      </trkpt>
    </trkseg>
  </trk>
</gpx>