<?xml version='1.0' encoding='UTF-8' standalone='yes' ?>
<gpx xmlns="http://www.topografix.com/GPX/1/1" xmlns:geotracker="http://ilyabogdanovich.com/gpx/extensions/geotracker" xmlns:xsi="http://www.w3.org/2001/XMLSchema-instance" xsi:schemaLocation="http://www.topografix.com/GPX/1/1 http://www.topografix.com/GPX/1/1/gpx.xsd" version="1.1" creator="Recorded in Geo Tracker for Android from Ilya Bogdanovich">
  <metadata>
    <name>w_0729_08</name>
    <author>
      <name>Recorded in Geo Tracker for Android from Ilya Bogdanovich</name>
      <link href="https://play.google.com/store/apps/details?id=com.ilyabogdanovich.geotracker" />
    </author>
    <link href="https://play.google.com/store/apps/details?id=com.ilyabogdanovich.geotracker" />
    <time>2025-07-29T13:56:43Z</time>
  </metadata>
  <wpt lat="46.84494" lon="16.849795">
    <ele>194.2</ele>
    <time>2025-07-29T14:03:35Z</time>
    <name>Stop for ~7 min</name>
    <desc>Elevation: 194 m
Time from start: 00:06:51
Distance from start: 275 m</desc>
    <extensions>
      <geotracker:meta visited="1" />
    </extensions>
  </wpt>
  <trk>
    <name>w_0729_08</name>
    <src>Recorded in Geo Tracker for Android from Ilya Bogdanovich</src>
    <link href="https://play.google.com/store/apps/details?id=com.ilyabogdanovich.geotracker" />
    <extensions>
      <geotracker:meta>
        <geotracker:length>345.35</geotracker:length>
        <geotracker:duration>965869</geotracker:duration>
        <geotracker:creationtime>2025-07-29T13:56:43Z</geotracker:creationtime>
        <geotracker:activity>0</geotracker:activity>
      </geotracker:meta>
    </extensions>
    <trkseg>
      <trkpt lat="46.84506" lon="16.84959167">
        <ele>193.4</ele>
        <time>2025-07-29T13:56:49Z</time>
      </trkpt>
      <trkpt lat="46.84495167" lon="16.84950167">
        <ele>190.6</ele>
        <time>2025-07-29T13:57:33Z</time>
      </trkpt>
      <trkpt lat="46.844975" lon="16.84936">
        <ele>187.8</ele>
        <time>2025-07-29T13:57:45Z</time>
      </trkpt>
      <trkpt lat="46.84506833" lon="16.84929833">
        <ele>226.2</ele>
        <time>2025-07-29T13:58:32Z</time>
      </trkpt>
      <trkpt lat="46.845105" lon="16.84915667">
        <ele>215.9</ele>
        <time>2025-07-29T13:58:41Z</time>
      </trkpt>
      <trkpt lat="46.84515667" lon="16.84904667">
        <ele>214.3</ele>
        <time>2025-07-29T13:58:51Z</time>
      </trkpt>
      <trkpt lat="46.84515" lon="16.84890333">
        <ele>211</ele>
        <time>2025-07-29T13:58:55Z</time>
      </trkpt>
      <trkpt lat="46.84507333" lon="16.84881">
        <ele>204.1</ele>
        <time>2025-07-29T13:59:03Z</time>
      </trkpt>
      <trkpt lat="46.84498333" lon="16.848805">
        <ele>202.2</ele>
        <time>2025-07-29T13:59:11Z</time>
      </trkpt>
      <trkpt lat="46.84489" lon="16.84880333">
        <ele>200.1</ele>
        <time>2025-07-29T13:59:19Z</time>
      </trkpt>
      <trkpt lat="46.84485333" lon="16.848675">
        <ele>199.9</ele>
        <time>2025-07-29T13:59:30Z</time>
      </trkpt>
      <trkpt lat="46.84485667" lon="16.84853667">
        <ele>198.7</ele>
        <time>2025-07-29T13:59:41Z</time>
      </trkpt>
      <trkpt lat="46.844855" lon="16.84839833">
        <ele>198.1</ele>
        <time>2025-07-29T13:59:50Z</time>
      </trkpt>
      <trkpt lat="46.84482833" lon="16.84826167">
        <ele>198.3</ele>
        <time>2025-07-29T13:59:58Z</time>
      </trkpt>
      <trkpt lat="46.84474167" lon="16.84830667">
        <ele>203</ele>
        <time>2025-07-29T14:00:32Z</time>
      </trkpt>
      <trkpt lat="46.84479333" lon="16.84851">
        <ele>199.1</ele>
        <time>2025-07-29T14:01:19Z</time>
      </trkpt>
      <trkpt lat="46.84479833" lon="16.84864667">
        <ele>198.7</ele>
        <time>2025-07-29T14:01:27Z</time>
      </trkpt>
      <trkpt lat="46.84479667" lon="16.84878667">
        <ele>197.3</ele>
        <time>2025-07-29T14:01:40Z</time>
      </trkpt>
      <trkpt lat="46.84486333" lon="16.84888833">
        <ele>195.8</ele>
        <time>2025-07-29T14:01:48Z</time>
      </trkpt>
      <trkpt lat="46.84486333" lon="16.84902">
        <ele>195.3</ele>
        <time>2025-07-29T14:01:59Z</time>
      </trkpt>
      <trkpt lat="46.844855" lon="16.849155">
        <ele>195</ele>
        <time>2025-07-29T14:02:07Z</time>
      </trkpt>
      <trkpt lat="46.84486167" lon="16.84929167">
        <ele>195.3</ele>
        <time>2025-07-29T14:02:15Z</time>
      </trkpt>
      <trkpt lat="46.844915" lon="16.84941">
        <ele>194.9</ele>
        <time>2025-07-29T14:02:25Z</time>
      </trkpt>
      <trkpt lat="46.84491" lon="16.849545">
        <ele>194.8</ele>
        <time>2025-07-29T14:02:33Z</time>
      </trkpt>
      <trkpt lat="46.84496667" lon="16.84966">
        <ele>194.5</ele>
        <time>2025-07-29T14:02:42Z</time>
      </trkpt>
      <trkpt lat="46.84494" lon="16.849795">
        <ele>194.2</ele>
        <time>2025-07-29T14:03:35Z</time>
      </trkpt>
      <trkpt lat="46.84493333" lon="16.84973">
        <ele>191.5</ele>
        <time>2025-07-29T14:05:38Z</time>
      </trkpt>
      <trkpt lat="46.84497667" lon="16.84961167">
        <ele>193.2</ele>
        <time>2025-07-29T14:06:19Z</time>
      </trkpt>
      <trkpt lat="46.84495667" lon="16.84974">
        <ele>190.1</ele>
        <time>2025-07-29T14:07:30Z</time>
      </trkpt>
      <trkpt lat="46.84501833" lon="16.84964667">
        <ele>196.8</ele>
        <time>2025-07-29T14:09:49Z</time>
      </trkpt>
      <trkpt lat="46.845045" lon="16.84951167">
        <ele>195.4</ele>
        <time>2025-07-29T14:10:10Z</time>
      </trkpt>
      <trkpt lat="46.845015" lon="16.84938667">
        <ele>191.8</ele>
        <time>2025-07-29T14:10:18Z</time>
      </trkpt>
      <trkpt lat="46.84503833" lon="16.84924667">
        <ele>191.9</ele>
        <time>2025-07-29T14:10:27Z</time>
      </trkpt>
      <trkpt lat="46.84506167" lon="16.84922167">
        <ele>193</ele>
        <time>2025-07-29T14:12:28Z</time>
      </trkpt>
    </trkseg>
  </trk>
</gpx>