<?xml version='1.0' encoding='UTF-8' standalone='yes' ?>
<gpx xmlns="http://www.topografix.com/GPX/1/1" xmlns:geotracker="http://ilyabogdanovich.com/gpx/extensions/geotracker" xmlns:xsi="http://www.w3.org/2001/XMLSchema-instance" xsi:schemaLocation="http://www.topografix.com/GPX/1/1 http://www.topografix.com/GPX/1/1/gpx.xsd" version="1.1" creator="Recorded in Geo Tracker for Android from Ilya Bogdanovich">
  <metadata>
    <name>w_0705_01</name>
    <author>
      <name>Recorded in Geo Tracker for Android from Ilya Bogdanovich</name>
      <link href="https://play.google.com/store/apps/details?id=com.ilyabogdanovich.geotracker" />
    </author>
    <link href="https://play.google.com/store/apps/details?id=com.ilyabogdanovich.geotracker" />
    <time>2025-07-05T06:55:28Z</time>
  </metadata>
  <trk>
    <name>w_0705_01</name>
    <src>Recorded in Geo Tracker for Android from Ilya Bogdanovich</src>
    <link href="https://play.google.com/store/apps/details?id=com.ilyabogdanovich.geotracker" />
    <extensions>
      <geotracker:meta>
        <geotracker:length>1129.5</geotracker:length>
        <geotracker:duration>699665</geotracker:duration>
        <geotracker:creationtime>2025-07-05T06:55:28Z</geotracker:creationtime>
        <geotracker:activity>0</geotracker:activity>
      </geotracker:meta>
    </extensions>
    <trkseg>
      <trkpt lat="47.931705" lon="21.04336833">
        <ele>150.1</ele>
        <time>2025-07-05T06:55:35Z</time>
      </trkpt>
      <trkpt lat="47.931755" lon="21.04323833">
        <ele>149.4</ele>
        <time>2025-07-05T06:55:44Z</time>
      </trkpt>
      <trkpt lat="47.93180333" lon="21.04309833">
        <ele>148.7</ele>
        <time>2025-07-05T06:55:51Z</time>
      </trkpt>
      <trkpt lat="47.93184667" lon="21.04297333">
        <ele>148.6</ele>
        <time>2025-07-05T06:55:58Z</time>
      </trkpt>
      <trkpt lat="47.93189" lon="21.04283333">
        <ele>148.3</ele>
        <time>2025-07-05T06:56:05Z</time>
      </trkpt>
      <trkpt lat="47.93190833" lon="21.04270167">
        <ele>146.3</ele>
        <time>2025-07-05T06:56:11Z</time>
      </trkpt>
      <trkpt lat="47.93191833" lon="21.04256">
        <ele>144.4</ele>
        <time>2025-07-05T06:56:17Z</time>
      </trkpt>
      <trkpt lat="47.93191667" lon="21.04239667">
        <ele>144.5</ele>
        <time>2025-07-05T06:56:25Z</time>
      </trkpt>
      <trkpt lat="47.931855" lon="21.04228333">
        <ele>145.5</ele>
        <time>2025-07-05T06:56:31Z</time>
      </trkpt>
      <trkpt lat="47.93178167" lon="21.04218167">
        <ele>145.1</ele>
        <time>2025-07-05T06:56:37Z</time>
      </trkpt>
      <trkpt lat="47.93171" lon="21.04209">
        <ele>141.4</ele>
        <time>2025-07-05T06:56:45Z</time>
      </trkpt>
      <trkpt lat="47.93162" lon="21.04206833">
        <ele>140.7</ele>
        <time>2025-07-05T06:56:51Z</time>
      </trkpt>
      <trkpt lat="47.931535" lon="21.04197833">
        <ele>136.4</ele>
        <time>2025-07-05T06:56:59Z</time>
      </trkpt>
      <trkpt lat="47.93144333" lon="21.04193">
        <ele>134.2</ele>
        <time>2025-07-05T06:57:05Z</time>
      </trkpt>
      <trkpt lat="47.93135833" lon="21.041885">
        <ele>133.8</ele>
        <time>2025-07-05T06:57:10Z</time>
      </trkpt>
      <trkpt lat="47.931275" lon="21.04182833">
        <ele>135.5</ele>
        <time>2025-07-05T06:57:15Z</time>
      </trkpt>
      <trkpt lat="47.93117667" lon="21.04175833">
        <ele>139.6</ele>
        <time>2025-07-05T06:57:20Z</time>
      </trkpt>
      <trkpt lat="47.93108667" lon="21.04170167">
        <ele>141.2</ele>
        <time>2025-07-05T06:57:25Z</time>
      </trkpt>
      <trkpt lat="47.93099833" lon="21.04166333">
        <ele>137.9</ele>
        <time>2025-07-05T06:57:31Z</time>
      </trkpt>
      <trkpt lat="47.93091" lon="21.04161833">
        <ele>136</ele>
        <time>2025-07-05T06:57:37Z</time>
      </trkpt>
      <trkpt lat="47.930815" lon="21.04154333">
        <ele>136.3</ele>
        <time>2025-07-05T06:57:42Z</time>
      </trkpt>
      <trkpt lat="47.93073" lon="21.041485">
        <ele>135.5</ele>
        <time>2025-07-05T06:57:47Z</time>
      </trkpt>
      <trkpt lat="47.93064" lon="21.041445">
        <ele>139.4</ele>
        <time>2025-07-05T06:57:52Z</time>
      </trkpt>
      <trkpt lat="47.93055667" lon="21.04137">
        <ele>137.6</ele>
        <time>2025-07-05T06:57:59Z</time>
      </trkpt>
      <trkpt lat="47.930465" lon="21.04132333">
        <ele>135.4</ele>
        <time>2025-07-05T06:58:05Z</time>
      </trkpt>
      <trkpt lat="47.93037833" lon="21.041275">
        <ele>134.5</ele>
        <time>2025-07-05T06:58:10Z</time>
      </trkpt>
      <trkpt lat="47.930285" lon="21.041225">
        <ele>135.2</ele>
        <time>2025-07-05T06:58:15Z</time>
      </trkpt>
      <trkpt lat="47.93018667" lon="21.041165">
        <ele>136.4</ele>
        <time>2025-07-05T06:58:21Z</time>
      </trkpt>
      <trkpt lat="47.930125" lon="21.04104333">
        <ele>135.9</ele>
        <time>2025-07-05T06:58:30Z</time>
      </trkpt>
      <trkpt lat="47.93006167" lon="21.04093667">
        <ele>133</ele>
        <time>2025-07-05T06:58:36Z</time>
      </trkpt>
      <trkpt lat="47.930075" lon="21.0408">
        <ele>133.9</ele>
        <time>2025-07-05T06:58:44Z</time>
      </trkpt>
      <trkpt lat="47.93004" lon="21.04067167">
        <ele>132.5</ele>
        <time>2025-07-05T06:58:50Z</time>
      </trkpt>
      <trkpt lat="47.93001667" lon="21.040525">
        <ele>133</ele>
        <time>2025-07-05T06:58:57Z</time>
      </trkpt>
      <trkpt lat="47.92996833" lon="21.04041">
        <ele>133</ele>
        <time>2025-07-05T06:59:03Z</time>
      </trkpt>
      <trkpt lat="47.92993667" lon="21.04026333">
        <ele>132.1</ele>
        <time>2025-07-05T06:59:09Z</time>
      </trkpt>
      <trkpt lat="47.92992333" lon="21.04010667">
        <ele>131.9</ele>
        <time>2025-07-05T06:59:15Z</time>
      </trkpt>
      <trkpt lat="47.92992833" lon="21.03995">
        <ele>132.6</ele>
        <time>2025-07-05T06:59:21Z</time>
      </trkpt>
      <trkpt lat="47.92993667" lon="21.03981333">
        <ele>135.2</ele>
        <time>2025-07-05T06:59:26Z</time>
      </trkpt>
      <trkpt lat="47.92992" lon="21.039675">
        <ele>135.9</ele>
        <time>2025-07-05T06:59:33Z</time>
      </trkpt>
      <trkpt lat="47.92992" lon="21.03953333">
        <ele>135.2</ele>
        <time>2025-07-05T06:59:38Z</time>
      </trkpt>
      <trkpt lat="47.92990833" lon="21.03938667">
        <ele>132.7</ele>
        <time>2025-07-05T06:59:44Z</time>
      </trkpt>
      <trkpt lat="47.92987333" lon="21.03924">
        <ele>133</ele>
        <time>2025-07-05T06:59:50Z</time>
      </trkpt>
      <trkpt lat="47.92987167" lon="21.03908667">
        <ele>132.9</ele>
        <time>2025-07-05T06:59:55Z</time>
      </trkpt>
      <trkpt lat="47.92987833" lon="21.03893167">
        <ele>134.7</ele>
        <time>2025-07-05T07:00:01Z</time>
      </trkpt>
      <trkpt lat="47.92989333" lon="21.03879333">
        <ele>136.6</ele>
        <time>2025-07-05T07:00:06Z</time>
      </trkpt>
      <trkpt lat="47.92992667" lon="21.038655">
        <ele>138.3</ele>
        <time>2025-07-05T07:00:12Z</time>
      </trkpt>
      <trkpt lat="47.92997" lon="21.03851167">
        <ele>139.9</ele>
        <time>2025-07-05T07:00:19Z</time>
      </trkpt>
      <trkpt lat="47.92994333" lon="21.03835667">
        <ele>139.6</ele>
        <time>2025-07-05T07:00:26Z</time>
      </trkpt>
      <trkpt lat="47.92994333" lon="21.03820833">
        <ele>138.1</ele>
        <time>2025-07-05T07:00:33Z</time>
      </trkpt>
      <trkpt lat="47.92999" lon="21.03809">
        <ele>135.9</ele>
        <time>2025-07-05T07:00:39Z</time>
      </trkpt>
      <trkpt lat="47.930015" lon="21.03796">
        <ele>134.7</ele>
        <time>2025-07-05T07:00:44Z</time>
      </trkpt>
      <trkpt lat="47.93004" lon="21.03782833">
        <ele>134.5</ele>
        <time>2025-07-05T07:00:49Z</time>
      </trkpt>
      <trkpt lat="47.93004333" lon="21.03767167">
        <ele>134.5</ele>
        <time>2025-07-05T07:00:55Z</time>
      </trkpt>
      <trkpt lat="47.92999667" lon="21.03755333">
        <ele>135.8</ele>
        <time>2025-07-05T07:01:01Z</time>
      </trkpt>
      <trkpt lat="47.92996167" lon="21.037425">
        <ele>136.6</ele>
        <time>2025-07-05T07:01:07Z</time>
      </trkpt>
      <trkpt lat="47.92997333" lon="21.03728833">
        <ele>138.1</ele>
        <time>2025-07-05T07:01:13Z</time>
      </trkpt>
      <trkpt lat="47.92988833" lon="21.03721333">
        <ele>138.5</ele>
        <time>2025-07-05T07:01:19Z</time>
      </trkpt>
      <trkpt lat="47.9298" lon="21.03717667">
        <ele>139.8</ele>
        <time>2025-07-05T07:01:25Z</time>
      </trkpt>
      <trkpt lat="47.92971" lon="21.03712333">
        <ele>138.4</ele>
        <time>2025-07-05T07:01:31Z</time>
      </trkpt>
      <trkpt lat="47.92961167" lon="21.03707167">
        <ele>137.1</ele>
        <time>2025-07-05T07:01:37Z</time>
      </trkpt>
      <trkpt lat="47.929515" lon="21.037005">
        <ele>138.8</ele>
        <time>2025-07-05T07:01:42Z</time>
      </trkpt>
      <trkpt lat="47.92942" lon="21.03694667">
        <ele>138.7</ele>
        <time>2025-07-05T07:01:48Z</time>
      </trkpt>
      <trkpt lat="47.92932833" lon="21.03691833">
        <ele>138.7</ele>
        <time>2025-07-05T07:01:53Z</time>
      </trkpt>
      <trkpt lat="47.92923167" lon="21.03685">
        <ele>138.6</ele>
        <time>2025-07-05T07:01:58Z</time>
      </trkpt>
      <trkpt lat="47.92913833" lon="21.03679333">
        <ele>139.2</ele>
        <time>2025-07-05T07:02:04Z</time>
      </trkpt>
      <trkpt lat="47.92909667" lon="21.03667">
        <ele>140.6</ele>
        <time>2025-07-05T07:02:10Z</time>
      </trkpt>
      <trkpt lat="47.92909" lon="21.036525">
        <ele>140.3</ele>
        <time>2025-07-05T07:02:16Z</time>
      </trkpt>
      <trkpt lat="47.929085" lon="21.03638333">
        <ele>140.3</ele>
        <time>2025-07-05T07:02:21Z</time>
      </trkpt>
      <trkpt lat="47.92911333" lon="21.03623167">
        <ele>142.5</ele>
        <time>2025-07-05T07:02:28Z</time>
      </trkpt>
      <trkpt lat="47.92913667" lon="21.03610167">
        <ele>143.3</ele>
        <time>2025-07-05T07:02:34Z</time>
      </trkpt>
      <trkpt lat="47.929185" lon="21.035965">
        <ele>143</ele>
        <time>2025-07-05T07:02:40Z</time>
      </trkpt>
      <trkpt lat="47.92924167" lon="21.03581667">
        <ele>142.4</ele>
        <time>2025-07-05T07:02:45Z</time>
      </trkpt>
      <trkpt lat="47.92927667" lon="21.03566667">
        <ele>141.6</ele>
        <time>2025-07-05T07:02:51Z</time>
      </trkpt>
      <trkpt lat="47.92928" lon="21.03552667">
        <ele>139.6</ele>
        <time>2025-07-05T07:02:56Z</time>
      </trkpt>
      <trkpt lat="47.92931" lon="21.03539667">
        <ele>137.6</ele>
        <time>2025-07-05T07:03:01Z</time>
      </trkpt>
      <trkpt lat="47.92930333" lon="21.03525667">
        <ele>136.6</ele>
        <time>2025-07-05T07:03:07Z</time>
      </trkpt>
      <trkpt lat="47.929345" lon="21.03512667">
        <ele>135.8</ele>
        <time>2025-07-05T07:03:13Z</time>
      </trkpt>
      <trkpt lat="47.929365" lon="21.03497667">
        <ele>136.7</ele>
        <time>2025-07-05T07:03:20Z</time>
      </trkpt>
      <trkpt lat="47.92940833" lon="21.03483">
        <ele>137.2</ele>
        <time>2025-07-05T07:03:26Z</time>
      </trkpt>
      <trkpt lat="47.92945" lon="21.03470167">
        <ele>136.5</ele>
        <time>2025-07-05T07:03:31Z</time>
      </trkpt>
      <trkpt lat="47.929495" lon="21.034575">
        <ele>135.2</ele>
        <time>2025-07-05T07:03:37Z</time>
      </trkpt>
      <trkpt lat="47.92952833" lon="21.03443333">
        <ele>134.8</ele>
        <time>2025-07-05T07:03:44Z</time>
      </trkpt>
      <trkpt lat="47.92957167" lon="21.03431167">
        <ele>134.5</ele>
        <time>2025-07-05T07:03:49Z</time>
      </trkpt>
      <trkpt lat="47.92960333" lon="21.03416833">
        <ele>132.4</ele>
        <time>2025-07-05T07:03:55Z</time>
      </trkpt>
      <trkpt lat="47.92961833" lon="21.034035">
        <ele>131.2</ele>
        <time>2025-07-05T07:04:00Z</time>
      </trkpt>
      <trkpt lat="47.92959667" lon="21.03389">
        <ele>129.5</ele>
        <time>2025-07-05T07:04:07Z</time>
      </trkpt>
      <trkpt lat="47.92955167" lon="21.03375333">
        <ele>131.3</ele>
        <time>2025-07-05T07:04:13Z</time>
      </trkpt>
      <trkpt lat="47.92953667" lon="21.033605">
        <ele>132</ele>
        <time>2025-07-05T07:04:19Z</time>
      </trkpt>
      <trkpt lat="47.92953667" lon="21.03345333">
        <ele>133.9</ele>
        <time>2025-07-05T07:04:25Z</time>
      </trkpt>
      <trkpt lat="47.92956333" lon="21.03330667">
        <ele>133.5</ele>
        <time>2025-07-05T07:04:30Z</time>
      </trkpt>
      <trkpt lat="47.92952833" lon="21.03316">
        <ele>132.9</ele>
        <time>2025-07-05T07:04:39Z</time>
      </trkpt>
      <trkpt lat="47.92944667" lon="21.03307333">
        <ele>132.4</ele>
        <time>2025-07-05T07:04:45Z</time>
      </trkpt>
      <trkpt lat="47.92945167" lon="21.03293333">
        <ele>136.2</ele>
        <time>2025-07-05T07:04:52Z</time>
      </trkpt>
      <trkpt lat="47.929495" lon="21.032805">
        <ele>136.3</ele>
        <time>2025-07-05T07:04:58Z</time>
      </trkpt>
      <trkpt lat="47.92955" lon="21.032695">
        <ele>135.9</ele>
        <time>2025-07-05T07:05:04Z</time>
      </trkpt>
      <trkpt lat="47.92960333" lon="21.03257667">
        <ele>135.8</ele>
        <time>2025-07-05T07:05:11Z</time>
      </trkpt>
      <trkpt lat="47.92965667" lon="21.03245833">
        <ele>136.5</ele>
        <time>2025-07-05T07:05:18Z</time>
      </trkpt>
      <trkpt lat="47.92970833" lon="21.032345">
        <ele>138</ele>
        <time>2025-07-05T07:05:25Z</time>
      </trkpt>
      <trkpt lat="47.92975833" lon="21.03220833">
        <ele>137.9</ele>
        <time>2025-07-05T07:05:35Z</time>
      </trkpt>
      <trkpt lat="47.92979333" lon="21.03207">
        <ele>137.9</ele>
        <time>2025-07-05T07:05:43Z</time>
      </trkpt>
      <trkpt lat="47.9298" lon="21.03193167">
        <ele>136.9</ele>
        <time>2025-07-05T07:05:54Z</time>
      </trkpt>
      <trkpt lat="47.92974333" lon="21.03182667">
        <ele>132</ele>
        <time>2025-07-05T07:06:38Z</time>
      </trkpt>
      <trkpt lat="47.929675" lon="21.03173167">
        <ele>131.2</ele>
        <time>2025-07-05T07:06:48Z</time>
      </trkpt>
      <trkpt lat="47.92956667" lon="21.03163167">
        <ele>165.2</ele>
        <time>2025-07-05T07:07:09Z</time>
      </trkpt>
    </trkseg>
  </trk>
</gpx>