<?xml version='1.0' encoding='UTF-8' standalone='yes' ?>
<gpx xmlns="http://www.topografix.com/GPX/1/1" xmlns:geotracker="http://ilyabogdanovich.com/gpx/extensions/geotracker" xmlns:xsi="http://www.w3.org/2001/XMLSchema-instance" xsi:schemaLocation="http://www.topografix.com/GPX/1/1 http://www.topografix.com/GPX/1/1/gpx.xsd" version="1.1" creator="Recorded in Geo Tracker for Android from Ilya Bogdanovich">
  <metadata>
    <name>w_0729_01</name>
    <author>
      <name>Recorded in Geo Tracker for Android from Ilya Bogdanovich</name>
      <link href="https://play.google.com/store/apps/details?id=com.ilyabogdanovich.geotracker" />
    </author>
    <link href="https://play.google.com/store/apps/details?id=com.ilyabogdanovich.geotracker" />
    <time>2025-07-29T05:17:06Z</time>
  </metadata>
  <trk>
    <name>w_0729_01</name>
    <src>Recorded in Geo Tracker for Android from Ilya Bogdanovich</src>
    <link href="https://play.google.com/store/apps/details?id=com.ilyabogdanovich.geotracker" />
    <extensions>
      <geotracker:meta>
        <geotracker:length>621.7</geotracker:length>
        <geotracker:duration>421385</geotracker:duration>
        <geotracker:creationtime>2025-07-29T05:17:06Z</geotracker:creationtime>
        <geotracker:activity>0</geotracker:activity>
      </geotracker:meta>
    </extensions>
    <trkseg>
      <trkpt lat="46.38031833" lon="16.8323">
        <ele>187.6</ele>
        <time>2025-07-29T05:17:12Z</time>
      </trkpt>
      <trkpt lat="46.38026667" lon="16.83248">
        <ele>187.5</ele>
        <time>2025-07-29T05:17:14Z</time>
      </trkpt>
      <trkpt lat="46.380305" lon="16.83261333">
        <ele>187.1</ele>
        <time>2025-07-29T05:17:21Z</time>
      </trkpt>
      <trkpt lat="46.38035167" lon="16.83249833">
        <ele>181.6</ele>
        <time>2025-07-29T05:18:45Z</time>
      </trkpt>
      <trkpt lat="46.38049833" lon="16.832425">
        <ele>186.9</ele>
        <time>2025-07-29T05:18:56Z</time>
      </trkpt>
      <trkpt lat="46.38059333" lon="16.83242667">
        <ele>188.3</ele>
        <time>2025-07-29T05:19:01Z</time>
      </trkpt>
      <trkpt lat="46.38070167" lon="16.83243333">
        <ele>189</ele>
        <time>2025-07-29T05:19:07Z</time>
      </trkpt>
      <trkpt lat="46.38080667" lon="16.832425">
        <ele>187.7</ele>
        <time>2025-07-29T05:19:13Z</time>
      </trkpt>
      <trkpt lat="46.38091" lon="16.83243">
        <ele>191</ele>
        <time>2025-07-29T05:19:20Z</time>
      </trkpt>
      <trkpt lat="46.38101333" lon="16.83243167">
        <ele>192</ele>
        <time>2025-07-29T05:19:26Z</time>
      </trkpt>
      <trkpt lat="46.38111667" lon="16.83243167">
        <ele>192.5</ele>
        <time>2025-07-29T05:19:32Z</time>
      </trkpt>
      <trkpt lat="46.38120667" lon="16.83243">
        <ele>192.5</ele>
        <time>2025-07-29T05:19:37Z</time>
      </trkpt>
      <trkpt lat="46.381315" lon="16.83241833">
        <ele>192.5</ele>
        <time>2025-07-29T05:19:42Z</time>
      </trkpt>
      <trkpt lat="46.38142833" lon="16.83241833">
        <ele>192.4</ele>
        <time>2025-07-29T05:19:47Z</time>
      </trkpt>
      <trkpt lat="46.381525" lon="16.83242833">
        <ele>192.9</ele>
        <time>2025-07-29T05:19:51Z</time>
      </trkpt>
      <trkpt lat="46.38161833" lon="16.83243833">
        <ele>193.5</ele>
        <time>2025-07-29T05:19:55Z</time>
      </trkpt>
      <trkpt lat="46.381725" lon="16.832435">
        <ele>192.9</ele>
        <time>2025-07-29T05:19:59Z</time>
      </trkpt>
      <trkpt lat="46.38184333" lon="16.83243333">
        <ele>191.7</ele>
        <time>2025-07-29T05:20:03Z</time>
      </trkpt>
      <trkpt lat="46.38196" lon="16.83243333">
        <ele>189.8</ele>
        <time>2025-07-29T05:20:07Z</time>
      </trkpt>
      <trkpt lat="46.38206333" lon="16.83243">
        <ele>188.3</ele>
        <time>2025-07-29T05:20:11Z</time>
      </trkpt>
      <trkpt lat="46.38216667" lon="16.83243667">
        <ele>187.6</ele>
        <time>2025-07-29T05:20:15Z</time>
      </trkpt>
      <trkpt lat="46.38228" lon="16.83244167">
        <ele>188.8</ele>
        <time>2025-07-29T05:20:19Z</time>
      </trkpt>
      <trkpt lat="46.38237667" lon="16.832445">
        <ele>187.9</ele>
        <time>2025-07-29T05:20:22Z</time>
      </trkpt>
      <trkpt lat="46.382495" lon="16.83244">
        <ele>187.2</ele>
        <time>2025-07-29T05:20:26Z</time>
      </trkpt>
      <trkpt lat="46.38259" lon="16.832445">
        <ele>187.2</ele>
        <time>2025-07-29T05:20:29Z</time>
      </trkpt>
      <trkpt lat="46.38269333" lon="16.83244667">
        <ele>187.1</ele>
        <time>2025-07-29T05:20:32Z</time>
      </trkpt>
      <trkpt lat="46.38281" lon="16.83243667">
        <ele>187.3</ele>
        <time>2025-07-29T05:20:36Z</time>
      </trkpt>
      <trkpt lat="46.382905" lon="16.83243833">
        <ele>189.6</ele>
        <time>2025-07-29T05:20:40Z</time>
      </trkpt>
      <trkpt lat="46.38300333" lon="16.83248667">
        <ele>192.7</ele>
        <time>2025-07-29T05:20:45Z</time>
      </trkpt>
      <trkpt lat="46.38313833" lon="16.83251833">
        <ele>193.7</ele>
        <time>2025-07-29T05:20:48Z</time>
      </trkpt>
      <trkpt lat="46.38323" lon="16.83252">
        <ele>193.5</ele>
        <time>2025-07-29T05:20:50Z</time>
      </trkpt>
      <trkpt lat="46.38333167" lon="16.83247667">
        <ele>191.1</ele>
        <time>2025-07-29T05:20:53Z</time>
      </trkpt>
      <trkpt lat="46.38343167" lon="16.83241333">
        <ele>189.2</ele>
        <time>2025-07-29T05:20:56Z</time>
      </trkpt>
      <trkpt lat="46.38352333" lon="16.83234333">
        <ele>187.2</ele>
        <time>2025-07-29T05:20:59Z</time>
      </trkpt>
      <trkpt lat="46.38360167" lon="16.832275">
        <ele>186.3</ele>
        <time>2025-07-29T05:21:02Z</time>
      </trkpt>
      <trkpt lat="46.383695" lon="16.83219">
        <ele>185.1</ele>
        <time>2025-07-29T05:21:06Z</time>
      </trkpt>
      <trkpt lat="46.38378333" lon="16.832085">
        <ele>185.2</ele>
        <time>2025-07-29T05:21:10Z</time>
      </trkpt>
      <trkpt lat="46.383855" lon="16.83199333">
        <ele>185</ele>
        <time>2025-07-29T05:21:13Z</time>
      </trkpt>
      <trkpt lat="46.38392333" lon="16.83189">
        <ele>184.9</ele>
        <time>2025-07-29T05:21:17Z</time>
      </trkpt>
      <trkpt lat="46.38401333" lon="16.83178333">
        <ele>185.8</ele>
        <time>2025-07-29T05:21:21Z</time>
      </trkpt>
      <trkpt lat="46.384105" lon="16.83168">
        <ele>185.6</ele>
        <time>2025-07-29T05:21:25Z</time>
      </trkpt>
      <trkpt lat="46.38419667" lon="16.831595">
        <ele>183.2</ele>
        <time>2025-07-29T05:21:29Z</time>
      </trkpt>
      <trkpt lat="46.38427333" lon="16.83150167">
        <ele>182</ele>
        <time>2025-07-29T05:21:33Z</time>
      </trkpt>
      <trkpt lat="46.384345" lon="16.83141833">
        <ele>182.8</ele>
        <time>2025-07-29T05:21:36Z</time>
      </trkpt>
      <trkpt lat="46.384435" lon="16.83135667">
        <ele>181.5</ele>
        <time>2025-07-29T05:21:39Z</time>
      </trkpt>
      <trkpt lat="46.38451667" lon="16.83128">
        <ele>182.3</ele>
        <time>2025-07-29T05:21:43Z</time>
      </trkpt>
      <trkpt lat="46.38462833" lon="16.83126">
        <ele>182</ele>
        <time>2025-07-29T05:21:47Z</time>
      </trkpt>
      <trkpt lat="46.38472333" lon="16.83121167">
        <ele>182</ele>
        <time>2025-07-29T05:21:50Z</time>
      </trkpt>
      <trkpt lat="46.38482" lon="16.83116167">
        <ele>182</ele>
        <time>2025-07-29T05:21:53Z</time>
      </trkpt>
      <trkpt lat="46.38489833" lon="16.83108833">
        <ele>183.4</ele>
        <time>2025-07-29T05:21:57Z</time>
      </trkpt>
      <trkpt lat="46.38498833" lon="16.83100333">
        <ele>186.5</ele>
        <time>2025-07-29T05:22:02Z</time>
      </trkpt>
      <trkpt lat="46.38509" lon="16.83100167">
        <ele>187.6</ele>
        <time>2025-07-29T05:22:12Z</time>
      </trkpt>
      <trkpt lat="46.38518667" lon="16.830965">
        <ele>188.6</ele>
        <time>2025-07-29T05:22:17Z</time>
      </trkpt>
      <trkpt lat="46.38524167" lon="16.83086">
        <ele>189.6</ele>
        <time>2025-07-29T05:22:24Z</time>
      </trkpt>
    </trkseg>
  </trk>
</gpx>