<?xml version='1.0' encoding='UTF-8' standalone='yes' ?>
<gpx xmlns="http://www.topografix.com/GPX/1/1" xmlns:geotracker="http://ilyabogdanovich.com/gpx/extensions/geotracker" xmlns:xsi="http://www.w3.org/2001/XMLSchema-instance" xsi:schemaLocation="http://www.topografix.com/GPX/1/1 http://www.topografix.com/GPX/1/1/gpx.xsd" version="1.1" creator="Recorded in Geo Tracker for Android from Ilya Bogdanovich">
  <metadata>
    <name>w_0801_05</name>
    <author>
      <name>Recorded in Geo Tracker for Android from Ilya Bogdanovich</name>
      <link href="https://play.google.com/store/apps/details?id=com.ilyabogdanovich.geotracker" />
    </author>
    <link href="https://play.google.com/store/apps/details?id=com.ilyabogdanovich.geotracker" />
    <time>2025-08-01T14:20:01Z</time>
  </metadata>
  <wpt lat="47.11919333" lon="17.91151833">
    <ele>250.2</ele>
    <time>2025-08-01T14:23:23Z</time>
    <name>Stop for ~3 min</name>
    <desc>Elevation: 250 m
Time from start: 00:03:21
Distance from start: 104 m</desc>
    <extensions>
      <geotracker:meta visited="1" />
    </extensions>
  </wpt>
  <trk>
    <name>w_0801_05</name>
    <src>Recorded in Geo Tracker for Android from Ilya Bogdanovich</src>
    <link href="https://play.google.com/store/apps/details?id=com.ilyabogdanovich.geotracker" />
    <extensions>
      <geotracker:meta>
        <geotracker:length>109.75</geotracker:length>
        <geotracker:duration>369336</geotracker:duration>
        <geotracker:creationtime>2025-08-01T14:20:01Z</geotracker:creationtime>
        <geotracker:activity>0</geotracker:activity>
      </geotracker:meta>
    </extensions>
    <trkseg>
      <trkpt lat="47.11912833" lon="17.91111833">
        <ele>253.9</ele>
        <time>2025-08-01T14:20:07Z</time>
      </trkpt>
      <trkpt lat="47.1191" lon="17.91097667">
        <ele>251.5</ele>
        <time>2025-08-01T14:20:19Z</time>
      </trkpt>
      <trkpt lat="47.11904667" lon="17.91085833">
        <ele>251.6</ele>
        <time>2025-08-01T14:20:33Z</time>
      </trkpt>
      <trkpt lat="47.11900167" lon="17.91097833">
        <ele>248.7</ele>
        <time>2025-08-01T14:20:50Z</time>
      </trkpt>
      <trkpt lat="47.11898167" lon="17.91112167">
        <ele>254.9</ele>
        <time>2025-08-01T14:21:05Z</time>
      </trkpt>
      <trkpt lat="47.11889167" lon="17.91110167">
        <ele>252.8</ele>
        <time>2025-08-01T14:21:13Z</time>
      </trkpt>
      <trkpt lat="47.11902833" lon="17.911185">
        <ele>251.2</ele>
        <time>2025-08-01T14:21:28Z</time>
      </trkpt>
      <trkpt lat="47.11906833" lon="17.91132">
        <ele>253.3</ele>
        <time>2025-08-01T14:21:37Z</time>
      </trkpt>
      <trkpt lat="47.11909333" lon="17.91144667">
        <ele>253.1</ele>
        <time>2025-08-01T14:21:46Z</time>
      </trkpt>
      <trkpt lat="47.11919333" lon="17.91151833">
        <ele>250.2</ele>
        <time>2025-08-01T14:23:23Z</time>
      </trkpt>
      <trkpt lat="47.11921167" lon="17.911595">
        <ele>252.7</ele>
        <time>2025-08-01T14:25:34Z</time>
      </trkpt>
    </trkseg>
  </trk>
</gpx>