<?xml version='1.0' encoding='UTF-8' standalone='yes' ?>
<gpx xmlns="http://www.topografix.com/GPX/1/1" xmlns:geotracker="http://ilyabogdanovich.com/gpx/extensions/geotracker" xmlns:xsi="http://www.w3.org/2001/XMLSchema-instance" xsi:schemaLocation="http://www.topografix.com/GPX/1/1 http://www.topografix.com/GPX/1/1/gpx.xsd" version="1.1" creator="Recorded in Geo Tracker for Android from Ilya Bogdanovich">
  <metadata>
    <name>t_0728_04</name>
    <author>
      <name>Recorded in Geo Tracker for Android from Ilya Bogdanovich</name>
      <link href="https://play.google.com/store/apps/details?id=com.ilyabogdanovich.geotracker" />
    </author>
    <link href="https://play.google.com/store/apps/details?id=com.ilyabogdanovich.geotracker" />
    <time>2025-07-28T16:52:12Z</time>
  </metadata>
  <trk>
    <name>t_0728_04</name>
    <src>Recorded in Geo Tracker for Android from Ilya Bogdanovich</src>
    <link href="https://play.google.com/store/apps/details?id=com.ilyabogdanovich.geotracker" />
    <extensions>
      <geotracker:meta>
        <geotracker:length>8142.64</geotracker:length>
        <geotracker:duration>476436</geotracker:duration>
        <geotracker:creationtime>2025-07-28T16:52:12Z</geotracker:creationtime>
        <geotracker:activity>0</geotracker:activity>
      </geotracker:meta>
    </extensions>
    <trkseg>
      <trkpt lat="46.29787833" lon="16.88753167">
        <ele>209.4</ele>
        <time>2025-07-28T16:52:18Z</time>
      </trkpt>
      <trkpt lat="46.29806167" lon="16.88744167">
        <ele>209</ele>
        <time>2025-07-28T16:52:49Z</time>
      </trkpt>
      <trkpt lat="46.298155" lon="16.88739">
        <ele>209.1</ele>
        <time>2025-07-28T16:52:51Z</time>
      </trkpt>
      <trkpt lat="46.29827333" lon="16.88732833">
        <ele>208.4</ele>
        <time>2025-07-28T16:52:53Z</time>
      </trkpt>
      <trkpt lat="46.298435" lon="16.88728">
        <ele>207</ele>
        <time>2025-07-28T16:52:55Z</time>
      </trkpt>
      <trkpt lat="46.298595" lon="16.88718833">
        <ele>203.9</ele>
        <time>2025-07-28T16:52:57Z</time>
      </trkpt>
      <trkpt lat="46.29875333" lon="16.88712833">
        <ele>201.6</ele>
        <time>2025-07-28T16:52:59Z</time>
      </trkpt>
      <trkpt lat="46.29886833" lon="16.88710167">
        <ele>196.6</ele>
        <time>2025-07-28T16:53:00Z</time>
      </trkpt>
      <trkpt lat="46.29896" lon="16.88706167">
        <ele>195.6</ele>
        <time>2025-07-28T16:53:01Z</time>
      </trkpt>
      <trkpt lat="46.299055" lon="16.88701">
        <ele>193.3</ele>
        <time>2025-07-28T16:53:02Z</time>
      </trkpt>
      <trkpt lat="46.29914667" lon="16.88695833">
        <ele>191</ele>
        <time>2025-07-28T16:53:03Z</time>
      </trkpt>
      <trkpt lat="46.29924667" lon="16.88692">
        <ele>192.1</ele>
        <time>2025-07-28T16:53:04Z</time>
      </trkpt>
      <trkpt lat="46.29934167" lon="16.88687333">
        <ele>194.7</ele>
        <time>2025-07-28T16:53:05Z</time>
      </trkpt>
      <trkpt lat="46.299435" lon="16.886825">
        <ele>197.7</ele>
        <time>2025-07-28T16:53:06Z</time>
      </trkpt>
      <trkpt lat="46.29954333" lon="16.88681167">
        <ele>199.5</ele>
        <time>2025-07-28T16:53:07Z</time>
      </trkpt>
      <trkpt lat="46.29966" lon="16.88679333">
        <ele>199.7</ele>
        <time>2025-07-28T16:53:08Z</time>
      </trkpt>
      <trkpt lat="46.29978167" lon="16.88675833">
        <ele>199.2</ele>
        <time>2025-07-28T16:53:09Z</time>
      </trkpt>
      <trkpt lat="46.29991" lon="16.88673333">
        <ele>197.7</ele>
        <time>2025-07-28T16:53:10Z</time>
      </trkpt>
      <trkpt lat="46.30004833" lon="16.88669333">
        <ele>195.9</ele>
        <time>2025-07-28T16:53:11Z</time>
      </trkpt>
      <trkpt lat="46.30017167" lon="16.88665667">
        <ele>194.5</ele>
        <time>2025-07-28T16:53:12Z</time>
      </trkpt>
      <trkpt lat="46.30031167" lon="16.886625">
        <ele>192.1</ele>
        <time>2025-07-28T16:53:13Z</time>
      </trkpt>
      <trkpt lat="46.30046" lon="16.886595">
        <ele>190.2</ele>
        <time>2025-07-28T16:53:14Z</time>
      </trkpt>
      <trkpt lat="46.30060833" lon="16.886555">
        <ele>187.6</ele>
        <time>2025-07-28T16:53:15Z</time>
      </trkpt>
      <trkpt lat="46.30075333" lon="16.886525">
        <ele>184.9</ele>
        <time>2025-07-28T16:53:16Z</time>
      </trkpt>
      <trkpt lat="46.30090167" lon="16.88651333">
        <ele>182.7</ele>
        <time>2025-07-28T16:53:17Z</time>
      </trkpt>
      <trkpt lat="46.301055" lon="16.8865">
        <ele>180</ele>
        <time>2025-07-28T16:53:18Z</time>
      </trkpt>
      <trkpt lat="46.30121333" lon="16.88647833">
        <ele>178.7</ele>
        <time>2025-07-28T16:53:19Z</time>
      </trkpt>
      <trkpt lat="46.30137833" lon="16.88645833">
        <ele>177.8</ele>
        <time>2025-07-28T16:53:20Z</time>
      </trkpt>
      <trkpt lat="46.30153667" lon="16.88643667">
        <ele>176.9</ele>
        <time>2025-07-28T16:53:21Z</time>
      </trkpt>
      <trkpt lat="46.301695" lon="16.886405">
        <ele>176.4</ele>
        <time>2025-07-28T16:53:22Z</time>
      </trkpt>
      <trkpt lat="46.30185667" lon="16.88637333">
        <ele>175.7</ele>
        <time>2025-07-28T16:53:23Z</time>
      </trkpt>
      <trkpt lat="46.30202" lon="16.88634167">
        <ele>175.2</ele>
        <time>2025-07-28T16:53:24Z</time>
      </trkpt>
      <trkpt lat="46.302195" lon="16.886315">
        <ele>175</ele>
        <time>2025-07-28T16:53:25Z</time>
      </trkpt>
      <trkpt lat="46.30236833" lon="16.88627667">
        <ele>173.7</ele>
        <time>2025-07-28T16:53:26Z</time>
      </trkpt>
      <trkpt lat="46.30254" lon="16.886235">
        <ele>173.2</ele>
        <time>2025-07-28T16:53:27Z</time>
      </trkpt>
      <trkpt lat="46.30272333" lon="16.88619333">
        <ele>172.9</ele>
        <time>2025-07-28T16:53:28Z</time>
      </trkpt>
      <trkpt lat="46.30291667" lon="16.88614667">
        <ele>173.1</ele>
        <time>2025-07-28T16:53:29Z</time>
      </trkpt>
      <trkpt lat="46.30310333" lon="16.886085">
        <ele>173.3</ele>
        <time>2025-07-28T16:53:30Z</time>
      </trkpt>
      <trkpt lat="46.303285" lon="16.88603333">
        <ele>173.1</ele>
        <time>2025-07-28T16:53:31Z</time>
      </trkpt>
      <trkpt lat="46.30347333" lon="16.88597167">
        <ele>172.9</ele>
        <time>2025-07-28T16:53:32Z</time>
      </trkpt>
      <trkpt lat="46.30365333" lon="16.88591">
        <ele>172.8</ele>
        <time>2025-07-28T16:53:33Z</time>
      </trkpt>
      <trkpt lat="46.30383833" lon="16.885845">
        <ele>173</ele>
        <time>2025-07-28T16:53:34Z</time>
      </trkpt>
      <trkpt lat="46.30402833" lon="16.88577833">
        <ele>171.7</ele>
        <time>2025-07-28T16:53:35Z</time>
      </trkpt>
      <trkpt lat="46.304215" lon="16.88570833">
        <ele>170.3</ele>
        <time>2025-07-28T16:53:36Z</time>
      </trkpt>
      <trkpt lat="46.30440667" lon="16.88562333">
        <ele>169.5</ele>
        <time>2025-07-28T16:53:37Z</time>
      </trkpt>
      <trkpt lat="46.30460167" lon="16.88553833">
        <ele>169.3</ele>
        <time>2025-07-28T16:53:38Z</time>
      </trkpt>
      <trkpt lat="46.30479" lon="16.88545667">
        <ele>170</ele>
        <time>2025-07-28T16:53:39Z</time>
      </trkpt>
      <trkpt lat="46.30497667" lon="16.88536667">
        <ele>171.4</ele>
        <time>2025-07-28T16:53:40Z</time>
      </trkpt>
      <trkpt lat="46.30517" lon="16.88528">
        <ele>172.6</ele>
        <time>2025-07-28T16:53:41Z</time>
      </trkpt>
      <trkpt lat="46.30537167" lon="16.88519167">
        <ele>173.9</ele>
        <time>2025-07-28T16:53:42Z</time>
      </trkpt>
      <trkpt lat="46.30557" lon="16.88509333">
        <ele>173.6</ele>
        <time>2025-07-28T16:53:43Z</time>
      </trkpt>
      <trkpt lat="46.30576667" lon="16.88500167">
        <ele>174.8</ele>
        <time>2025-07-28T16:53:44Z</time>
      </trkpt>
      <trkpt lat="46.30596833" lon="16.88490667">
        <ele>175.4</ele>
        <time>2025-07-28T16:53:45Z</time>
      </trkpt>
      <trkpt lat="46.30617333" lon="16.88481667">
        <ele>175.4</ele>
        <time>2025-07-28T16:53:46Z</time>
      </trkpt>
      <trkpt lat="46.30638333" lon="16.88472">
        <ele>176.4</ele>
        <time>2025-07-28T16:53:47Z</time>
      </trkpt>
      <trkpt lat="46.306585" lon="16.88462167">
        <ele>177</ele>
        <time>2025-07-28T16:53:48Z</time>
      </trkpt>
      <trkpt lat="46.306785" lon="16.884525">
        <ele>174.8</ele>
        <time>2025-07-28T16:53:49Z</time>
      </trkpt>
      <trkpt lat="46.306995" lon="16.88443">
        <ele>173.6</ele>
        <time>2025-07-28T16:53:50Z</time>
      </trkpt>
      <trkpt lat="46.30721167" lon="16.88433333">
        <ele>172</ele>
        <time>2025-07-28T16:53:51Z</time>
      </trkpt>
      <trkpt lat="46.30742833" lon="16.884235">
        <ele>170.5</ele>
        <time>2025-07-28T16:53:52Z</time>
      </trkpt>
      <trkpt lat="46.30764167" lon="16.88413167">
        <ele>169.3</ele>
        <time>2025-07-28T16:53:53Z</time>
      </trkpt>
      <trkpt lat="46.30785167" lon="16.884025">
        <ele>169</ele>
        <time>2025-07-28T16:53:54Z</time>
      </trkpt>
      <trkpt lat="46.30805833" lon="16.883925">
        <ele>169.3</ele>
        <time>2025-07-28T16:53:55Z</time>
      </trkpt>
      <trkpt lat="46.30827333" lon="16.88383667">
        <ele>170</ele>
        <time>2025-07-28T16:53:56Z</time>
      </trkpt>
      <trkpt lat="46.30849333" lon="16.88375">
        <ele>177.1</ele>
        <time>2025-07-28T16:53:57Z</time>
      </trkpt>
      <trkpt lat="46.308705" lon="16.88365333">
        <ele>177.4</ele>
        <time>2025-07-28T16:53:58Z</time>
      </trkpt>
      <trkpt lat="46.30891" lon="16.88354667">
        <ele>181.7</ele>
        <time>2025-07-28T16:53:59Z</time>
      </trkpt>
      <trkpt lat="46.30912333" lon="16.88347833">
        <ele>182.9</ele>
        <time>2025-07-28T16:54:00Z</time>
      </trkpt>
      <trkpt lat="46.30932333" lon="16.8834">
        <ele>186</ele>
        <time>2025-07-28T16:54:01Z</time>
      </trkpt>
      <trkpt lat="46.30950833" lon="16.883305">
        <ele>185.9</ele>
        <time>2025-07-28T16:54:02Z</time>
      </trkpt>
      <trkpt lat="46.30970167" lon="16.88321833">
        <ele>186</ele>
        <time>2025-07-28T16:54:03Z</time>
      </trkpt>
      <trkpt lat="46.309885" lon="16.88312333">
        <ele>186.1</ele>
        <time>2025-07-28T16:54:04Z</time>
      </trkpt>
      <trkpt lat="46.31006167" lon="16.88301833">
        <ele>186.4</ele>
        <time>2025-07-28T16:54:05Z</time>
      </trkpt>
      <trkpt lat="46.31024333" lon="16.88293833">
        <ele>185.7</ele>
        <time>2025-07-28T16:54:06Z</time>
      </trkpt>
      <trkpt lat="46.31041667" lon="16.88284833">
        <ele>183.7</ele>
        <time>2025-07-28T16:54:07Z</time>
      </trkpt>
      <trkpt lat="46.31058833" lon="16.88276333">
        <ele>182.5</ele>
        <time>2025-07-28T16:54:08Z</time>
      </trkpt>
      <trkpt lat="46.31075" lon="16.88269167">
        <ele>178.6</ele>
        <time>2025-07-28T16:54:09Z</time>
      </trkpt>
      <trkpt lat="46.31090833" lon="16.8826">
        <ele>178.1</ele>
        <time>2025-07-28T16:54:10Z</time>
      </trkpt>
      <trkpt lat="46.31106167" lon="16.882505">
        <ele>182.5</ele>
        <time>2025-07-28T16:54:11Z</time>
      </trkpt>
      <trkpt lat="46.31121667" lon="16.88242">
        <ele>181.9</ele>
        <time>2025-07-28T16:54:12Z</time>
      </trkpt>
      <trkpt lat="46.31135833" lon="16.88233833">
        <ele>182.1</ele>
        <time>2025-07-28T16:54:13Z</time>
      </trkpt>
      <trkpt lat="46.31150333" lon="16.88225833">
        <ele>182.1</ele>
        <time>2025-07-28T16:54:14Z</time>
      </trkpt>
      <trkpt lat="46.31164167" lon="16.882185">
        <ele>182.3</ele>
        <time>2025-07-28T16:54:15Z</time>
      </trkpt>
      <trkpt lat="46.31178333" lon="16.88209">
        <ele>181.5</ele>
        <time>2025-07-28T16:54:16Z</time>
      </trkpt>
      <trkpt lat="46.31192833" lon="16.88201167">
        <ele>181.3</ele>
        <time>2025-07-28T16:54:17Z</time>
      </trkpt>
      <trkpt lat="46.31207667" lon="16.88194833">
        <ele>183</ele>
        <time>2025-07-28T16:54:18Z</time>
      </trkpt>
      <trkpt lat="46.31223167" lon="16.88188">
        <ele>184.3</ele>
        <time>2025-07-28T16:54:19Z</time>
      </trkpt>
      <trkpt lat="46.31238333" lon="16.88180167">
        <ele>183.9</ele>
        <time>2025-07-28T16:54:20Z</time>
      </trkpt>
      <trkpt lat="46.31252333" lon="16.881725">
        <ele>183.5</ele>
        <time>2025-07-28T16:54:21Z</time>
      </trkpt>
      <trkpt lat="46.31266333" lon="16.88165333">
        <ele>182.9</ele>
        <time>2025-07-28T16:54:22Z</time>
      </trkpt>
      <trkpt lat="46.31280833" lon="16.88157667">
        <ele>182.7</ele>
        <time>2025-07-28T16:54:23Z</time>
      </trkpt>
      <trkpt lat="46.31295333" lon="16.88149167">
        <ele>182.5</ele>
        <time>2025-07-28T16:54:24Z</time>
      </trkpt>
      <trkpt lat="46.31309833" lon="16.88141333">
        <ele>182.3</ele>
        <time>2025-07-28T16:54:25Z</time>
      </trkpt>
      <trkpt lat="46.31324833" lon="16.88134167">
        <ele>181.9</ele>
        <time>2025-07-28T16:54:26Z</time>
      </trkpt>
      <trkpt lat="46.31339667" lon="16.88126833">
        <ele>181.4</ele>
        <time>2025-07-28T16:54:27Z</time>
      </trkpt>
      <trkpt lat="46.31354167" lon="16.881195">
        <ele>179.4</ele>
        <time>2025-07-28T16:54:28Z</time>
      </trkpt>
      <trkpt lat="46.313685" lon="16.881115">
        <ele>178.7</ele>
        <time>2025-07-28T16:54:29Z</time>
      </trkpt>
      <trkpt lat="46.31383" lon="16.88103833">
        <ele>178.1</ele>
        <time>2025-07-28T16:54:30Z</time>
      </trkpt>
      <trkpt lat="46.31397167" lon="16.88096333">
        <ele>178.4</ele>
        <time>2025-07-28T16:54:31Z</time>
      </trkpt>
      <trkpt lat="46.31411" lon="16.880885">
        <ele>180.6</ele>
        <time>2025-07-28T16:54:32Z</time>
      </trkpt>
      <trkpt lat="46.31425167" lon="16.880805">
        <ele>180.3</ele>
        <time>2025-07-28T16:54:33Z</time>
      </trkpt>
      <trkpt lat="46.31439667" lon="16.88073667">
        <ele>180</ele>
        <time>2025-07-28T16:54:34Z</time>
      </trkpt>
      <trkpt lat="46.31454167" lon="16.880655">
        <ele>179.7</ele>
        <time>2025-07-28T16:54:35Z</time>
      </trkpt>
      <trkpt lat="46.31468833" lon="16.88058167">
        <ele>178.9</ele>
        <time>2025-07-28T16:54:36Z</time>
      </trkpt>
      <trkpt lat="46.314825" lon="16.88051167">
        <ele>177.8</ele>
        <time>2025-07-28T16:54:37Z</time>
      </trkpt>
      <trkpt lat="46.31496" lon="16.88044833">
        <ele>178.5</ele>
        <time>2025-07-28T16:54:38Z</time>
      </trkpt>
      <trkpt lat="46.31509667" lon="16.88037">
        <ele>177.6</ele>
        <time>2025-07-28T16:54:39Z</time>
      </trkpt>
      <trkpt lat="46.31523833" lon="16.880295">
        <ele>177.1</ele>
        <time>2025-07-28T16:54:40Z</time>
      </trkpt>
      <trkpt lat="46.31537833" lon="16.88022167">
        <ele>175.7</ele>
        <time>2025-07-28T16:54:41Z</time>
      </trkpt>
      <trkpt lat="46.31551833" lon="16.88015">
        <ele>174.6</ele>
        <time>2025-07-28T16:54:42Z</time>
      </trkpt>
      <trkpt lat="46.31565667" lon="16.88007667">
        <ele>174.2</ele>
        <time>2025-07-28T16:54:43Z</time>
      </trkpt>
      <trkpt lat="46.31579667" lon="16.88001167">
        <ele>173.5</ele>
        <time>2025-07-28T16:54:44Z</time>
      </trkpt>
      <trkpt lat="46.31594" lon="16.87994333">
        <ele>173.1</ele>
        <time>2025-07-28T16:54:45Z</time>
      </trkpt>
      <trkpt lat="46.31608" lon="16.87987167">
        <ele>172.8</ele>
        <time>2025-07-28T16:54:46Z</time>
      </trkpt>
      <trkpt lat="46.31622" lon="16.87979833">
        <ele>172.3</ele>
        <time>2025-07-28T16:54:47Z</time>
      </trkpt>
      <trkpt lat="46.31636333" lon="16.879715">
        <ele>172.3</ele>
        <time>2025-07-28T16:54:48Z</time>
      </trkpt>
      <trkpt lat="46.316505" lon="16.87963">
        <ele>171.7</ele>
        <time>2025-07-28T16:54:49Z</time>
      </trkpt>
      <trkpt lat="46.31665167" lon="16.87955">
        <ele>171.4</ele>
        <time>2025-07-28T16:54:50Z</time>
      </trkpt>
      <trkpt lat="46.31679333" lon="16.87947">
        <ele>170.7</ele>
        <time>2025-07-28T16:54:51Z</time>
      </trkpt>
      <trkpt lat="46.31694333" lon="16.87937667">
        <ele>169.1</ele>
        <time>2025-07-28T16:54:52Z</time>
      </trkpt>
      <trkpt lat="46.31708667" lon="16.87930333">
        <ele>169.4</ele>
        <time>2025-07-28T16:54:53Z</time>
      </trkpt>
      <trkpt lat="46.31723" lon="16.87921833">
        <ele>169</ele>
        <time>2025-07-28T16:54:54Z</time>
      </trkpt>
      <trkpt lat="46.31739333" lon="16.87914333">
        <ele>165.1</ele>
        <time>2025-07-28T16:54:55Z</time>
      </trkpt>
      <trkpt lat="46.31755333" lon="16.87908333">
        <ele>163.9</ele>
        <time>2025-07-28T16:54:56Z</time>
      </trkpt>
      <trkpt lat="46.31772333" lon="16.879">
        <ele>166.8</ele>
        <time>2025-07-28T16:54:57Z</time>
      </trkpt>
      <trkpt lat="46.31788167" lon="16.87891167">
        <ele>169.3</ele>
        <time>2025-07-28T16:54:58Z</time>
      </trkpt>
      <trkpt lat="46.31803833" lon="16.87883">
        <ele>169.6</ele>
        <time>2025-07-28T16:54:59Z</time>
      </trkpt>
      <trkpt lat="46.31820167" lon="16.87874">
        <ele>169.8</ele>
        <time>2025-07-28T16:55:00Z</time>
      </trkpt>
      <trkpt lat="46.318365" lon="16.87865167">
        <ele>170.1</ele>
        <time>2025-07-28T16:55:01Z</time>
      </trkpt>
      <trkpt lat="46.31852667" lon="16.87856833">
        <ele>169.7</ele>
        <time>2025-07-28T16:55:02Z</time>
      </trkpt>
      <trkpt lat="46.31869833" lon="16.87849167">
        <ele>169.3</ele>
        <time>2025-07-28T16:55:03Z</time>
      </trkpt>
      <trkpt lat="46.31887333" lon="16.8784">
        <ele>170.5</ele>
        <time>2025-07-28T16:55:04Z</time>
      </trkpt>
      <trkpt lat="46.31905167" lon="16.87832167">
        <ele>176.8</ele>
        <time>2025-07-28T16:55:05Z</time>
      </trkpt>
      <trkpt lat="46.31923333" lon="16.87824833">
        <ele>178</ele>
        <time>2025-07-28T16:55:06Z</time>
      </trkpt>
      <trkpt lat="46.31940167" lon="16.87817167">
        <ele>178.2</ele>
        <time>2025-07-28T16:55:07Z</time>
      </trkpt>
      <trkpt lat="46.31957833" lon="16.87809833">
        <ele>177</ele>
        <time>2025-07-28T16:55:08Z</time>
      </trkpt>
      <trkpt lat="46.31976833" lon="16.87802667">
        <ele>176.7</ele>
        <time>2025-07-28T16:55:09Z</time>
      </trkpt>
      <trkpt lat="46.31996667" lon="16.87795833">
        <ele>176.3</ele>
        <time>2025-07-28T16:55:10Z</time>
      </trkpt>
      <trkpt lat="46.32016" lon="16.87789667">
        <ele>176.4</ele>
        <time>2025-07-28T16:55:11Z</time>
      </trkpt>
      <trkpt lat="46.320365" lon="16.87783167">
        <ele>175.9</ele>
        <time>2025-07-28T16:55:12Z</time>
      </trkpt>
      <trkpt lat="46.32056333" lon="16.87777167">
        <ele>174.8</ele>
        <time>2025-07-28T16:55:13Z</time>
      </trkpt>
      <trkpt lat="46.32075667" lon="16.87773333">
        <ele>174.8</ele>
        <time>2025-07-28T16:55:14Z</time>
      </trkpt>
      <trkpt lat="46.320955" lon="16.8777">
        <ele>177</ele>
        <time>2025-07-28T16:55:15Z</time>
      </trkpt>
      <trkpt lat="46.32115167" lon="16.87766167">
        <ele>178.7</ele>
        <time>2025-07-28T16:55:16Z</time>
      </trkpt>
      <trkpt lat="46.32135667" lon="16.87761333">
        <ele>181.1</ele>
        <time>2025-07-28T16:55:17Z</time>
      </trkpt>
      <trkpt lat="46.321565" lon="16.87757333">
        <ele>180.9</ele>
        <time>2025-07-28T16:55:18Z</time>
      </trkpt>
      <trkpt lat="46.32176833" lon="16.87753167">
        <ele>180.1</ele>
        <time>2025-07-28T16:55:19Z</time>
      </trkpt>
      <trkpt lat="46.32197667" lon="16.87750333">
        <ele>177.8</ele>
        <time>2025-07-28T16:55:20Z</time>
      </trkpt>
      <trkpt lat="46.322175" lon="16.87746833">
        <ele>175.8</ele>
        <time>2025-07-28T16:55:21Z</time>
      </trkpt>
      <trkpt lat="46.32238" lon="16.87743167">
        <ele>175.9</ele>
        <time>2025-07-28T16:55:22Z</time>
      </trkpt>
      <trkpt lat="46.322595" lon="16.87740833">
        <ele>176.2</ele>
        <time>2025-07-28T16:55:23Z</time>
      </trkpt>
      <trkpt lat="46.322795" lon="16.87737">
        <ele>177.2</ele>
        <time>2025-07-28T16:55:24Z</time>
      </trkpt>
      <trkpt lat="46.32299833" lon="16.87734167">
        <ele>177.1</ele>
        <time>2025-07-28T16:55:25Z</time>
      </trkpt>
      <trkpt lat="46.32319167" lon="16.87730667">
        <ele>176.9</ele>
        <time>2025-07-28T16:55:26Z</time>
      </trkpt>
      <trkpt lat="46.32338667" lon="16.87729333">
        <ele>176</ele>
        <time>2025-07-28T16:55:27Z</time>
      </trkpt>
      <trkpt lat="46.32357667" lon="16.87728167">
        <ele>175.8</ele>
        <time>2025-07-28T16:55:28Z</time>
      </trkpt>
      <trkpt lat="46.32376333" lon="16.87727667">
        <ele>175.2</ele>
        <time>2025-07-28T16:55:29Z</time>
      </trkpt>
      <trkpt lat="46.323945" lon="16.877275">
        <ele>174.9</ele>
        <time>2025-07-28T16:55:30Z</time>
      </trkpt>
      <trkpt lat="46.324125" lon="16.87726167">
        <ele>174.1</ele>
        <time>2025-07-28T16:55:31Z</time>
      </trkpt>
      <trkpt lat="46.32429833" lon="16.87725667">
        <ele>171.6</ele>
        <time>2025-07-28T16:55:32Z</time>
      </trkpt>
      <trkpt lat="46.324475" lon="16.877215">
        <ele>170.1</ele>
        <time>2025-07-28T16:55:33Z</time>
      </trkpt>
      <trkpt lat="46.32464167" lon="16.8772">
        <ele>169</ele>
        <time>2025-07-28T16:55:34Z</time>
      </trkpt>
      <trkpt lat="46.324795" lon="16.87723">
        <ele>164.1</ele>
        <time>2025-07-28T16:55:35Z</time>
      </trkpt>
      <trkpt lat="46.32495" lon="16.877235">
        <ele>164.7</ele>
        <time>2025-07-28T16:55:36Z</time>
      </trkpt>
      <trkpt lat="46.32510333" lon="16.877245">
        <ele>164.9</ele>
        <time>2025-07-28T16:55:37Z</time>
      </trkpt>
      <trkpt lat="46.325245" lon="16.87729167">
        <ele>171.2</ele>
        <time>2025-07-28T16:55:38Z</time>
      </trkpt>
      <trkpt lat="46.32539" lon="16.877325">
        <ele>172.5</ele>
        <time>2025-07-28T16:55:39Z</time>
      </trkpt>
      <trkpt lat="46.32554" lon="16.87736">
        <ele>178.5</ele>
        <time>2025-07-28T16:55:40Z</time>
      </trkpt>
      <trkpt lat="46.32568" lon="16.877395">
        <ele>178.9</ele>
        <time>2025-07-28T16:55:41Z</time>
      </trkpt>
      <trkpt lat="46.32582667" lon="16.87743167">
        <ele>178.6</ele>
        <time>2025-07-28T16:55:42Z</time>
      </trkpt>
      <trkpt lat="46.32597333" lon="16.87746667">
        <ele>179.9</ele>
        <time>2025-07-28T16:55:43Z</time>
      </trkpt>
      <trkpt lat="46.32611667" lon="16.877505">
        <ele>183.6</ele>
        <time>2025-07-28T16:55:44Z</time>
      </trkpt>
      <trkpt lat="46.32627167" lon="16.87753833">
        <ele>185.1</ele>
        <time>2025-07-28T16:55:45Z</time>
      </trkpt>
      <trkpt lat="46.32642333" lon="16.87758333">
        <ele>185.1</ele>
        <time>2025-07-28T16:55:46Z</time>
      </trkpt>
      <trkpt lat="46.32657" lon="16.87763167">
        <ele>184.8</ele>
        <time>2025-07-28T16:55:47Z</time>
      </trkpt>
      <trkpt lat="46.32672667" lon="16.87769">
        <ele>184</ele>
        <time>2025-07-28T16:55:48Z</time>
      </trkpt>
      <trkpt lat="46.32688333" lon="16.87775333">
        <ele>182.9</ele>
        <time>2025-07-28T16:55:49Z</time>
      </trkpt>
      <trkpt lat="46.32704833" lon="16.87780667">
        <ele>181.4</ele>
        <time>2025-07-28T16:55:50Z</time>
      </trkpt>
      <trkpt lat="46.327215" lon="16.87788">
        <ele>181</ele>
        <time>2025-07-28T16:55:51Z</time>
      </trkpt>
      <trkpt lat="46.327375" lon="16.87794833">
        <ele>181.9</ele>
        <time>2025-07-28T16:55:52Z</time>
      </trkpt>
      <trkpt lat="46.327545" lon="16.87803">
        <ele>181.6</ele>
        <time>2025-07-28T16:55:53Z</time>
      </trkpt>
      <trkpt lat="46.327715" lon="16.87812167">
        <ele>182.7</ele>
        <time>2025-07-28T16:55:54Z</time>
      </trkpt>
      <trkpt lat="46.32788167" lon="16.87821667">
        <ele>183.6</ele>
        <time>2025-07-28T16:55:55Z</time>
      </trkpt>
      <trkpt lat="46.32803667" lon="16.87830667">
        <ele>184.8</ele>
        <time>2025-07-28T16:55:56Z</time>
      </trkpt>
      <trkpt lat="46.32820667" lon="16.87841167">
        <ele>186</ele>
        <time>2025-07-28T16:55:57Z</time>
      </trkpt>
      <trkpt lat="46.32837833" lon="16.87851">
        <ele>186.5</ele>
        <time>2025-07-28T16:55:58Z</time>
      </trkpt>
      <trkpt lat="46.32855667" lon="16.87861">
        <ele>186.2</ele>
        <time>2025-07-28T16:55:59Z</time>
      </trkpt>
      <trkpt lat="46.32874167" lon="16.878705">
        <ele>186</ele>
        <time>2025-07-28T16:56:00Z</time>
      </trkpt>
      <trkpt lat="46.32892333" lon="16.87879667">
        <ele>186.8</ele>
        <time>2025-07-28T16:56:01Z</time>
      </trkpt>
      <trkpt lat="46.32909167" lon="16.87891667">
        <ele>188.7</ele>
        <time>2025-07-28T16:56:02Z</time>
      </trkpt>
      <trkpt lat="46.32925833" lon="16.87902833">
        <ele>188.8</ele>
        <time>2025-07-28T16:56:03Z</time>
      </trkpt>
      <trkpt lat="46.32943667" lon="16.879135">
        <ele>187.6</ele>
        <time>2025-07-28T16:56:04Z</time>
      </trkpt>
      <trkpt lat="46.32961667" lon="16.879245">
        <ele>186.7</ele>
        <time>2025-07-28T16:56:05Z</time>
      </trkpt>
      <trkpt lat="46.3298" lon="16.87936333">
        <ele>185.8</ele>
        <time>2025-07-28T16:56:06Z</time>
      </trkpt>
      <trkpt lat="46.32999" lon="16.87947833">
        <ele>185.1</ele>
        <time>2025-07-28T16:56:07Z</time>
      </trkpt>
      <trkpt lat="46.33017" lon="16.87960167">
        <ele>183.1</ele>
        <time>2025-07-28T16:56:08Z</time>
      </trkpt>
      <trkpt lat="46.33035167" lon="16.87972833">
        <ele>182.7</ele>
        <time>2025-07-28T16:56:09Z</time>
      </trkpt>
      <trkpt lat="46.330535" lon="16.87984833">
        <ele>181.8</ele>
        <time>2025-07-28T16:56:10Z</time>
      </trkpt>
      <trkpt lat="46.33071" lon="16.87996667">
        <ele>180.3</ele>
        <time>2025-07-28T16:56:11Z</time>
      </trkpt>
      <trkpt lat="46.33090667" lon="16.88009">
        <ele>177.9</ele>
        <time>2025-07-28T16:56:12Z</time>
      </trkpt>
      <trkpt lat="46.331095" lon="16.880225">
        <ele>177.8</ele>
        <time>2025-07-28T16:56:13Z</time>
      </trkpt>
      <trkpt lat="46.33127667" lon="16.880355">
        <ele>179.1</ele>
        <time>2025-07-28T16:56:14Z</time>
      </trkpt>
      <trkpt lat="46.33147" lon="16.88048167">
        <ele>178.3</ele>
        <time>2025-07-28T16:56:15Z</time>
      </trkpt>
      <trkpt lat="46.331655" lon="16.880615">
        <ele>177.1</ele>
        <time>2025-07-28T16:56:16Z</time>
      </trkpt>
      <trkpt lat="46.331845" lon="16.8807">
        <ele>178.9</ele>
        <time>2025-07-28T16:56:17Z</time>
      </trkpt>
      <trkpt lat="46.33204167" lon="16.88079167">
        <ele>181.6</ele>
        <time>2025-07-28T16:56:18Z</time>
      </trkpt>
      <trkpt lat="46.33223" lon="16.88087167">
        <ele>182.3</ele>
        <time>2025-07-28T16:56:19Z</time>
      </trkpt>
      <trkpt lat="46.33242667" lon="16.88095667">
        <ele>183.3</ele>
        <time>2025-07-28T16:56:20Z</time>
      </trkpt>
      <trkpt lat="46.33263" lon="16.881025">
        <ele>184.4</ele>
        <time>2025-07-28T16:56:21Z</time>
      </trkpt>
      <trkpt lat="46.33283" lon="16.88109667">
        <ele>186.4</ele>
        <time>2025-07-28T16:56:22Z</time>
      </trkpt>
      <trkpt lat="46.33323" lon="16.88119667">
        <ele>187</ele>
        <time>2025-07-28T16:56:24Z</time>
      </trkpt>
      <trkpt lat="46.33343667" lon="16.881245">
        <ele>186.5</ele>
        <time>2025-07-28T16:56:25Z</time>
      </trkpt>
      <trkpt lat="46.33363167" lon="16.88128167">
        <ele>185.3</ele>
        <time>2025-07-28T16:56:26Z</time>
      </trkpt>
      <trkpt lat="46.33383" lon="16.88130333">
        <ele>185</ele>
        <time>2025-07-28T16:56:27Z</time>
      </trkpt>
      <trkpt lat="46.33402833" lon="16.88131667">
        <ele>183.6</ele>
        <time>2025-07-28T16:56:28Z</time>
      </trkpt>
      <trkpt lat="46.33422667" lon="16.88133333">
        <ele>183.1</ele>
        <time>2025-07-28T16:56:29Z</time>
      </trkpt>
      <trkpt lat="46.334425" lon="16.881335">
        <ele>182.7</ele>
        <time>2025-07-28T16:56:30Z</time>
      </trkpt>
      <trkpt lat="46.33463" lon="16.88133167">
        <ele>182.6</ele>
        <time>2025-07-28T16:56:31Z</time>
      </trkpt>
      <trkpt lat="46.33482667" lon="16.88132167">
        <ele>182.2</ele>
        <time>2025-07-28T16:56:32Z</time>
      </trkpt>
      <trkpt lat="46.33501667" lon="16.88129667">
        <ele>181.8</ele>
        <time>2025-07-28T16:56:33Z</time>
      </trkpt>
      <trkpt lat="46.33521333" lon="16.88126167">
        <ele>181</ele>
        <time>2025-07-28T16:56:34Z</time>
      </trkpt>
      <trkpt lat="46.33539667" lon="16.88121833">
        <ele>181.4</ele>
        <time>2025-07-28T16:56:35Z</time>
      </trkpt>
      <trkpt lat="46.335585" lon="16.88117833">
        <ele>182.3</ele>
        <time>2025-07-28T16:56:36Z</time>
      </trkpt>
      <trkpt lat="46.33576167" lon="16.88113667">
        <ele>183</ele>
        <time>2025-07-28T16:56:37Z</time>
      </trkpt>
      <trkpt lat="46.33594" lon="16.88108667">
        <ele>182.1</ele>
        <time>2025-07-28T16:56:38Z</time>
      </trkpt>
      <trkpt lat="46.336105" lon="16.88103">
        <ele>181.6</ele>
        <time>2025-07-28T16:56:39Z</time>
      </trkpt>
      <trkpt lat="46.336265" lon="16.88096833">
        <ele>182.2</ele>
        <time>2025-07-28T16:56:40Z</time>
      </trkpt>
      <trkpt lat="46.33641167" lon="16.88091">
        <ele>181.4</ele>
        <time>2025-07-28T16:56:41Z</time>
      </trkpt>
      <trkpt lat="46.33655833" lon="16.88085167">
        <ele>181.4</ele>
        <time>2025-07-28T16:56:42Z</time>
      </trkpt>
      <trkpt lat="46.33670167" lon="16.88078333">
        <ele>182</ele>
        <time>2025-07-28T16:56:43Z</time>
      </trkpt>
      <trkpt lat="46.33683333" lon="16.88072">
        <ele>182.5</ele>
        <time>2025-07-28T16:56:44Z</time>
      </trkpt>
      <trkpt lat="46.33695333" lon="16.88065">
        <ele>182.9</ele>
        <time>2025-07-28T16:56:45Z</time>
      </trkpt>
      <trkpt lat="46.33707" lon="16.880585">
        <ele>182.7</ele>
        <time>2025-07-28T16:56:46Z</time>
      </trkpt>
      <trkpt lat="46.33717167" lon="16.880525">
        <ele>182</ele>
        <time>2025-07-28T16:56:47Z</time>
      </trkpt>
      <trkpt lat="46.33726167" lon="16.88046167">
        <ele>182.3</ele>
        <time>2025-07-28T16:56:48Z</time>
      </trkpt>
      <trkpt lat="46.337355" lon="16.88040167">
        <ele>182.2</ele>
        <time>2025-07-28T16:56:49Z</time>
      </trkpt>
      <trkpt lat="46.337445" lon="16.880335">
        <ele>182.1</ele>
        <time>2025-07-28T16:56:50Z</time>
      </trkpt>
      <trkpt lat="46.33767667" lon="16.88015">
        <ele>179.5</ele>
        <time>2025-07-28T16:56:53Z</time>
      </trkpt>
      <trkpt lat="46.33775833" lon="16.88009167">
        <ele>178.9</ele>
        <time>2025-07-28T16:56:54Z</time>
      </trkpt>
      <trkpt lat="46.33783833" lon="16.88002833">
        <ele>178.7</ele>
        <time>2025-07-28T16:56:55Z</time>
      </trkpt>
      <trkpt lat="46.337925" lon="16.87995833">
        <ele>178.5</ele>
        <time>2025-07-28T16:56:56Z</time>
      </trkpt>
      <trkpt lat="46.33801667" lon="16.879895">
        <ele>178.5</ele>
        <time>2025-07-28T16:56:57Z</time>
      </trkpt>
      <trkpt lat="46.33810833" lon="16.879815">
        <ele>179.1</ele>
        <time>2025-07-28T16:56:58Z</time>
      </trkpt>
      <trkpt lat="46.33820333" lon="16.87974333">
        <ele>179.2</ele>
        <time>2025-07-28T16:56:59Z</time>
      </trkpt>
      <trkpt lat="46.338295" lon="16.87966">
        <ele>179.2</ele>
        <time>2025-07-28T16:57:00Z</time>
      </trkpt>
      <trkpt lat="46.33839167" lon="16.87958333">
        <ele>178.2</ele>
        <time>2025-07-28T16:57:01Z</time>
      </trkpt>
      <trkpt lat="46.3385" lon="16.87951">
        <ele>179.5</ele>
        <time>2025-07-28T16:57:02Z</time>
      </trkpt>
      <trkpt lat="46.338715" lon="16.87933833">
        <ele>179.5</ele>
        <time>2025-07-28T16:57:04Z</time>
      </trkpt>
      <trkpt lat="46.33882" lon="16.87921833">
        <ele>180.1</ele>
        <time>2025-07-28T16:57:05Z</time>
      </trkpt>
      <trkpt lat="46.338925" lon="16.87910833">
        <ele>180.3</ele>
        <time>2025-07-28T16:57:06Z</time>
      </trkpt>
      <trkpt lat="46.33904333" lon="16.87899833">
        <ele>179.1</ele>
        <time>2025-07-28T16:57:07Z</time>
      </trkpt>
      <trkpt lat="46.33914833" lon="16.87889167">
        <ele>178.9</ele>
        <time>2025-07-28T16:57:08Z</time>
      </trkpt>
      <trkpt lat="46.33927333" lon="16.87877167">
        <ele>178.3</ele>
        <time>2025-07-28T16:57:09Z</time>
      </trkpt>
      <trkpt lat="46.33953333" lon="16.87854">
        <ele>178.6</ele>
        <time>2025-07-28T16:57:11Z</time>
      </trkpt>
      <trkpt lat="46.33967167" lon="16.878415">
        <ele>178.4</ele>
        <time>2025-07-28T16:57:12Z</time>
      </trkpt>
      <trkpt lat="46.33979667" lon="16.87828833">
        <ele>178.3</ele>
        <time>2025-07-28T16:57:13Z</time>
      </trkpt>
      <trkpt lat="46.33993333" lon="16.87817333">
        <ele>178.1</ele>
        <time>2025-07-28T16:57:14Z</time>
      </trkpt>
      <trkpt lat="46.34008333" lon="16.878065">
        <ele>178.5</ele>
        <time>2025-07-28T16:57:15Z</time>
      </trkpt>
      <trkpt lat="46.34022667" lon="16.87795333">
        <ele>178.8</ele>
        <time>2025-07-28T16:57:16Z</time>
      </trkpt>
      <trkpt lat="46.34037333" lon="16.87783833">
        <ele>179.6</ele>
        <time>2025-07-28T16:57:17Z</time>
      </trkpt>
      <trkpt lat="46.34067333" lon="16.87762">
        <ele>183.3</ele>
        <time>2025-07-28T16:57:19Z</time>
      </trkpt>
      <trkpt lat="46.34081833" lon="16.87748833">
        <ele>183</ele>
        <time>2025-07-28T16:57:20Z</time>
      </trkpt>
      <trkpt lat="46.340975" lon="16.87736833">
        <ele>182.8</ele>
        <time>2025-07-28T16:57:21Z</time>
      </trkpt>
      <trkpt lat="46.341125" lon="16.877235">
        <ele>181.8</ele>
        <time>2025-07-28T16:57:22Z</time>
      </trkpt>
      <trkpt lat="46.34128833" lon="16.87710333">
        <ele>181.2</ele>
        <time>2025-07-28T16:57:23Z</time>
      </trkpt>
      <trkpt lat="46.34144333" lon="16.87698167">
        <ele>180.4</ele>
        <time>2025-07-28T16:57:24Z</time>
      </trkpt>
      <trkpt lat="46.34160333" lon="16.87684833">
        <ele>180.9</ele>
        <time>2025-07-28T16:57:25Z</time>
      </trkpt>
      <trkpt lat="46.34176833" lon="16.87671833">
        <ele>181.1</ele>
        <time>2025-07-28T16:57:26Z</time>
      </trkpt>
      <trkpt lat="46.34193333" lon="16.87660167">
        <ele>180.4</ele>
        <time>2025-07-28T16:57:27Z</time>
      </trkpt>
      <trkpt lat="46.34210333" lon="16.87646833">
        <ele>179.7</ele>
        <time>2025-07-28T16:57:28Z</time>
      </trkpt>
      <trkpt lat="46.34226167" lon="16.87634">
        <ele>179.1</ele>
        <time>2025-07-28T16:57:29Z</time>
      </trkpt>
      <trkpt lat="46.34242833" lon="16.876215">
        <ele>178.2</ele>
        <time>2025-07-28T16:57:30Z</time>
      </trkpt>
      <trkpt lat="46.34259333" lon="16.87609">
        <ele>177.8</ele>
        <time>2025-07-28T16:57:31Z</time>
      </trkpt>
      <trkpt lat="46.34275333" lon="16.87596667">
        <ele>178.2</ele>
        <time>2025-07-28T16:57:32Z</time>
      </trkpt>
      <trkpt lat="46.342925" lon="16.87583167">
        <ele>178.9</ele>
        <time>2025-07-28T16:57:33Z</time>
      </trkpt>
      <trkpt lat="46.34310167" lon="16.87569167">
        <ele>180</ele>
        <time>2025-07-28T16:57:34Z</time>
      </trkpt>
      <trkpt lat="46.34327667" lon="16.87554667">
        <ele>180.5</ele>
        <time>2025-07-28T16:57:35Z</time>
      </trkpt>
      <trkpt lat="46.34345667" lon="16.87541333">
        <ele>181.1</ele>
        <time>2025-07-28T16:57:36Z</time>
      </trkpt>
      <trkpt lat="46.34364667" lon="16.87526833">
        <ele>179.2</ele>
        <time>2025-07-28T16:57:37Z</time>
      </trkpt>
      <trkpt lat="46.34383833" lon="16.87512833">
        <ele>178.2</ele>
        <time>2025-07-28T16:57:38Z</time>
      </trkpt>
      <trkpt lat="46.34401333" lon="16.874985">
        <ele>177.1</ele>
        <time>2025-07-28T16:57:39Z</time>
      </trkpt>
      <trkpt lat="46.34419" lon="16.87484333">
        <ele>176</ele>
        <time>2025-07-28T16:57:40Z</time>
      </trkpt>
      <trkpt lat="46.344375" lon="16.87469">
        <ele>176.7</ele>
        <time>2025-07-28T16:57:41Z</time>
      </trkpt>
      <trkpt lat="46.34454667" lon="16.87454">
        <ele>176.2</ele>
        <time>2025-07-28T16:57:42Z</time>
      </trkpt>
      <trkpt lat="46.34473333" lon="16.874385">
        <ele>176.3</ele>
        <time>2025-07-28T16:57:43Z</time>
      </trkpt>
      <trkpt lat="46.34491667" lon="16.87424167">
        <ele>176.7</ele>
        <time>2025-07-28T16:57:44Z</time>
      </trkpt>
      <trkpt lat="46.34512167" lon="16.874085">
        <ele>178.2</ele>
        <time>2025-07-28T16:57:45Z</time>
      </trkpt>
      <trkpt lat="46.34532667" lon="16.87393667">
        <ele>178.1</ele>
        <time>2025-07-28T16:57:46Z</time>
      </trkpt>
      <trkpt lat="46.34552833" lon="16.87377333">
        <ele>178.1</ele>
        <time>2025-07-28T16:57:47Z</time>
      </trkpt>
      <trkpt lat="46.34573333" lon="16.87363833">
        <ele>177.9</ele>
        <time>2025-07-28T16:57:48Z</time>
      </trkpt>
      <trkpt lat="46.34593667" lon="16.8735">
        <ele>178.1</ele>
        <time>2025-07-28T16:57:49Z</time>
      </trkpt>
      <trkpt lat="46.34614" lon="16.87338333">
        <ele>178.6</ele>
        <time>2025-07-28T16:57:50Z</time>
      </trkpt>
      <trkpt lat="46.34635667" lon="16.87327833">
        <ele>178.8</ele>
        <time>2025-07-28T16:57:51Z</time>
      </trkpt>
      <trkpt lat="46.34658333" lon="16.87317">
        <ele>177.6</ele>
        <time>2025-07-28T16:57:52Z</time>
      </trkpt>
      <trkpt lat="46.34680667" lon="16.87307667">
        <ele>176.9</ele>
        <time>2025-07-28T16:57:53Z</time>
      </trkpt>
      <trkpt lat="46.34703167" lon="16.87299167">
        <ele>176.7</ele>
        <time>2025-07-28T16:57:54Z</time>
      </trkpt>
      <trkpt lat="46.34725667" lon="16.87291">
        <ele>174</ele>
        <time>2025-07-28T16:57:55Z</time>
      </trkpt>
      <trkpt lat="46.34747833" lon="16.87281667">
        <ele>174.4</ele>
        <time>2025-07-28T16:57:56Z</time>
      </trkpt>
      <trkpt lat="46.34770667" lon="16.87272667">
        <ele>174.8</ele>
        <time>2025-07-28T16:57:57Z</time>
      </trkpt>
      <trkpt lat="46.34793667" lon="16.87263">
        <ele>174.5</ele>
        <time>2025-07-28T16:57:58Z</time>
      </trkpt>
      <trkpt lat="46.34816333" lon="16.87255">
        <ele>174.9</ele>
        <time>2025-07-28T16:57:59Z</time>
      </trkpt>
      <trkpt lat="46.34839833" lon="16.87246333">
        <ele>176</ele>
        <time>2025-07-28T16:58:00Z</time>
      </trkpt>
      <trkpt lat="46.34863167" lon="16.87236833">
        <ele>176.1</ele>
        <time>2025-07-28T16:58:01Z</time>
      </trkpt>
      <trkpt lat="46.348865" lon="16.872275">
        <ele>176.3</ele>
        <time>2025-07-28T16:58:02Z</time>
      </trkpt>
      <trkpt lat="46.34909" lon="16.87218167">
        <ele>175.9</ele>
        <time>2025-07-28T16:58:03Z</time>
      </trkpt>
      <trkpt lat="46.34932" lon="16.87208333">
        <ele>176.6</ele>
        <time>2025-07-28T16:58:04Z</time>
      </trkpt>
      <trkpt lat="46.34956" lon="16.87199667">
        <ele>177.1</ele>
        <time>2025-07-28T16:58:05Z</time>
      </trkpt>
      <trkpt lat="46.34979167" lon="16.87190667">
        <ele>177.2</ele>
        <time>2025-07-28T16:58:06Z</time>
      </trkpt>
      <trkpt lat="46.350035" lon="16.87181167">
        <ele>177.9</ele>
        <time>2025-07-28T16:58:07Z</time>
      </trkpt>
      <trkpt lat="46.35027167" lon="16.871715">
        <ele>178.5</ele>
        <time>2025-07-28T16:58:08Z</time>
      </trkpt>
      <trkpt lat="46.350515" lon="16.87162">
        <ele>179</ele>
        <time>2025-07-28T16:58:09Z</time>
      </trkpt>
      <trkpt lat="46.35076" lon="16.87152833">
        <ele>178.4</ele>
        <time>2025-07-28T16:58:10Z</time>
      </trkpt>
      <trkpt lat="46.35098833" lon="16.87142667">
        <ele>178.4</ele>
        <time>2025-07-28T16:58:11Z</time>
      </trkpt>
      <trkpt lat="46.35123167" lon="16.87132833">
        <ele>175.9</ele>
        <time>2025-07-28T16:58:12Z</time>
      </trkpt>
      <trkpt lat="46.35147333" lon="16.871235">
        <ele>176.9</ele>
        <time>2025-07-28T16:58:13Z</time>
      </trkpt>
      <trkpt lat="46.35170833" lon="16.87114">
        <ele>176.7</ele>
        <time>2025-07-28T16:58:14Z</time>
      </trkpt>
      <trkpt lat="46.35194667" lon="16.87102833">
        <ele>176.6</ele>
        <time>2025-07-28T16:58:15Z</time>
      </trkpt>
      <trkpt lat="46.35218667" lon="16.87092667">
        <ele>177.1</ele>
        <time>2025-07-28T16:58:16Z</time>
      </trkpt>
      <trkpt lat="46.35243" lon="16.87083">
        <ele>178.2</ele>
        <time>2025-07-28T16:58:17Z</time>
      </trkpt>
      <trkpt lat="46.35267333" lon="16.87073333">
        <ele>179.5</ele>
        <time>2025-07-28T16:58:18Z</time>
      </trkpt>
      <trkpt lat="46.35291333" lon="16.87064667">
        <ele>179.6</ele>
        <time>2025-07-28T16:58:19Z</time>
      </trkpt>
      <trkpt lat="46.353155" lon="16.87055167">
        <ele>178.4</ele>
        <time>2025-07-28T16:58:20Z</time>
      </trkpt>
      <trkpt lat="46.35340333" lon="16.87046">
        <ele>177.4</ele>
        <time>2025-07-28T16:58:21Z</time>
      </trkpt>
      <trkpt lat="46.35364667" lon="16.87036333">
        <ele>176.9</ele>
        <time>2025-07-28T16:58:22Z</time>
      </trkpt>
      <trkpt lat="46.35389" lon="16.87026833">
        <ele>175.5</ele>
        <time>2025-07-28T16:58:23Z</time>
      </trkpt>
      <trkpt lat="46.35413" lon="16.87016833">
        <ele>175.5</ele>
        <time>2025-07-28T16:58:24Z</time>
      </trkpt>
      <trkpt lat="46.354375" lon="16.87006833">
        <ele>175.6</ele>
        <time>2025-07-28T16:58:25Z</time>
      </trkpt>
      <trkpt lat="46.35462833" lon="16.86998167">
        <ele>176.2</ele>
        <time>2025-07-28T16:58:26Z</time>
      </trkpt>
      <trkpt lat="46.354875" lon="16.869895">
        <ele>176.1</ele>
        <time>2025-07-28T16:58:27Z</time>
      </trkpt>
      <trkpt lat="46.35511333" lon="16.86979667">
        <ele>176.3</ele>
        <time>2025-07-28T16:58:28Z</time>
      </trkpt>
      <trkpt lat="46.35535167" lon="16.86971">
        <ele>176.6</ele>
        <time>2025-07-28T16:58:29Z</time>
      </trkpt>
      <trkpt lat="46.35557833" lon="16.86962167">
        <ele>177.7</ele>
        <time>2025-07-28T16:58:30Z</time>
      </trkpt>
      <trkpt lat="46.35580667" lon="16.86952333">
        <ele>178</ele>
        <time>2025-07-28T16:58:31Z</time>
      </trkpt>
      <trkpt lat="46.35601667" lon="16.86942167">
        <ele>178</ele>
        <time>2025-07-28T16:58:32Z</time>
      </trkpt>
      <trkpt lat="46.35621833" lon="16.869325">
        <ele>178.6</ele>
        <time>2025-07-28T16:58:33Z</time>
      </trkpt>
      <trkpt lat="46.356415" lon="16.86924833">
        <ele>177.7</ele>
        <time>2025-07-28T16:58:34Z</time>
      </trkpt>
      <trkpt lat="46.35660833" lon="16.86916333">
        <ele>177.8</ele>
        <time>2025-07-28T16:58:35Z</time>
      </trkpt>
      <trkpt lat="46.3568" lon="16.86908">
        <ele>178.3</ele>
        <time>2025-07-28T16:58:36Z</time>
      </trkpt>
      <trkpt lat="46.35699333" lon="16.869">
        <ele>178.4</ele>
        <time>2025-07-28T16:58:37Z</time>
      </trkpt>
      <trkpt lat="46.35718333" lon="16.868925">
        <ele>177.5</ele>
        <time>2025-07-28T16:58:38Z</time>
      </trkpt>
      <trkpt lat="46.35737" lon="16.86884667">
        <ele>176.8</ele>
        <time>2025-07-28T16:58:39Z</time>
      </trkpt>
      <trkpt lat="46.35755333" lon="16.86878333">
        <ele>177.2</ele>
        <time>2025-07-28T16:58:40Z</time>
      </trkpt>
      <trkpt lat="46.35774833" lon="16.86871167">
        <ele>178</ele>
        <time>2025-07-28T16:58:41Z</time>
      </trkpt>
      <trkpt lat="46.357945" lon="16.86864667">
        <ele>178.4</ele>
        <time>2025-07-28T16:58:42Z</time>
      </trkpt>
      <trkpt lat="46.35813" lon="16.86857">
        <ele>178.6</ele>
        <time>2025-07-28T16:58:43Z</time>
      </trkpt>
      <trkpt lat="46.358315" lon="16.86849167">
        <ele>178.3</ele>
        <time>2025-07-28T16:58:44Z</time>
      </trkpt>
      <trkpt lat="46.35850667" lon="16.86842">
        <ele>177.9</ele>
        <time>2025-07-28T16:58:45Z</time>
      </trkpt>
      <trkpt lat="46.35869333" lon="16.86836">
        <ele>177.8</ele>
        <time>2025-07-28T16:58:46Z</time>
      </trkpt>
      <trkpt lat="46.35889167" lon="16.868315">
        <ele>178.2</ele>
        <time>2025-07-28T16:58:47Z</time>
      </trkpt>
      <trkpt lat="46.35909167" lon="16.86828">
        <ele>177.9</ele>
        <time>2025-07-28T16:58:48Z</time>
      </trkpt>
      <trkpt lat="46.35928833" lon="16.86825167">
        <ele>177.6</ele>
        <time>2025-07-28T16:58:49Z</time>
      </trkpt>
      <trkpt lat="46.35948333" lon="16.86824167">
        <ele>178.7</ele>
        <time>2025-07-28T16:58:50Z</time>
      </trkpt>
      <trkpt lat="46.35968667" lon="16.86825667">
        <ele>178.1</ele>
        <time>2025-07-28T16:58:51Z</time>
      </trkpt>
      <trkpt lat="46.359885" lon="16.86829333">
        <ele>178.1</ele>
        <time>2025-07-28T16:58:52Z</time>
      </trkpt>
      <trkpt lat="46.36007667" lon="16.868335">
        <ele>177.5</ele>
        <time>2025-07-28T16:58:53Z</time>
      </trkpt>
      <trkpt lat="46.36027" lon="16.86838833">
        <ele>177.6</ele>
        <time>2025-07-28T16:58:54Z</time>
      </trkpt>
      <trkpt lat="46.36046333" lon="16.86846833">
        <ele>177.4</ele>
        <time>2025-07-28T16:58:55Z</time>
      </trkpt>
      <trkpt lat="46.36064833" lon="16.86856167">
        <ele>177.2</ele>
        <time>2025-07-28T16:58:56Z</time>
      </trkpt>
      <trkpt lat="46.36083333" lon="16.868675">
        <ele>178.1</ele>
        <time>2025-07-28T16:58:57Z</time>
      </trkpt>
      <trkpt lat="46.361015" lon="16.86878667">
        <ele>179.4</ele>
        <time>2025-07-28T16:58:58Z</time>
      </trkpt>
      <trkpt lat="46.36119167" lon="16.86892">
        <ele>179.5</ele>
        <time>2025-07-28T16:58:59Z</time>
      </trkpt>
      <trkpt lat="46.36136333" lon="16.86907667">
        <ele>179.4</ele>
        <time>2025-07-28T16:59:00Z</time>
      </trkpt>
      <trkpt lat="46.36153167" lon="16.869235">
        <ele>180.3</ele>
        <time>2025-07-28T16:59:01Z</time>
      </trkpt>
      <trkpt lat="46.36168667" lon="16.86941667">
        <ele>180.7</ele>
        <time>2025-07-28T16:59:02Z</time>
      </trkpt>
      <trkpt lat="46.361825" lon="16.86959833">
        <ele>179.2</ele>
        <time>2025-07-28T16:59:03Z</time>
      </trkpt>
      <trkpt lat="46.36196833" lon="16.86978333">
        <ele>179.1</ele>
        <time>2025-07-28T16:59:04Z</time>
      </trkpt>
      <trkpt lat="46.362095" lon="16.86997833">
        <ele>179.5</ele>
        <time>2025-07-28T16:59:05Z</time>
      </trkpt>
      <trkpt lat="46.36221833" lon="16.870175">
        <ele>180</ele>
        <time>2025-07-28T16:59:06Z</time>
      </trkpt>
      <trkpt lat="46.36232833" lon="16.87037667">
        <ele>179.1</ele>
        <time>2025-07-28T16:59:07Z</time>
      </trkpt>
      <trkpt lat="46.36243" lon="16.87058167">
        <ele>177.9</ele>
        <time>2025-07-28T16:59:08Z</time>
      </trkpt>
      <trkpt lat="46.362525" lon="16.87078167">
        <ele>178</ele>
        <time>2025-07-28T16:59:09Z</time>
      </trkpt>
      <trkpt lat="46.362605" lon="16.87098833">
        <ele>179</ele>
        <time>2025-07-28T16:59:10Z</time>
      </trkpt>
      <trkpt lat="46.362675" lon="16.87117667">
        <ele>179.9</ele>
        <time>2025-07-28T16:59:11Z</time>
      </trkpt>
      <trkpt lat="46.36274167" lon="16.871365">
        <ele>181</ele>
        <time>2025-07-28T16:59:12Z</time>
      </trkpt>
      <trkpt lat="46.36279333" lon="16.87154">
        <ele>180.5</ele>
        <time>2025-07-28T16:59:13Z</time>
      </trkpt>
      <trkpt lat="46.36284667" lon="16.87170667">
        <ele>180.4</ele>
        <time>2025-07-28T16:59:14Z</time>
      </trkpt>
      <trkpt lat="46.36289" lon="16.87187833">
        <ele>180.3</ele>
        <time>2025-07-28T16:59:15Z</time>
      </trkpt>
      <trkpt lat="46.36293" lon="16.872025">
        <ele>180.4</ele>
        <time>2025-07-28T16:59:16Z</time>
      </trkpt>
      <trkpt lat="46.36296667" lon="16.87216333">
        <ele>179.7</ele>
        <time>2025-07-28T16:59:17Z</time>
      </trkpt>
      <trkpt lat="46.36299167" lon="16.87230333">
        <ele>179.8</ele>
        <time>2025-07-28T16:59:18Z</time>
      </trkpt>
      <trkpt lat="46.36302167" lon="16.87244">
        <ele>179.5</ele>
        <time>2025-07-28T16:59:19Z</time>
      </trkpt>
      <trkpt lat="46.363055" lon="16.87257333">
        <ele>178.3</ele>
        <time>2025-07-28T16:59:20Z</time>
      </trkpt>
      <trkpt lat="46.36307833" lon="16.87271">
        <ele>176.9</ele>
        <time>2025-07-28T16:59:21Z</time>
      </trkpt>
      <trkpt lat="46.36310333" lon="16.87283833">
        <ele>176.1</ele>
        <time>2025-07-28T16:59:22Z</time>
      </trkpt>
      <trkpt lat="46.363135" lon="16.87297">
        <ele>175.4</ele>
        <time>2025-07-28T16:59:23Z</time>
      </trkpt>
      <trkpt lat="46.36316333" lon="16.87310167">
        <ele>175.4</ele>
        <time>2025-07-28T16:59:24Z</time>
      </trkpt>
      <trkpt lat="46.36319333" lon="16.87323167">
        <ele>175.4</ele>
        <time>2025-07-28T16:59:25Z</time>
      </trkpt>
      <trkpt lat="46.36322667" lon="16.87336833">
        <ele>175.7</ele>
        <time>2025-07-28T16:59:26Z</time>
      </trkpt>
      <trkpt lat="46.36325833" lon="16.87350833">
        <ele>176.1</ele>
        <time>2025-07-28T16:59:27Z</time>
      </trkpt>
      <trkpt lat="46.363285" lon="16.873645">
        <ele>176</ele>
        <time>2025-07-28T16:59:28Z</time>
      </trkpt>
      <trkpt lat="46.36332" lon="16.87378833">
        <ele>176.4</ele>
        <time>2025-07-28T16:59:29Z</time>
      </trkpt>
      <trkpt lat="46.36334833" lon="16.87392833">
        <ele>176.1</ele>
        <time>2025-07-28T16:59:30Z</time>
      </trkpt>
      <trkpt lat="46.36337667" lon="16.87407167">
        <ele>176.5</ele>
        <time>2025-07-28T16:59:31Z</time>
      </trkpt>
      <trkpt lat="46.36340167" lon="16.87421833">
        <ele>177.4</ele>
        <time>2025-07-28T16:59:32Z</time>
      </trkpt>
      <trkpt lat="46.36343333" lon="16.87436167">
        <ele>177.3</ele>
        <time>2025-07-28T16:59:33Z</time>
      </trkpt>
      <trkpt lat="46.36346333" lon="16.87451">
        <ele>178.2</ele>
        <time>2025-07-28T16:59:34Z</time>
      </trkpt>
      <trkpt lat="46.36349333" lon="16.87466">
        <ele>178.5</ele>
        <time>2025-07-28T16:59:35Z</time>
      </trkpt>
      <trkpt lat="46.36352667" lon="16.87481167">
        <ele>178</ele>
        <time>2025-07-28T16:59:36Z</time>
      </trkpt>
      <trkpt lat="46.36355833" lon="16.87495833">
        <ele>177.4</ele>
        <time>2025-07-28T16:59:37Z</time>
      </trkpt>
      <trkpt lat="46.36359" lon="16.87511333">
        <ele>176.7</ele>
        <time>2025-07-28T16:59:38Z</time>
      </trkpt>
      <trkpt lat="46.36362" lon="16.87527">
        <ele>175.4</ele>
        <time>2025-07-28T16:59:39Z</time>
      </trkpt>
      <trkpt lat="46.36364333" lon="16.87542">
        <ele>175.1</ele>
        <time>2025-07-28T16:59:40Z</time>
      </trkpt>
      <trkpt lat="46.36366833" lon="16.87555833">
        <ele>175.2</ele>
        <time>2025-07-28T16:59:41Z</time>
      </trkpt>
      <trkpt lat="46.36369833" lon="16.87570667">
        <ele>176.1</ele>
        <time>2025-07-28T16:59:42Z</time>
      </trkpt>
      <trkpt lat="46.36373167" lon="16.87584167">
        <ele>176</ele>
        <time>2025-07-28T16:59:43Z</time>
      </trkpt>
      <trkpt lat="46.36376333" lon="16.87598167">
        <ele>176.5</ele>
        <time>2025-07-28T16:59:44Z</time>
      </trkpt>
      <trkpt lat="46.36380833" lon="16.87623333">
        <ele>176.7</ele>
        <time>2025-07-28T16:59:46Z</time>
      </trkpt>
      <trkpt lat="46.36385833" lon="16.876465">
        <ele>177.2</ele>
        <time>2025-07-28T16:59:48Z</time>
      </trkpt>
      <trkpt lat="46.36389667" lon="16.87667667">
        <ele>177.4</ele>
        <time>2025-07-28T16:59:50Z</time>
      </trkpt>
      <trkpt lat="46.36393667" lon="16.87684833">
        <ele>178</ele>
        <time>2025-07-28T16:59:52Z</time>
      </trkpt>
      <trkpt lat="46.36396333" lon="16.87700833">
        <ele>178.1</ele>
        <time>2025-07-28T16:59:55Z</time>
      </trkpt>
    </trkseg>
  </trk>
</gpx>