<?xml version='1.0' encoding='UTF-8' standalone='yes' ?>
<gpx xmlns="http://www.topografix.com/GPX/1/1" xmlns:geotracker="http://ilyabogdanovich.com/gpx/extensions/geotracker" xmlns:xsi="http://www.w3.org/2001/XMLSchema-instance" xsi:schemaLocation="http://www.topografix.com/GPX/1/1 http://www.topografix.com/GPX/1/1/gpx.xsd" version="1.1" creator="Recorded in Geo Tracker for Android from Ilya Bogdanovich">
  <metadata>
    <name>r_0705_02</name>
    <author>
      <name>Recorded in Geo Tracker for Android from Ilya Bogdanovich</name>
      <link href="https://play.google.com/store/apps/details?id=com.ilyabogdanovich.geotracker" />
    </author>
    <link href="https://play.google.com/store/apps/details?id=com.ilyabogdanovich.geotracker" />
    <time>2025-07-05T17:48:51Z</time>
  </metadata>
  <trk>
    <name>r_0705_02</name>
    <src>Recorded in Geo Tracker for Android from Ilya Bogdanovich</src>
    <link href="https://play.google.com/store/apps/details?id=com.ilyabogdanovich.geotracker" />
    <extensions>
      <geotracker:meta>
        <geotracker:length>225.78</geotracker:length>
        <geotracker:duration>282264</geotracker:duration>
        <geotracker:creationtime>2025-07-05T17:48:51Z</geotracker:creationtime>
        <geotracker:activity>0</geotracker:activity>
      </geotracker:meta>
    </extensions>
    <trkseg>
      <trkpt lat="47.7157" lon="20.94822167">
        <ele>133.2</ele>
        <time>2025-07-05T17:48:58Z</time>
      </trkpt>
      <trkpt lat="47.71561833" lon="20.948425">
        <ele>132.3</ele>
        <time>2025-07-05T17:49:22Z</time>
      </trkpt>
      <trkpt lat="47.71549833" lon="20.94859333">
        <ele>129.1</ele>
        <time>2025-07-05T17:49:46Z</time>
      </trkpt>
      <trkpt lat="47.71542667" lon="20.948695">
        <ele>128.2</ele>
        <time>2025-07-05T17:49:55Z</time>
      </trkpt>
      <trkpt lat="47.715365" lon="20.94879833">
        <ele>127.3</ele>
        <time>2025-07-05T17:50:06Z</time>
      </trkpt>
      <trkpt lat="47.71532167" lon="20.948935">
        <ele>129.7</ele>
        <time>2025-07-05T17:50:17Z</time>
      </trkpt>
      <trkpt lat="47.71526833" lon="20.94905333">
        <ele>132.1</ele>
        <time>2025-07-05T17:50:25Z</time>
      </trkpt>
      <trkpt lat="47.71520333" lon="20.94915">
        <ele>131.5</ele>
        <time>2025-07-05T17:50:37Z</time>
      </trkpt>
      <trkpt lat="47.71513833" lon="20.94925333">
        <ele>128.6</ele>
        <time>2025-07-05T17:50:47Z</time>
      </trkpt>
      <trkpt lat="47.71509" lon="20.94937833">
        <ele>129.1</ele>
        <time>2025-07-05T17:50:54Z</time>
      </trkpt>
      <trkpt lat="47.71502333" lon="20.949485">
        <ele>130.1</ele>
        <time>2025-07-05T17:51:03Z</time>
      </trkpt>
      <trkpt lat="47.71496833" lon="20.9496">
        <ele>130.2</ele>
        <time>2025-07-05T17:51:12Z</time>
      </trkpt>
      <trkpt lat="47.71491" lon="20.949705">
        <ele>129.4</ele>
        <time>2025-07-05T17:51:23Z</time>
      </trkpt>
      <trkpt lat="47.71485" lon="20.94980833">
        <ele>129.5</ele>
        <time>2025-07-05T17:51:33Z</time>
      </trkpt>
      <trkpt lat="47.714795" lon="20.94991667">
        <ele>130.8</ele>
        <time>2025-07-05T17:51:43Z</time>
      </trkpt>
      <trkpt lat="47.71474333" lon="20.95002833">
        <ele>131.4</ele>
        <time>2025-07-05T17:51:54Z</time>
      </trkpt>
      <trkpt lat="47.71468333" lon="20.95012833">
        <ele>131.8</ele>
        <time>2025-07-05T17:52:04Z</time>
      </trkpt>
      <trkpt lat="47.71461833" lon="20.950225">
        <ele>130.4</ele>
        <time>2025-07-05T17:52:13Z</time>
      </trkpt>
      <trkpt lat="47.71457333" lon="20.95035333">
        <ele>131.2</ele>
        <time>2025-07-05T17:52:24Z</time>
      </trkpt>
      <trkpt lat="47.714515" lon="20.95046833">
        <ele>135.9</ele>
        <time>2025-07-05T17:52:36Z</time>
      </trkpt>
      <trkpt lat="47.71445333" lon="20.95057333">
        <ele>130.1</ele>
        <time>2025-07-05T17:52:54Z</time>
      </trkpt>
    </trkseg>
  </trk>
</gpx>