<?xml version='1.0' encoding='UTF-8' standalone='yes' ?>
<gpx xmlns="http://www.topografix.com/GPX/1/1" xmlns:geotracker="http://ilyabogdanovich.com/gpx/extensions/geotracker" xmlns:xsi="http://www.w3.org/2001/XMLSchema-instance" xsi:schemaLocation="http://www.topografix.com/GPX/1/1 http://www.topografix.com/GPX/1/1/gpx.xsd" version="1.1" creator="Recorded in Geo Tracker for Android from Ilya Bogdanovich">
  <metadata>
    <name>r_0705_01</name>
    <author>
      <name>Recorded in Geo Tracker for Android from Ilya Bogdanovich</name>
      <link href="https://play.google.com/store/apps/details?id=com.ilyabogdanovich.geotracker" />
    </author>
    <link href="https://play.google.com/store/apps/details?id=com.ilyabogdanovich.geotracker" />
    <time>2025-07-05T17:33:45Z</time>
  </metadata>
  <trk>
    <name>r_0705_01</name>
    <src>Recorded in Geo Tracker for Android from Ilya Bogdanovich</src>
    <link href="https://play.google.com/store/apps/details?id=com.ilyabogdanovich.geotracker" />
    <extensions>
      <geotracker:meta>
        <geotracker:length>253.96</geotracker:length>
        <geotracker:duration>554529</geotracker:duration>
        <geotracker:creationtime>2025-07-05T17:33:45Z</geotracker:creationtime>
        <geotracker:activity>0</geotracker:activity>
      </geotracker:meta>
    </extensions>
    <trkseg>
      <trkpt lat="47.71442667" lon="20.95067167">
        <ele>134.4</ele>
        <time>2025-07-05T17:33:51Z</time>
      </trkpt>
      <trkpt lat="47.71450333" lon="20.95058333">
        <ele>128.9</ele>
        <time>2025-07-05T17:36:57Z</time>
      </trkpt>
      <trkpt lat="47.71451" lon="20.95044667">
        <ele>128.5</ele>
        <time>2025-07-05T17:37:16Z</time>
      </trkpt>
      <trkpt lat="47.71458" lon="20.95035">
        <ele>127.4</ele>
        <time>2025-07-05T17:37:27Z</time>
      </trkpt>
      <trkpt lat="47.71464667" lon="20.95024333">
        <ele>129.9</ele>
        <time>2025-07-05T17:37:40Z</time>
      </trkpt>
      <trkpt lat="47.71470167" lon="20.95013">
        <ele>129</ele>
        <time>2025-07-05T17:37:53Z</time>
      </trkpt>
      <trkpt lat="47.714755" lon="20.95001333">
        <ele>128.4</ele>
        <time>2025-07-05T17:38:07Z</time>
      </trkpt>
      <trkpt lat="47.714815" lon="20.94990167">
        <ele>127.1</ele>
        <time>2025-07-05T17:38:18Z</time>
      </trkpt>
      <trkpt lat="47.71487167" lon="20.94979167">
        <ele>128.4</ele>
        <time>2025-07-05T17:38:30Z</time>
      </trkpt>
      <trkpt lat="47.71491833" lon="20.94967167">
        <ele>128.2</ele>
        <time>2025-07-05T17:38:44Z</time>
      </trkpt>
      <trkpt lat="47.71497833" lon="20.94955833">
        <ele>127.6</ele>
        <time>2025-07-05T17:38:56Z</time>
      </trkpt>
      <trkpt lat="47.715045" lon="20.94945833">
        <ele>128</ele>
        <time>2025-07-05T17:39:06Z</time>
      </trkpt>
      <trkpt lat="47.71510833" lon="20.94935333">
        <ele>129.1</ele>
        <time>2025-07-05T17:39:17Z</time>
      </trkpt>
      <trkpt lat="47.71517" lon="20.94923667">
        <ele>129.8</ele>
        <time>2025-07-05T17:39:28Z</time>
      </trkpt>
      <trkpt lat="47.71522667" lon="20.94913">
        <ele>129.2</ele>
        <time>2025-07-05T17:39:39Z</time>
      </trkpt>
      <trkpt lat="47.71529" lon="20.94902333">
        <ele>129.9</ele>
        <time>2025-07-05T17:39:49Z</time>
      </trkpt>
      <trkpt lat="47.71535667" lon="20.948915">
        <ele>130.8</ele>
        <time>2025-07-05T17:40:00Z</time>
      </trkpt>
      <trkpt lat="47.71542167" lon="20.948805">
        <ele>130.5</ele>
        <time>2025-07-05T17:40:11Z</time>
      </trkpt>
      <trkpt lat="47.71547833" lon="20.94869833">
        <ele>128.3</ele>
        <time>2025-07-05T17:40:20Z</time>
      </trkpt>
      <trkpt lat="47.715535" lon="20.94858167">
        <ele>128.1</ele>
        <time>2025-07-05T17:40:33Z</time>
      </trkpt>
      <trkpt lat="47.71559833" lon="20.94848667">
        <ele>126.7</ele>
        <time>2025-07-05T17:40:42Z</time>
      </trkpt>
      <trkpt lat="47.71566833" lon="20.94838167">
        <ele>126.9</ele>
        <time>2025-07-05T17:40:54Z</time>
      </trkpt>
      <trkpt lat="47.715735" lon="20.94828667">
        <ele>129.9</ele>
        <time>2025-07-05T17:41:06Z</time>
      </trkpt>
      <trkpt lat="47.7158" lon="20.94819333">
        <ele>129.8</ele>
        <time>2025-07-05T17:41:23Z</time>
      </trkpt>
      <trkpt lat="47.71588" lon="20.94811833">
        <ele>131.4</ele>
        <time>2025-07-05T17:42:40Z</time>
      </trkpt>
    </trkseg>
  </trk>
</gpx>