<?xml version='1.0' encoding='UTF-8' standalone='yes' ?>
<gpx xmlns="http://www.topografix.com/GPX/1/1" xmlns:geotracker="http://ilyabogdanovich.com/gpx/extensions/geotracker" xmlns:xsi="http://www.w3.org/2001/XMLSchema-instance" xsi:schemaLocation="http://www.topografix.com/GPX/1/1 http://www.topografix.com/GPX/1/1/gpx.xsd" version="1.1" creator="Recorded in Geo Tracker for Android from Ilya Bogdanovich">
  <metadata>
    <name>f_0722_05</name>
    <author>
      <name>Recorded in Geo Tracker for Android from Ilya Bogdanovich</name>
      <link href="https://play.google.com/store/apps/details?id=com.ilyabogdanovich.geotracker" />
    </author>
    <link href="https://play.google.com/store/apps/details?id=com.ilyabogdanovich.geotracker" />
    <time>2025-07-22T13:51:22Z</time>
  </metadata>
  <trk>
    <name>f_0722_05</name>
    <src>Recorded in Geo Tracker for Android from Ilya Bogdanovich</src>
    <link href="https://play.google.com/store/apps/details?id=com.ilyabogdanovich.geotracker" />
    <extensions>
      <geotracker:meta>
        <geotracker:length>490.28</geotracker:length>
        <geotracker:duration>248239</geotracker:duration>
        <geotracker:creationtime>2025-07-22T13:51:22Z</geotracker:creationtime>
        <geotracker:activity>0</geotracker:activity>
      </geotracker:meta>
    </extensions>
    <trkseg>
      <trkpt lat="45.953205" lon="17.616715">
        <ele>176.1</ele>
        <time>2025-07-22T13:51:28Z</time>
      </trkpt>
      <trkpt lat="45.95327833" lon="17.61656667">
        <ele>175.6</ele>
        <time>2025-07-22T13:51:32Z</time>
      </trkpt>
      <trkpt lat="45.95334167" lon="17.61666">
        <ele>155.5</ele>
        <time>2025-07-22T13:53:04Z</time>
      </trkpt>
      <trkpt lat="45.95317" lon="17.61682333">
        <ele>153</ele>
        <time>2025-07-22T13:53:16Z</time>
      </trkpt>
      <trkpt lat="45.95312" lon="17.616975">
        <ele>153.4</ele>
        <time>2025-07-22T13:53:20Z</time>
      </trkpt>
      <trkpt lat="45.95312333" lon="17.61714333">
        <ele>159.3</ele>
        <time>2025-07-22T13:53:23Z</time>
      </trkpt>
      <trkpt lat="45.95314333" lon="17.61728333">
        <ele>165.6</ele>
        <time>2025-07-22T13:53:25Z</time>
      </trkpt>
      <trkpt lat="45.953165" lon="17.61742167">
        <ele>169.5</ele>
        <time>2025-07-22T13:53:27Z</time>
      </trkpt>
      <trkpt lat="45.95318833" lon="17.61756">
        <ele>171.9</ele>
        <time>2025-07-22T13:53:29Z</time>
      </trkpt>
      <trkpt lat="45.95321167" lon="17.61771">
        <ele>173.5</ele>
        <time>2025-07-22T13:53:31Z</time>
      </trkpt>
      <trkpt lat="45.953225" lon="17.61785333">
        <ele>173.9</ele>
        <time>2025-07-22T13:53:33Z</time>
      </trkpt>
      <trkpt lat="45.95325167" lon="17.61799667">
        <ele>173.6</ele>
        <time>2025-07-22T13:53:35Z</time>
      </trkpt>
      <trkpt lat="45.95327167" lon="17.61815833">
        <ele>173.3</ele>
        <time>2025-07-22T13:53:37Z</time>
      </trkpt>
      <trkpt lat="45.95329167" lon="17.61830833">
        <ele>173.3</ele>
        <time>2025-07-22T13:53:39Z</time>
      </trkpt>
      <trkpt lat="45.95330833" lon="17.61845">
        <ele>173.1</ele>
        <time>2025-07-22T13:53:41Z</time>
      </trkpt>
      <trkpt lat="45.95333" lon="17.61860333">
        <ele>172.7</ele>
        <time>2025-07-22T13:53:43Z</time>
      </trkpt>
      <trkpt lat="45.95335333" lon="17.61873833">
        <ele>172.3</ele>
        <time>2025-07-22T13:53:45Z</time>
      </trkpt>
      <trkpt lat="45.95337833" lon="17.61887667">
        <ele>172.5</ele>
        <time>2025-07-22T13:53:47Z</time>
      </trkpt>
      <trkpt lat="45.953405" lon="17.61901167">
        <ele>173.2</ele>
        <time>2025-07-22T13:53:49Z</time>
      </trkpt>
      <trkpt lat="45.953425" lon="17.61915667">
        <ele>171.2</ele>
        <time>2025-07-22T13:53:51Z</time>
      </trkpt>
      <trkpt lat="45.95343" lon="17.619295">
        <ele>167.9</ele>
        <time>2025-07-22T13:53:53Z</time>
      </trkpt>
      <trkpt lat="45.95343333" lon="17.61945833">
        <ele>162.9</ele>
        <time>2025-07-22T13:53:56Z</time>
      </trkpt>
      <trkpt lat="45.953455" lon="17.61963833">
        <ele>160.3</ele>
        <time>2025-07-22T13:53:59Z</time>
      </trkpt>
      <trkpt lat="45.95347167" lon="17.61980333">
        <ele>157.6</ele>
        <time>2025-07-22T13:54:02Z</time>
      </trkpt>
      <trkpt lat="45.95349" lon="17.61996167">
        <ele>155.8</ele>
        <time>2025-07-22T13:54:05Z</time>
      </trkpt>
      <trkpt lat="45.95349" lon="17.62011167">
        <ele>153.9</ele>
        <time>2025-07-22T13:54:08Z</time>
      </trkpt>
      <trkpt lat="45.95346333" lon="17.62025833">
        <ele>152.1</ele>
        <time>2025-07-22T13:54:11Z</time>
      </trkpt>
      <trkpt lat="45.95341333" lon="17.620375">
        <ele>151.4</ele>
        <time>2025-07-22T13:54:14Z</time>
      </trkpt>
      <trkpt lat="45.953345" lon="17.62046833">
        <ele>151.7</ele>
        <time>2025-07-22T13:54:17Z</time>
      </trkpt>
      <trkpt lat="45.95326667" lon="17.62057833">
        <ele>151.3</ele>
        <time>2025-07-22T13:54:20Z</time>
      </trkpt>
      <trkpt lat="45.953195" lon="17.62066667">
        <ele>151.4</ele>
        <time>2025-07-22T13:54:23Z</time>
      </trkpt>
      <trkpt lat="45.953125" lon="17.62075667">
        <ele>151.1</ele>
        <time>2025-07-22T13:54:26Z</time>
      </trkpt>
      <trkpt lat="45.95304" lon="17.620885">
        <ele>151.4</ele>
        <time>2025-07-22T13:54:29Z</time>
      </trkpt>
      <trkpt lat="45.95296333" lon="17.62097167">
        <ele>150.1</ele>
        <time>2025-07-22T13:54:32Z</time>
      </trkpt>
      <trkpt lat="45.95289667" lon="17.62106333">
        <ele>150</ele>
        <time>2025-07-22T13:54:35Z</time>
      </trkpt>
      <trkpt lat="45.95281667" lon="17.62119">
        <ele>150.2</ele>
        <time>2025-07-22T13:54:38Z</time>
      </trkpt>
      <trkpt lat="45.95274833" lon="17.62128833">
        <ele>150.2</ele>
        <time>2025-07-22T13:54:41Z</time>
      </trkpt>
      <trkpt lat="45.95266667" lon="17.62141167">
        <ele>151</ele>
        <time>2025-07-22T13:54:45Z</time>
      </trkpt>
      <trkpt lat="45.95259333" lon="17.621515">
        <ele>150.7</ele>
        <time>2025-07-22T13:54:49Z</time>
      </trkpt>
      <trkpt lat="45.95254" lon="17.62164333">
        <ele>152.3</ele>
        <time>2025-07-22T13:54:54Z</time>
      </trkpt>
      <trkpt lat="45.95263167" lon="17.62162833">
        <ele>156.5</ele>
        <time>2025-07-22T13:55:02Z</time>
      </trkpt>
      <trkpt lat="45.952565" lon="17.62174167">
        <ele>160.5</ele>
        <time>2025-07-22T13:55:29Z</time>
      </trkpt>
    </trkseg>
  </trk>
</gpx>