<?xml version='1.0' encoding='UTF-8' standalone='yes' ?>
<gpx xmlns="http://www.topografix.com/GPX/1/1" xmlns:geotracker="http://ilyabogdanovich.com/gpx/extensions/geotracker" xmlns:xsi="http://www.w3.org/2001/XMLSchema-instance" xsi:schemaLocation="http://www.topografix.com/GPX/1/1 http://www.topografix.com/GPX/1/1/gpx.xsd" version="1.1" creator="Recorded in Geo Tracker for Android from Ilya Bogdanovich">
  <metadata>
    <name>f_0722_02</name>
    <author>
      <name>Recorded in Geo Tracker for Android from Ilya Bogdanovich</name>
      <link href="https://play.google.com/store/apps/details?id=com.ilyabogdanovich.geotracker" />
    </author>
    <link href="https://play.google.com/store/apps/details?id=com.ilyabogdanovich.geotracker" />
    <time>2025-07-22T10:48:24Z</time>
  </metadata>
  <wpt lat="45.96193333" lon="17.467435">
    <ele>153</ele>
    <time>2025-07-22T10:51:42Z</time>
    <name>Stop for ~17 min</name>
    <desc>Elevation: 153 m
Time from start: 00:03:17
Distance from start: 179 m</desc>
    <extensions>
      <geotracker:meta visited="1" />
    </extensions>
  </wpt>
  <trk>
    <name>f_0722_02</name>
    <src>Recorded in Geo Tracker for Android from Ilya Bogdanovich</src>
    <link href="https://play.google.com/store/apps/details?id=com.ilyabogdanovich.geotracker" />
    <extensions>
      <geotracker:meta>
        <geotracker:length>4140.33</geotracker:length>
        <geotracker:duration>2202302</geotracker:duration>
        <geotracker:creationtime>2025-07-22T10:48:24Z</geotracker:creationtime>
        <geotracker:activity>0</geotracker:activity>
      </geotracker:meta>
    </extensions>
    <trkseg>
      <trkpt lat="45.96153167" lon="17.46685">
        <ele>132.6</ele>
        <time>2025-07-22T10:48:30Z</time>
      </trkpt>
      <trkpt lat="45.96167" lon="17.466805">
        <ele>132.5</ele>
        <time>2025-07-22T10:48:32Z</time>
      </trkpt>
      <trkpt lat="45.96156" lon="17.466855">
        <ele>132.5</ele>
        <time>2025-07-22T10:48:43Z</time>
      </trkpt>
      <trkpt lat="45.96145" lon="17.466865">
        <ele>132.5</ele>
        <time>2025-07-22T10:48:49Z</time>
      </trkpt>
      <trkpt lat="45.96133333" lon="17.46692167">
        <ele>133.2</ele>
        <time>2025-07-22T10:48:56Z</time>
      </trkpt>
      <trkpt lat="45.96135167" lon="17.46679333">
        <ele>136.6</ele>
        <time>2025-07-22T10:49:04Z</time>
      </trkpt>
      <trkpt lat="45.961415" lon="17.46669667">
        <ele>141.8</ele>
        <time>2025-07-22T10:49:08Z</time>
      </trkpt>
      <trkpt lat="45.96152667" lon="17.466665">
        <ele>148.9</ele>
        <time>2025-07-22T10:49:12Z</time>
      </trkpt>
      <trkpt lat="45.961645" lon="17.46667333">
        <ele>151.5</ele>
        <time>2025-07-22T10:49:16Z</time>
      </trkpt>
      <trkpt lat="45.96174333" lon="17.46669833">
        <ele>152.8</ele>
        <time>2025-07-22T10:49:19Z</time>
      </trkpt>
      <trkpt lat="45.96181833" lon="17.466785">
        <ele>152.5</ele>
        <time>2025-07-22T10:49:22Z</time>
      </trkpt>
      <trkpt lat="45.96185167" lon="17.46694667">
        <ele>151.8</ele>
        <time>2025-07-22T10:49:26Z</time>
      </trkpt>
      <trkpt lat="45.96185" lon="17.46709">
        <ele>150.5</ele>
        <time>2025-07-22T10:49:30Z</time>
      </trkpt>
      <trkpt lat="45.96184833" lon="17.46723">
        <ele>149.3</ele>
        <time>2025-07-22T10:49:36Z</time>
      </trkpt>
      <trkpt lat="45.961855" lon="17.46739">
        <ele>150.8</ele>
        <time>2025-07-22T10:49:41Z</time>
      </trkpt>
      <trkpt lat="45.96193333" lon="17.467435">
        <ele>153</ele>
        <time>2025-07-22T10:51:42Z</time>
      </trkpt>
      <trkpt lat="45.96193333" lon="17.467435">
        <ele>153</ele>
        <time>2025-07-22T10:55:22Z</time>
      </trkpt>
      <trkpt lat="45.96193333" lon="17.467435">
        <ele>153</ele>
        <time>2025-07-22T10:57:23Z</time>
      </trkpt>
      <trkpt lat="45.96193333" lon="17.467435">
        <ele>153</ele>
        <time>2025-07-22T10:59:24Z</time>
      </trkpt>
      <trkpt lat="45.96193333" lon="17.467435">
        <ele>153</ele>
        <time>2025-07-22T11:01:25Z</time>
      </trkpt>
      <trkpt lat="45.96192333" lon="17.46753">
        <ele>159.5</ele>
        <time>2025-07-22T11:03:26Z</time>
      </trkpt>
      <trkpt lat="45.96192667" lon="17.46740333">
        <ele>162.3</ele>
        <time>2025-07-22T11:05:28Z</time>
      </trkpt>
      <trkpt lat="45.96191833" lon="17.46754667">
        <ele>201.9</ele>
        <time>2025-07-22T11:07:10Z</time>
      </trkpt>
      <trkpt lat="45.961965" lon="17.46743">
        <ele>185.7</ele>
        <time>2025-07-22T11:07:30Z</time>
      </trkpt>
      <trkpt lat="45.96198833" lon="17.46730167">
        <ele>163.8</ele>
        <time>2025-07-22T11:08:44Z</time>
      </trkpt>
      <trkpt lat="45.96196833" lon="17.46714667">
        <ele>161.6</ele>
        <time>2025-07-22T11:08:49Z</time>
      </trkpt>
      <trkpt lat="45.96196667" lon="17.46698333">
        <ele>161.1</ele>
        <time>2025-07-22T11:08:53Z</time>
      </trkpt>
      <trkpt lat="45.96195667" lon="17.46683167">
        <ele>160.7</ele>
        <time>2025-07-22T11:08:57Z</time>
      </trkpt>
      <trkpt lat="45.96191667" lon="17.46670833">
        <ele>160</ele>
        <time>2025-07-22T11:09:02Z</time>
      </trkpt>
      <trkpt lat="45.96182" lon="17.46668">
        <ele>158.8</ele>
        <time>2025-07-22T11:09:06Z</time>
      </trkpt>
      <trkpt lat="45.961725" lon="17.466685">
        <ele>158.3</ele>
        <time>2025-07-22T11:09:10Z</time>
      </trkpt>
      <trkpt lat="45.96162" lon="17.46670667">
        <ele>157.3</ele>
        <time>2025-07-22T11:09:14Z</time>
      </trkpt>
      <trkpt lat="45.96151667" lon="17.46672667">
        <ele>156.1</ele>
        <time>2025-07-22T11:09:18Z</time>
      </trkpt>
      <trkpt lat="45.96143" lon="17.46666667">
        <ele>153.9</ele>
        <time>2025-07-22T11:09:23Z</time>
      </trkpt>
      <trkpt lat="45.96141" lon="17.466505">
        <ele>152.7</ele>
        <time>2025-07-22T11:09:28Z</time>
      </trkpt>
      <trkpt lat="45.96135667" lon="17.46634667">
        <ele>152.2</ele>
        <time>2025-07-22T11:09:32Z</time>
      </trkpt>
      <trkpt lat="45.96132667" lon="17.4662">
        <ele>152.9</ele>
        <time>2025-07-22T11:09:35Z</time>
      </trkpt>
      <trkpt lat="45.96133333" lon="17.46607">
        <ele>152.7</ele>
        <time>2025-07-22T11:09:38Z</time>
      </trkpt>
      <trkpt lat="45.96133833" lon="17.46594">
        <ele>152.2</ele>
        <time>2025-07-22T11:09:41Z</time>
      </trkpt>
      <trkpt lat="45.96134667" lon="17.46579333">
        <ele>150.7</ele>
        <time>2025-07-22T11:09:44Z</time>
      </trkpt>
      <trkpt lat="45.96135" lon="17.46562667">
        <ele>148.4</ele>
        <time>2025-07-22T11:09:47Z</time>
      </trkpt>
      <trkpt lat="45.96133667" lon="17.465495">
        <ele>145.5</ele>
        <time>2025-07-22T11:09:50Z</time>
      </trkpt>
      <trkpt lat="45.96129667" lon="17.46534667">
        <ele>144.3</ele>
        <time>2025-07-22T11:09:54Z</time>
      </trkpt>
      <trkpt lat="45.96123167" lon="17.465205">
        <ele>145.2</ele>
        <time>2025-07-22T11:09:57Z</time>
      </trkpt>
      <trkpt lat="45.96119" lon="17.46506667">
        <ele>145.5</ele>
        <time>2025-07-22T11:10:00Z</time>
      </trkpt>
      <trkpt lat="45.961095" lon="17.46498167">
        <ele>145.6</ele>
        <time>2025-07-22T11:10:03Z</time>
      </trkpt>
      <trkpt lat="45.96100167" lon="17.46496667">
        <ele>144.2</ele>
        <time>2025-07-22T11:10:06Z</time>
      </trkpt>
      <trkpt lat="45.96088333" lon="17.46495667">
        <ele>144.9</ele>
        <time>2025-07-22T11:10:09Z</time>
      </trkpt>
      <trkpt lat="45.96075833" lon="17.46495">
        <ele>145.9</ele>
        <time>2025-07-22T11:10:12Z</time>
      </trkpt>
      <trkpt lat="45.96063" lon="17.46492333">
        <ele>146.7</ele>
        <time>2025-07-22T11:10:15Z</time>
      </trkpt>
      <trkpt lat="45.96053167" lon="17.46492333">
        <ele>149.3</ele>
        <time>2025-07-22T11:10:17Z</time>
      </trkpt>
      <trkpt lat="45.96043833" lon="17.46492167">
        <ele>151.1</ele>
        <time>2025-07-22T11:10:19Z</time>
      </trkpt>
      <trkpt lat="45.96034333" lon="17.46493167">
        <ele>151.3</ele>
        <time>2025-07-22T11:10:21Z</time>
      </trkpt>
      <trkpt lat="45.960215" lon="17.46495167">
        <ele>151.9</ele>
        <time>2025-07-22T11:10:24Z</time>
      </trkpt>
      <trkpt lat="45.96010667" lon="17.46496">
        <ele>153.1</ele>
        <time>2025-07-22T11:10:27Z</time>
      </trkpt>
      <trkpt lat="45.96001" lon="17.46498">
        <ele>153.3</ele>
        <time>2025-07-22T11:10:30Z</time>
      </trkpt>
      <trkpt lat="45.959915" lon="17.46499333">
        <ele>152.9</ele>
        <time>2025-07-22T11:10:33Z</time>
      </trkpt>
      <trkpt lat="45.95981667" lon="17.465">
        <ele>153</ele>
        <time>2025-07-22T11:10:36Z</time>
      </trkpt>
      <trkpt lat="45.95972333" lon="17.465">
        <ele>152.1</ele>
        <time>2025-07-22T11:10:39Z</time>
      </trkpt>
      <trkpt lat="45.95962833" lon="17.46500333">
        <ele>152.8</ele>
        <time>2025-07-22T11:10:44Z</time>
      </trkpt>
      <trkpt lat="45.95954333" lon="17.46512167">
        <ele>153.9</ele>
        <time>2025-07-22T11:10:50Z</time>
      </trkpt>
      <trkpt lat="45.959435" lon="17.46511167">
        <ele>153.1</ele>
        <time>2025-07-22T11:10:54Z</time>
      </trkpt>
      <trkpt lat="45.95938667" lon="17.46498833">
        <ele>152.9</ele>
        <time>2025-07-22T11:10:58Z</time>
      </trkpt>
      <trkpt lat="45.95935667" lon="17.464865">
        <ele>152.1</ele>
        <time>2025-07-22T11:11:01Z</time>
      </trkpt>
      <trkpt lat="45.95933833" lon="17.46471">
        <ele>149.9</ele>
        <time>2025-07-22T11:11:06Z</time>
      </trkpt>
      <trkpt lat="45.959305" lon="17.46458">
        <ele>149.9</ele>
        <time>2025-07-22T11:11:09Z</time>
      </trkpt>
      <trkpt lat="45.95927333" lon="17.46444667">
        <ele>151</ele>
        <time>2025-07-22T11:11:12Z</time>
      </trkpt>
      <trkpt lat="45.959255" lon="17.46431167">
        <ele>153.5</ele>
        <time>2025-07-22T11:11:16Z</time>
      </trkpt>
      <trkpt lat="45.95917" lon="17.46425167">
        <ele>156.4</ele>
        <time>2025-07-22T11:11:24Z</time>
      </trkpt>
      <trkpt lat="45.95906333" lon="17.46422833">
        <ele>157.9</ele>
        <time>2025-07-22T11:11:31Z</time>
      </trkpt>
      <trkpt lat="45.95895167" lon="17.46420167">
        <ele>158.7</ele>
        <time>2025-07-22T11:11:35Z</time>
      </trkpt>
      <trkpt lat="45.95886167" lon="17.46421833">
        <ele>157.8</ele>
        <time>2025-07-22T11:11:38Z</time>
      </trkpt>
      <trkpt lat="45.95875167" lon="17.464225">
        <ele>155.9</ele>
        <time>2025-07-22T11:11:42Z</time>
      </trkpt>
      <trkpt lat="45.95872" lon="17.464095">
        <ele>154.5</ele>
        <time>2025-07-22T11:11:47Z</time>
      </trkpt>
      <trkpt lat="45.95871167" lon="17.46396">
        <ele>152.7</ele>
        <time>2025-07-22T11:11:51Z</time>
      </trkpt>
      <trkpt lat="45.95871333" lon="17.46382667">
        <ele>149.8</ele>
        <time>2025-07-22T11:11:55Z</time>
      </trkpt>
      <trkpt lat="45.95871333" lon="17.463675">
        <ele>146.7</ele>
        <time>2025-07-22T11:11:59Z</time>
      </trkpt>
      <trkpt lat="45.95869667" lon="17.46353833">
        <ele>144.8</ele>
        <time>2025-07-22T11:12:03Z</time>
      </trkpt>
      <trkpt lat="45.95863667" lon="17.46342833">
        <ele>144</ele>
        <time>2025-07-22T11:12:06Z</time>
      </trkpt>
      <trkpt lat="45.95853833" lon="17.463375">
        <ele>143.7</ele>
        <time>2025-07-22T11:12:09Z</time>
      </trkpt>
      <trkpt lat="45.95844167" lon="17.46339333">
        <ele>143.6</ele>
        <time>2025-07-22T11:12:12Z</time>
      </trkpt>
      <trkpt lat="45.95833333" lon="17.463425">
        <ele>144</ele>
        <time>2025-07-22T11:12:15Z</time>
      </trkpt>
      <trkpt lat="45.95820833" lon="17.46343">
        <ele>145.4</ele>
        <time>2025-07-22T11:12:18Z</time>
      </trkpt>
      <trkpt lat="45.95808333" lon="17.46341667">
        <ele>146.9</ele>
        <time>2025-07-22T11:12:21Z</time>
      </trkpt>
      <trkpt lat="45.95795333" lon="17.463405">
        <ele>147.2</ele>
        <time>2025-07-22T11:12:24Z</time>
      </trkpt>
      <trkpt lat="45.95786333" lon="17.46339667">
        <ele>147</ele>
        <time>2025-07-22T11:12:26Z</time>
      </trkpt>
      <trkpt lat="45.957765" lon="17.46338833">
        <ele>147.3</ele>
        <time>2025-07-22T11:12:28Z</time>
      </trkpt>
      <trkpt lat="45.95765667" lon="17.46337667">
        <ele>147.8</ele>
        <time>2025-07-22T11:12:30Z</time>
      </trkpt>
      <trkpt lat="45.95755" lon="17.46334">
        <ele>147.9</ele>
        <time>2025-07-22T11:12:32Z</time>
      </trkpt>
      <trkpt lat="45.95743" lon="17.463355">
        <ele>149.8</ele>
        <time>2025-07-22T11:12:34Z</time>
      </trkpt>
      <trkpt lat="45.957315" lon="17.463375">
        <ele>151</ele>
        <time>2025-07-22T11:12:36Z</time>
      </trkpt>
      <trkpt lat="45.957205" lon="17.46338667">
        <ele>150.7</ele>
        <time>2025-07-22T11:12:38Z</time>
      </trkpt>
      <trkpt lat="45.95709833" lon="17.46338667">
        <ele>150.7</ele>
        <time>2025-07-22T11:12:40Z</time>
      </trkpt>
      <trkpt lat="45.95699833" lon="17.46339">
        <ele>150.3</ele>
        <time>2025-07-22T11:12:42Z</time>
      </trkpt>
      <trkpt lat="45.95688167" lon="17.46340333">
        <ele>150.1</ele>
        <time>2025-07-22T11:12:44Z</time>
      </trkpt>
      <trkpt lat="45.956775" lon="17.46340667">
        <ele>149.3</ele>
        <time>2025-07-22T11:12:46Z</time>
      </trkpt>
      <trkpt lat="45.956685" lon="17.46339667">
        <ele>148</ele>
        <time>2025-07-22T11:12:48Z</time>
      </trkpt>
      <trkpt lat="45.956575" lon="17.46339667">
        <ele>147.5</ele>
        <time>2025-07-22T11:12:50Z</time>
      </trkpt>
      <trkpt lat="45.95646167" lon="17.463385">
        <ele>147.5</ele>
        <time>2025-07-22T11:12:52Z</time>
      </trkpt>
      <trkpt lat="45.95635833" lon="17.46336833">
        <ele>148.3</ele>
        <time>2025-07-22T11:12:54Z</time>
      </trkpt>
      <trkpt lat="45.956255" lon="17.46334833">
        <ele>149</ele>
        <time>2025-07-22T11:12:56Z</time>
      </trkpt>
      <trkpt lat="45.95611833" lon="17.46333">
        <ele>149</ele>
        <time>2025-07-22T11:12:59Z</time>
      </trkpt>
      <trkpt lat="45.95600667" lon="17.46331167">
        <ele>149.1</ele>
        <time>2025-07-22T11:13:01Z</time>
      </trkpt>
      <trkpt lat="45.95588167" lon="17.46329167">
        <ele>148.2</ele>
        <time>2025-07-22T11:13:03Z</time>
      </trkpt>
      <trkpt lat="45.95575667" lon="17.463275">
        <ele>147.5</ele>
        <time>2025-07-22T11:13:05Z</time>
      </trkpt>
      <trkpt lat="45.955645" lon="17.46324">
        <ele>146.3</ele>
        <time>2025-07-22T11:13:07Z</time>
      </trkpt>
      <trkpt lat="45.95553833" lon="17.46321833">
        <ele>145.1</ele>
        <time>2025-07-22T11:13:09Z</time>
      </trkpt>
      <trkpt lat="45.955445" lon="17.463205">
        <ele>144</ele>
        <time>2025-07-22T11:13:11Z</time>
      </trkpt>
      <trkpt lat="45.95531333" lon="17.46320167">
        <ele>142.9</ele>
        <time>2025-07-22T11:13:14Z</time>
      </trkpt>
      <trkpt lat="45.95521333" lon="17.46318167">
        <ele>142.4</ele>
        <time>2025-07-22T11:13:16Z</time>
      </trkpt>
      <trkpt lat="45.95511167" lon="17.46314833">
        <ele>142.2</ele>
        <time>2025-07-22T11:13:18Z</time>
      </trkpt>
      <trkpt lat="45.95501167" lon="17.46313">
        <ele>141.8</ele>
        <time>2025-07-22T11:13:20Z</time>
      </trkpt>
      <trkpt lat="45.95491" lon="17.46312">
        <ele>141.7</ele>
        <time>2025-07-22T11:13:22Z</time>
      </trkpt>
      <trkpt lat="45.95480167" lon="17.46311333">
        <ele>141.3</ele>
        <time>2025-07-22T11:13:24Z</time>
      </trkpt>
      <trkpt lat="45.95469167" lon="17.46311167">
        <ele>140.8</ele>
        <time>2025-07-22T11:13:26Z</time>
      </trkpt>
      <trkpt lat="45.95457833" lon="17.46311333">
        <ele>140.2</ele>
        <time>2025-07-22T11:13:28Z</time>
      </trkpt>
      <trkpt lat="45.95446833" lon="17.46309833">
        <ele>139.5</ele>
        <time>2025-07-22T11:13:30Z</time>
      </trkpt>
      <trkpt lat="45.95432333" lon="17.46307833">
        <ele>140</ele>
        <time>2025-07-22T11:13:32Z</time>
      </trkpt>
      <trkpt lat="45.95419833" lon="17.46306667">
        <ele>140</ele>
        <time>2025-07-22T11:13:34Z</time>
      </trkpt>
      <trkpt lat="45.954075" lon="17.46304333">
        <ele>140.9</ele>
        <time>2025-07-22T11:13:36Z</time>
      </trkpt>
      <trkpt lat="45.95395" lon="17.46303667">
        <ele>142.4</ele>
        <time>2025-07-22T11:13:38Z</time>
      </trkpt>
      <trkpt lat="45.95383167" lon="17.46301833">
        <ele>144.4</ele>
        <time>2025-07-22T11:13:40Z</time>
      </trkpt>
      <trkpt lat="45.95371667" lon="17.463005">
        <ele>145.4</ele>
        <time>2025-07-22T11:13:42Z</time>
      </trkpt>
      <trkpt lat="45.953625" lon="17.46299667">
        <ele>146.2</ele>
        <time>2025-07-22T11:13:44Z</time>
      </trkpt>
      <trkpt lat="45.95352" lon="17.46299333">
        <ele>147.1</ele>
        <time>2025-07-22T11:13:46Z</time>
      </trkpt>
      <trkpt lat="45.95342" lon="17.46298167">
        <ele>148.3</ele>
        <time>2025-07-22T11:13:48Z</time>
      </trkpt>
      <trkpt lat="45.953325" lon="17.46296833">
        <ele>148.7</ele>
        <time>2025-07-22T11:13:50Z</time>
      </trkpt>
      <trkpt lat="45.95323167" lon="17.46295667">
        <ele>148.8</ele>
        <time>2025-07-22T11:13:52Z</time>
      </trkpt>
      <trkpt lat="45.95310333" lon="17.46293">
        <ele>148.1</ele>
        <time>2025-07-22T11:13:55Z</time>
      </trkpt>
      <trkpt lat="45.952975" lon="17.462905">
        <ele>147.7</ele>
        <time>2025-07-22T11:13:58Z</time>
      </trkpt>
      <trkpt lat="45.95285167" lon="17.46288333">
        <ele>147.4</ele>
        <time>2025-07-22T11:14:01Z</time>
      </trkpt>
      <trkpt lat="45.952725" lon="17.462865">
        <ele>147.4</ele>
        <time>2025-07-22T11:14:04Z</time>
      </trkpt>
      <trkpt lat="45.95262667" lon="17.46285833">
        <ele>147.7</ele>
        <time>2025-07-22T11:14:06Z</time>
      </trkpt>
      <trkpt lat="45.95253667" lon="17.46286333">
        <ele>149.2</ele>
        <time>2025-07-22T11:14:08Z</time>
      </trkpt>
      <trkpt lat="45.95240333" lon="17.46284833">
        <ele>149.6</ele>
        <time>2025-07-22T11:14:11Z</time>
      </trkpt>
      <trkpt lat="45.95230667" lon="17.46283667">
        <ele>149.3</ele>
        <time>2025-07-22T11:14:13Z</time>
      </trkpt>
      <trkpt lat="45.95221333" lon="17.46282667">
        <ele>149.7</ele>
        <time>2025-07-22T11:14:15Z</time>
      </trkpt>
      <trkpt lat="45.95211167" lon="17.46282333">
        <ele>149.7</ele>
        <time>2025-07-22T11:14:17Z</time>
      </trkpt>
      <trkpt lat="45.95201" lon="17.46280833">
        <ele>149.5</ele>
        <time>2025-07-22T11:14:19Z</time>
      </trkpt>
      <trkpt lat="45.951905" lon="17.462795">
        <ele>149.2</ele>
        <time>2025-07-22T11:14:21Z</time>
      </trkpt>
      <trkpt lat="45.95179667" lon="17.462765">
        <ele>149.6</ele>
        <time>2025-07-22T11:14:23Z</time>
      </trkpt>
      <trkpt lat="45.95169333" lon="17.46275">
        <ele>149.7</ele>
        <time>2025-07-22T11:14:25Z</time>
      </trkpt>
      <trkpt lat="45.95159" lon="17.46273">
        <ele>149.9</ele>
        <time>2025-07-22T11:14:27Z</time>
      </trkpt>
      <trkpt lat="45.951485" lon="17.46271">
        <ele>149.9</ele>
        <time>2025-07-22T11:14:29Z</time>
      </trkpt>
      <trkpt lat="45.95138167" lon="17.46269833">
        <ele>149.8</ele>
        <time>2025-07-22T11:14:31Z</time>
      </trkpt>
      <trkpt lat="45.95128167" lon="17.462685">
        <ele>149.9</ele>
        <time>2025-07-22T11:14:33Z</time>
      </trkpt>
      <trkpt lat="45.95115167" lon="17.46266333">
        <ele>148.6</ele>
        <time>2025-07-22T11:14:36Z</time>
      </trkpt>
      <trkpt lat="45.95102" lon="17.46265">
        <ele>147.3</ele>
        <time>2025-07-22T11:14:39Z</time>
      </trkpt>
      <trkpt lat="45.95092333" lon="17.46263167">
        <ele>146.9</ele>
        <time>2025-07-22T11:14:41Z</time>
      </trkpt>
      <trkpt lat="45.950825" lon="17.46260667">
        <ele>147.1</ele>
        <time>2025-07-22T11:14:43Z</time>
      </trkpt>
      <trkpt lat="45.95069333" lon="17.46258333">
        <ele>148.2</ele>
        <time>2025-07-22T11:14:46Z</time>
      </trkpt>
      <trkpt lat="45.95057333" lon="17.46257167">
        <ele>148.9</ele>
        <time>2025-07-22T11:14:49Z</time>
      </trkpt>
      <trkpt lat="45.95046667" lon="17.46257">
        <ele>148.1</ele>
        <time>2025-07-22T11:14:52Z</time>
      </trkpt>
      <trkpt lat="45.95037333" lon="17.46258333">
        <ele>147</ele>
        <time>2025-07-22T11:14:55Z</time>
      </trkpt>
      <trkpt lat="45.95028667" lon="17.46267167">
        <ele>147.5</ele>
        <time>2025-07-22T11:14:58Z</time>
      </trkpt>
      <trkpt lat="45.95027" lon="17.46285333">
        <ele>147</ele>
        <time>2025-07-22T11:15:01Z</time>
      </trkpt>
      <trkpt lat="45.95026333" lon="17.46298333">
        <ele>146.7</ele>
        <time>2025-07-22T11:15:03Z</time>
      </trkpt>
      <trkpt lat="45.950265" lon="17.46312333">
        <ele>145.9</ele>
        <time>2025-07-22T11:15:05Z</time>
      </trkpt>
      <trkpt lat="45.950265" lon="17.46326333">
        <ele>146.2</ele>
        <time>2025-07-22T11:15:07Z</time>
      </trkpt>
      <trkpt lat="45.95026833" lon="17.46341">
        <ele>147.3</ele>
        <time>2025-07-22T11:15:09Z</time>
      </trkpt>
      <trkpt lat="45.95026833" lon="17.46356667">
        <ele>147.9</ele>
        <time>2025-07-22T11:15:11Z</time>
      </trkpt>
      <trkpt lat="45.95027" lon="17.46373333">
        <ele>148.3</ele>
        <time>2025-07-22T11:15:13Z</time>
      </trkpt>
      <trkpt lat="45.95027667" lon="17.46388833">
        <ele>148.7</ele>
        <time>2025-07-22T11:15:15Z</time>
      </trkpt>
      <trkpt lat="45.950285" lon="17.46404">
        <ele>148.4</ele>
        <time>2025-07-22T11:15:17Z</time>
      </trkpt>
      <trkpt lat="45.95028667" lon="17.46418833">
        <ele>148.1</ele>
        <time>2025-07-22T11:15:19Z</time>
      </trkpt>
      <trkpt lat="45.95029667" lon="17.464325">
        <ele>148.4</ele>
        <time>2025-07-22T11:15:21Z</time>
      </trkpt>
      <trkpt lat="45.950235" lon="17.46443833">
        <ele>148.7</ele>
        <time>2025-07-22T11:15:28Z</time>
      </trkpt>
      <trkpt lat="45.95029" lon="17.46454167">
        <ele>146.5</ele>
        <time>2025-07-22T11:15:29Z</time>
      </trkpt>
      <trkpt lat="45.95034167" lon="17.46475333">
        <ele>137.5</ele>
        <time>2025-07-22T11:15:31Z</time>
      </trkpt>
      <trkpt lat="45.95034667" lon="17.46489833">
        <ele>135.4</ele>
        <time>2025-07-22T11:15:32Z</time>
      </trkpt>
      <trkpt lat="45.950335" lon="17.46503667">
        <ele>136.9</ele>
        <time>2025-07-22T11:15:33Z</time>
      </trkpt>
      <trkpt lat="45.950355" lon="17.46519">
        <ele>137.4</ele>
        <time>2025-07-22T11:15:35Z</time>
      </trkpt>
      <trkpt lat="45.95038833" lon="17.46532333">
        <ele>138.2</ele>
        <time>2025-07-22T11:15:37Z</time>
      </trkpt>
      <trkpt lat="45.95044167" lon="17.465465">
        <ele>141.7</ele>
        <time>2025-07-22T11:15:39Z</time>
      </trkpt>
      <trkpt lat="45.950515" lon="17.46561833">
        <ele>144.5</ele>
        <time>2025-07-22T11:15:42Z</time>
      </trkpt>
      <trkpt lat="45.95059" lon="17.46575833">
        <ele>147.4</ele>
        <time>2025-07-22T11:15:45Z</time>
      </trkpt>
      <trkpt lat="45.95066167" lon="17.46586833">
        <ele>148.1</ele>
        <time>2025-07-22T11:15:48Z</time>
      </trkpt>
      <trkpt lat="45.95072" lon="17.46600333">
        <ele>149.6</ele>
        <time>2025-07-22T11:15:51Z</time>
      </trkpt>
      <trkpt lat="45.95078333" lon="17.46614">
        <ele>149.2</ele>
        <time>2025-07-22T11:15:54Z</time>
      </trkpt>
      <trkpt lat="45.95079167" lon="17.46628667">
        <ele>149.1</ele>
        <time>2025-07-22T11:15:57Z</time>
      </trkpt>
      <trkpt lat="45.95080333" lon="17.46646167">
        <ele>149.3</ele>
        <time>2025-07-22T11:16:00Z</time>
      </trkpt>
      <trkpt lat="45.95081333" lon="17.46663667">
        <ele>150.3</ele>
        <time>2025-07-22T11:16:03Z</time>
      </trkpt>
      <trkpt lat="45.950845" lon="17.46676">
        <ele>150.7</ele>
        <time>2025-07-22T11:16:06Z</time>
      </trkpt>
      <trkpt lat="45.95082667" lon="17.46691">
        <ele>153.4</ele>
        <time>2025-07-22T11:16:10Z</time>
      </trkpt>
      <trkpt lat="45.95076833" lon="17.46702333">
        <ele>154.4</ele>
        <time>2025-07-22T11:16:13Z</time>
      </trkpt>
      <trkpt lat="45.950695" lon="17.46713833">
        <ele>154.5</ele>
        <time>2025-07-22T11:16:16Z</time>
      </trkpt>
      <trkpt lat="45.95061167" lon="17.46725333">
        <ele>153.7</ele>
        <time>2025-07-22T11:16:19Z</time>
      </trkpt>
      <trkpt lat="45.95054" lon="17.46735667">
        <ele>154</ele>
        <time>2025-07-22T11:16:22Z</time>
      </trkpt>
      <trkpt lat="45.95047" lon="17.46745">
        <ele>154.2</ele>
        <time>2025-07-22T11:16:25Z</time>
      </trkpt>
      <trkpt lat="45.9504" lon="17.46754">
        <ele>154.3</ele>
        <time>2025-07-22T11:16:28Z</time>
      </trkpt>
      <trkpt lat="45.95031667" lon="17.46768">
        <ele>153.5</ele>
        <time>2025-07-22T11:16:31Z</time>
      </trkpt>
      <trkpt lat="45.95025167" lon="17.467775">
        <ele>152.7</ele>
        <time>2025-07-22T11:16:33Z</time>
      </trkpt>
      <trkpt lat="45.95016333" lon="17.46791667">
        <ele>151.2</ele>
        <time>2025-07-22T11:16:36Z</time>
      </trkpt>
      <trkpt lat="45.95006667" lon="17.468045">
        <ele>148.8</ele>
        <time>2025-07-22T11:16:39Z</time>
      </trkpt>
      <trkpt lat="45.949945" lon="17.468195">
        <ele>146.3</ele>
        <time>2025-07-22T11:16:43Z</time>
      </trkpt>
      <trkpt lat="45.94986" lon="17.46832">
        <ele>145.1</ele>
        <time>2025-07-22T11:16:46Z</time>
      </trkpt>
      <trkpt lat="45.949785" lon="17.46842333">
        <ele>144.1</ele>
        <time>2025-07-22T11:16:49Z</time>
      </trkpt>
      <trkpt lat="45.94971333" lon="17.46853">
        <ele>146.5</ele>
        <time>2025-07-22T11:16:52Z</time>
      </trkpt>
      <trkpt lat="45.94963833" lon="17.46863">
        <ele>146.8</ele>
        <time>2025-07-22T11:16:57Z</time>
      </trkpt>
      <trkpt lat="45.94957167" lon="17.46874167">
        <ele>148.4</ele>
        <time>2025-07-22T11:17:02Z</time>
      </trkpt>
      <trkpt lat="45.94953833" lon="17.46888333">
        <ele>149.2</ele>
        <time>2025-07-22T11:17:08Z</time>
      </trkpt>
      <trkpt lat="45.94961" lon="17.46879667">
        <ele>152.1</ele>
        <time>2025-07-22T11:17:54Z</time>
      </trkpt>
      <trkpt lat="45.949725" lon="17.46861167">
        <ele>153.5</ele>
        <time>2025-07-22T11:18:00Z</time>
      </trkpt>
      <trkpt lat="45.949795" lon="17.46848833">
        <ele>152.9</ele>
        <time>2025-07-22T11:18:03Z</time>
      </trkpt>
      <trkpt lat="45.94985667" lon="17.46837">
        <ele>152.6</ele>
        <time>2025-07-22T11:18:06Z</time>
      </trkpt>
      <trkpt lat="45.949915" lon="17.46824667">
        <ele>151.1</ele>
        <time>2025-07-22T11:18:09Z</time>
      </trkpt>
      <trkpt lat="45.94999167" lon="17.46816">
        <ele>147.8</ele>
        <time>2025-07-22T11:18:12Z</time>
      </trkpt>
      <trkpt lat="45.95007333" lon="17.46805">
        <ele>146.4</ele>
        <time>2025-07-22T11:18:15Z</time>
      </trkpt>
      <trkpt lat="45.95016167" lon="17.46794667">
        <ele>147.1</ele>
        <time>2025-07-22T11:18:17Z</time>
      </trkpt>
      <trkpt lat="45.95024833" lon="17.46783833">
        <ele>148</ele>
        <time>2025-07-22T11:18:19Z</time>
      </trkpt>
      <trkpt lat="45.95032333" lon="17.46773833">
        <ele>149.2</ele>
        <time>2025-07-22T11:18:21Z</time>
      </trkpt>
      <trkpt lat="45.95038833" lon="17.46764167">
        <ele>149.8</ele>
        <time>2025-07-22T11:18:23Z</time>
      </trkpt>
      <trkpt lat="45.95047333" lon="17.46752667">
        <ele>149.3</ele>
        <time>2025-07-22T11:18:26Z</time>
      </trkpt>
      <trkpt lat="45.95045667" lon="17.46739333">
        <ele>148.2</ele>
        <time>2025-07-22T11:18:31Z</time>
      </trkpt>
      <trkpt lat="45.95044333" lon="17.46722833">
        <ele>147.2</ele>
        <time>2025-07-22T11:18:33Z</time>
      </trkpt>
      <trkpt lat="45.95040167" lon="17.46705333">
        <ele>148</ele>
        <time>2025-07-22T11:18:35Z</time>
      </trkpt>
      <trkpt lat="45.95034333" lon="17.466935">
        <ele>148.5</ele>
        <time>2025-07-22T11:18:37Z</time>
      </trkpt>
      <trkpt lat="45.95027" lon="17.46679833">
        <ele>149.3</ele>
        <time>2025-07-22T11:18:39Z</time>
      </trkpt>
      <trkpt lat="45.95018833" lon="17.46669667">
        <ele>149.5</ele>
        <time>2025-07-22T11:18:41Z</time>
      </trkpt>
      <trkpt lat="45.95011" lon="17.46660167">
        <ele>150.1</ele>
        <time>2025-07-22T11:18:43Z</time>
      </trkpt>
      <trkpt lat="45.95000333" lon="17.46648">
        <ele>149.6</ele>
        <time>2025-07-22T11:18:46Z</time>
      </trkpt>
      <trkpt lat="45.949885" lon="17.46638167">
        <ele>149.6</ele>
        <time>2025-07-22T11:18:49Z</time>
      </trkpt>
      <trkpt lat="45.94978833" lon="17.46631833">
        <ele>149.6</ele>
        <time>2025-07-22T11:18:51Z</time>
      </trkpt>
      <trkpt lat="45.94966667" lon="17.466245">
        <ele>149.7</ele>
        <time>2025-07-22T11:18:54Z</time>
      </trkpt>
      <trkpt lat="45.94954" lon="17.46615667">
        <ele>149.2</ele>
        <time>2025-07-22T11:18:57Z</time>
      </trkpt>
      <trkpt lat="45.94944833" lon="17.46611167">
        <ele>149.7</ele>
        <time>2025-07-22T11:18:59Z</time>
      </trkpt>
      <trkpt lat="45.94935833" lon="17.46608167">
        <ele>149.9</ele>
        <time>2025-07-22T11:19:01Z</time>
      </trkpt>
      <trkpt lat="45.94923167" lon="17.46605">
        <ele>149.3</ele>
        <time>2025-07-22T11:19:04Z</time>
      </trkpt>
      <trkpt lat="45.94912833" lon="17.46602">
        <ele>149.2</ele>
        <time>2025-07-22T11:19:06Z</time>
      </trkpt>
      <trkpt lat="45.94902667" lon="17.46599167">
        <ele>149.8</ele>
        <time>2025-07-22T11:19:08Z</time>
      </trkpt>
      <trkpt lat="45.94893333" lon="17.46596833">
        <ele>149.3</ele>
        <time>2025-07-22T11:19:10Z</time>
      </trkpt>
      <trkpt lat="45.94884167" lon="17.46595167">
        <ele>149.2</ele>
        <time>2025-07-22T11:19:12Z</time>
      </trkpt>
      <trkpt lat="45.94874167" lon="17.46592167">
        <ele>149.4</ele>
        <time>2025-07-22T11:19:14Z</time>
      </trkpt>
      <trkpt lat="45.94862167" lon="17.46589333">
        <ele>149.8</ele>
        <time>2025-07-22T11:19:17Z</time>
      </trkpt>
      <trkpt lat="45.94849167" lon="17.46587167">
        <ele>149.9</ele>
        <time>2025-07-22T11:19:20Z</time>
      </trkpt>
      <trkpt lat="45.94837" lon="17.46585">
        <ele>151.3</ele>
        <time>2025-07-22T11:19:23Z</time>
      </trkpt>
      <trkpt lat="45.94826" lon="17.46583667">
        <ele>150.8</ele>
        <time>2025-07-22T11:19:26Z</time>
      </trkpt>
      <trkpt lat="45.94816833" lon="17.46583833">
        <ele>149.7</ele>
        <time>2025-07-22T11:19:29Z</time>
      </trkpt>
      <trkpt lat="45.94807833" lon="17.46583333">
        <ele>148.7</ele>
        <time>2025-07-22T11:19:32Z</time>
      </trkpt>
      <trkpt lat="45.94797" lon="17.465835">
        <ele>147.5</ele>
        <time>2025-07-22T11:19:35Z</time>
      </trkpt>
      <trkpt lat="45.94787333" lon="17.465845">
        <ele>145.7</ele>
        <time>2025-07-22T11:19:38Z</time>
      </trkpt>
      <trkpt lat="45.94778167" lon="17.46585167">
        <ele>143.2</ele>
        <time>2025-07-22T11:19:41Z</time>
      </trkpt>
      <trkpt lat="45.94769" lon="17.46586667">
        <ele>141.9</ele>
        <time>2025-07-22T11:19:43Z</time>
      </trkpt>
      <trkpt lat="45.94757167" lon="17.46587">
        <ele>140.5</ele>
        <time>2025-07-22T11:19:46Z</time>
      </trkpt>
      <trkpt lat="45.94747667" lon="17.46581167">
        <ele>135.8</ele>
        <time>2025-07-22T11:19:49Z</time>
      </trkpt>
      <trkpt lat="45.94739333" lon="17.46576">
        <ele>133.9</ele>
        <time>2025-07-22T11:19:51Z</time>
      </trkpt>
      <trkpt lat="45.94730833" lon="17.46570833">
        <ele>132.8</ele>
        <time>2025-07-22T11:19:53Z</time>
      </trkpt>
      <trkpt lat="45.947175" lon="17.465615">
        <ele>131.4</ele>
        <time>2025-07-22T11:19:56Z</time>
      </trkpt>
      <trkpt lat="45.94707833" lon="17.46555">
        <ele>131.6</ele>
        <time>2025-07-22T11:19:58Z</time>
      </trkpt>
      <trkpt lat="45.94697333" lon="17.46548167">
        <ele>130.2</ele>
        <time>2025-07-22T11:20:01Z</time>
      </trkpt>
      <trkpt lat="45.94687" lon="17.46540333">
        <ele>129.4</ele>
        <time>2025-07-22T11:20:04Z</time>
      </trkpt>
      <trkpt lat="45.94678167" lon="17.46536">
        <ele>127.9</ele>
        <time>2025-07-22T11:20:07Z</time>
      </trkpt>
      <trkpt lat="45.94666833" lon="17.46531333">
        <ele>127.4</ele>
        <time>2025-07-22T11:20:12Z</time>
      </trkpt>
      <trkpt lat="45.94656" lon="17.465335">
        <ele>129.8</ele>
        <time>2025-07-22T11:20:16Z</time>
      </trkpt>
      <trkpt lat="45.94646667" lon="17.46540333">
        <ele>131.9</ele>
        <time>2025-07-22T11:20:20Z</time>
      </trkpt>
      <trkpt lat="45.94639167" lon="17.465475">
        <ele>134.4</ele>
        <time>2025-07-22T11:20:23Z</time>
      </trkpt>
      <trkpt lat="45.946325" lon="17.46558167">
        <ele>135</ele>
        <time>2025-07-22T11:20:26Z</time>
      </trkpt>
      <trkpt lat="45.94626167" lon="17.46573167">
        <ele>136.8</ele>
        <time>2025-07-22T11:20:30Z</time>
      </trkpt>
      <trkpt lat="45.94617667" lon="17.465845">
        <ele>137.9</ele>
        <time>2025-07-22T11:20:33Z</time>
      </trkpt>
      <trkpt lat="45.94611" lon="17.46593667">
        <ele>139</ele>
        <time>2025-07-22T11:20:35Z</time>
      </trkpt>
      <trkpt lat="45.94600333" lon="17.466055">
        <ele>139.6</ele>
        <time>2025-07-22T11:20:38Z</time>
      </trkpt>
      <trkpt lat="45.94590667" lon="17.466145">
        <ele>140.2</ele>
        <time>2025-07-22T11:20:41Z</time>
      </trkpt>
      <trkpt lat="45.94582167" lon="17.46625167">
        <ele>140.7</ele>
        <time>2025-07-22T11:20:44Z</time>
      </trkpt>
      <trkpt lat="45.94574833" lon="17.466395">
        <ele>141.4</ele>
        <time>2025-07-22T11:20:47Z</time>
      </trkpt>
      <trkpt lat="45.9457" lon="17.46654">
        <ele>140.7</ele>
        <time>2025-07-22T11:20:50Z</time>
      </trkpt>
      <trkpt lat="45.94565667" lon="17.46665333">
        <ele>141.7</ele>
        <time>2025-07-22T11:20:52Z</time>
      </trkpt>
      <trkpt lat="45.945615" lon="17.466795">
        <ele>142.8</ele>
        <time>2025-07-22T11:20:55Z</time>
      </trkpt>
      <trkpt lat="45.945555" lon="17.46693333">
        <ele>140.9</ele>
        <time>2025-07-22T11:20:58Z</time>
      </trkpt>
      <trkpt lat="45.94549667" lon="17.46706">
        <ele>140.1</ele>
        <time>2025-07-22T11:21:01Z</time>
      </trkpt>
      <trkpt lat="45.94542667" lon="17.46721833">
        <ele>139.2</ele>
        <time>2025-07-22T11:21:04Z</time>
      </trkpt>
      <trkpt lat="45.94537" lon="17.46737">
        <ele>139.2</ele>
        <time>2025-07-22T11:21:06Z</time>
      </trkpt>
      <trkpt lat="45.94531667" lon="17.4675">
        <ele>140.5</ele>
        <time>2025-07-22T11:21:08Z</time>
      </trkpt>
      <trkpt lat="45.94526167" lon="17.46760667">
        <ele>142.2</ele>
        <time>2025-07-22T11:21:10Z</time>
      </trkpt>
      <trkpt lat="45.9452" lon="17.46775167">
        <ele>144.2</ele>
        <time>2025-07-22T11:21:13Z</time>
      </trkpt>
      <trkpt lat="45.945155" lon="17.46789667">
        <ele>144.7</ele>
        <time>2025-07-22T11:21:16Z</time>
      </trkpt>
      <trkpt lat="45.94508833" lon="17.46808833">
        <ele>144.5</ele>
        <time>2025-07-22T11:21:19Z</time>
      </trkpt>
      <trkpt lat="45.94504167" lon="17.46821167">
        <ele>146.9</ele>
        <time>2025-07-22T11:21:21Z</time>
      </trkpt>
      <trkpt lat="45.94498167" lon="17.46837167">
        <ele>149.5</ele>
        <time>2025-07-22T11:21:24Z</time>
      </trkpt>
      <trkpt lat="45.94493333" lon="17.46853833">
        <ele>149.6</ele>
        <time>2025-07-22T11:21:27Z</time>
      </trkpt>
      <trkpt lat="45.9449" lon="17.4687">
        <ele>150.3</ele>
        <time>2025-07-22T11:21:30Z</time>
      </trkpt>
      <trkpt lat="45.94488833" lon="17.468855">
        <ele>151.3</ele>
        <time>2025-07-22T11:21:33Z</time>
      </trkpt>
      <trkpt lat="45.94488333" lon="17.46899833">
        <ele>150.1</ele>
        <time>2025-07-22T11:21:35Z</time>
      </trkpt>
      <trkpt lat="45.94487667" lon="17.46918833">
        <ele>147.8</ele>
        <time>2025-07-22T11:21:38Z</time>
      </trkpt>
      <trkpt lat="45.94487" lon="17.46933167">
        <ele>145.7</ele>
        <time>2025-07-22T11:21:40Z</time>
      </trkpt>
      <trkpt lat="45.94483167" lon="17.46948167">
        <ele>142</ele>
        <time>2025-07-22T11:21:42Z</time>
      </trkpt>
      <trkpt lat="45.94481167" lon="17.46961167">
        <ele>140.6</ele>
        <time>2025-07-22T11:21:44Z</time>
      </trkpt>
      <trkpt lat="45.94477" lon="17.46975167">
        <ele>140.2</ele>
        <time>2025-07-22T11:21:46Z</time>
      </trkpt>
      <trkpt lat="45.94472167" lon="17.46988667">
        <ele>140.3</ele>
        <time>2025-07-22T11:21:48Z</time>
      </trkpt>
      <trkpt lat="45.944665" lon="17.47003">
        <ele>141</ele>
        <time>2025-07-22T11:21:50Z</time>
      </trkpt>
      <trkpt lat="45.94463" lon="17.47016333">
        <ele>141.5</ele>
        <time>2025-07-22T11:21:52Z</time>
      </trkpt>
      <trkpt lat="45.94461333" lon="17.4703">
        <ele>142.2</ele>
        <time>2025-07-22T11:21:54Z</time>
      </trkpt>
      <trkpt lat="45.944595" lon="17.47048333">
        <ele>142.3</ele>
        <time>2025-07-22T11:21:57Z</time>
      </trkpt>
      <trkpt lat="45.94459333" lon="17.47062">
        <ele>142.2</ele>
        <time>2025-07-22T11:22:00Z</time>
      </trkpt>
      <trkpt lat="45.94457833" lon="17.47074833">
        <ele>141.9</ele>
        <time>2025-07-22T11:22:02Z</time>
      </trkpt>
      <trkpt lat="45.944575" lon="17.47088">
        <ele>141.7</ele>
        <time>2025-07-22T11:22:04Z</time>
      </trkpt>
      <trkpt lat="45.94456167" lon="17.47102167">
        <ele>141.6</ele>
        <time>2025-07-22T11:22:06Z</time>
      </trkpt>
      <trkpt lat="45.94453833" lon="17.47117667">
        <ele>141.7</ele>
        <time>2025-07-22T11:22:08Z</time>
      </trkpt>
      <trkpt lat="45.94453" lon="17.47135">
        <ele>141</ele>
        <time>2025-07-22T11:22:11Z</time>
      </trkpt>
      <trkpt lat="45.94451667" lon="17.471495">
        <ele>141.2</ele>
        <time>2025-07-22T11:22:13Z</time>
      </trkpt>
      <trkpt lat="45.94450667" lon="17.47163167">
        <ele>141.5</ele>
        <time>2025-07-22T11:22:15Z</time>
      </trkpt>
      <trkpt lat="45.944505" lon="17.471765">
        <ele>141.6</ele>
        <time>2025-07-22T11:22:17Z</time>
      </trkpt>
      <trkpt lat="45.94450333" lon="17.47191667">
        <ele>142</ele>
        <time>2025-07-22T11:22:19Z</time>
      </trkpt>
      <trkpt lat="45.944495" lon="17.47205333">
        <ele>142.4</ele>
        <time>2025-07-22T11:22:21Z</time>
      </trkpt>
      <trkpt lat="45.94448333" lon="17.472245">
        <ele>142.8</ele>
        <time>2025-07-22T11:22:24Z</time>
      </trkpt>
      <trkpt lat="45.94447167" lon="17.47237333">
        <ele>142.4</ele>
        <time>2025-07-22T11:22:26Z</time>
      </trkpt>
      <trkpt lat="45.94445833" lon="17.47250667">
        <ele>142.4</ele>
        <time>2025-07-22T11:22:28Z</time>
      </trkpt>
      <trkpt lat="45.94444" lon="17.47270667">
        <ele>142</ele>
        <time>2025-07-22T11:22:31Z</time>
      </trkpt>
      <trkpt lat="45.944425" lon="17.472835">
        <ele>141.6</ele>
        <time>2025-07-22T11:22:33Z</time>
      </trkpt>
      <trkpt lat="45.94441167" lon="17.47297667">
        <ele>140.7</ele>
        <time>2025-07-22T11:22:35Z</time>
      </trkpt>
      <trkpt lat="45.94440167" lon="17.47315667">
        <ele>138.8</ele>
        <time>2025-07-22T11:22:38Z</time>
      </trkpt>
      <trkpt lat="45.94437167" lon="17.47330333">
        <ele>138.7</ele>
        <time>2025-07-22T11:22:40Z</time>
      </trkpt>
      <trkpt lat="45.94433167" lon="17.47346667">
        <ele>137.1</ele>
        <time>2025-07-22T11:22:43Z</time>
      </trkpt>
      <trkpt lat="45.9443" lon="17.47361333">
        <ele>136.8</ele>
        <time>2025-07-22T11:22:45Z</time>
      </trkpt>
      <trkpt lat="45.94425167" lon="17.47378">
        <ele>137.6</ele>
        <time>2025-07-22T11:22:47Z</time>
      </trkpt>
      <trkpt lat="45.94422667" lon="17.47393167">
        <ele>138.7</ele>
        <time>2025-07-22T11:22:49Z</time>
      </trkpt>
      <trkpt lat="45.94424167" lon="17.47406333">
        <ele>139</ele>
        <time>2025-07-22T11:22:51Z</time>
      </trkpt>
      <trkpt lat="45.94427667" lon="17.47419667">
        <ele>140.3</ele>
        <time>2025-07-22T11:22:53Z</time>
      </trkpt>
      <trkpt lat="45.94426833" lon="17.47437167">
        <ele>142</ele>
        <time>2025-07-22T11:22:56Z</time>
      </trkpt>
      <trkpt lat="45.94422833" lon="17.47453667">
        <ele>143.5</ele>
        <time>2025-07-22T11:22:59Z</time>
      </trkpt>
      <trkpt lat="45.94418833" lon="17.47468167">
        <ele>146.6</ele>
        <time>2025-07-22T11:23:02Z</time>
      </trkpt>
      <trkpt lat="45.94413" lon="17.474835">
        <ele>148.8</ele>
        <time>2025-07-22T11:23:05Z</time>
      </trkpt>
      <trkpt lat="45.94408" lon="17.47494333">
        <ele>148</ele>
        <time>2025-07-22T11:23:07Z</time>
      </trkpt>
      <trkpt lat="45.94403667" lon="17.475095">
        <ele>146.6</ele>
        <time>2025-07-22T11:23:10Z</time>
      </trkpt>
      <trkpt lat="45.94399167" lon="17.475225">
        <ele>146</ele>
        <time>2025-07-22T11:23:13Z</time>
      </trkpt>
      <trkpt lat="45.94394333" lon="17.47534167">
        <ele>145.6</ele>
        <time>2025-07-22T11:23:15Z</time>
      </trkpt>
      <trkpt lat="45.94389833" lon="17.47546333">
        <ele>145.3</ele>
        <time>2025-07-22T11:23:17Z</time>
      </trkpt>
      <trkpt lat="45.94384333" lon="17.47559833">
        <ele>145.1</ele>
        <time>2025-07-22T11:23:19Z</time>
      </trkpt>
      <trkpt lat="45.9438" lon="17.475725">
        <ele>143.1</ele>
        <time>2025-07-22T11:23:21Z</time>
      </trkpt>
      <trkpt lat="45.94375833" lon="17.47590667">
        <ele>141.5</ele>
        <time>2025-07-22T11:23:24Z</time>
      </trkpt>
      <trkpt lat="45.94371833" lon="17.476065">
        <ele>140.2</ele>
        <time>2025-07-22T11:23:26Z</time>
      </trkpt>
      <trkpt lat="45.94367333" lon="17.476225">
        <ele>140.4</ele>
        <time>2025-07-22T11:23:28Z</time>
      </trkpt>
      <trkpt lat="45.94362667" lon="17.47636333">
        <ele>140.6</ele>
        <time>2025-07-22T11:23:30Z</time>
      </trkpt>
      <trkpt lat="45.94358667" lon="17.47649667">
        <ele>140.9</ele>
        <time>2025-07-22T11:23:32Z</time>
      </trkpt>
      <trkpt lat="45.94354833" lon="17.47662333">
        <ele>140.6</ele>
        <time>2025-07-22T11:23:34Z</time>
      </trkpt>
      <trkpt lat="45.94351833" lon="17.47674667">
        <ele>140.7</ele>
        <time>2025-07-22T11:23:36Z</time>
      </trkpt>
      <trkpt lat="45.94347333" lon="17.47689833">
        <ele>140.2</ele>
        <time>2025-07-22T11:23:39Z</time>
      </trkpt>
      <trkpt lat="45.94344833" lon="17.47706667">
        <ele>140.3</ele>
        <time>2025-07-22T11:23:42Z</time>
      </trkpt>
      <trkpt lat="45.94341333" lon="17.47724333">
        <ele>141.2</ele>
        <time>2025-07-22T11:23:45Z</time>
      </trkpt>
      <trkpt lat="45.94340333" lon="17.47737667">
        <ele>141.7</ele>
        <time>2025-07-22T11:23:47Z</time>
      </trkpt>
      <trkpt lat="45.94338167" lon="17.47751667">
        <ele>142.2</ele>
        <time>2025-07-22T11:23:49Z</time>
      </trkpt>
      <trkpt lat="45.94336667" lon="17.47765333">
        <ele>143.1</ele>
        <time>2025-07-22T11:23:51Z</time>
      </trkpt>
      <trkpt lat="45.94335333" lon="17.47778167">
        <ele>143.5</ele>
        <time>2025-07-22T11:23:53Z</time>
      </trkpt>
      <trkpt lat="45.94333333" lon="17.477915">
        <ele>144</ele>
        <time>2025-07-22T11:23:55Z</time>
      </trkpt>
      <trkpt lat="45.94332167" lon="17.478055">
        <ele>143.3</ele>
        <time>2025-07-22T11:23:57Z</time>
      </trkpt>
      <trkpt lat="45.943315" lon="17.4782">
        <ele>143</ele>
        <time>2025-07-22T11:23:59Z</time>
      </trkpt>
      <trkpt lat="45.94329333" lon="17.47834">
        <ele>143.8</ele>
        <time>2025-07-22T11:24:01Z</time>
      </trkpt>
      <trkpt lat="45.94326667" lon="17.47847667">
        <ele>145.4</ele>
        <time>2025-07-22T11:24:05Z</time>
      </trkpt>
      <trkpt lat="45.94317167" lon="17.47852333">
        <ele>145.8</ele>
        <time>2025-07-22T11:24:14Z</time>
      </trkpt>
      <trkpt lat="45.94305167" lon="17.47855">
        <ele>149.6</ele>
        <time>2025-07-22T11:24:53Z</time>
      </trkpt>
    </trkseg>
  </trk>
</gpx>