<?xml version='1.0' encoding='UTF-8' standalone='yes' ?>
<gpx xmlns="http://www.topografix.com/GPX/1/1" xmlns:geotracker="http://ilyabogdanovich.com/gpx/extensions/geotracker" xmlns:xsi="http://www.w3.org/2001/XMLSchema-instance" xsi:schemaLocation="http://www.topografix.com/GPX/1/1 http://www.topografix.com/GPX/1/1/gpx.xsd" version="1.1" creator="Recorded in Geo Tracker for Android from Ilya Bogdanovich">
  <metadata>
    <name>f_0722_06</name>
    <author>
      <name>Recorded in Geo Tracker for Android from Ilya Bogdanovich</name>
      <link href="https://play.google.com/store/apps/details?id=com.ilyabogdanovich.geotracker" />
    </author>
    <link href="https://play.google.com/store/apps/details?id=com.ilyabogdanovich.geotracker" />
    <time>2025-07-22T13:56:48Z</time>
  </metadata>
  <trk>
    <name>f_0722_06</name>
    <src>Recorded in Geo Tracker for Android from Ilya Bogdanovich</src>
    <link href="https://play.google.com/store/apps/details?id=com.ilyabogdanovich.geotracker" />
    <extensions>
      <geotracker:meta>
        <geotracker:length>3085.14</geotracker:length>
        <geotracker:duration>627581</geotracker:duration>
        <geotracker:creationtime>2025-07-22T13:56:48Z</geotracker:creationtime>
        <geotracker:activity>0</geotracker:activity>
      </geotracker:meta>
    </extensions>
    <trkseg>
      <trkpt lat="45.952545" lon="17.62188167">
        <ele>198.7</ele>
        <time>2025-07-22T13:56:54Z</time>
      </trkpt>
      <trkpt lat="45.952455" lon="17.62187333">
        <ele>199.1</ele>
        <time>2025-07-22T13:57:15Z</time>
      </trkpt>
      <trkpt lat="45.95237167" lon="17.621975">
        <ele>191.1</ele>
        <time>2025-07-22T13:57:21Z</time>
      </trkpt>
      <trkpt lat="45.952295" lon="17.62209167">
        <ele>179.5</ele>
        <time>2025-07-22T13:57:25Z</time>
      </trkpt>
      <trkpt lat="45.95221833" lon="17.62219">
        <ele>174.7</ele>
        <time>2025-07-22T13:57:28Z</time>
      </trkpt>
      <trkpt lat="45.95213667" lon="17.62230167">
        <ele>170.7</ele>
        <time>2025-07-22T13:57:31Z</time>
      </trkpt>
      <trkpt lat="45.952045" lon="17.62242">
        <ele>166.1</ele>
        <time>2025-07-22T13:57:34Z</time>
      </trkpt>
      <trkpt lat="45.95198" lon="17.62251167">
        <ele>163.9</ele>
        <time>2025-07-22T13:57:36Z</time>
      </trkpt>
      <trkpt lat="45.95191333" lon="17.62260333">
        <ele>162.4</ele>
        <time>2025-07-22T13:57:38Z</time>
      </trkpt>
      <trkpt lat="45.95182167" lon="17.62273833">
        <ele>160.8</ele>
        <time>2025-07-22T13:57:41Z</time>
      </trkpt>
      <trkpt lat="45.95175833" lon="17.62283">
        <ele>159.5</ele>
        <time>2025-07-22T13:57:43Z</time>
      </trkpt>
      <trkpt lat="45.95169167" lon="17.62293">
        <ele>158.9</ele>
        <time>2025-07-22T13:57:45Z</time>
      </trkpt>
      <trkpt lat="45.95161167" lon="17.62305667">
        <ele>157.4</ele>
        <time>2025-07-22T13:57:48Z</time>
      </trkpt>
      <trkpt lat="45.95153167" lon="17.62318833">
        <ele>153.8</ele>
        <time>2025-07-22T13:57:51Z</time>
      </trkpt>
      <trkpt lat="45.95144333" lon="17.62332167">
        <ele>153</ele>
        <time>2025-07-22T13:57:54Z</time>
      </trkpt>
      <trkpt lat="45.951375" lon="17.623415">
        <ele>152.8</ele>
        <time>2025-07-22T13:57:56Z</time>
      </trkpt>
      <trkpt lat="45.95128" lon="17.62353">
        <ele>152.9</ele>
        <time>2025-07-22T13:57:59Z</time>
      </trkpt>
      <trkpt lat="45.951195" lon="17.62365333">
        <ele>151.9</ele>
        <time>2025-07-22T13:58:02Z</time>
      </trkpt>
      <trkpt lat="45.951105" lon="17.62378667">
        <ele>151.8</ele>
        <time>2025-07-22T13:58:05Z</time>
      </trkpt>
      <trkpt lat="45.95102667" lon="17.62389333">
        <ele>152.6</ele>
        <time>2025-07-22T13:58:07Z</time>
      </trkpt>
      <trkpt lat="45.95095" lon="17.62399833">
        <ele>153.2</ele>
        <time>2025-07-22T13:58:09Z</time>
      </trkpt>
      <trkpt lat="45.95087" lon="17.62411">
        <ele>153.8</ele>
        <time>2025-07-22T13:58:11Z</time>
      </trkpt>
      <trkpt lat="45.95079833" lon="17.62422333">
        <ele>154.2</ele>
        <time>2025-07-22T13:58:13Z</time>
      </trkpt>
      <trkpt lat="45.95071833" lon="17.62433167">
        <ele>155.3</ele>
        <time>2025-07-22T13:58:15Z</time>
      </trkpt>
      <trkpt lat="45.95063333" lon="17.62444">
        <ele>156.4</ele>
        <time>2025-07-22T13:58:17Z</time>
      </trkpt>
      <trkpt lat="45.950545" lon="17.624555">
        <ele>157.3</ele>
        <time>2025-07-22T13:58:19Z</time>
      </trkpt>
      <trkpt lat="45.95045833" lon="17.62465833">
        <ele>157.8</ele>
        <time>2025-07-22T13:58:21Z</time>
      </trkpt>
      <trkpt lat="45.95037333" lon="17.624755">
        <ele>158.2</ele>
        <time>2025-07-22T13:58:23Z</time>
      </trkpt>
      <trkpt lat="45.95029667" lon="17.62485333">
        <ele>158.3</ele>
        <time>2025-07-22T13:58:25Z</time>
      </trkpt>
      <trkpt lat="45.95021333" lon="17.624965">
        <ele>158.1</ele>
        <time>2025-07-22T13:58:27Z</time>
      </trkpt>
      <trkpt lat="45.95014167" lon="17.62506">
        <ele>158.4</ele>
        <time>2025-07-22T13:58:29Z</time>
      </trkpt>
      <trkpt lat="45.950045" lon="17.62519333">
        <ele>159.5</ele>
        <time>2025-07-22T13:58:32Z</time>
      </trkpt>
      <trkpt lat="45.94997333" lon="17.62530167">
        <ele>159.1</ele>
        <time>2025-07-22T13:58:34Z</time>
      </trkpt>
      <trkpt lat="45.94989167" lon="17.625415">
        <ele>159.6</ele>
        <time>2025-07-22T13:58:36Z</time>
      </trkpt>
      <trkpt lat="45.94981667" lon="17.62552667">
        <ele>159.6</ele>
        <time>2025-07-22T13:58:38Z</time>
      </trkpt>
      <trkpt lat="45.94973833" lon="17.62564333">
        <ele>159.3</ele>
        <time>2025-07-22T13:58:40Z</time>
      </trkpt>
      <trkpt lat="45.949665" lon="17.62574833">
        <ele>160.1</ele>
        <time>2025-07-22T13:58:42Z</time>
      </trkpt>
      <trkpt lat="45.949595" lon="17.625855">
        <ele>159.9</ele>
        <time>2025-07-22T13:58:44Z</time>
      </trkpt>
      <trkpt lat="45.94952333" lon="17.62596167">
        <ele>158.8</ele>
        <time>2025-07-22T13:58:46Z</time>
      </trkpt>
      <trkpt lat="45.949445" lon="17.626085">
        <ele>157.6</ele>
        <time>2025-07-22T13:58:48Z</time>
      </trkpt>
      <trkpt lat="45.94936833" lon="17.62620167">
        <ele>157.3</ele>
        <time>2025-07-22T13:58:50Z</time>
      </trkpt>
      <trkpt lat="45.94929333" lon="17.62631667">
        <ele>156.7</ele>
        <time>2025-07-22T13:58:52Z</time>
      </trkpt>
      <trkpt lat="45.94921167" lon="17.62642833">
        <ele>156.4</ele>
        <time>2025-07-22T13:58:54Z</time>
      </trkpt>
      <trkpt lat="45.94913167" lon="17.62654">
        <ele>155.7</ele>
        <time>2025-07-22T13:58:56Z</time>
      </trkpt>
      <trkpt lat="45.949055" lon="17.62663333">
        <ele>155.2</ele>
        <time>2025-07-22T13:58:58Z</time>
      </trkpt>
      <trkpt lat="45.94897833" lon="17.626745">
        <ele>154.9</ele>
        <time>2025-07-22T13:59:00Z</time>
      </trkpt>
      <trkpt lat="45.9489" lon="17.62685167">
        <ele>154.3</ele>
        <time>2025-07-22T13:59:02Z</time>
      </trkpt>
      <trkpt lat="45.94883167" lon="17.62696">
        <ele>153.8</ele>
        <time>2025-07-22T13:59:04Z</time>
      </trkpt>
      <trkpt lat="45.94876333" lon="17.62710833">
        <ele>153.2</ele>
        <time>2025-07-22T13:59:07Z</time>
      </trkpt>
      <trkpt lat="45.94869667" lon="17.62721833">
        <ele>152.9</ele>
        <time>2025-07-22T13:59:10Z</time>
      </trkpt>
      <trkpt lat="45.948625" lon="17.62734667">
        <ele>152.9</ele>
        <time>2025-07-22T13:59:13Z</time>
      </trkpt>
      <trkpt lat="45.94853833" lon="17.62746167">
        <ele>152.7</ele>
        <time>2025-07-22T13:59:15Z</time>
      </trkpt>
      <trkpt lat="45.94848833" lon="17.62757167">
        <ele>149.8</ele>
        <time>2025-07-22T13:59:18Z</time>
      </trkpt>
      <trkpt lat="45.94841667" lon="17.62768833">
        <ele>146.1</ele>
        <time>2025-07-22T13:59:21Z</time>
      </trkpt>
      <trkpt lat="45.94833167" lon="17.62780333">
        <ele>144.3</ele>
        <time>2025-07-22T13:59:24Z</time>
      </trkpt>
      <trkpt lat="45.94824333" lon="17.62791167">
        <ele>141.8</ele>
        <time>2025-07-22T13:59:27Z</time>
      </trkpt>
      <trkpt lat="45.94816833" lon="17.62799333">
        <ele>140.2</ele>
        <time>2025-07-22T13:59:29Z</time>
      </trkpt>
      <trkpt lat="45.94808667" lon="17.62811">
        <ele>137.7</ele>
        <time>2025-07-22T13:59:31Z</time>
      </trkpt>
      <trkpt lat="45.94799833" lon="17.62824">
        <ele>135.9</ele>
        <time>2025-07-22T13:59:33Z</time>
      </trkpt>
      <trkpt lat="45.94791" lon="17.62838167">
        <ele>133.2</ele>
        <time>2025-07-22T13:59:35Z</time>
      </trkpt>
      <trkpt lat="45.94784" lon="17.62848167">
        <ele>130.9</ele>
        <time>2025-07-22T13:59:37Z</time>
      </trkpt>
      <trkpt lat="45.94776333" lon="17.62859167">
        <ele>127.3</ele>
        <time>2025-07-22T13:59:39Z</time>
      </trkpt>
      <trkpt lat="45.94767667" lon="17.62869667">
        <ele>125</ele>
        <time>2025-07-22T13:59:41Z</time>
      </trkpt>
      <trkpt lat="45.94759833" lon="17.62881">
        <ele>123.5</ele>
        <time>2025-07-22T13:59:43Z</time>
      </trkpt>
      <trkpt lat="45.94751" lon="17.62893333">
        <ele>122.5</ele>
        <time>2025-07-22T13:59:45Z</time>
      </trkpt>
      <trkpt lat="45.947425" lon="17.62905167">
        <ele>122.4</ele>
        <time>2025-07-22T13:59:47Z</time>
      </trkpt>
      <trkpt lat="45.94732667" lon="17.62918833">
        <ele>121.9</ele>
        <time>2025-07-22T13:59:49Z</time>
      </trkpt>
      <trkpt lat="45.947235" lon="17.62932167">
        <ele>121</ele>
        <time>2025-07-22T13:59:51Z</time>
      </trkpt>
      <trkpt lat="45.94715833" lon="17.62944833">
        <ele>120.2</ele>
        <time>2025-07-22T13:59:53Z</time>
      </trkpt>
      <trkpt lat="45.947095" lon="17.62955667">
        <ele>118.5</ele>
        <time>2025-07-22T13:59:55Z</time>
      </trkpt>
      <trkpt lat="45.94702667" lon="17.62966167">
        <ele>116.9</ele>
        <time>2025-07-22T13:59:57Z</time>
      </trkpt>
      <trkpt lat="45.94695833" lon="17.62975833">
        <ele>115.2</ele>
        <time>2025-07-22T13:59:59Z</time>
      </trkpt>
      <trkpt lat="45.946885" lon="17.62986667">
        <ele>114.5</ele>
        <time>2025-07-22T14:00:01Z</time>
      </trkpt>
      <trkpt lat="45.94679333" lon="17.62997833">
        <ele>113</ele>
        <time>2025-07-22T14:00:03Z</time>
      </trkpt>
      <trkpt lat="45.94670667" lon="17.630085">
        <ele>112</ele>
        <time>2025-07-22T14:00:05Z</time>
      </trkpt>
      <trkpt lat="45.94659" lon="17.63019167">
        <ele>112.2</ele>
        <time>2025-07-22T14:00:07Z</time>
      </trkpt>
      <trkpt lat="45.946495" lon="17.630305">
        <ele>111.8</ele>
        <time>2025-07-22T14:00:09Z</time>
      </trkpt>
      <trkpt lat="45.946355" lon="17.63046333">
        <ele>110.7</ele>
        <time>2025-07-22T14:00:12Z</time>
      </trkpt>
      <trkpt lat="45.94626167" lon="17.63055667">
        <ele>110</ele>
        <time>2025-07-22T14:00:14Z</time>
      </trkpt>
      <trkpt lat="45.94617333" lon="17.63068833">
        <ele>109.9</ele>
        <time>2025-07-22T14:00:16Z</time>
      </trkpt>
      <trkpt lat="45.94609167" lon="17.63077667">
        <ele>109.4</ele>
        <time>2025-07-22T14:00:18Z</time>
      </trkpt>
      <trkpt lat="45.94601333" lon="17.63086833">
        <ele>108.9</ele>
        <time>2025-07-22T14:00:20Z</time>
      </trkpt>
      <trkpt lat="45.94594" lon="17.63095167">
        <ele>108.1</ele>
        <time>2025-07-22T14:00:22Z</time>
      </trkpt>
      <trkpt lat="45.94586333" lon="17.63105">
        <ele>107.5</ele>
        <time>2025-07-22T14:00:24Z</time>
      </trkpt>
      <trkpt lat="45.945785" lon="17.63116333">
        <ele>107.2</ele>
        <time>2025-07-22T14:00:26Z</time>
      </trkpt>
      <trkpt lat="45.94569833" lon="17.631265">
        <ele>107</ele>
        <time>2025-07-22T14:00:28Z</time>
      </trkpt>
      <trkpt lat="45.94560833" lon="17.63139">
        <ele>107</ele>
        <time>2025-07-22T14:00:30Z</time>
      </trkpt>
      <trkpt lat="45.94550667" lon="17.63155">
        <ele>109.1</ele>
        <time>2025-07-22T14:00:32Z</time>
      </trkpt>
      <trkpt lat="45.94540833" lon="17.63168167">
        <ele>110.4</ele>
        <time>2025-07-22T14:00:34Z</time>
      </trkpt>
      <trkpt lat="45.945335" lon="17.63183167">
        <ele>108.7</ele>
        <time>2025-07-22T14:00:37Z</time>
      </trkpt>
      <trkpt lat="45.94525667" lon="17.63194833">
        <ele>107.8</ele>
        <time>2025-07-22T14:00:39Z</time>
      </trkpt>
      <trkpt lat="45.94514333" lon="17.632085">
        <ele>105.5</ele>
        <time>2025-07-22T14:00:41Z</time>
      </trkpt>
      <trkpt lat="45.94503333" lon="17.6322">
        <ele>104</ele>
        <time>2025-07-22T14:00:43Z</time>
      </trkpt>
      <trkpt lat="45.94493167" lon="17.63232167">
        <ele>103.7</ele>
        <time>2025-07-22T14:00:45Z</time>
      </trkpt>
      <trkpt lat="45.944835" lon="17.63243833">
        <ele>103.8</ele>
        <time>2025-07-22T14:00:47Z</time>
      </trkpt>
      <trkpt lat="45.94474167" lon="17.63255667">
        <ele>104.2</ele>
        <time>2025-07-22T14:00:49Z</time>
      </trkpt>
      <trkpt lat="45.944645" lon="17.63268667">
        <ele>104.6</ele>
        <time>2025-07-22T14:00:51Z</time>
      </trkpt>
      <trkpt lat="45.94455167" lon="17.632795">
        <ele>104.3</ele>
        <time>2025-07-22T14:00:53Z</time>
      </trkpt>
      <trkpt lat="45.94446333" lon="17.63289667">
        <ele>103.6</ele>
        <time>2025-07-22T14:00:55Z</time>
      </trkpt>
      <trkpt lat="45.94437833" lon="17.63300667">
        <ele>102.9</ele>
        <time>2025-07-22T14:00:57Z</time>
      </trkpt>
      <trkpt lat="45.944295" lon="17.63310167">
        <ele>101.5</ele>
        <time>2025-07-22T14:00:59Z</time>
      </trkpt>
      <trkpt lat="45.94421167" lon="17.63317167">
        <ele>99.8</ele>
        <time>2025-07-22T14:01:01Z</time>
      </trkpt>
      <trkpt lat="45.944125" lon="17.63327833">
        <ele>99.6</ele>
        <time>2025-07-22T14:01:03Z</time>
      </trkpt>
      <trkpt lat="45.94405" lon="17.63337167">
        <ele>98.8</ele>
        <time>2025-07-22T14:01:05Z</time>
      </trkpt>
      <trkpt lat="45.94396333" lon="17.63347667">
        <ele>98.4</ele>
        <time>2025-07-22T14:01:07Z</time>
      </trkpt>
      <trkpt lat="45.94386333" lon="17.63360167">
        <ele>98.8</ele>
        <time>2025-07-22T14:01:09Z</time>
      </trkpt>
      <trkpt lat="45.94376" lon="17.63374667">
        <ele>98.5</ele>
        <time>2025-07-22T14:01:11Z</time>
      </trkpt>
      <trkpt lat="45.94364667" lon="17.63387333">
        <ele>98.3</ele>
        <time>2025-07-22T14:01:13Z</time>
      </trkpt>
      <trkpt lat="45.94353333" lon="17.63399">
        <ele>99.1</ele>
        <time>2025-07-22T14:01:15Z</time>
      </trkpt>
      <trkpt lat="45.94343" lon="17.63410833">
        <ele>99.9</ele>
        <time>2025-07-22T14:01:17Z</time>
      </trkpt>
      <trkpt lat="45.94333667" lon="17.63423167">
        <ele>100.8</ele>
        <time>2025-07-22T14:01:19Z</time>
      </trkpt>
      <trkpt lat="45.94324833" lon="17.63435667">
        <ele>101.6</ele>
        <time>2025-07-22T14:01:21Z</time>
      </trkpt>
      <trkpt lat="45.94315333" lon="17.63447667">
        <ele>102.3</ele>
        <time>2025-07-22T14:01:23Z</time>
      </trkpt>
      <trkpt lat="45.943055" lon="17.63459333">
        <ele>103.4</ele>
        <time>2025-07-22T14:01:25Z</time>
      </trkpt>
      <trkpt lat="45.94294833" lon="17.634705">
        <ele>104.6</ele>
        <time>2025-07-22T14:01:27Z</time>
      </trkpt>
      <trkpt lat="45.942845" lon="17.63480667">
        <ele>105.6</ele>
        <time>2025-07-22T14:01:29Z</time>
      </trkpt>
      <trkpt lat="45.942755" lon="17.63490167">
        <ele>106.2</ele>
        <time>2025-07-22T14:01:31Z</time>
      </trkpt>
      <trkpt lat="45.94267333" lon="17.63500667">
        <ele>106.9</ele>
        <time>2025-07-22T14:01:33Z</time>
      </trkpt>
      <trkpt lat="45.94259" lon="17.63510167">
        <ele>107.5</ele>
        <time>2025-07-22T14:01:35Z</time>
      </trkpt>
      <trkpt lat="45.94250333" lon="17.635205">
        <ele>108.6</ele>
        <time>2025-07-22T14:01:37Z</time>
      </trkpt>
      <trkpt lat="45.94242333" lon="17.635305">
        <ele>110.1</ele>
        <time>2025-07-22T14:01:39Z</time>
      </trkpt>
      <trkpt lat="45.94235167" lon="17.6354">
        <ele>110.6</ele>
        <time>2025-07-22T14:01:41Z</time>
      </trkpt>
      <trkpt lat="45.94227833" lon="17.63548167">
        <ele>109.1</ele>
        <time>2025-07-22T14:01:43Z</time>
      </trkpt>
      <trkpt lat="45.94217667" lon="17.6356">
        <ele>107.2</ele>
        <time>2025-07-22T14:01:46Z</time>
      </trkpt>
      <trkpt lat="45.94210833" lon="17.63571333">
        <ele>107.1</ele>
        <time>2025-07-22T14:01:48Z</time>
      </trkpt>
      <trkpt lat="45.94205" lon="17.63582167">
        <ele>106.2</ele>
        <time>2025-07-22T14:01:50Z</time>
      </trkpt>
      <trkpt lat="45.941985" lon="17.63594">
        <ele>105.9</ele>
        <time>2025-07-22T14:01:52Z</time>
      </trkpt>
      <trkpt lat="45.94193667" lon="17.63605833">
        <ele>100.4</ele>
        <time>2025-07-22T14:01:55Z</time>
      </trkpt>
      <trkpt lat="45.94187333" lon="17.63616833">
        <ele>99.6</ele>
        <time>2025-07-22T14:01:57Z</time>
      </trkpt>
      <trkpt lat="45.9418" lon="17.63630667">
        <ele>98.6</ele>
        <time>2025-07-22T14:01:59Z</time>
      </trkpt>
      <trkpt lat="45.94170167" lon="17.63643667">
        <ele>96.9</ele>
        <time>2025-07-22T14:02:01Z</time>
      </trkpt>
      <trkpt lat="45.94159667" lon="17.63657667">
        <ele>94.7</ele>
        <time>2025-07-22T14:02:03Z</time>
      </trkpt>
      <trkpt lat="45.94150833" lon="17.63669833">
        <ele>94.2</ele>
        <time>2025-07-22T14:02:05Z</time>
      </trkpt>
      <trkpt lat="45.941435" lon="17.63682167">
        <ele>94.2</ele>
        <time>2025-07-22T14:02:07Z</time>
      </trkpt>
      <trkpt lat="45.94135833" lon="17.636945">
        <ele>94</ele>
        <time>2025-07-22T14:02:09Z</time>
      </trkpt>
      <trkpt lat="45.94126667" lon="17.637065">
        <ele>91.9</ele>
        <time>2025-07-22T14:02:12Z</time>
      </trkpt>
      <trkpt lat="45.94119833" lon="17.637175">
        <ele>91</ele>
        <time>2025-07-22T14:02:14Z</time>
      </trkpt>
      <trkpt lat="45.94111833" lon="17.637285">
        <ele>90.3</ele>
        <time>2025-07-22T14:02:16Z</time>
      </trkpt>
      <trkpt lat="45.94101833" lon="17.63742333">
        <ele>89.4</ele>
        <time>2025-07-22T14:02:18Z</time>
      </trkpt>
      <trkpt lat="45.94095" lon="17.63752833">
        <ele>89</ele>
        <time>2025-07-22T14:02:20Z</time>
      </trkpt>
      <trkpt lat="45.940875" lon="17.63764">
        <ele>88.6</ele>
        <time>2025-07-22T14:02:22Z</time>
      </trkpt>
      <trkpt lat="45.94079667" lon="17.63774667">
        <ele>88.1</ele>
        <time>2025-07-22T14:02:24Z</time>
      </trkpt>
      <trkpt lat="45.94071833" lon="17.63786">
        <ele>87.5</ele>
        <time>2025-07-22T14:02:26Z</time>
      </trkpt>
      <trkpt lat="45.94063667" lon="17.63796833">
        <ele>87.2</ele>
        <time>2025-07-22T14:02:28Z</time>
      </trkpt>
      <trkpt lat="45.94055333" lon="17.638085">
        <ele>86.8</ele>
        <time>2025-07-22T14:02:30Z</time>
      </trkpt>
      <trkpt lat="45.94044333" lon="17.63823">
        <ele>86.6</ele>
        <time>2025-07-22T14:02:32Z</time>
      </trkpt>
      <trkpt lat="45.94035167" lon="17.63836167">
        <ele>86.9</ele>
        <time>2025-07-22T14:02:34Z</time>
      </trkpt>
      <trkpt lat="45.94027167" lon="17.63847333">
        <ele>87.1</ele>
        <time>2025-07-22T14:02:36Z</time>
      </trkpt>
      <trkpt lat="45.940185" lon="17.638585">
        <ele>87.4</ele>
        <time>2025-07-22T14:02:38Z</time>
      </trkpt>
      <trkpt lat="45.94009833" lon="17.63870333">
        <ele>87.6</ele>
        <time>2025-07-22T14:02:40Z</time>
      </trkpt>
      <trkpt lat="45.94000833" lon="17.63882833">
        <ele>88.2</ele>
        <time>2025-07-22T14:02:42Z</time>
      </trkpt>
      <trkpt lat="45.93991333" lon="17.63893333">
        <ele>89</ele>
        <time>2025-07-22T14:02:44Z</time>
      </trkpt>
      <trkpt lat="45.93980333" lon="17.63904167">
        <ele>90.7</ele>
        <time>2025-07-22T14:02:46Z</time>
      </trkpt>
      <trkpt lat="45.93969" lon="17.639145">
        <ele>94.3</ele>
        <time>2025-07-22T14:02:48Z</time>
      </trkpt>
      <trkpt lat="45.93960667" lon="17.63924667">
        <ele>97.6</ele>
        <time>2025-07-22T14:02:50Z</time>
      </trkpt>
      <trkpt lat="45.93954" lon="17.639335">
        <ele>97.6</ele>
        <time>2025-07-22T14:02:52Z</time>
      </trkpt>
      <trkpt lat="45.93945833" lon="17.63942333">
        <ele>96.7</ele>
        <time>2025-07-22T14:02:54Z</time>
      </trkpt>
      <trkpt lat="45.93934667" lon="17.63953667">
        <ele>97.8</ele>
        <time>2025-07-22T14:02:56Z</time>
      </trkpt>
      <trkpt lat="45.93928167" lon="17.63963333">
        <ele>96.6</ele>
        <time>2025-07-22T14:02:58Z</time>
      </trkpt>
      <trkpt lat="45.939205" lon="17.63973167">
        <ele>95.5</ele>
        <time>2025-07-22T14:03:00Z</time>
      </trkpt>
      <trkpt lat="45.93913833" lon="17.63982667">
        <ele>93.3</ele>
        <time>2025-07-22T14:03:02Z</time>
      </trkpt>
      <trkpt lat="45.93905833" lon="17.63994">
        <ele>93.2</ele>
        <time>2025-07-22T14:03:04Z</time>
      </trkpt>
      <trkpt lat="45.93897" lon="17.64005167">
        <ele>93.7</ele>
        <time>2025-07-22T14:03:06Z</time>
      </trkpt>
      <trkpt lat="45.93888167" lon="17.64016">
        <ele>93.6</ele>
        <time>2025-07-22T14:03:08Z</time>
      </trkpt>
      <trkpt lat="45.93879167" lon="17.64027167">
        <ele>93.5</ele>
        <time>2025-07-22T14:03:10Z</time>
      </trkpt>
      <trkpt lat="45.93868" lon="17.64040833">
        <ele>94.5</ele>
        <time>2025-07-22T14:03:12Z</time>
      </trkpt>
      <trkpt lat="45.93858833" lon="17.64052833">
        <ele>95.2</ele>
        <time>2025-07-22T14:03:14Z</time>
      </trkpt>
      <trkpt lat="45.93849" lon="17.64064833">
        <ele>96.7</ele>
        <time>2025-07-22T14:03:16Z</time>
      </trkpt>
      <trkpt lat="45.93838667" lon="17.64078">
        <ele>98.7</ele>
        <time>2025-07-22T14:03:18Z</time>
      </trkpt>
      <trkpt lat="45.93828833" lon="17.64091333">
        <ele>101.4</ele>
        <time>2025-07-22T14:03:20Z</time>
      </trkpt>
      <trkpt lat="45.93819333" lon="17.64104333">
        <ele>103.5</ele>
        <time>2025-07-22T14:03:22Z</time>
      </trkpt>
      <trkpt lat="45.93810167" lon="17.64117333">
        <ele>105.5</ele>
        <time>2025-07-22T14:03:24Z</time>
      </trkpt>
      <trkpt lat="45.93802167" lon="17.64130667">
        <ele>107</ele>
        <time>2025-07-22T14:03:26Z</time>
      </trkpt>
      <trkpt lat="45.93793667" lon="17.64143167">
        <ele>108.3</ele>
        <time>2025-07-22T14:03:28Z</time>
      </trkpt>
      <trkpt lat="45.93784833" lon="17.64155">
        <ele>109.3</ele>
        <time>2025-07-22T14:03:30Z</time>
      </trkpt>
      <trkpt lat="45.93777" lon="17.641665">
        <ele>110.5</ele>
        <time>2025-07-22T14:03:32Z</time>
      </trkpt>
      <trkpt lat="45.93770167" lon="17.64177667">
        <ele>111.4</ele>
        <time>2025-07-22T14:03:34Z</time>
      </trkpt>
      <trkpt lat="45.93763667" lon="17.64188667">
        <ele>112.3</ele>
        <time>2025-07-22T14:03:36Z</time>
      </trkpt>
      <trkpt lat="45.93758" lon="17.64199667">
        <ele>113.3</ele>
        <time>2025-07-22T14:03:38Z</time>
      </trkpt>
      <trkpt lat="45.93752" lon="17.64209833">
        <ele>114.5</ele>
        <time>2025-07-22T14:03:40Z</time>
      </trkpt>
      <trkpt lat="45.93744667" lon="17.64219167">
        <ele>115.7</ele>
        <time>2025-07-22T14:03:42Z</time>
      </trkpt>
      <trkpt lat="45.93735667" lon="17.64232667">
        <ele>116.3</ele>
        <time>2025-07-22T14:03:45Z</time>
      </trkpt>
      <trkpt lat="45.93727667" lon="17.64241333">
        <ele>117.5</ele>
        <time>2025-07-22T14:03:48Z</time>
      </trkpt>
      <trkpt lat="45.93719" lon="17.64253333">
        <ele>118.1</ele>
        <time>2025-07-22T14:03:51Z</time>
      </trkpt>
      <trkpt lat="45.937105" lon="17.64263333">
        <ele>118.5</ele>
        <time>2025-07-22T14:03:54Z</time>
      </trkpt>
      <trkpt lat="45.93703167" lon="17.64272833">
        <ele>118.6</ele>
        <time>2025-07-22T14:03:57Z</time>
      </trkpt>
      <trkpt lat="45.93694167" lon="17.642865">
        <ele>117.3</ele>
        <time>2025-07-22T14:04:01Z</time>
      </trkpt>
      <trkpt lat="45.93685167" lon="17.64299333">
        <ele>116.7</ele>
        <time>2025-07-22T14:04:04Z</time>
      </trkpt>
      <trkpt lat="45.93675333" lon="17.64312667">
        <ele>114.2</ele>
        <time>2025-07-22T14:04:07Z</time>
      </trkpt>
      <trkpt lat="45.936675" lon="17.643235">
        <ele>112.1</ele>
        <time>2025-07-22T14:04:09Z</time>
      </trkpt>
      <trkpt lat="45.93658667" lon="17.64332833">
        <ele>110.2</ele>
        <time>2025-07-22T14:04:11Z</time>
      </trkpt>
      <trkpt lat="45.93647" lon="17.64342833">
        <ele>108.4</ele>
        <time>2025-07-22T14:04:13Z</time>
      </trkpt>
      <trkpt lat="45.93638667" lon="17.64352333">
        <ele>107.2</ele>
        <time>2025-07-22T14:04:15Z</time>
      </trkpt>
      <trkpt lat="45.93627833" lon="17.64365833">
        <ele>104.6</ele>
        <time>2025-07-22T14:04:17Z</time>
      </trkpt>
      <trkpt lat="45.93620167" lon="17.64375333">
        <ele>101</ele>
        <time>2025-07-22T14:04:20Z</time>
      </trkpt>
      <trkpt lat="45.93611833" lon="17.643845">
        <ele>98</ele>
        <time>2025-07-22T14:04:23Z</time>
      </trkpt>
      <trkpt lat="45.93602167" lon="17.64393667">
        <ele>95.1</ele>
        <time>2025-07-22T14:04:26Z</time>
      </trkpt>
      <trkpt lat="45.93592" lon="17.64405167">
        <ele>93.3</ele>
        <time>2025-07-22T14:04:29Z</time>
      </trkpt>
      <trkpt lat="45.93585667" lon="17.64416167">
        <ele>91.6</ele>
        <time>2025-07-22T14:04:31Z</time>
      </trkpt>
      <trkpt lat="45.93578833" lon="17.64426833">
        <ele>90.6</ele>
        <time>2025-07-22T14:04:33Z</time>
      </trkpt>
      <trkpt lat="45.935725" lon="17.64437167">
        <ele>89.8</ele>
        <time>2025-07-22T14:04:35Z</time>
      </trkpt>
      <trkpt lat="45.93565667" lon="17.64448833">
        <ele>89.2</ele>
        <time>2025-07-22T14:04:37Z</time>
      </trkpt>
      <trkpt lat="45.935585" lon="17.64461333">
        <ele>88.4</ele>
        <time>2025-07-22T14:04:39Z</time>
      </trkpt>
      <trkpt lat="45.93551167" lon="17.64475833">
        <ele>87.9</ele>
        <time>2025-07-22T14:04:41Z</time>
      </trkpt>
      <trkpt lat="45.935445" lon="17.64489667">
        <ele>87.2</ele>
        <time>2025-07-22T14:04:43Z</time>
      </trkpt>
      <trkpt lat="45.93536667" lon="17.645015">
        <ele>86.1</ele>
        <time>2025-07-22T14:04:45Z</time>
      </trkpt>
      <trkpt lat="45.935285" lon="17.64511667">
        <ele>85.2</ele>
        <time>2025-07-22T14:04:47Z</time>
      </trkpt>
      <trkpt lat="45.93518167" lon="17.64523667">
        <ele>84.8</ele>
        <time>2025-07-22T14:04:49Z</time>
      </trkpt>
      <trkpt lat="45.93508833" lon="17.645355">
        <ele>85.4</ele>
        <time>2025-07-22T14:04:51Z</time>
      </trkpt>
      <trkpt lat="45.93496833" lon="17.64547833">
        <ele>88.7</ele>
        <time>2025-07-22T14:04:53Z</time>
      </trkpt>
      <trkpt lat="45.93486667" lon="17.64561167">
        <ele>91.9</ele>
        <time>2025-07-22T14:04:55Z</time>
      </trkpt>
      <trkpt lat="45.93473333" lon="17.645755">
        <ele>100.6</ele>
        <time>2025-07-22T14:04:57Z</time>
      </trkpt>
      <trkpt lat="45.93461667" lon="17.64587">
        <ele>109.2</ele>
        <time>2025-07-22T14:04:59Z</time>
      </trkpt>
      <trkpt lat="45.93449" lon="17.64596">
        <ele>118.2</ele>
        <time>2025-07-22T14:05:01Z</time>
      </trkpt>
      <trkpt lat="45.93439" lon="17.646015">
        <ele>121.8</ele>
        <time>2025-07-22T14:05:03Z</time>
      </trkpt>
      <trkpt lat="45.93424" lon="17.64610333">
        <ele>132</ele>
        <time>2025-07-22T14:05:05Z</time>
      </trkpt>
      <trkpt lat="45.93412667" lon="17.64616833">
        <ele>138</ele>
        <time>2025-07-22T14:05:07Z</time>
      </trkpt>
      <trkpt lat="45.93402" lon="17.64621833">
        <ele>142.8</ele>
        <time>2025-07-22T14:05:09Z</time>
      </trkpt>
      <trkpt lat="45.933915" lon="17.64625333">
        <ele>146.3</ele>
        <time>2025-07-22T14:05:11Z</time>
      </trkpt>
      <trkpt lat="45.93382167" lon="17.64627167">
        <ele>148</ele>
        <time>2025-07-22T14:05:13Z</time>
      </trkpt>
      <trkpt lat="45.93373" lon="17.64627833">
        <ele>148.8</ele>
        <time>2025-07-22T14:05:15Z</time>
      </trkpt>
      <trkpt lat="45.93361167" lon="17.646305">
        <ele>148.8</ele>
        <time>2025-07-22T14:05:18Z</time>
      </trkpt>
      <trkpt lat="45.93351" lon="17.64631333">
        <ele>149.9</ele>
        <time>2025-07-22T14:05:21Z</time>
      </trkpt>
      <trkpt lat="45.933415" lon="17.64631667">
        <ele>150.6</ele>
        <time>2025-07-22T14:05:24Z</time>
      </trkpt>
      <trkpt lat="45.933305" lon="17.64632">
        <ele>150.2</ele>
        <time>2025-07-22T14:05:27Z</time>
      </trkpt>
      <trkpt lat="45.93318667" lon="17.64633167">
        <ele>150.8</ele>
        <time>2025-07-22T14:05:30Z</time>
      </trkpt>
      <trkpt lat="45.93307333" lon="17.64632">
        <ele>151.1</ele>
        <time>2025-07-22T14:05:33Z</time>
      </trkpt>
      <trkpt lat="45.93296333" lon="17.64631667">
        <ele>150.9</ele>
        <time>2025-07-22T14:05:36Z</time>
      </trkpt>
      <trkpt lat="45.93284833" lon="17.64631333">
        <ele>151.7</ele>
        <time>2025-07-22T14:05:39Z</time>
      </trkpt>
      <trkpt lat="45.93273833" lon="17.64630667">
        <ele>151.7</ele>
        <time>2025-07-22T14:05:42Z</time>
      </trkpt>
      <trkpt lat="45.93264" lon="17.64629833">
        <ele>151</ele>
        <time>2025-07-22T14:05:45Z</time>
      </trkpt>
      <trkpt lat="45.93253167" lon="17.64630167">
        <ele>150.6</ele>
        <time>2025-07-22T14:05:49Z</time>
      </trkpt>
      <trkpt lat="45.93244" lon="17.64630667">
        <ele>150.2</ele>
        <time>2025-07-22T14:05:54Z</time>
      </trkpt>
      <trkpt lat="45.932325" lon="17.646285">
        <ele>149</ele>
        <time>2025-07-22T14:06:04Z</time>
      </trkpt>
      <trkpt lat="45.932215" lon="17.646265">
        <ele>148</ele>
        <time>2025-07-22T14:06:07Z</time>
      </trkpt>
      <trkpt lat="45.93208167" lon="17.646265">
        <ele>146</ele>
        <time>2025-07-22T14:06:10Z</time>
      </trkpt>
      <trkpt lat="45.931975" lon="17.64626333">
        <ele>145.3</ele>
        <time>2025-07-22T14:06:12Z</time>
      </trkpt>
      <trkpt lat="45.931865" lon="17.64625833">
        <ele>145.2</ele>
        <time>2025-07-22T14:06:14Z</time>
      </trkpt>
      <trkpt lat="45.93176167" lon="17.64625167">
        <ele>145.3</ele>
        <time>2025-07-22T14:06:16Z</time>
      </trkpt>
      <trkpt lat="45.931645" lon="17.64625">
        <ele>145.1</ele>
        <time>2025-07-22T14:06:19Z</time>
      </trkpt>
      <trkpt lat="45.93156333" lon="17.646195">
        <ele>146.9</ele>
        <time>2025-07-22T14:06:27Z</time>
      </trkpt>
    </trkseg>
  </trk>
</gpx>