<?xml version='1.0' encoding='UTF-8' standalone='yes' ?>
<gpx xmlns="http://www.topografix.com/GPX/1/1" xmlns:geotracker="http://ilyabogdanovich.com/gpx/extensions/geotracker" xmlns:xsi="http://www.w3.org/2001/XMLSchema-instance" xsi:schemaLocation="http://www.topografix.com/GPX/1/1 http://www.topografix.com/GPX/1/1/gpx.xsd" version="1.1" creator="Recorded in Geo Tracker for Android from Ilya Bogdanovich">
  <metadata>
    <name>f_0722_04</name>
    <author>
      <name>Recorded in Geo Tracker for Android from Ilya Bogdanovich</name>
      <link href="https://play.google.com/store/apps/details?id=com.ilyabogdanovich.geotracker" />
    </author>
    <link href="https://play.google.com/store/apps/details?id=com.ilyabogdanovich.geotracker" />
    <time>2025-07-22T12:35:46Z</time>
  </metadata>
  <trk>
    <name>f_0722_04</name>
    <src>Recorded in Geo Tracker for Android from Ilya Bogdanovich</src>
    <link href="https://play.google.com/store/apps/details?id=com.ilyabogdanovich.geotracker" />
    <extensions>
      <geotracker:meta>
        <geotracker:length>232.14</geotracker:length>
        <geotracker:duration>107114</geotracker:duration>
        <geotracker:creationtime>2025-07-22T12:35:46Z</geotracker:creationtime>
        <geotracker:activity>0</geotracker:activity>
      </geotracker:meta>
    </extensions>
    <trkseg>
      <trkpt lat="45.95537667" lon="17.61684167">
        <ele>157.9</ele>
        <time>2025-07-22T12:35:52Z</time>
      </trkpt>
      <trkpt lat="45.955265" lon="17.61682667">
        <ele>156.3</ele>
        <time>2025-07-22T12:36:01Z</time>
      </trkpt>
      <trkpt lat="45.955165" lon="17.61681">
        <ele>155.5</ele>
        <time>2025-07-22T12:36:06Z</time>
      </trkpt>
      <trkpt lat="45.95506167" lon="17.616795">
        <ele>155.8</ele>
        <time>2025-07-22T12:36:10Z</time>
      </trkpt>
      <trkpt lat="45.95496333" lon="17.61679167">
        <ele>156.4</ele>
        <time>2025-07-22T12:36:14Z</time>
      </trkpt>
      <trkpt lat="45.954865" lon="17.616795">
        <ele>156</ele>
        <time>2025-07-22T12:36:18Z</time>
      </trkpt>
      <trkpt lat="45.95475167" lon="17.61679833">
        <ele>154</ele>
        <time>2025-07-22T12:36:22Z</time>
      </trkpt>
      <trkpt lat="45.95464" lon="17.616805">
        <ele>152.9</ele>
        <time>2025-07-22T12:36:26Z</time>
      </trkpt>
      <trkpt lat="45.95453" lon="17.61679667">
        <ele>152.5</ele>
        <time>2025-07-22T12:36:30Z</time>
      </trkpt>
      <trkpt lat="45.95441833" lon="17.61678333">
        <ele>153.5</ele>
        <time>2025-07-22T12:36:34Z</time>
      </trkpt>
      <trkpt lat="45.95432167" lon="17.61678">
        <ele>154.2</ele>
        <time>2025-07-22T12:36:37Z</time>
      </trkpt>
      <trkpt lat="45.95420167" lon="17.61677667">
        <ele>154.5</ele>
        <time>2025-07-22T12:36:41Z</time>
      </trkpt>
      <trkpt lat="45.95411" lon="17.616775">
        <ele>154</ele>
        <time>2025-07-22T12:36:44Z</time>
      </trkpt>
      <trkpt lat="45.95401667" lon="17.61677667">
        <ele>152.9</ele>
        <time>2025-07-22T12:36:47Z</time>
      </trkpt>
      <trkpt lat="45.95391667" lon="17.61678667">
        <ele>153.5</ele>
        <time>2025-07-22T12:36:50Z</time>
      </trkpt>
      <trkpt lat="45.95381833" lon="17.61678667">
        <ele>153.7</ele>
        <time>2025-07-22T12:36:53Z</time>
      </trkpt>
      <trkpt lat="45.95371667" lon="17.61678167">
        <ele>153.3</ele>
        <time>2025-07-22T12:36:56Z</time>
      </trkpt>
      <trkpt lat="45.95362667" lon="17.61677167">
        <ele>152.1</ele>
        <time>2025-07-22T12:36:59Z</time>
      </trkpt>
      <trkpt lat="45.95350833" lon="17.61676167">
        <ele>150.5</ele>
        <time>2025-07-22T12:37:03Z</time>
      </trkpt>
      <trkpt lat="45.95339667" lon="17.61673667">
        <ele>150.4</ele>
        <time>2025-07-22T12:37:07Z</time>
      </trkpt>
      <trkpt lat="45.95333833" lon="17.61661333">
        <ele>152.1</ele>
        <time>2025-07-22T12:37:13Z</time>
      </trkpt>
    </trkseg>
  </trk>
</gpx>