<?xml version='1.0' encoding='UTF-8' standalone='yes' ?>
<gpx xmlns="http://www.topografix.com/GPX/1/1" xmlns:geotracker="http://ilyabogdanovich.com/gpx/extensions/geotracker" xmlns:xsi="http://www.w3.org/2001/XMLSchema-instance" xsi:schemaLocation="http://www.topografix.com/GPX/1/1 http://www.topografix.com/GPX/1/1/gpx.xsd" version="1.1" creator="Aufgezeichnet mit Geo Tracker für Android von Ilya Bogdanovich">
  <metadata>
    <name>f_0723_01</name>
    <author>
      <name>Aufgezeichnet mit Geo Tracker für Android von Ilya Bogdanovich</name>
      <link href="https://play.google.com/store/apps/details?id=com.ilyabogdanovich.geotracker" />
    </author>
    <link href="https://play.google.com/store/apps/details?id=com.ilyabogdanovich.geotracker" />
    <time>2025-07-23T06:17:48Z</time>
  </metadata>
  <trk>
    <name>f_0723_01</name>
    <src>Aufgezeichnet mit Geo Tracker für Android von Ilya Bogdanovich</src>
    <link href="https://play.google.com/store/apps/details?id=com.ilyabogdanovich.geotracker" />
    <extensions>
      <geotracker:meta>
        <geotracker:length>2208.19</geotracker:length>
        <geotracker:duration>521418</geotracker:duration>
        <geotracker:creationtime>2025-07-23T06:17:48Z</geotracker:creationtime>
        <geotracker:activity>0</geotracker:activity>
      </geotracker:meta>
    </extensions>
    <trkseg>
      <trkpt lat="45.96163807" lon="17.46696973">
        <ele>150</ele>
        <time>2025-07-23T06:18:01Z</time>
      </trkpt>
      <trkpt lat="45.96155735" lon="17.46704567">
        <ele>144</ele>
        <time>2025-07-23T06:18:19Z</time>
      </trkpt>
      <trkpt lat="45.96145899" lon="17.466987">
        <ele>144</ele>
        <time>2025-07-23T06:18:33Z</time>
      </trkpt>
      <trkpt lat="45.9614317" lon="17.46683814">
        <ele>142</ele>
        <time>2025-07-23T06:18:38Z</time>
      </trkpt>
      <trkpt lat="45.96143078" lon="17.46669129">
        <ele>142</ele>
        <time>2025-07-23T06:18:44Z</time>
      </trkpt>
      <trkpt lat="45.96139646" lon="17.46654477">
        <ele>141</ele>
        <time>2025-07-23T06:18:49Z</time>
      </trkpt>
      <trkpt lat="45.96133816" lon="17.46642055">
        <ele>141</ele>
        <time>2025-07-23T06:18:53Z</time>
      </trkpt>
      <trkpt lat="45.96129843" lon="17.46626993">
        <ele>143</ele>
        <time>2025-07-23T06:18:57Z</time>
      </trkpt>
      <trkpt lat="45.96129064" lon="17.46610061">
        <ele>141</ele>
        <time>2025-07-23T06:19:00Z</time>
      </trkpt>
      <trkpt lat="45.96127035" lon="17.4659064">
        <ele>138</ele>
        <time>2025-07-23T06:19:03Z</time>
      </trkpt>
      <trkpt lat="45.96124701" lon="17.46576584">
        <ele>138</ele>
        <time>2025-07-23T06:19:05Z</time>
      </trkpt>
      <trkpt lat="45.96124143" lon="17.46563466">
        <ele>137</ele>
        <time>2025-07-23T06:19:07Z</time>
      </trkpt>
      <trkpt lat="45.96122886" lon="17.46545454">
        <ele>136</ele>
        <time>2025-07-23T06:19:10Z</time>
      </trkpt>
      <trkpt lat="45.96121625" lon="17.46527399">
        <ele>136</ele>
        <time>2025-07-23T06:19:13Z</time>
      </trkpt>
      <trkpt lat="45.96120497" lon="17.46508087">
        <ele>136</ele>
        <time>2025-07-23T06:19:16Z</time>
      </trkpt>
      <trkpt lat="45.96118988" lon="17.46489228">
        <ele>136</ele>
        <time>2025-07-23T06:19:19Z</time>
      </trkpt>
      <trkpt lat="45.96118238" lon="17.46469866">
        <ele>136</ele>
        <time>2025-07-23T06:19:22Z</time>
      </trkpt>
      <trkpt lat="45.96117978" lon="17.46451518">
        <ele>134</ele>
        <time>2025-07-23T06:19:25Z</time>
      </trkpt>
      <trkpt lat="45.96117228" lon="17.46433128">
        <ele>132</ele>
        <time>2025-07-23T06:19:28Z</time>
      </trkpt>
      <trkpt lat="45.96116696" lon="17.46414989">
        <ele>131</ele>
        <time>2025-07-23T06:19:31Z</time>
      </trkpt>
      <trkpt lat="45.96116591" lon="17.46395627">
        <ele>130</ele>
        <time>2025-07-23T06:19:34Z</time>
      </trkpt>
      <trkpt lat="45.9611621" lon="17.46382426">
        <ele>130</ele>
        <time>2025-07-23T06:19:36Z</time>
      </trkpt>
      <trkpt lat="45.96113917" lon="17.46367145">
        <ele>130</ele>
        <time>2025-07-23T06:19:39Z</time>
      </trkpt>
      <trkpt lat="45.96112396" lon="17.46350541">
        <ele>129</ele>
        <time>2025-07-23T06:19:42Z</time>
      </trkpt>
      <trkpt lat="45.96113427" lon="17.46331355">
        <ele>130</ele>
        <time>2025-07-23T06:19:45Z</time>
      </trkpt>
      <trkpt lat="45.961145" lon="17.46313719">
        <ele>129</ele>
        <time>2025-07-23T06:19:48Z</time>
      </trkpt>
      <trkpt lat="45.9611538" lon="17.46295648">
        <ele>130</ele>
        <time>2025-07-23T06:19:51Z</time>
      </trkpt>
      <trkpt lat="45.9611543" lon="17.46277149">
        <ele>128</ele>
        <time>2025-07-23T06:19:54Z</time>
      </trkpt>
      <trkpt lat="45.96111646" lon="17.46264291">
        <ele>128</ele>
        <time>2025-07-23T06:19:57Z</time>
      </trkpt>
      <trkpt lat="45.96101927" lon="17.46256513">
        <ele>130</ele>
        <time>2025-07-23T06:20:01Z</time>
      </trkpt>
      <trkpt lat="45.96090926" lon="17.46253805">
        <ele>132</ele>
        <time>2025-07-23T06:20:04Z</time>
      </trkpt>
      <trkpt lat="45.96077976" lon="17.46251567">
        <ele>132</ele>
        <time>2025-07-23T06:20:07Z</time>
      </trkpt>
      <trkpt lat="45.96065382" lon="17.46248072">
        <ele>133</ele>
        <time>2025-07-23T06:20:10Z</time>
      </trkpt>
      <trkpt lat="45.96054272" lon="17.46246672">
        <ele>133</ele>
        <time>2025-07-23T06:20:13Z</time>
      </trkpt>
      <trkpt lat="45.96042608" lon="17.46246144">
        <ele>134</ele>
        <time>2025-07-23T06:20:16Z</time>
      </trkpt>
      <trkpt lat="45.96033325" lon="17.46244811">
        <ele>134</ele>
        <time>2025-07-23T06:20:18Z</time>
      </trkpt>
      <trkpt lat="45.96020468" lon="17.46243387">
        <ele>133</ele>
        <time>2025-07-23T06:20:21Z</time>
      </trkpt>
      <trkpt lat="45.96010954" lon="17.46240662">
        <ele>132</ele>
        <time>2025-07-23T06:20:24Z</time>
      </trkpt>
      <trkpt lat="45.96001939" lon="17.46238726">
        <ele>130</ele>
        <time>2025-07-23T06:20:26Z</time>
      </trkpt>
      <trkpt lat="45.95991164" lon="17.46239045">
        <ele>130</ele>
        <time>2025-07-23T06:20:29Z</time>
      </trkpt>
      <trkpt lat="45.95978881" lon="17.462386">
        <ele>130</ele>
        <time>2025-07-23T06:20:33Z</time>
      </trkpt>
      <trkpt lat="45.95967381" lon="17.46239422">
        <ele>130</ele>
        <time>2025-07-23T06:20:36Z</time>
      </trkpt>
      <trkpt lat="45.9595687" lon="17.46239145">
        <ele>130</ele>
        <time>2025-07-23T06:20:39Z</time>
      </trkpt>
      <trkpt lat="45.95945403" lon="17.46236731">
        <ele>130</ele>
        <time>2025-07-23T06:20:43Z</time>
      </trkpt>
      <trkpt lat="45.95937851" lon="17.46223656">
        <ele>131</ele>
        <time>2025-07-23T06:20:47Z</time>
      </trkpt>
      <trkpt lat="45.95933124" lon="17.46212063">
        <ele>130</ele>
        <time>2025-07-23T06:20:50Z</time>
      </trkpt>
      <trkpt lat="45.95928946" lon="17.46195878">
        <ele>130</ele>
        <time>2025-07-23T06:20:54Z</time>
      </trkpt>
      <trkpt lat="45.95925865" lon="17.46182031">
        <ele>129</ele>
        <time>2025-07-23T06:20:57Z</time>
      </trkpt>
      <trkpt lat="45.95923472" lon="17.46167715">
        <ele>129</ele>
        <time>2025-07-23T06:21:00Z</time>
      </trkpt>
      <trkpt lat="45.95921578" lon="17.46153206">
        <ele>128</ele>
        <time>2025-07-23T06:21:03Z</time>
      </trkpt>
      <trkpt lat="45.95919072" lon="17.4613557">
        <ele>130</ele>
        <time>2025-07-23T06:21:06Z</time>
      </trkpt>
      <trkpt lat="45.95916281" lon="17.46119787">
        <ele>130</ele>
        <time>2025-07-23T06:21:09Z</time>
      </trkpt>
      <trkpt lat="45.95915681" lon="17.46102512">
        <ele>130</ele>
        <time>2025-07-23T06:21:12Z</time>
      </trkpt>
      <trkpt lat="45.95915057" lon="17.46089076">
        <ele>131</ele>
        <time>2025-07-23T06:21:14Z</time>
      </trkpt>
      <trkpt lat="45.9591403" lon="17.46072622">
        <ele>132</ele>
        <time>2025-07-23T06:21:17Z</time>
      </trkpt>
      <trkpt lat="45.95912609" lon="17.46054769">
        <ele>134</ele>
        <time>2025-07-23T06:21:20Z</time>
      </trkpt>
      <trkpt lat="45.95912228" lon="17.46036504">
        <ele>134</ele>
        <time>2025-07-23T06:21:23Z</time>
      </trkpt>
      <trkpt lat="45.95912823" lon="17.46019229">
        <ele>136</ele>
        <time>2025-07-23T06:21:26Z</time>
      </trkpt>
      <trkpt lat="45.95910539" lon="17.46003396">
        <ele>136</ele>
        <time>2025-07-23T06:21:29Z</time>
      </trkpt>
      <trkpt lat="45.95907165" lon="17.45985291">
        <ele>136</ele>
        <time>2025-07-23T06:21:32Z</time>
      </trkpt>
      <trkpt lat="45.9590564" lon="17.45971595">
        <ele>135</ele>
        <time>2025-07-23T06:21:34Z</time>
      </trkpt>
      <trkpt lat="45.95905631" lon="17.45957145">
        <ele>135</ele>
        <time>2025-07-23T06:21:36Z</time>
      </trkpt>
      <trkpt lat="45.95904299" lon="17.45944136">
        <ele>135</ele>
        <time>2025-07-23T06:21:38Z</time>
      </trkpt>
      <trkpt lat="45.95903561" lon="17.4593023">
        <ele>136</ele>
        <time>2025-07-23T06:21:40Z</time>
      </trkpt>
      <trkpt lat="45.95902798" lon="17.45915352">
        <ele>135</ele>
        <time>2025-07-23T06:21:42Z</time>
      </trkpt>
      <trkpt lat="45.95901637" lon="17.45901749">
        <ele>135</ele>
        <time>2025-07-23T06:21:44Z</time>
      </trkpt>
      <trkpt lat="45.95901017" lon="17.45883954">
        <ele>135</ele>
        <time>2025-07-23T06:21:47Z</time>
      </trkpt>
      <trkpt lat="45.95898993" lon="17.45870861">
        <ele>134</ele>
        <time>2025-07-23T06:21:49Z</time>
      </trkpt>
      <trkpt lat="45.95899299" lon="17.4585393">
        <ele>134</ele>
        <time>2025-07-23T06:21:52Z</time>
      </trkpt>
      <trkpt lat="45.958981" lon="17.45837996">
        <ele>132</ele>
        <time>2025-07-23T06:21:55Z</time>
      </trkpt>
      <trkpt lat="45.95897245" lon="17.45821383">
        <ele>130</ele>
        <time>2025-07-23T06:21:58Z</time>
      </trkpt>
      <trkpt lat="45.95896156" lon="17.45805147">
        <ele>129</ele>
        <time>2025-07-23T06:22:01Z</time>
      </trkpt>
      <trkpt lat="45.95896445" lon="17.45787629">
        <ele>128</ele>
        <time>2025-07-23T06:22:04Z</time>
      </trkpt>
      <trkpt lat="45.95897065" lon="17.45769273">
        <ele>127</ele>
        <time>2025-07-23T06:22:07Z</time>
      </trkpt>
      <trkpt lat="45.95897606" lon="17.45755526">
        <ele>127</ele>
        <time>2025-07-23T06:22:09Z</time>
      </trkpt>
      <trkpt lat="45.95897924" lon="17.45742358">
        <ele>126</ele>
        <time>2025-07-23T06:22:11Z</time>
      </trkpt>
      <trkpt lat="45.95896671" lon="17.45727556">
        <ele>126</ele>
        <time>2025-07-23T06:22:13Z</time>
      </trkpt>
      <trkpt lat="45.95895837" lon="17.45713315">
        <ele>125</ele>
        <time>2025-07-23T06:22:15Z</time>
      </trkpt>
      <trkpt lat="45.95893603" lon="17.45699208">
        <ele>125</ele>
        <time>2025-07-23T06:22:17Z</time>
      </trkpt>
      <trkpt lat="45.95893088" lon="17.45681472">
        <ele>125</ele>
        <time>2025-07-23T06:22:19Z</time>
      </trkpt>
      <trkpt lat="45.95892128" lon="17.45664893">
        <ele>125</ele>
        <time>2025-07-23T06:22:21Z</time>
      </trkpt>
      <trkpt lat="45.95891684" lon="17.45649378">
        <ele>124</ele>
        <time>2025-07-23T06:22:23Z</time>
      </trkpt>
      <trkpt lat="45.95891219" lon="17.45633637">
        <ele>124</ele>
        <time>2025-07-23T06:22:25Z</time>
      </trkpt>
      <trkpt lat="45.95891177" lon="17.45619521">
        <ele>124</ele>
        <time>2025-07-23T06:22:27Z</time>
      </trkpt>
      <trkpt lat="45.95891491" lon="17.45606412">
        <ele>124</ele>
        <time>2025-07-23T06:22:29Z</time>
      </trkpt>
      <trkpt lat="45.95890862" lon="17.45593378">
        <ele>124</ele>
        <time>2025-07-23T06:22:31Z</time>
      </trkpt>
      <trkpt lat="45.95889852" lon="17.45575567">
        <ele>123</ele>
        <time>2025-07-23T06:22:34Z</time>
      </trkpt>
      <trkpt lat="45.95888821" lon="17.45561024">
        <ele>122</ele>
        <time>2025-07-23T06:22:36Z</time>
      </trkpt>
      <trkpt lat="45.95887417" lon="17.45541377">
        <ele>120</ele>
        <time>2025-07-23T06:22:39Z</time>
      </trkpt>
      <trkpt lat="45.95886726" lon="17.45528326">
        <ele>119</ele>
        <time>2025-07-23T06:22:41Z</time>
      </trkpt>
      <trkpt lat="45.95886391" lon="17.4551422">
        <ele>119</ele>
        <time>2025-07-23T06:22:43Z</time>
      </trkpt>
      <trkpt lat="45.95886512" lon="17.45499677">
        <ele>119</ele>
        <time>2025-07-23T06:22:45Z</time>
      </trkpt>
      <trkpt lat="45.95885666" lon="17.45484992">
        <ele>119</ele>
        <time>2025-07-23T06:22:47Z</time>
      </trkpt>
      <trkpt lat="45.95883905" lon="17.45472159">
        <ele>119</ele>
        <time>2025-07-23T06:22:49Z</time>
      </trkpt>
      <trkpt lat="45.9588246" lon="17.45458187">
        <ele>119</ele>
        <time>2025-07-23T06:22:51Z</time>
      </trkpt>
      <trkpt lat="45.95880921" lon="17.45443921">
        <ele>119</ele>
        <time>2025-07-23T06:22:53Z</time>
      </trkpt>
      <trkpt lat="45.95880016" lon="17.45429026">
        <ele>120</ele>
        <time>2025-07-23T06:22:55Z</time>
      </trkpt>
      <trkpt lat="45.9587759" lon="17.45412815">
        <ele>120</ele>
        <time>2025-07-23T06:22:57Z</time>
      </trkpt>
      <trkpt lat="45.95874115" lon="17.45399295">
        <ele>120</ele>
        <time>2025-07-23T06:22:59Z</time>
      </trkpt>
      <trkpt lat="45.95869899" lon="17.45386018">
        <ele>120</ele>
        <time>2025-07-23T06:23:01Z</time>
      </trkpt>
      <trkpt lat="45.95868323" lon="17.45369397">
        <ele>122</ele>
        <time>2025-07-23T06:23:03Z</time>
      </trkpt>
      <trkpt lat="45.95865059" lon="17.45354184">
        <ele>125</ele>
        <time>2025-07-23T06:23:05Z</time>
      </trkpt>
      <trkpt lat="45.95860248" lon="17.45340438">
        <ele>125</ele>
        <time>2025-07-23T06:23:07Z</time>
      </trkpt>
      <trkpt lat="45.95855428" lon="17.45328644">
        <ele>125</ele>
        <time>2025-07-23T06:23:09Z</time>
      </trkpt>
      <trkpt lat="45.95849636" lon="17.45315719">
        <ele>125</ele>
        <time>2025-07-23T06:23:11Z</time>
      </trkpt>
      <trkpt lat="45.95844133" lon="17.45302526">
        <ele>125</ele>
        <time>2025-07-23T06:23:13Z</time>
      </trkpt>
      <trkpt lat="45.95838287" lon="17.45289291">
        <ele>126</ele>
        <time>2025-07-23T06:23:15Z</time>
      </trkpt>
      <trkpt lat="45.95831066" lon="17.45276853">
        <ele>127</ele>
        <time>2025-07-23T06:23:17Z</time>
      </trkpt>
      <trkpt lat="45.95824616" lon="17.45264414">
        <ele>127</ele>
        <time>2025-07-23T06:23:19Z</time>
      </trkpt>
      <trkpt lat="45.95818631" lon="17.4525226">
        <ele>127</ele>
        <time>2025-07-23T06:23:21Z</time>
      </trkpt>
      <trkpt lat="45.95812873" lon="17.45241263">
        <ele>126</ele>
        <time>2025-07-23T06:23:23Z</time>
      </trkpt>
      <trkpt lat="45.95805966" lon="17.45231247">
        <ele>125</ele>
        <time>2025-07-23T06:23:25Z</time>
      </trkpt>
      <trkpt lat="45.95798205" lon="17.45221205">
        <ele>125</ele>
        <time>2025-07-23T06:23:27Z</time>
      </trkpt>
      <trkpt lat="45.95792694" lon="17.45209378">
        <ele>126</ele>
        <time>2025-07-23T06:23:29Z</time>
      </trkpt>
      <trkpt lat="45.95787254" lon="17.45197501">
        <ele>126</ele>
        <time>2025-07-23T06:23:31Z</time>
      </trkpt>
      <trkpt lat="45.9578121" lon="17.45185917">
        <ele>126</ele>
        <time>2025-07-23T06:23:33Z</time>
      </trkpt>
      <trkpt lat="45.95774333" lon="17.45175549">
        <ele>126</ele>
        <time>2025-07-23T06:23:35Z</time>
      </trkpt>
      <trkpt lat="45.95767116" lon="17.45166211">
        <ele>127</ele>
        <time>2025-07-23T06:23:37Z</time>
      </trkpt>
      <trkpt lat="45.95759267" lon="17.45155592">
        <ele>128</ele>
        <time>2025-07-23T06:23:39Z</time>
      </trkpt>
      <trkpt lat="45.9575008" lon="17.45145198">
        <ele>129</ele>
        <time>2025-07-23T06:23:41Z</time>
      </trkpt>
      <trkpt lat="45.95740198" lon="17.45134989">
        <ele>129</ele>
        <time>2025-07-23T06:23:43Z</time>
      </trkpt>
      <trkpt lat="45.95732009" lon="17.45124771">
        <ele>130</ele>
        <time>2025-07-23T06:23:45Z</time>
      </trkpt>
      <trkpt lat="45.9572366" lon="17.45115157">
        <ele>130</ele>
        <time>2025-07-23T06:23:47Z</time>
      </trkpt>
      <trkpt lat="45.95715295" lon="17.45105652">
        <ele>130</ele>
        <time>2025-07-23T06:23:49Z</time>
      </trkpt>
      <trkpt lat="45.95707202" lon="17.45097245">
        <ele>130</ele>
        <time>2025-07-23T06:23:51Z</time>
      </trkpt>
      <trkpt lat="45.95699302" lon="17.45088452">
        <ele>130</ele>
        <time>2025-07-23T06:23:53Z</time>
      </trkpt>
      <trkpt lat="45.95690983" lon="17.45079651">
        <ele>130</ele>
        <time>2025-07-23T06:23:55Z</time>
      </trkpt>
      <trkpt lat="45.95683293" lon="17.45071446">
        <ele>130</ele>
        <time>2025-07-23T06:23:57Z</time>
      </trkpt>
      <trkpt lat="45.95676554" lon="17.45062695">
        <ele>130</ele>
        <time>2025-07-23T06:23:59Z</time>
      </trkpt>
      <trkpt lat="45.95668314" lon="17.45053609">
        <ele>130</ele>
        <time>2025-07-23T06:24:01Z</time>
      </trkpt>
      <trkpt lat="45.9566137" lon="17.45043802">
        <ele>130</ele>
        <time>2025-07-23T06:24:03Z</time>
      </trkpt>
      <trkpt lat="45.95654174" lon="17.45033819">
        <ele>131</ele>
        <time>2025-07-23T06:24:05Z</time>
      </trkpt>
      <trkpt lat="45.95647129" lon="17.45024943">
        <ele>130</ele>
        <time>2025-07-23T06:24:07Z</time>
      </trkpt>
      <trkpt lat="45.95639535" lon="17.45015195">
        <ele>131</ele>
        <time>2025-07-23T06:24:09Z</time>
      </trkpt>
      <trkpt lat="45.95632582" lon="17.45005011">
        <ele>130</ele>
        <time>2025-07-23T06:24:11Z</time>
      </trkpt>
      <trkpt lat="45.9562532" lon="17.44995221">
        <ele>130</ele>
        <time>2025-07-23T06:24:13Z</time>
      </trkpt>
      <trkpt lat="45.95617918" lon="17.44985506">
        <ele>130</ele>
        <time>2025-07-23T06:24:15Z</time>
      </trkpt>
      <trkpt lat="45.95609876" lon="17.44975783">
        <ele>131</ele>
        <time>2025-07-23T06:24:17Z</time>
      </trkpt>
      <trkpt lat="45.95601745" lon="17.44964769">
        <ele>131</ele>
        <time>2025-07-23T06:24:19Z</time>
      </trkpt>
      <trkpt lat="45.95593954" lon="17.449542">
        <ele>130</ele>
        <time>2025-07-23T06:24:21Z</time>
      </trkpt>
      <trkpt lat="45.95585577" lon="17.44944426">
        <ele>130</ele>
        <time>2025-07-23T06:24:23Z</time>
      </trkpt>
      <trkpt lat="45.95577417" lon="17.44935726">
        <ele>130</ele>
        <time>2025-07-23T06:24:25Z</time>
      </trkpt>
      <trkpt lat="45.95568272" lon="17.44928568">
        <ele>130</ele>
        <time>2025-07-23T06:24:27Z</time>
      </trkpt>
      <trkpt lat="45.95556353" lon="17.44918761">
        <ele>129</ele>
        <time>2025-07-23T06:24:30Z</time>
      </trkpt>
      <trkpt lat="45.95547904" lon="17.44911594">
        <ele>129</ele>
        <time>2025-07-23T06:24:32Z</time>
      </trkpt>
      <trkpt lat="45.95538714" lon="17.44903305">
        <ele>129</ele>
        <time>2025-07-23T06:24:34Z</time>
      </trkpt>
      <trkpt lat="45.95529975" lon="17.44896381">
        <ele>129</ele>
        <time>2025-07-23T06:24:36Z</time>
      </trkpt>
      <trkpt lat="45.95521581" lon="17.44890137">
        <ele>129</ele>
        <time>2025-07-23T06:24:38Z</time>
      </trkpt>
      <trkpt lat="45.95513203" lon="17.44884973">
        <ele>128</ele>
        <time>2025-07-23T06:24:40Z</time>
      </trkpt>
      <trkpt lat="45.95504737" lon="17.44877949">
        <ele>129</ele>
        <time>2025-07-23T06:24:42Z</time>
      </trkpt>
      <trkpt lat="45.95495455" lon="17.44872124">
        <ele>129</ele>
        <time>2025-07-23T06:24:44Z</time>
      </trkpt>
      <trkpt lat="45.9548641" lon="17.44866659">
        <ele>129</ele>
        <time>2025-07-23T06:24:46Z</time>
      </trkpt>
      <trkpt lat="45.95477689" lon="17.4486059">
        <ele>129</ele>
        <time>2025-07-23T06:24:48Z</time>
      </trkpt>
      <trkpt lat="45.95467685" lon="17.44855167">
        <ele>129</ele>
        <time>2025-07-23T06:24:50Z</time>
      </trkpt>
      <trkpt lat="45.95458587" lon="17.44848604">
        <ele>130</ele>
        <time>2025-07-23T06:24:52Z</time>
      </trkpt>
      <trkpt lat="45.95447967" lon="17.44842544">
        <ele>130</ele>
        <time>2025-07-23T06:24:54Z</time>
      </trkpt>
      <trkpt lat="45.9543795" lon="17.44835135">
        <ele>130</ele>
        <time>2025-07-23T06:24:56Z</time>
      </trkpt>
      <trkpt lat="45.95428567" lon="17.44828236">
        <ele>130</ele>
        <time>2025-07-23T06:24:58Z</time>
      </trkpt>
      <trkpt lat="45.95419326" lon="17.44821941">
        <ele>130</ele>
        <time>2025-07-23T06:25:00Z</time>
      </trkpt>
      <trkpt lat="45.95411543" lon="17.44814347">
        <ele>130</ele>
        <time>2025-07-23T06:25:02Z</time>
      </trkpt>
      <trkpt lat="45.95402881" lon="17.44807064">
        <ele>130</ele>
        <time>2025-07-23T06:25:04Z</time>
      </trkpt>
      <trkpt lat="45.95393786" lon="17.44800031">
        <ele>130</ele>
        <time>2025-07-23T06:25:06Z</time>
      </trkpt>
      <trkpt lat="45.95384918" lon="17.44794516">
        <ele>130</ele>
        <time>2025-07-23T06:25:08Z</time>
      </trkpt>
      <trkpt lat="45.95375757" lon="17.44788808">
        <ele>131</ele>
        <time>2025-07-23T06:25:10Z</time>
      </trkpt>
      <trkpt lat="45.95366532" lon="17.44783745">
        <ele>131</ele>
        <time>2025-07-23T06:25:12Z</time>
      </trkpt>
      <trkpt lat="45.95358318" lon="17.44777962">
        <ele>131</ele>
        <time>2025-07-23T06:25:14Z</time>
      </trkpt>
      <trkpt lat="45.95347581" lon="17.44769177">
        <ele>132</ele>
        <time>2025-07-23T06:25:17Z</time>
      </trkpt>
      <trkpt lat="45.95340012" lon="17.44762137">
        <ele>133</ele>
        <time>2025-07-23T06:25:19Z</time>
      </trkpt>
      <trkpt lat="45.95332644" lon="17.4475471">
        <ele>132</ele>
        <time>2025-07-23T06:25:21Z</time>
      </trkpt>
      <trkpt lat="45.95321019" lon="17.44744602">
        <ele>132</ele>
        <time>2025-07-23T06:25:24Z</time>
      </trkpt>
      <trkpt lat="45.9531122" lon="17.44740729">
        <ele>131</ele>
        <time>2025-07-23T06:25:26Z</time>
      </trkpt>
      <trkpt lat="45.9530187" lon="17.44736731">
        <ele>131</ele>
        <time>2025-07-23T06:25:28Z</time>
      </trkpt>
      <trkpt lat="45.95292969" lon="17.44732741">
        <ele>130</ele>
        <time>2025-07-23T06:25:30Z</time>
      </trkpt>
      <trkpt lat="45.95284088" lon="17.44728894">
        <ele>130</ele>
        <time>2025-07-23T06:25:32Z</time>
      </trkpt>
      <trkpt lat="45.95272953" lon="17.44724971">
        <ele>129</ele>
        <time>2025-07-23T06:25:36Z</time>
      </trkpt>
      <trkpt lat="45.95262945" lon="17.44727561">
        <ele>129</ele>
        <time>2025-07-23T06:25:40Z</time>
      </trkpt>
      <trkpt lat="45.9525481" lon="17.44737452">
        <ele>129</ele>
        <time>2025-07-23T06:25:44Z</time>
      </trkpt>
      <trkpt lat="45.95249379" lon="17.44747921">
        <ele>129</ele>
        <time>2025-07-23T06:25:47Z</time>
      </trkpt>
      <trkpt lat="45.95240192" lon="17.4475642">
        <ele>130</ele>
        <time>2025-07-23T06:25:50Z</time>
      </trkpt>
      <trkpt lat="45.95230804" lon="17.44758599">
        <ele>130</ele>
        <time>2025-07-23T06:25:53Z</time>
      </trkpt>
      <trkpt lat="45.95222372" lon="17.44765774">
        <ele>129</ele>
        <time>2025-07-23T06:25:56Z</time>
      </trkpt>
      <trkpt lat="45.95213894" lon="17.4477388">
        <ele>129</ele>
        <time>2025-07-23T06:26:00Z</time>
      </trkpt>
      <trkpt lat="45.95205633" lon="17.44780074">
        <ele>128</ele>
        <time>2025-07-23T06:26:04Z</time>
      </trkpt>
      <trkpt lat="45.95197013" lon="17.4477248">
        <ele>130</ele>
        <time>2025-07-23T06:26:16Z</time>
      </trkpt>
      <trkpt lat="45.9518822" lon="17.44767199">
        <ele>131</ele>
        <time>2025-07-23T06:26:21Z</time>
      </trkpt>
      <trkpt lat="45.95181125" lon="17.44757636">
        <ele>134</ele>
        <time>2025-07-23T06:26:28Z</time>
      </trkpt>
    </trkseg>
  </trk>
</gpx>