<?xml version='1.0' encoding='UTF-8' standalone='yes' ?>
<gpx xmlns="http://www.topografix.com/GPX/1/1" xmlns:geotracker="http://ilyabogdanovich.com/gpx/extensions/geotracker" xmlns:xsi="http://www.w3.org/2001/XMLSchema-instance" xsi:schemaLocation="http://www.topografix.com/GPX/1/1 http://www.topografix.com/GPX/1/1/gpx.xsd" version="1.1" creator="Recorded in Geo Tracker for Android from Ilya Bogdanovich">
  <metadata>
    <name>f_0717_04</name>
    <author>
      <name>Recorded in Geo Tracker for Android from Ilya Bogdanovich</name>
      <link href="https://play.google.com/store/apps/details?id=com.ilyabogdanovich.geotracker" />
    </author>
    <link href="https://play.google.com/store/apps/details?id=com.ilyabogdanovich.geotracker" />
    <time>2025-07-17T12:03:39Z</time>
  </metadata>
  <trk>
    <name>f_0717_04</name>
    <src>Recorded in Geo Tracker for Android from Ilya Bogdanovich</src>
    <link href="https://play.google.com/store/apps/details?id=com.ilyabogdanovich.geotracker" />
    <extensions>
      <geotracker:meta>
        <geotracker:length>3765.07</geotracker:length>
        <geotracker:duration>823884</geotracker:duration>
        <geotracker:creationtime>2025-07-17T12:03:39Z</geotracker:creationtime>
        <geotracker:activity>0</geotracker:activity>
      </geotracker:meta>
    </extensions>
    <trkseg>
      <trkpt lat="46.61554" lon="17.16898167">
        <ele>159.2</ele>
        <time>2025-07-17T12:03:45Z</time>
      </trkpt>
      <trkpt lat="46.61557833" lon="17.169145">
        <ele>158.1</ele>
        <time>2025-07-17T12:04:29Z</time>
      </trkpt>
      <trkpt lat="46.61561167" lon="17.16929333">
        <ele>156.5</ele>
        <time>2025-07-17T12:04:33Z</time>
      </trkpt>
      <trkpt lat="46.61564833" lon="17.16942333">
        <ele>155.1</ele>
        <time>2025-07-17T12:04:38Z</time>
      </trkpt>
      <trkpt lat="46.61564167" lon="17.16958667">
        <ele>151.8</ele>
        <time>2025-07-17T12:04:43Z</time>
      </trkpt>
      <trkpt lat="46.61563833" lon="17.16974">
        <ele>149</ele>
        <time>2025-07-17T12:04:47Z</time>
      </trkpt>
      <trkpt lat="46.61567" lon="17.16990333">
        <ele>145.5</ele>
        <time>2025-07-17T12:04:51Z</time>
      </trkpt>
      <trkpt lat="46.61567833" lon="17.17005333">
        <ele>143.5</ele>
        <time>2025-07-17T12:04:54Z</time>
      </trkpt>
      <trkpt lat="46.61567667" lon="17.17023">
        <ele>140.9</ele>
        <time>2025-07-17T12:04:57Z</time>
      </trkpt>
      <trkpt lat="46.61566" lon="17.17036833">
        <ele>139.6</ele>
        <time>2025-07-17T12:04:59Z</time>
      </trkpt>
      <trkpt lat="46.61564667" lon="17.17051167">
        <ele>138.4</ele>
        <time>2025-07-17T12:05:01Z</time>
      </trkpt>
      <trkpt lat="46.61564167" lon="17.170685">
        <ele>137.2</ele>
        <time>2025-07-17T12:05:03Z</time>
      </trkpt>
      <trkpt lat="46.61563667" lon="17.17086333">
        <ele>136.3</ele>
        <time>2025-07-17T12:05:06Z</time>
      </trkpt>
      <trkpt lat="46.61564333" lon="17.17106333">
        <ele>136</ele>
        <time>2025-07-17T12:05:09Z</time>
      </trkpt>
      <trkpt lat="46.61564833" lon="17.171195">
        <ele>136</ele>
        <time>2025-07-17T12:05:11Z</time>
      </trkpt>
      <trkpt lat="46.61564667" lon="17.17138833">
        <ele>135.5</ele>
        <time>2025-07-17T12:05:14Z</time>
      </trkpt>
      <trkpt lat="46.61565667" lon="17.171525">
        <ele>131.9</ele>
        <time>2025-07-17T12:05:17Z</time>
      </trkpt>
      <trkpt lat="46.615645" lon="17.17165833">
        <ele>131</ele>
        <time>2025-07-17T12:05:19Z</time>
      </trkpt>
      <trkpt lat="46.61561833" lon="17.171805">
        <ele>130.2</ele>
        <time>2025-07-17T12:05:21Z</time>
      </trkpt>
      <trkpt lat="46.615605" lon="17.171955">
        <ele>130.5</ele>
        <time>2025-07-17T12:05:23Z</time>
      </trkpt>
      <trkpt lat="46.61559" lon="17.17211333">
        <ele>132.1</ele>
        <time>2025-07-17T12:05:25Z</time>
      </trkpt>
      <trkpt lat="46.61558167" lon="17.17228">
        <ele>134.5</ele>
        <time>2025-07-17T12:05:27Z</time>
      </trkpt>
      <trkpt lat="46.615555" lon="17.17241667">
        <ele>138.3</ele>
        <time>2025-07-17T12:05:29Z</time>
      </trkpt>
      <trkpt lat="46.61554333" lon="17.17255167">
        <ele>140.5</ele>
        <time>2025-07-17T12:05:31Z</time>
      </trkpt>
      <trkpt lat="46.61553667" lon="17.1727">
        <ele>143.5</ele>
        <time>2025-07-17T12:05:33Z</time>
      </trkpt>
      <trkpt lat="46.61551833" lon="17.17288">
        <ele>147</ele>
        <time>2025-07-17T12:05:35Z</time>
      </trkpt>
      <trkpt lat="46.61550667" lon="17.17306833">
        <ele>149.7</ele>
        <time>2025-07-17T12:05:38Z</time>
      </trkpt>
      <trkpt lat="46.61551167" lon="17.17321833">
        <ele>150.8</ele>
        <time>2025-07-17T12:05:41Z</time>
      </trkpt>
      <trkpt lat="46.61550667" lon="17.17337333">
        <ele>151.9</ele>
        <time>2025-07-17T12:05:44Z</time>
      </trkpt>
      <trkpt lat="46.61550833" lon="17.17350833">
        <ele>152.2</ele>
        <time>2025-07-17T12:05:47Z</time>
      </trkpt>
      <trkpt lat="46.61549833" lon="17.17366833">
        <ele>152</ele>
        <time>2025-07-17T12:05:50Z</time>
      </trkpt>
      <trkpt lat="46.61550167" lon="17.173815">
        <ele>151.8</ele>
        <time>2025-07-17T12:05:53Z</time>
      </trkpt>
      <trkpt lat="46.61548333" lon="17.17395667">
        <ele>151</ele>
        <time>2025-07-17T12:05:56Z</time>
      </trkpt>
      <trkpt lat="46.61547167" lon="17.174135">
        <ele>151.4</ele>
        <time>2025-07-17T12:06:00Z</time>
      </trkpt>
      <trkpt lat="46.61546333" lon="17.17426833">
        <ele>153</ele>
        <time>2025-07-17T12:06:03Z</time>
      </trkpt>
      <trkpt lat="46.61546667" lon="17.17441667">
        <ele>153</ele>
        <time>2025-07-17T12:06:06Z</time>
      </trkpt>
      <trkpt lat="46.61547333" lon="17.17458833">
        <ele>151.8</ele>
        <time>2025-07-17T12:06:10Z</time>
      </trkpt>
      <trkpt lat="46.61546" lon="17.17477">
        <ele>151.5</ele>
        <time>2025-07-17T12:06:13Z</time>
      </trkpt>
      <trkpt lat="46.615455" lon="17.17490167">
        <ele>151.3</ele>
        <time>2025-07-17T12:06:15Z</time>
      </trkpt>
      <trkpt lat="46.61545" lon="17.17503667">
        <ele>150.8</ele>
        <time>2025-07-17T12:06:17Z</time>
      </trkpt>
      <trkpt lat="46.61543667" lon="17.17518667">
        <ele>150.9</ele>
        <time>2025-07-17T12:06:19Z</time>
      </trkpt>
      <trkpt lat="46.61542833" lon="17.17536833">
        <ele>151.6</ele>
        <time>2025-07-17T12:06:22Z</time>
      </trkpt>
      <trkpt lat="46.61544167" lon="17.17550167">
        <ele>151</ele>
        <time>2025-07-17T12:06:25Z</time>
      </trkpt>
      <trkpt lat="46.61543333" lon="17.17569">
        <ele>150.3</ele>
        <time>2025-07-17T12:06:28Z</time>
      </trkpt>
      <trkpt lat="46.615435" lon="17.17587833">
        <ele>150.4</ele>
        <time>2025-07-17T12:06:31Z</time>
      </trkpt>
      <trkpt lat="46.61543333" lon="17.17605833">
        <ele>150.4</ele>
        <time>2025-07-17T12:06:34Z</time>
      </trkpt>
      <trkpt lat="46.61544" lon="17.17624333">
        <ele>150.1</ele>
        <time>2025-07-17T12:06:37Z</time>
      </trkpt>
      <trkpt lat="46.61544167" lon="17.17640667">
        <ele>149.2</ele>
        <time>2025-07-17T12:06:40Z</time>
      </trkpt>
      <trkpt lat="46.61544167" lon="17.17658833">
        <ele>147.4</ele>
        <time>2025-07-17T12:06:43Z</time>
      </trkpt>
      <trkpt lat="46.61543167" lon="17.17673">
        <ele>146.9</ele>
        <time>2025-07-17T12:06:45Z</time>
      </trkpt>
      <trkpt lat="46.61542667" lon="17.176885">
        <ele>146.8</ele>
        <time>2025-07-17T12:06:47Z</time>
      </trkpt>
      <trkpt lat="46.61541" lon="17.17703667">
        <ele>146.7</ele>
        <time>2025-07-17T12:06:49Z</time>
      </trkpt>
      <trkpt lat="46.61539333" lon="17.177175">
        <ele>146.8</ele>
        <time>2025-07-17T12:06:51Z</time>
      </trkpt>
      <trkpt lat="46.61538" lon="17.17735167">
        <ele>146.6</ele>
        <time>2025-07-17T12:06:54Z</time>
      </trkpt>
      <trkpt lat="46.61538" lon="17.17748833">
        <ele>146.8</ele>
        <time>2025-07-17T12:06:56Z</time>
      </trkpt>
      <trkpt lat="46.61536833" lon="17.17762667">
        <ele>147.4</ele>
        <time>2025-07-17T12:06:58Z</time>
      </trkpt>
      <trkpt lat="46.615355" lon="17.17782">
        <ele>147.2</ele>
        <time>2025-07-17T12:07:01Z</time>
      </trkpt>
      <trkpt lat="46.61534667" lon="17.17798833">
        <ele>146.8</ele>
        <time>2025-07-17T12:07:04Z</time>
      </trkpt>
      <trkpt lat="46.61534667" lon="17.17815333">
        <ele>146.2</ele>
        <time>2025-07-17T12:07:07Z</time>
      </trkpt>
      <trkpt lat="46.61535167" lon="17.17829333">
        <ele>147.8</ele>
        <time>2025-07-17T12:07:09Z</time>
      </trkpt>
      <trkpt lat="46.615345" lon="17.178455">
        <ele>148.3</ele>
        <time>2025-07-17T12:07:12Z</time>
      </trkpt>
      <trkpt lat="46.61530167" lon="17.17860333">
        <ele>150.3</ele>
        <time>2025-07-17T12:07:15Z</time>
      </trkpt>
      <trkpt lat="46.61519833" lon="17.17868333">
        <ele>151.9</ele>
        <time>2025-07-17T12:07:18Z</time>
      </trkpt>
      <trkpt lat="46.61507167" lon="17.17872167">
        <ele>153.1</ele>
        <time>2025-07-17T12:07:21Z</time>
      </trkpt>
      <trkpt lat="46.61498167" lon="17.17873833">
        <ele>153.8</ele>
        <time>2025-07-17T12:07:23Z</time>
      </trkpt>
      <trkpt lat="46.61488667" lon="17.17875833">
        <ele>154.6</ele>
        <time>2025-07-17T12:07:25Z</time>
      </trkpt>
      <trkpt lat="46.61478667" lon="17.178775">
        <ele>155.5</ele>
        <time>2025-07-17T12:07:27Z</time>
      </trkpt>
      <trkpt lat="46.61469333" lon="17.17879333">
        <ele>155.8</ele>
        <time>2025-07-17T12:07:29Z</time>
      </trkpt>
      <trkpt lat="46.61455833" lon="17.178825">
        <ele>155.3</ele>
        <time>2025-07-17T12:07:32Z</time>
      </trkpt>
      <trkpt lat="46.61445167" lon="17.17882">
        <ele>154.6</ele>
        <time>2025-07-17T12:07:34Z</time>
      </trkpt>
      <trkpt lat="46.61433833" lon="17.17881667">
        <ele>154.6</ele>
        <time>2025-07-17T12:07:36Z</time>
      </trkpt>
      <trkpt lat="46.61423" lon="17.17882">
        <ele>154.9</ele>
        <time>2025-07-17T12:07:38Z</time>
      </trkpt>
      <trkpt lat="46.61413833" lon="17.178835">
        <ele>153.3</ele>
        <time>2025-07-17T12:07:40Z</time>
      </trkpt>
      <trkpt lat="46.61401167" lon="17.17880333">
        <ele>153.4</ele>
        <time>2025-07-17T12:07:42Z</time>
      </trkpt>
      <trkpt lat="46.61388333" lon="17.17877">
        <ele>153.9</ele>
        <time>2025-07-17T12:07:44Z</time>
      </trkpt>
      <trkpt lat="46.61376" lon="17.17874667">
        <ele>154.3</ele>
        <time>2025-07-17T12:07:46Z</time>
      </trkpt>
      <trkpt lat="46.61364167" lon="17.17870667">
        <ele>155.5</ele>
        <time>2025-07-17T12:07:48Z</time>
      </trkpt>
      <trkpt lat="46.61353167" lon="17.17870333">
        <ele>154.9</ele>
        <time>2025-07-17T12:07:50Z</time>
      </trkpt>
      <trkpt lat="46.61342333" lon="17.17869333">
        <ele>154.9</ele>
        <time>2025-07-17T12:07:52Z</time>
      </trkpt>
      <trkpt lat="46.61330667" lon="17.17867833">
        <ele>154.9</ele>
        <time>2025-07-17T12:07:54Z</time>
      </trkpt>
      <trkpt lat="46.61318833" lon="17.17867167">
        <ele>154.7</ele>
        <time>2025-07-17T12:07:56Z</time>
      </trkpt>
      <trkpt lat="46.61307667" lon="17.17865833">
        <ele>155</ele>
        <time>2025-07-17T12:07:58Z</time>
      </trkpt>
      <trkpt lat="46.61296167" lon="17.17865167">
        <ele>155.1</ele>
        <time>2025-07-17T12:08:00Z</time>
      </trkpt>
      <trkpt lat="46.61285" lon="17.17863333">
        <ele>155.3</ele>
        <time>2025-07-17T12:08:02Z</time>
      </trkpt>
      <trkpt lat="46.61273833" lon="17.17861833">
        <ele>155.4</ele>
        <time>2025-07-17T12:08:04Z</time>
      </trkpt>
      <trkpt lat="46.61262" lon="17.178615">
        <ele>155.7</ele>
        <time>2025-07-17T12:08:06Z</time>
      </trkpt>
      <trkpt lat="46.61249667" lon="17.178605">
        <ele>155.9</ele>
        <time>2025-07-17T12:08:08Z</time>
      </trkpt>
      <trkpt lat="46.61237" lon="17.17859">
        <ele>156.6</ele>
        <time>2025-07-17T12:08:10Z</time>
      </trkpt>
      <trkpt lat="46.61224167" lon="17.17857167">
        <ele>157.2</ele>
        <time>2025-07-17T12:08:12Z</time>
      </trkpt>
      <trkpt lat="46.61211667" lon="17.17856167">
        <ele>157.8</ele>
        <time>2025-07-17T12:08:14Z</time>
      </trkpt>
      <trkpt lat="46.61199833" lon="17.17855167">
        <ele>158.2</ele>
        <time>2025-07-17T12:08:16Z</time>
      </trkpt>
      <trkpt lat="46.61187833" lon="17.178545">
        <ele>158.9</ele>
        <time>2025-07-17T12:08:18Z</time>
      </trkpt>
      <trkpt lat="46.61176333" lon="17.17852667">
        <ele>159.9</ele>
        <time>2025-07-17T12:08:20Z</time>
      </trkpt>
      <trkpt lat="46.61165333" lon="17.178525">
        <ele>160.5</ele>
        <time>2025-07-17T12:08:22Z</time>
      </trkpt>
      <trkpt lat="46.61153833" lon="17.17852333">
        <ele>160.6</ele>
        <time>2025-07-17T12:08:24Z</time>
      </trkpt>
      <trkpt lat="46.611425" lon="17.17851667">
        <ele>161.2</ele>
        <time>2025-07-17T12:08:26Z</time>
      </trkpt>
      <trkpt lat="46.61132" lon="17.17851333">
        <ele>161.3</ele>
        <time>2025-07-17T12:08:28Z</time>
      </trkpt>
      <trkpt lat="46.61122167" lon="17.17850667">
        <ele>161.4</ele>
        <time>2025-07-17T12:08:30Z</time>
      </trkpt>
      <trkpt lat="46.61112667" lon="17.17849833">
        <ele>161.4</ele>
        <time>2025-07-17T12:08:32Z</time>
      </trkpt>
      <trkpt lat="46.61099" lon="17.17849">
        <ele>160.3</ele>
        <time>2025-07-17T12:08:35Z</time>
      </trkpt>
      <trkpt lat="46.61088667" lon="17.17848">
        <ele>160.5</ele>
        <time>2025-07-17T12:08:37Z</time>
      </trkpt>
      <trkpt lat="46.61078333" lon="17.178475">
        <ele>160.3</ele>
        <time>2025-07-17T12:08:39Z</time>
      </trkpt>
      <trkpt lat="46.610675" lon="17.17847">
        <ele>160.4</ele>
        <time>2025-07-17T12:08:41Z</time>
      </trkpt>
      <trkpt lat="46.61057" lon="17.17846333">
        <ele>160.7</ele>
        <time>2025-07-17T12:08:43Z</time>
      </trkpt>
      <trkpt lat="46.610465" lon="17.17845833">
        <ele>160.9</ele>
        <time>2025-07-17T12:08:45Z</time>
      </trkpt>
      <trkpt lat="46.610355" lon="17.17845833">
        <ele>161.1</ele>
        <time>2025-07-17T12:08:47Z</time>
      </trkpt>
      <trkpt lat="46.61024167" lon="17.17845167">
        <ele>161.2</ele>
        <time>2025-07-17T12:08:49Z</time>
      </trkpt>
      <trkpt lat="46.610125" lon="17.17844">
        <ele>161.3</ele>
        <time>2025-07-17T12:08:51Z</time>
      </trkpt>
      <trkpt lat="46.61001167" lon="17.178425">
        <ele>161.6</ele>
        <time>2025-07-17T12:08:53Z</time>
      </trkpt>
      <trkpt lat="46.60989833" lon="17.17841333">
        <ele>161.8</ele>
        <time>2025-07-17T12:08:55Z</time>
      </trkpt>
      <trkpt lat="46.60978667" lon="17.17840667">
        <ele>161.9</ele>
        <time>2025-07-17T12:08:57Z</time>
      </trkpt>
      <trkpt lat="46.609675" lon="17.17840833">
        <ele>162.6</ele>
        <time>2025-07-17T12:08:59Z</time>
      </trkpt>
      <trkpt lat="46.60956333" lon="17.17840333">
        <ele>162.5</ele>
        <time>2025-07-17T12:09:01Z</time>
      </trkpt>
      <trkpt lat="46.60945167" lon="17.17839333">
        <ele>162.6</ele>
        <time>2025-07-17T12:09:03Z</time>
      </trkpt>
      <trkpt lat="46.60934333" lon="17.178385">
        <ele>162.6</ele>
        <time>2025-07-17T12:09:05Z</time>
      </trkpt>
      <trkpt lat="46.60923667" lon="17.178385">
        <ele>162.7</ele>
        <time>2025-07-17T12:09:07Z</time>
      </trkpt>
      <trkpt lat="46.60912667" lon="17.17838">
        <ele>163.1</ele>
        <time>2025-07-17T12:09:09Z</time>
      </trkpt>
      <trkpt lat="46.60901667" lon="17.17837333">
        <ele>163.1</ele>
        <time>2025-07-17T12:09:11Z</time>
      </trkpt>
      <trkpt lat="46.60890833" lon="17.17836667">
        <ele>163.2</ele>
        <time>2025-07-17T12:09:13Z</time>
      </trkpt>
      <trkpt lat="46.60880333" lon="17.17836">
        <ele>162.8</ele>
        <time>2025-07-17T12:09:15Z</time>
      </trkpt>
      <trkpt lat="46.60870167" lon="17.178355">
        <ele>162.8</ele>
        <time>2025-07-17T12:09:17Z</time>
      </trkpt>
      <trkpt lat="46.608605" lon="17.178355">
        <ele>162.9</ele>
        <time>2025-07-17T12:09:19Z</time>
      </trkpt>
      <trkpt lat="46.60850833" lon="17.17834667">
        <ele>162.1</ele>
        <time>2025-07-17T12:09:21Z</time>
      </trkpt>
      <trkpt lat="46.60840333" lon="17.17833833">
        <ele>162.1</ele>
        <time>2025-07-17T12:09:23Z</time>
      </trkpt>
      <trkpt lat="46.6083" lon="17.17833">
        <ele>162.4</ele>
        <time>2025-07-17T12:09:25Z</time>
      </trkpt>
      <trkpt lat="46.6082" lon="17.17832667">
        <ele>162.4</ele>
        <time>2025-07-17T12:09:27Z</time>
      </trkpt>
      <trkpt lat="46.60809833" lon="17.17831667">
        <ele>162.1</ele>
        <time>2025-07-17T12:09:29Z</time>
      </trkpt>
      <trkpt lat="46.607995" lon="17.17831333">
        <ele>161.9</ele>
        <time>2025-07-17T12:09:31Z</time>
      </trkpt>
      <trkpt lat="46.60789" lon="17.17831">
        <ele>161.8</ele>
        <time>2025-07-17T12:09:33Z</time>
      </trkpt>
      <trkpt lat="46.607785" lon="17.1783">
        <ele>162.2</ele>
        <time>2025-07-17T12:09:35Z</time>
      </trkpt>
      <trkpt lat="46.60768" lon="17.178295">
        <ele>162.7</ele>
        <time>2025-07-17T12:09:37Z</time>
      </trkpt>
      <trkpt lat="46.607575" lon="17.17828833">
        <ele>162.6</ele>
        <time>2025-07-17T12:09:39Z</time>
      </trkpt>
      <trkpt lat="46.60747167" lon="17.17828333">
        <ele>162.4</ele>
        <time>2025-07-17T12:09:41Z</time>
      </trkpt>
      <trkpt lat="46.60737167" lon="17.17828">
        <ele>161.9</ele>
        <time>2025-07-17T12:09:43Z</time>
      </trkpt>
      <trkpt lat="46.60727167" lon="17.178275">
        <ele>161.7</ele>
        <time>2025-07-17T12:09:45Z</time>
      </trkpt>
      <trkpt lat="46.60717" lon="17.17826667">
        <ele>161.8</ele>
        <time>2025-07-17T12:09:47Z</time>
      </trkpt>
      <trkpt lat="46.60707333" lon="17.17826667">
        <ele>162</ele>
        <time>2025-07-17T12:09:49Z</time>
      </trkpt>
      <trkpt lat="46.60693833" lon="17.17824333">
        <ele>160.8</ele>
        <time>2025-07-17T12:09:52Z</time>
      </trkpt>
      <trkpt lat="46.60683333" lon="17.17823667">
        <ele>161.2</ele>
        <time>2025-07-17T12:09:54Z</time>
      </trkpt>
      <trkpt lat="46.60673667" lon="17.17822667">
        <ele>161.3</ele>
        <time>2025-07-17T12:09:56Z</time>
      </trkpt>
      <trkpt lat="46.606645" lon="17.17821667">
        <ele>161.1</ele>
        <time>2025-07-17T12:09:58Z</time>
      </trkpt>
      <trkpt lat="46.60654667" lon="17.17821667">
        <ele>161.3</ele>
        <time>2025-07-17T12:10:00Z</time>
      </trkpt>
      <trkpt lat="46.60644833" lon="17.17821833">
        <ele>161.2</ele>
        <time>2025-07-17T12:10:02Z</time>
      </trkpt>
      <trkpt lat="46.606355" lon="17.178215">
        <ele>161.5</ele>
        <time>2025-07-17T12:10:04Z</time>
      </trkpt>
      <trkpt lat="46.60625833" lon="17.17821167">
        <ele>161.8</ele>
        <time>2025-07-17T12:10:06Z</time>
      </trkpt>
      <trkpt lat="46.60615833" lon="17.17820667">
        <ele>161.8</ele>
        <time>2025-07-17T12:10:08Z</time>
      </trkpt>
      <trkpt lat="46.60606333" lon="17.17820333">
        <ele>162.1</ele>
        <time>2025-07-17T12:10:10Z</time>
      </trkpt>
      <trkpt lat="46.60597333" lon="17.17819667">
        <ele>162.6</ele>
        <time>2025-07-17T12:10:12Z</time>
      </trkpt>
      <trkpt lat="46.60588167" lon="17.17819167">
        <ele>163.1</ele>
        <time>2025-07-17T12:10:14Z</time>
      </trkpt>
      <trkpt lat="46.60579167" lon="17.17817833">
        <ele>163.7</ele>
        <time>2025-07-17T12:10:16Z</time>
      </trkpt>
      <trkpt lat="46.60570167" lon="17.17817333">
        <ele>163.9</ele>
        <time>2025-07-17T12:10:18Z</time>
      </trkpt>
      <trkpt lat="46.60557" lon="17.17816833">
        <ele>164.5</ele>
        <time>2025-07-17T12:10:21Z</time>
      </trkpt>
      <trkpt lat="46.60544667" lon="17.17815">
        <ele>163.5</ele>
        <time>2025-07-17T12:10:24Z</time>
      </trkpt>
      <trkpt lat="46.60535167" lon="17.17815">
        <ele>163</ele>
        <time>2025-07-17T12:10:26Z</time>
      </trkpt>
      <trkpt lat="46.60522" lon="17.17813833">
        <ele>162.9</ele>
        <time>2025-07-17T12:10:29Z</time>
      </trkpt>
      <trkpt lat="46.60508667" lon="17.17813667">
        <ele>162.7</ele>
        <time>2025-07-17T12:10:32Z</time>
      </trkpt>
      <trkpt lat="46.604995" lon="17.17813">
        <ele>162.8</ele>
        <time>2025-07-17T12:10:34Z</time>
      </trkpt>
      <trkpt lat="46.604865" lon="17.178125">
        <ele>162.3</ele>
        <time>2025-07-17T12:10:37Z</time>
      </trkpt>
      <trkpt lat="46.60469333" lon="17.17813">
        <ele>162.3</ele>
        <time>2025-07-17T12:10:41Z</time>
      </trkpt>
      <trkpt lat="46.60452833" lon="17.17811833">
        <ele>162.4</ele>
        <time>2025-07-17T12:10:45Z</time>
      </trkpt>
      <trkpt lat="46.604395" lon="17.17811">
        <ele>163</ele>
        <time>2025-07-17T12:10:48Z</time>
      </trkpt>
      <trkpt lat="46.604265" lon="17.17810333">
        <ele>163.2</ele>
        <time>2025-07-17T12:10:51Z</time>
      </trkpt>
      <trkpt lat="46.604175" lon="17.17809833">
        <ele>163.4</ele>
        <time>2025-07-17T12:10:53Z</time>
      </trkpt>
      <trkpt lat="46.60404833" lon="17.17809833">
        <ele>163</ele>
        <time>2025-07-17T12:10:56Z</time>
      </trkpt>
      <trkpt lat="46.60395667" lon="17.17808833">
        <ele>163</ele>
        <time>2025-07-17T12:10:58Z</time>
      </trkpt>
      <trkpt lat="46.60386333" lon="17.17808667">
        <ele>163.1</ele>
        <time>2025-07-17T12:11:00Z</time>
      </trkpt>
      <trkpt lat="46.60377333" lon="17.17808167">
        <ele>162.8</ele>
        <time>2025-07-17T12:11:02Z</time>
      </trkpt>
      <trkpt lat="46.60363667" lon="17.17808167">
        <ele>162.1</ele>
        <time>2025-07-17T12:11:05Z</time>
      </trkpt>
      <trkpt lat="46.60354167" lon="17.17807333">
        <ele>162.1</ele>
        <time>2025-07-17T12:11:07Z</time>
      </trkpt>
      <trkpt lat="46.603435" lon="17.178065">
        <ele>163.8</ele>
        <time>2025-07-17T12:11:09Z</time>
      </trkpt>
      <trkpt lat="46.60333333" lon="17.17806333">
        <ele>164.9</ele>
        <time>2025-07-17T12:11:11Z</time>
      </trkpt>
      <trkpt lat="46.60324167" lon="17.17806333">
        <ele>165.2</ele>
        <time>2025-07-17T12:11:13Z</time>
      </trkpt>
      <trkpt lat="46.60313667" lon="17.17807333">
        <ele>167.1</ele>
        <time>2025-07-17T12:11:15Z</time>
      </trkpt>
      <trkpt lat="46.60304" lon="17.17807">
        <ele>167.3</ele>
        <time>2025-07-17T12:11:17Z</time>
      </trkpt>
      <trkpt lat="46.60294667" lon="17.17806167">
        <ele>167.5</ele>
        <time>2025-07-17T12:11:19Z</time>
      </trkpt>
      <trkpt lat="46.602855" lon="17.17806167">
        <ele>167.4</ele>
        <time>2025-07-17T12:11:21Z</time>
      </trkpt>
      <trkpt lat="46.60272667" lon="17.178025">
        <ele>167.6</ele>
        <time>2025-07-17T12:11:24Z</time>
      </trkpt>
      <trkpt lat="46.60259833" lon="17.177995">
        <ele>167.6</ele>
        <time>2025-07-17T12:11:27Z</time>
      </trkpt>
      <trkpt lat="46.60247333" lon="17.17797">
        <ele>167.3</ele>
        <time>2025-07-17T12:11:30Z</time>
      </trkpt>
      <trkpt lat="46.60234" lon="17.17795333">
        <ele>166.9</ele>
        <time>2025-07-17T12:11:33Z</time>
      </trkpt>
      <trkpt lat="46.60224667" lon="17.177935">
        <ele>166.9</ele>
        <time>2025-07-17T12:11:35Z</time>
      </trkpt>
      <trkpt lat="46.602155" lon="17.17790667">
        <ele>167.2</ele>
        <time>2025-07-17T12:11:37Z</time>
      </trkpt>
      <trkpt lat="46.60203167" lon="17.177875">
        <ele>166.9</ele>
        <time>2025-07-17T12:11:40Z</time>
      </trkpt>
      <trkpt lat="46.60190333" lon="17.17784">
        <ele>166.9</ele>
        <time>2025-07-17T12:11:43Z</time>
      </trkpt>
      <trkpt lat="46.60181333" lon="17.17782">
        <ele>166.9</ele>
        <time>2025-07-17T12:11:45Z</time>
      </trkpt>
      <trkpt lat="46.60168167" lon="17.17779833">
        <ele>166.8</ele>
        <time>2025-07-17T12:11:48Z</time>
      </trkpt>
      <trkpt lat="46.60159167" lon="17.17777667">
        <ele>166.8</ele>
        <time>2025-07-17T12:11:50Z</time>
      </trkpt>
      <trkpt lat="46.60149167" lon="17.177755">
        <ele>167.1</ele>
        <time>2025-07-17T12:11:52Z</time>
      </trkpt>
      <trkpt lat="46.60138667" lon="17.177735">
        <ele>167.9</ele>
        <time>2025-07-17T12:11:54Z</time>
      </trkpt>
      <trkpt lat="46.60125833" lon="17.17770167">
        <ele>168.6</ele>
        <time>2025-07-17T12:11:57Z</time>
      </trkpt>
      <trkpt lat="46.601125" lon="17.17767333">
        <ele>168.2</ele>
        <time>2025-07-17T12:12:00Z</time>
      </trkpt>
      <trkpt lat="46.60103" lon="17.17764667">
        <ele>168</ele>
        <time>2025-07-17T12:12:02Z</time>
      </trkpt>
      <trkpt lat="46.600935" lon="17.17762333">
        <ele>167.7</ele>
        <time>2025-07-17T12:12:04Z</time>
      </trkpt>
      <trkpt lat="46.60083833" lon="17.17759833">
        <ele>167.4</ele>
        <time>2025-07-17T12:12:06Z</time>
      </trkpt>
      <trkpt lat="46.60074667" lon="17.177555">
        <ele>167.2</ele>
        <time>2025-07-17T12:12:08Z</time>
      </trkpt>
      <trkpt lat="46.60065167" lon="17.17750667">
        <ele>166.4</ele>
        <time>2025-07-17T12:12:10Z</time>
      </trkpt>
      <trkpt lat="46.60056333" lon="17.17745167">
        <ele>166.2</ele>
        <time>2025-07-17T12:12:12Z</time>
      </trkpt>
      <trkpt lat="46.600475" lon="17.177385">
        <ele>166</ele>
        <time>2025-07-17T12:12:14Z</time>
      </trkpt>
      <trkpt lat="46.60035833" lon="17.17728333">
        <ele>166</ele>
        <time>2025-07-17T12:12:17Z</time>
      </trkpt>
      <trkpt lat="46.60028667" lon="17.17719833">
        <ele>165.5</ele>
        <time>2025-07-17T12:12:19Z</time>
      </trkpt>
      <trkpt lat="46.60021167" lon="17.1771">
        <ele>165.1</ele>
        <time>2025-07-17T12:12:21Z</time>
      </trkpt>
      <trkpt lat="46.60012667" lon="17.17697667">
        <ele>165.1</ele>
        <time>2025-07-17T12:12:23Z</time>
      </trkpt>
      <trkpt lat="46.60005" lon="17.176855">
        <ele>165.5</ele>
        <time>2025-07-17T12:12:25Z</time>
      </trkpt>
      <trkpt lat="46.59998167" lon="17.176735">
        <ele>165.2</ele>
        <time>2025-07-17T12:12:27Z</time>
      </trkpt>
      <trkpt lat="46.59991667" lon="17.17660833">
        <ele>165.1</ele>
        <time>2025-07-17T12:12:29Z</time>
      </trkpt>
      <trkpt lat="46.59984333" lon="17.176495">
        <ele>165</ele>
        <time>2025-07-17T12:12:31Z</time>
      </trkpt>
      <trkpt lat="46.59976" lon="17.17637833">
        <ele>165.1</ele>
        <time>2025-07-17T12:12:33Z</time>
      </trkpt>
      <trkpt lat="46.59967167" lon="17.17625167">
        <ele>164.9</ele>
        <time>2025-07-17T12:12:35Z</time>
      </trkpt>
      <trkpt lat="46.59958" lon="17.17613333">
        <ele>165</ele>
        <time>2025-07-17T12:12:37Z</time>
      </trkpt>
      <trkpt lat="46.59948667" lon="17.17601833">
        <ele>164.5</ele>
        <time>2025-07-17T12:12:39Z</time>
      </trkpt>
      <trkpt lat="46.59939833" lon="17.17590833">
        <ele>163.7</ele>
        <time>2025-07-17T12:12:41Z</time>
      </trkpt>
      <trkpt lat="46.599295" lon="17.17580333">
        <ele>163.1</ele>
        <time>2025-07-17T12:12:43Z</time>
      </trkpt>
      <trkpt lat="46.59918667" lon="17.17571">
        <ele>163.1</ele>
        <time>2025-07-17T12:12:45Z</time>
      </trkpt>
      <trkpt lat="46.59907833" lon="17.17564">
        <ele>162.9</ele>
        <time>2025-07-17T12:12:47Z</time>
      </trkpt>
      <trkpt lat="46.59896167" lon="17.17559">
        <ele>162.5</ele>
        <time>2025-07-17T12:12:49Z</time>
      </trkpt>
      <trkpt lat="46.598845" lon="17.17553833">
        <ele>162.4</ele>
        <time>2025-07-17T12:12:51Z</time>
      </trkpt>
      <trkpt lat="46.59873833" lon="17.175485">
        <ele>161.7</ele>
        <time>2025-07-17T12:12:53Z</time>
      </trkpt>
      <trkpt lat="46.59860333" lon="17.17546667">
        <ele>161.9</ele>
        <time>2025-07-17T12:12:55Z</time>
      </trkpt>
      <trkpt lat="46.598485" lon="17.17544833">
        <ele>161.6</ele>
        <time>2025-07-17T12:12:57Z</time>
      </trkpt>
      <trkpt lat="46.59837833" lon="17.17542333">
        <ele>160.9</ele>
        <time>2025-07-17T12:12:59Z</time>
      </trkpt>
      <trkpt lat="46.59826833" lon="17.175415">
        <ele>160.9</ele>
        <time>2025-07-17T12:13:01Z</time>
      </trkpt>
      <trkpt lat="46.59815833" lon="17.17541167">
        <ele>160.8</ele>
        <time>2025-07-17T12:13:03Z</time>
      </trkpt>
      <trkpt lat="46.59804833" lon="17.17541667">
        <ele>160.5</ele>
        <time>2025-07-17T12:13:05Z</time>
      </trkpt>
      <trkpt lat="46.59793833" lon="17.175425">
        <ele>160.3</ele>
        <time>2025-07-17T12:13:07Z</time>
      </trkpt>
      <trkpt lat="46.597825" lon="17.17542333">
        <ele>160.6</ele>
        <time>2025-07-17T12:13:09Z</time>
      </trkpt>
      <trkpt lat="46.59770833" lon="17.17543">
        <ele>161.1</ele>
        <time>2025-07-17T12:13:11Z</time>
      </trkpt>
      <trkpt lat="46.59759" lon="17.17544">
        <ele>161.6</ele>
        <time>2025-07-17T12:13:13Z</time>
      </trkpt>
      <trkpt lat="46.59747833" lon="17.17545333">
        <ele>162</ele>
        <time>2025-07-17T12:13:15Z</time>
      </trkpt>
      <trkpt lat="46.59736333" lon="17.17547">
        <ele>162.7</ele>
        <time>2025-07-17T12:13:17Z</time>
      </trkpt>
      <trkpt lat="46.59726833" lon="17.17547667">
        <ele>164.6</ele>
        <time>2025-07-17T12:13:19Z</time>
      </trkpt>
      <trkpt lat="46.59717167" lon="17.17548667">
        <ele>165.4</ele>
        <time>2025-07-17T12:13:21Z</time>
      </trkpt>
      <trkpt lat="46.59707833" lon="17.17549833">
        <ele>166.9</ele>
        <time>2025-07-17T12:13:23Z</time>
      </trkpt>
      <trkpt lat="46.59698167" lon="17.17551">
        <ele>167.6</ele>
        <time>2025-07-17T12:13:25Z</time>
      </trkpt>
      <trkpt lat="46.596885" lon="17.17552667">
        <ele>167.9</ele>
        <time>2025-07-17T12:13:27Z</time>
      </trkpt>
      <trkpt lat="46.59678833" lon="17.17554333">
        <ele>168.1</ele>
        <time>2025-07-17T12:13:29Z</time>
      </trkpt>
      <trkpt lat="46.59669" lon="17.17555333">
        <ele>168.5</ele>
        <time>2025-07-17T12:13:31Z</time>
      </trkpt>
      <trkpt lat="46.59659167" lon="17.17555833">
        <ele>168.9</ele>
        <time>2025-07-17T12:13:33Z</time>
      </trkpt>
      <trkpt lat="46.59649833" lon="17.17558167">
        <ele>168.5</ele>
        <time>2025-07-17T12:13:35Z</time>
      </trkpt>
      <trkpt lat="46.596405" lon="17.17559333">
        <ele>167.5</ele>
        <time>2025-07-17T12:13:37Z</time>
      </trkpt>
      <trkpt lat="46.59629667" lon="17.175615">
        <ele>166.8</ele>
        <time>2025-07-17T12:13:39Z</time>
      </trkpt>
      <trkpt lat="46.59619833" lon="17.175635">
        <ele>166.8</ele>
        <time>2025-07-17T12:13:41Z</time>
      </trkpt>
      <trkpt lat="46.59610167" lon="17.17566833">
        <ele>166.6</ele>
        <time>2025-07-17T12:13:43Z</time>
      </trkpt>
      <trkpt lat="46.59600833" lon="17.17569167">
        <ele>165.9</ele>
        <time>2025-07-17T12:13:45Z</time>
      </trkpt>
      <trkpt lat="46.59591833" lon="17.17571">
        <ele>165.1</ele>
        <time>2025-07-17T12:13:47Z</time>
      </trkpt>
      <trkpt lat="46.59578833" lon="17.17572667">
        <ele>164.2</ele>
        <time>2025-07-17T12:13:50Z</time>
      </trkpt>
      <trkpt lat="46.59569333" lon="17.17572333">
        <ele>164.7</ele>
        <time>2025-07-17T12:13:52Z</time>
      </trkpt>
      <trkpt lat="46.59556667" lon="17.17573167">
        <ele>164.9</ele>
        <time>2025-07-17T12:13:55Z</time>
      </trkpt>
      <trkpt lat="46.59544833" lon="17.175735">
        <ele>164.8</ele>
        <time>2025-07-17T12:13:58Z</time>
      </trkpt>
      <trkpt lat="46.59533667" lon="17.17573333">
        <ele>164.6</ele>
        <time>2025-07-17T12:14:01Z</time>
      </trkpt>
      <trkpt lat="46.595205" lon="17.17574333">
        <ele>164.6</ele>
        <time>2025-07-17T12:14:04Z</time>
      </trkpt>
      <trkpt lat="46.59511333" lon="17.17575">
        <ele>164.6</ele>
        <time>2025-07-17T12:14:06Z</time>
      </trkpt>
      <trkpt lat="46.59498167" lon="17.17576167">
        <ele>164.9</ele>
        <time>2025-07-17T12:14:09Z</time>
      </trkpt>
      <trkpt lat="46.594855" lon="17.17577667">
        <ele>164.1</ele>
        <time>2025-07-17T12:14:12Z</time>
      </trkpt>
      <trkpt lat="46.594715" lon="17.17579333">
        <ele>164.5</ele>
        <time>2025-07-17T12:14:15Z</time>
      </trkpt>
      <trkpt lat="46.59461833" lon="17.17580667">
        <ele>165.1</ele>
        <time>2025-07-17T12:14:17Z</time>
      </trkpt>
      <trkpt lat="46.59452167" lon="17.175815">
        <ele>165.8</ele>
        <time>2025-07-17T12:14:19Z</time>
      </trkpt>
      <trkpt lat="46.59439333" lon="17.17583833">
        <ele>166.4</ele>
        <time>2025-07-17T12:14:22Z</time>
      </trkpt>
      <trkpt lat="46.59426833" lon="17.17586167">
        <ele>166</ele>
        <time>2025-07-17T12:14:25Z</time>
      </trkpt>
      <trkpt lat="46.59417167" lon="17.17587667">
        <ele>165.9</ele>
        <time>2025-07-17T12:14:27Z</time>
      </trkpt>
      <trkpt lat="46.594075" lon="17.17589833">
        <ele>165.5</ele>
        <time>2025-07-17T12:14:29Z</time>
      </trkpt>
      <trkpt lat="46.593975" lon="17.17591833">
        <ele>165.1</ele>
        <time>2025-07-17T12:14:31Z</time>
      </trkpt>
      <trkpt lat="46.59387333" lon="17.17594">
        <ele>165.1</ele>
        <time>2025-07-17T12:14:33Z</time>
      </trkpt>
      <trkpt lat="46.59376667" lon="17.17596167">
        <ele>165.5</ele>
        <time>2025-07-17T12:14:35Z</time>
      </trkpt>
      <trkpt lat="46.59365667" lon="17.17598167">
        <ele>166</ele>
        <time>2025-07-17T12:14:37Z</time>
      </trkpt>
      <trkpt lat="46.59356167" lon="17.17598833">
        <ele>166.9</ele>
        <time>2025-07-17T12:14:39Z</time>
      </trkpt>
      <trkpt lat="46.59345667" lon="17.17599833">
        <ele>167</ele>
        <time>2025-07-17T12:14:41Z</time>
      </trkpt>
      <trkpt lat="46.59335" lon="17.17601833">
        <ele>166.6</ele>
        <time>2025-07-17T12:14:43Z</time>
      </trkpt>
      <trkpt lat="46.59323" lon="17.17604833">
        <ele>167.2</ele>
        <time>2025-07-17T12:14:45Z</time>
      </trkpt>
      <trkpt lat="46.593135" lon="17.17606333">
        <ele>167.5</ele>
        <time>2025-07-17T12:14:47Z</time>
      </trkpt>
      <trkpt lat="46.59304667" lon="17.17609167">
        <ele>168.8</ele>
        <time>2025-07-17T12:14:49Z</time>
      </trkpt>
      <trkpt lat="46.59293333" lon="17.17611333">
        <ele>170.1</ele>
        <time>2025-07-17T12:14:52Z</time>
      </trkpt>
      <trkpt lat="46.592825" lon="17.176145">
        <ele>170.4</ele>
        <time>2025-07-17T12:14:55Z</time>
      </trkpt>
      <trkpt lat="46.59272833" lon="17.17615667">
        <ele>170.3</ele>
        <time>2025-07-17T12:14:57Z</time>
      </trkpt>
      <trkpt lat="46.59262167" lon="17.176175">
        <ele>170.4</ele>
        <time>2025-07-17T12:14:59Z</time>
      </trkpt>
      <trkpt lat="46.59251667" lon="17.17619">
        <ele>170.3</ele>
        <time>2025-07-17T12:15:01Z</time>
      </trkpt>
      <trkpt lat="46.59240333" lon="17.17620333">
        <ele>170.3</ele>
        <time>2025-07-17T12:15:03Z</time>
      </trkpt>
      <trkpt lat="46.59228833" lon="17.17622167">
        <ele>169.7</ele>
        <time>2025-07-17T12:15:05Z</time>
      </trkpt>
      <trkpt lat="46.59217" lon="17.17624167">
        <ele>169.1</ele>
        <time>2025-07-17T12:15:07Z</time>
      </trkpt>
      <trkpt lat="46.59205167" lon="17.17627">
        <ele>168.9</ele>
        <time>2025-07-17T12:15:09Z</time>
      </trkpt>
      <trkpt lat="46.59194" lon="17.1763">
        <ele>168.3</ele>
        <time>2025-07-17T12:15:11Z</time>
      </trkpt>
      <trkpt lat="46.591835" lon="17.17632333">
        <ele>167</ele>
        <time>2025-07-17T12:15:13Z</time>
      </trkpt>
      <trkpt lat="46.591725" lon="17.17634">
        <ele>166.4</ele>
        <time>2025-07-17T12:15:15Z</time>
      </trkpt>
      <trkpt lat="46.59161333" lon="17.17634667">
        <ele>164.4</ele>
        <time>2025-07-17T12:15:17Z</time>
      </trkpt>
      <trkpt lat="46.59149667" lon="17.17637167">
        <ele>164.4</ele>
        <time>2025-07-17T12:15:19Z</time>
      </trkpt>
      <trkpt lat="46.59137667" lon="17.1764">
        <ele>164.1</ele>
        <time>2025-07-17T12:15:21Z</time>
      </trkpt>
      <trkpt lat="46.59125167" lon="17.17641333">
        <ele>163.6</ele>
        <time>2025-07-17T12:15:23Z</time>
      </trkpt>
      <trkpt lat="46.59113167" lon="17.17642167">
        <ele>163.5</ele>
        <time>2025-07-17T12:15:25Z</time>
      </trkpt>
      <trkpt lat="46.59101333" lon="17.17644">
        <ele>163.5</ele>
        <time>2025-07-17T12:15:27Z</time>
      </trkpt>
      <trkpt lat="46.59089167" lon="17.176445">
        <ele>164.2</ele>
        <time>2025-07-17T12:15:29Z</time>
      </trkpt>
      <trkpt lat="46.590775" lon="17.17645833">
        <ele>164.4</ele>
        <time>2025-07-17T12:15:31Z</time>
      </trkpt>
      <trkpt lat="46.59065" lon="17.17647333">
        <ele>164.6</ele>
        <time>2025-07-17T12:15:33Z</time>
      </trkpt>
      <trkpt lat="46.59053" lon="17.17649">
        <ele>164.8</ele>
        <time>2025-07-17T12:15:35Z</time>
      </trkpt>
      <trkpt lat="46.59041167" lon="17.17649833">
        <ele>165</ele>
        <time>2025-07-17T12:15:37Z</time>
      </trkpt>
      <trkpt lat="46.59030167" lon="17.17651333">
        <ele>165.2</ele>
        <time>2025-07-17T12:15:39Z</time>
      </trkpt>
      <trkpt lat="46.59019167" lon="17.17652667">
        <ele>165.3</ele>
        <time>2025-07-17T12:15:41Z</time>
      </trkpt>
      <trkpt lat="46.590085" lon="17.17653167">
        <ele>165</ele>
        <time>2025-07-17T12:15:43Z</time>
      </trkpt>
      <trkpt lat="46.589995" lon="17.176515">
        <ele>163.9</ele>
        <time>2025-07-17T12:15:45Z</time>
      </trkpt>
      <trkpt lat="46.58988667" lon="17.176515">
        <ele>165.2</ele>
        <time>2025-07-17T12:15:47Z</time>
      </trkpt>
      <trkpt lat="46.58976" lon="17.17651667">
        <ele>165.8</ele>
        <time>2025-07-17T12:15:49Z</time>
      </trkpt>
      <trkpt lat="46.58964667" lon="17.176525">
        <ele>164.1</ele>
        <time>2025-07-17T12:15:51Z</time>
      </trkpt>
      <trkpt lat="46.58952" lon="17.17652833">
        <ele>164.3</ele>
        <time>2025-07-17T12:15:53Z</time>
      </trkpt>
      <trkpt lat="46.58940333" lon="17.17653333">
        <ele>164.2</ele>
        <time>2025-07-17T12:15:55Z</time>
      </trkpt>
      <trkpt lat="46.58928333" lon="17.17653667">
        <ele>164.5</ele>
        <time>2025-07-17T12:15:57Z</time>
      </trkpt>
      <trkpt lat="46.58917333" lon="17.176535">
        <ele>164.6</ele>
        <time>2025-07-17T12:15:59Z</time>
      </trkpt>
      <trkpt lat="46.58906667" lon="17.17653167">
        <ele>165.2</ele>
        <time>2025-07-17T12:16:01Z</time>
      </trkpt>
      <trkpt lat="46.58897" lon="17.17652667">
        <ele>165</ele>
        <time>2025-07-17T12:16:03Z</time>
      </trkpt>
      <trkpt lat="46.58884667" lon="17.17651667">
        <ele>164.7</ele>
        <time>2025-07-17T12:16:06Z</time>
      </trkpt>
      <trkpt lat="46.58876" lon="17.17647333">
        <ele>161.3</ele>
        <time>2025-07-17T12:16:14Z</time>
      </trkpt>
    </trkseg>
  </trk>
</gpx>