<?xml version='1.0' encoding='UTF-8' standalone='yes' ?>
<gpx xmlns="http://www.topografix.com/GPX/1/1" xmlns:geotracker="http://ilyabogdanovich.com/gpx/extensions/geotracker" xmlns:xsi="http://www.w3.org/2001/XMLSchema-instance" xsi:schemaLocation="http://www.topografix.com/GPX/1/1 http://www.topografix.com/GPX/1/1/gpx.xsd" version="1.1" creator="Recorded in Geo Tracker for Android from Ilya Bogdanovich">
  <metadata>
    <name>f_0725_03</name>
    <author>
      <name>Recorded in Geo Tracker for Android from Ilya Bogdanovich</name>
      <link href="https://play.google.com/store/apps/details?id=com.ilyabogdanovich.geotracker" />
    </author>
    <link href="https://play.google.com/store/apps/details?id=com.ilyabogdanovich.geotracker" />
    <time>2025-07-25T10:38:42Z</time>
  </metadata>
  <trk>
    <name>f_0725_03</name>
    <src>Recorded in Geo Tracker for Android from Ilya Bogdanovich</src>
    <link href="https://play.google.com/store/apps/details?id=com.ilyabogdanovich.geotracker" />
    <extensions>
      <geotracker:meta>
        <geotracker:length>5637.55</geotracker:length>
        <geotracker:duration>1239172</geotracker:duration>
        <geotracker:creationtime>2025-07-25T10:38:42Z</geotracker:creationtime>
        <geotracker:activity>0</geotracker:activity>
      </geotracker:meta>
    </extensions>
    <trkseg>
      <trkpt lat="46.41926667" lon="17.80136">
        <ele>188.3</ele>
        <time>2025-07-25T10:38:52Z</time>
      </trkpt>
      <trkpt lat="46.41936167" lon="17.801195">
        <ele>184.5</ele>
        <time>2025-07-25T10:39:31Z</time>
      </trkpt>
      <trkpt lat="46.41944333" lon="17.80113167">
        <ele>182.8</ele>
        <time>2025-07-25T10:39:35Z</time>
      </trkpt>
      <trkpt lat="46.41952667" lon="17.80106667">
        <ele>181.8</ele>
        <time>2025-07-25T10:39:39Z</time>
      </trkpt>
      <trkpt lat="46.41961" lon="17.80094833">
        <ele>178.4</ele>
        <time>2025-07-25T10:39:43Z</time>
      </trkpt>
      <trkpt lat="46.419675" lon="17.80083333">
        <ele>176.2</ele>
        <time>2025-07-25T10:39:47Z</time>
      </trkpt>
      <trkpt lat="46.41973833" lon="17.80073667">
        <ele>174.1</ele>
        <time>2025-07-25T10:39:51Z</time>
      </trkpt>
      <trkpt lat="46.41982833" lon="17.800655">
        <ele>173.2</ele>
        <time>2025-07-25T10:39:56Z</time>
      </trkpt>
      <trkpt lat="46.41993667" lon="17.80063333">
        <ele>172</ele>
        <time>2025-07-25T10:40:01Z</time>
      </trkpt>
      <trkpt lat="46.42001833" lon="17.80069833">
        <ele>172.6</ele>
        <time>2025-07-25T10:40:06Z</time>
      </trkpt>
      <trkpt lat="46.42001667" lon="17.80085333">
        <ele>176.8</ele>
        <time>2025-07-25T10:40:13Z</time>
      </trkpt>
      <trkpt lat="46.419985" lon="17.80101333">
        <ele>178.1</ele>
        <time>2025-07-25T10:40:17Z</time>
      </trkpt>
      <trkpt lat="46.41997167" lon="17.80116">
        <ele>178.4</ele>
        <time>2025-07-25T10:40:20Z</time>
      </trkpt>
      <trkpt lat="46.41995167" lon="17.80132833">
        <ele>178.3</ele>
        <time>2025-07-25T10:40:23Z</time>
      </trkpt>
      <trkpt lat="46.41993667" lon="17.80150167">
        <ele>177.3</ele>
        <time>2025-07-25T10:40:26Z</time>
      </trkpt>
      <trkpt lat="46.419925" lon="17.80166333">
        <ele>176</ele>
        <time>2025-07-25T10:40:29Z</time>
      </trkpt>
      <trkpt lat="46.41990833" lon="17.80179667">
        <ele>175.2</ele>
        <time>2025-07-25T10:40:31Z</time>
      </trkpt>
      <trkpt lat="46.419875" lon="17.80193167">
        <ele>174.5</ele>
        <time>2025-07-25T10:40:33Z</time>
      </trkpt>
      <trkpt lat="46.41982833" lon="17.80207">
        <ele>174.3</ele>
        <time>2025-07-25T10:40:35Z</time>
      </trkpt>
      <trkpt lat="46.41977167" lon="17.802195">
        <ele>174.2</ele>
        <time>2025-07-25T10:40:37Z</time>
      </trkpt>
      <trkpt lat="46.41970833" lon="17.802325">
        <ele>172.4</ele>
        <time>2025-07-25T10:40:39Z</time>
      </trkpt>
      <trkpt lat="46.41964" lon="17.802435">
        <ele>171.8</ele>
        <time>2025-07-25T10:40:41Z</time>
      </trkpt>
      <trkpt lat="46.41956667" lon="17.80254667">
        <ele>171.3</ele>
        <time>2025-07-25T10:40:43Z</time>
      </trkpt>
      <trkpt lat="46.419495" lon="17.80264833">
        <ele>170.8</ele>
        <time>2025-07-25T10:40:45Z</time>
      </trkpt>
      <trkpt lat="46.41943333" lon="17.80276">
        <ele>170.2</ele>
        <time>2025-07-25T10:40:47Z</time>
      </trkpt>
      <trkpt lat="46.41936667" lon="17.80286333">
        <ele>170</ele>
        <time>2025-07-25T10:40:49Z</time>
      </trkpt>
      <trkpt lat="46.41927833" lon="17.802945">
        <ele>168.9</ele>
        <time>2025-07-25T10:40:51Z</time>
      </trkpt>
      <trkpt lat="46.419195" lon="17.80302333">
        <ele>168</ele>
        <time>2025-07-25T10:40:53Z</time>
      </trkpt>
      <trkpt lat="46.41904" lon="17.803155">
        <ele>168.3</ele>
        <time>2025-07-25T10:40:57Z</time>
      </trkpt>
      <trkpt lat="46.41896167" lon="17.80323">
        <ele>168.3</ele>
        <time>2025-07-25T10:40:59Z</time>
      </trkpt>
      <trkpt lat="46.418865" lon="17.80329667">
        <ele>167.8</ele>
        <time>2025-07-25T10:41:02Z</time>
      </trkpt>
      <trkpt lat="46.41878333" lon="17.803385">
        <ele>166.5</ele>
        <time>2025-07-25T10:41:04Z</time>
      </trkpt>
      <trkpt lat="46.41870833" lon="17.80349167">
        <ele>166.1</ele>
        <time>2025-07-25T10:41:06Z</time>
      </trkpt>
      <trkpt lat="46.41862167" lon="17.80360667">
        <ele>165.9</ele>
        <time>2025-07-25T10:41:08Z</time>
      </trkpt>
      <trkpt lat="46.41853833" lon="17.80370833">
        <ele>165.9</ele>
        <time>2025-07-25T10:41:10Z</time>
      </trkpt>
      <trkpt lat="46.41845667" lon="17.8038">
        <ele>165.9</ele>
        <time>2025-07-25T10:41:12Z</time>
      </trkpt>
      <trkpt lat="46.41836167" lon="17.80394167">
        <ele>167.1</ele>
        <time>2025-07-25T10:41:14Z</time>
      </trkpt>
      <trkpt lat="46.41827667" lon="17.804065">
        <ele>168.9</ele>
        <time>2025-07-25T10:41:16Z</time>
      </trkpt>
      <trkpt lat="46.41819" lon="17.80417">
        <ele>170.2</ele>
        <time>2025-07-25T10:41:18Z</time>
      </trkpt>
      <trkpt lat="46.41809833" lon="17.80427667">
        <ele>171.4</ele>
        <time>2025-07-25T10:41:20Z</time>
      </trkpt>
      <trkpt lat="46.41801333" lon="17.804385">
        <ele>173</ele>
        <time>2025-07-25T10:41:22Z</time>
      </trkpt>
      <trkpt lat="46.417935" lon="17.80447833">
        <ele>174.3</ele>
        <time>2025-07-25T10:41:24Z</time>
      </trkpt>
      <trkpt lat="46.41786333" lon="17.80457167">
        <ele>175.2</ele>
        <time>2025-07-25T10:41:26Z</time>
      </trkpt>
      <trkpt lat="46.41779833" lon="17.80466167">
        <ele>176.5</ele>
        <time>2025-07-25T10:41:28Z</time>
      </trkpt>
      <trkpt lat="46.41771333" lon="17.80479167">
        <ele>177.6</ele>
        <time>2025-07-25T10:41:31Z</time>
      </trkpt>
      <trkpt lat="46.41761333" lon="17.8049">
        <ele>177.4</ele>
        <time>2025-07-25T10:41:34Z</time>
      </trkpt>
      <trkpt lat="46.41750833" lon="17.80500667">
        <ele>176.8</ele>
        <time>2025-07-25T10:41:37Z</time>
      </trkpt>
      <trkpt lat="46.417425" lon="17.80508833">
        <ele>175.2</ele>
        <time>2025-07-25T10:41:40Z</time>
      </trkpt>
      <trkpt lat="46.41734" lon="17.80515">
        <ele>173.4</ele>
        <time>2025-07-25T10:41:43Z</time>
      </trkpt>
      <trkpt lat="46.41725333" lon="17.80521167">
        <ele>169.9</ele>
        <time>2025-07-25T10:41:47Z</time>
      </trkpt>
      <trkpt lat="46.417165" lon="17.80527333">
        <ele>170</ele>
        <time>2025-07-25T10:41:51Z</time>
      </trkpt>
      <trkpt lat="46.41705" lon="17.80534333">
        <ele>170.2</ele>
        <time>2025-07-25T10:41:54Z</time>
      </trkpt>
      <trkpt lat="46.41693333" lon="17.80541667">
        <ele>170.2</ele>
        <time>2025-07-25T10:41:57Z</time>
      </trkpt>
      <trkpt lat="46.41685" lon="17.80548667">
        <ele>169.8</ele>
        <time>2025-07-25T10:41:59Z</time>
      </trkpt>
      <trkpt lat="46.41675" lon="17.80555333">
        <ele>169.3</ele>
        <time>2025-07-25T10:42:01Z</time>
      </trkpt>
      <trkpt lat="46.41666333" lon="17.80560833">
        <ele>169</ele>
        <time>2025-07-25T10:42:03Z</time>
      </trkpt>
      <trkpt lat="46.416565" lon="17.80569667">
        <ele>168.5</ele>
        <time>2025-07-25T10:42:05Z</time>
      </trkpt>
      <trkpt lat="46.41643333" lon="17.80579667">
        <ele>168.2</ele>
        <time>2025-07-25T10:42:07Z</time>
      </trkpt>
      <trkpt lat="46.416325" lon="17.80587333">
        <ele>168</ele>
        <time>2025-07-25T10:42:09Z</time>
      </trkpt>
      <trkpt lat="46.41623667" lon="17.80593667">
        <ele>167.1</ele>
        <time>2025-07-25T10:42:11Z</time>
      </trkpt>
      <trkpt lat="46.41615333" lon="17.80599833">
        <ele>166.9</ele>
        <time>2025-07-25T10:42:13Z</time>
      </trkpt>
      <trkpt lat="46.41607333" lon="17.80605833">
        <ele>166.6</ele>
        <time>2025-07-25T10:42:15Z</time>
      </trkpt>
      <trkpt lat="46.41598667" lon="17.80613667">
        <ele>167.1</ele>
        <time>2025-07-25T10:42:17Z</time>
      </trkpt>
      <trkpt lat="46.4159" lon="17.80622833">
        <ele>167.4</ele>
        <time>2025-07-25T10:42:19Z</time>
      </trkpt>
      <trkpt lat="46.41580167" lon="17.80633667">
        <ele>169.7</ele>
        <time>2025-07-25T10:42:21Z</time>
      </trkpt>
      <trkpt lat="46.4157" lon="17.80643333">
        <ele>171.5</ele>
        <time>2025-07-25T10:42:23Z</time>
      </trkpt>
      <trkpt lat="46.415615" lon="17.80652333">
        <ele>172.9</ele>
        <time>2025-07-25T10:42:25Z</time>
      </trkpt>
      <trkpt lat="46.41553167" lon="17.80659833">
        <ele>174</ele>
        <time>2025-07-25T10:42:27Z</time>
      </trkpt>
      <trkpt lat="46.41543" lon="17.80668167">
        <ele>174.7</ele>
        <time>2025-07-25T10:42:30Z</time>
      </trkpt>
      <trkpt lat="46.415355" lon="17.80677">
        <ele>175.7</ele>
        <time>2025-07-25T10:42:32Z</time>
      </trkpt>
      <trkpt lat="46.41526167" lon="17.80686333">
        <ele>174.7</ele>
        <time>2025-07-25T10:42:35Z</time>
      </trkpt>
      <trkpt lat="46.41518333" lon="17.80693167">
        <ele>173.8</ele>
        <time>2025-07-25T10:42:38Z</time>
      </trkpt>
      <trkpt lat="46.41508667" lon="17.80702667">
        <ele>173.8</ele>
        <time>2025-07-25T10:42:41Z</time>
      </trkpt>
      <trkpt lat="46.41498833" lon="17.807125">
        <ele>173.2</ele>
        <time>2025-07-25T10:42:44Z</time>
      </trkpt>
      <trkpt lat="46.41487" lon="17.80720333">
        <ele>172.8</ele>
        <time>2025-07-25T10:42:47Z</time>
      </trkpt>
      <trkpt lat="46.41472833" lon="17.807265">
        <ele>171.9</ele>
        <time>2025-07-25T10:42:50Z</time>
      </trkpt>
      <trkpt lat="46.41463333" lon="17.80727833">
        <ele>171.2</ele>
        <time>2025-07-25T10:42:52Z</time>
      </trkpt>
      <trkpt lat="46.41449833" lon="17.80722667">
        <ele>170.3</ele>
        <time>2025-07-25T10:42:55Z</time>
      </trkpt>
      <trkpt lat="46.41437667" lon="17.80714167">
        <ele>172.2</ele>
        <time>2025-07-25T10:42:57Z</time>
      </trkpt>
      <trkpt lat="46.41428" lon="17.80708667">
        <ele>175</ele>
        <time>2025-07-25T10:42:59Z</time>
      </trkpt>
      <trkpt lat="46.41418167" lon="17.807045">
        <ele>178.7</ele>
        <time>2025-07-25T10:43:01Z</time>
      </trkpt>
      <trkpt lat="46.414085" lon="17.80706">
        <ele>182.3</ele>
        <time>2025-07-25T10:43:03Z</time>
      </trkpt>
      <trkpt lat="46.41399167" lon="17.80707833">
        <ele>182.7</ele>
        <time>2025-07-25T10:43:05Z</time>
      </trkpt>
      <trkpt lat="46.41390167" lon="17.80711">
        <ele>181.6</ele>
        <time>2025-07-25T10:43:07Z</time>
      </trkpt>
      <trkpt lat="46.413805" lon="17.80713833">
        <ele>179.7</ele>
        <time>2025-07-25T10:43:09Z</time>
      </trkpt>
      <trkpt lat="46.413695" lon="17.80716667">
        <ele>177.7</ele>
        <time>2025-07-25T10:43:11Z</time>
      </trkpt>
      <trkpt lat="46.41358667" lon="17.80725167">
        <ele>173.7</ele>
        <time>2025-07-25T10:43:14Z</time>
      </trkpt>
      <trkpt lat="46.413525" lon="17.80735833">
        <ele>173.4</ele>
        <time>2025-07-25T10:43:16Z</time>
      </trkpt>
      <trkpt lat="46.41351" lon="17.80748833">
        <ele>173.2</ele>
        <time>2025-07-25T10:43:18Z</time>
      </trkpt>
      <trkpt lat="46.41352167" lon="17.80762">
        <ele>171.8</ele>
        <time>2025-07-25T10:43:20Z</time>
      </trkpt>
      <trkpt lat="46.41358667" lon="17.807755">
        <ele>168.5</ele>
        <time>2025-07-25T10:43:23Z</time>
      </trkpt>
      <trkpt lat="46.41367167" lon="17.807865">
        <ele>166.7</ele>
        <time>2025-07-25T10:43:26Z</time>
      </trkpt>
      <trkpt lat="46.41375" lon="17.807985">
        <ele>165</ele>
        <time>2025-07-25T10:43:29Z</time>
      </trkpt>
      <trkpt lat="46.41379333" lon="17.80812667">
        <ele>163.3</ele>
        <time>2025-07-25T10:43:32Z</time>
      </trkpt>
      <trkpt lat="46.413815" lon="17.80826167">
        <ele>161.9</ele>
        <time>2025-07-25T10:43:35Z</time>
      </trkpt>
      <trkpt lat="46.41379167" lon="17.8084">
        <ele>161.5</ele>
        <time>2025-07-25T10:43:38Z</time>
      </trkpt>
      <trkpt lat="46.41373333" lon="17.80853333">
        <ele>162.1</ele>
        <time>2025-07-25T10:43:41Z</time>
      </trkpt>
      <trkpt lat="46.413645" lon="17.80867167">
        <ele>159.6</ele>
        <time>2025-07-25T10:43:44Z</time>
      </trkpt>
      <trkpt lat="46.41358" lon="17.808775">
        <ele>159.8</ele>
        <time>2025-07-25T10:43:46Z</time>
      </trkpt>
      <trkpt lat="46.41351" lon="17.80886">
        <ele>158.6</ele>
        <time>2025-07-25T10:43:48Z</time>
      </trkpt>
      <trkpt lat="46.413435" lon="17.80894833">
        <ele>157.9</ele>
        <time>2025-07-25T10:43:50Z</time>
      </trkpt>
      <trkpt lat="46.413345" lon="17.80905667">
        <ele>158.4</ele>
        <time>2025-07-25T10:43:52Z</time>
      </trkpt>
      <trkpt lat="46.41324833" lon="17.80917">
        <ele>159</ele>
        <time>2025-07-25T10:43:54Z</time>
      </trkpt>
      <trkpt lat="46.413155" lon="17.80926333">
        <ele>159.3</ele>
        <time>2025-07-25T10:43:56Z</time>
      </trkpt>
      <trkpt lat="46.41307167" lon="17.80937333">
        <ele>159.8</ele>
        <time>2025-07-25T10:43:58Z</time>
      </trkpt>
      <trkpt lat="46.412985" lon="17.80949">
        <ele>160.4</ele>
        <time>2025-07-25T10:44:00Z</time>
      </trkpt>
      <trkpt lat="46.41289333" lon="17.80961667">
        <ele>160.8</ele>
        <time>2025-07-25T10:44:02Z</time>
      </trkpt>
      <trkpt lat="46.412815" lon="17.80973833">
        <ele>162.2</ele>
        <time>2025-07-25T10:44:04Z</time>
      </trkpt>
      <trkpt lat="46.41273" lon="17.809855">
        <ele>164</ele>
        <time>2025-07-25T10:44:06Z</time>
      </trkpt>
      <trkpt lat="46.41263333" lon="17.80998167">
        <ele>164</ele>
        <time>2025-07-25T10:44:09Z</time>
      </trkpt>
      <trkpt lat="46.412545" lon="17.81011167">
        <ele>164.4</ele>
        <time>2025-07-25T10:44:12Z</time>
      </trkpt>
      <trkpt lat="46.412455" lon="17.810235">
        <ele>165</ele>
        <time>2025-07-25T10:44:15Z</time>
      </trkpt>
      <trkpt lat="46.41235167" lon="17.81035">
        <ele>165.5</ele>
        <time>2025-07-25T10:44:18Z</time>
      </trkpt>
      <trkpt lat="46.41227" lon="17.81044">
        <ele>165.4</ele>
        <time>2025-07-25T10:44:20Z</time>
      </trkpt>
      <trkpt lat="46.41219333" lon="17.81052833">
        <ele>165.8</ele>
        <time>2025-07-25T10:44:22Z</time>
      </trkpt>
      <trkpt lat="46.412085" lon="17.81061833">
        <ele>164.6</ele>
        <time>2025-07-25T10:44:25Z</time>
      </trkpt>
      <trkpt lat="46.412" lon="17.81069">
        <ele>164.8</ele>
        <time>2025-07-25T10:44:27Z</time>
      </trkpt>
      <trkpt lat="46.41190833" lon="17.81076667">
        <ele>164.9</ele>
        <time>2025-07-25T10:44:29Z</time>
      </trkpt>
      <trkpt lat="46.41181167" lon="17.810845">
        <ele>167.1</ele>
        <time>2025-07-25T10:44:30Z</time>
      </trkpt>
      <trkpt lat="46.41165" lon="17.81096833">
        <ele>168.1</ele>
        <time>2025-07-25T10:44:32Z</time>
      </trkpt>
      <trkpt lat="46.41151167" lon="17.81107">
        <ele>168.7</ele>
        <time>2025-07-25T10:44:34Z</time>
      </trkpt>
      <trkpt lat="46.411375" lon="17.81117333">
        <ele>170.7</ele>
        <time>2025-07-25T10:44:36Z</time>
      </trkpt>
      <trkpt lat="46.41124" lon="17.81126833">
        <ele>173.2</ele>
        <time>2025-07-25T10:44:38Z</time>
      </trkpt>
      <trkpt lat="46.411135" lon="17.811345">
        <ele>174.1</ele>
        <time>2025-07-25T10:44:40Z</time>
      </trkpt>
      <trkpt lat="46.411035" lon="17.81143">
        <ele>174.8</ele>
        <time>2025-07-25T10:44:42Z</time>
      </trkpt>
      <trkpt lat="46.41093833" lon="17.81151167">
        <ele>175.7</ele>
        <time>2025-07-25T10:44:44Z</time>
      </trkpt>
      <trkpt lat="46.41085333" lon="17.81156167">
        <ele>175.7</ele>
        <time>2025-07-25T10:44:46Z</time>
      </trkpt>
      <trkpt lat="46.41075" lon="17.81158333">
        <ele>175</ele>
        <time>2025-07-25T10:44:48Z</time>
      </trkpt>
      <trkpt lat="46.41064667" lon="17.81161333">
        <ele>174.5</ele>
        <time>2025-07-25T10:44:50Z</time>
      </trkpt>
      <trkpt lat="46.41051667" lon="17.81165">
        <ele>174.3</ele>
        <time>2025-07-25T10:44:53Z</time>
      </trkpt>
      <trkpt lat="46.41039" lon="17.81166167">
        <ele>174.3</ele>
        <time>2025-07-25T10:44:56Z</time>
      </trkpt>
      <trkpt lat="46.41026167" lon="17.811685">
        <ele>173.4</ele>
        <time>2025-07-25T10:44:59Z</time>
      </trkpt>
      <trkpt lat="46.41013" lon="17.81173167">
        <ele>173.5</ele>
        <time>2025-07-25T10:45:02Z</time>
      </trkpt>
      <trkpt lat="46.41003333" lon="17.81174">
        <ele>172.9</ele>
        <time>2025-07-25T10:45:05Z</time>
      </trkpt>
      <trkpt lat="46.409905" lon="17.81177833">
        <ele>172.8</ele>
        <time>2025-07-25T10:45:08Z</time>
      </trkpt>
      <trkpt lat="46.40977" lon="17.81180833">
        <ele>174</ele>
        <time>2025-07-25T10:45:11Z</time>
      </trkpt>
      <trkpt lat="46.409675" lon="17.8118">
        <ele>173.7</ele>
        <time>2025-07-25T10:45:13Z</time>
      </trkpt>
      <trkpt lat="46.409575" lon="17.81177167">
        <ele>172.7</ele>
        <time>2025-07-25T10:45:15Z</time>
      </trkpt>
      <trkpt lat="46.40948167" lon="17.81176833">
        <ele>172</ele>
        <time>2025-07-25T10:45:17Z</time>
      </trkpt>
      <trkpt lat="46.40934667" lon="17.811785">
        <ele>170.5</ele>
        <time>2025-07-25T10:45:19Z</time>
      </trkpt>
      <trkpt lat="46.40919167" lon="17.81181167">
        <ele>169</ele>
        <time>2025-07-25T10:45:21Z</time>
      </trkpt>
      <trkpt lat="46.40903167" lon="17.811895">
        <ele>171.3</ele>
        <time>2025-07-25T10:45:23Z</time>
      </trkpt>
      <trkpt lat="46.40893167" lon="17.81195333">
        <ele>171.8</ele>
        <time>2025-07-25T10:45:25Z</time>
      </trkpt>
      <trkpt lat="46.40883833" lon="17.812">
        <ele>172</ele>
        <time>2025-07-25T10:45:27Z</time>
      </trkpt>
      <trkpt lat="46.40874167" lon="17.81205167">
        <ele>172.2</ele>
        <time>2025-07-25T10:45:29Z</time>
      </trkpt>
      <trkpt lat="46.408645" lon="17.812105">
        <ele>172.7</ele>
        <time>2025-07-25T10:45:31Z</time>
      </trkpt>
      <trkpt lat="46.40856" lon="17.81216">
        <ele>173.3</ele>
        <time>2025-07-25T10:45:33Z</time>
      </trkpt>
      <trkpt lat="46.40847" lon="17.81220333">
        <ele>173.6</ele>
        <time>2025-07-25T10:45:35Z</time>
      </trkpt>
      <trkpt lat="46.40836833" lon="17.81225167">
        <ele>173.4</ele>
        <time>2025-07-25T10:45:38Z</time>
      </trkpt>
      <trkpt lat="46.408245" lon="17.81231167">
        <ele>173.1</ele>
        <time>2025-07-25T10:45:41Z</time>
      </trkpt>
      <trkpt lat="46.40816" lon="17.812375">
        <ele>173.2</ele>
        <time>2025-07-25T10:45:43Z</time>
      </trkpt>
      <trkpt lat="46.408035" lon="17.81246167">
        <ele>172.9</ele>
        <time>2025-07-25T10:45:46Z</time>
      </trkpt>
      <trkpt lat="46.40794" lon="17.81252167">
        <ele>172.5</ele>
        <time>2025-07-25T10:45:48Z</time>
      </trkpt>
      <trkpt lat="46.407845" lon="17.81257167">
        <ele>172</ele>
        <time>2025-07-25T10:45:50Z</time>
      </trkpt>
      <trkpt lat="46.40774833" lon="17.81258833">
        <ele>170.8</ele>
        <time>2025-07-25T10:45:52Z</time>
      </trkpt>
      <trkpt lat="46.40764667" lon="17.8126">
        <ele>170.3</ele>
        <time>2025-07-25T10:45:54Z</time>
      </trkpt>
      <trkpt lat="46.40753833" lon="17.81260333">
        <ele>170.2</ele>
        <time>2025-07-25T10:45:56Z</time>
      </trkpt>
      <trkpt lat="46.40742333" lon="17.812615">
        <ele>170.4</ele>
        <time>2025-07-25T10:45:58Z</time>
      </trkpt>
      <trkpt lat="46.40732667" lon="17.812625">
        <ele>171.4</ele>
        <time>2025-07-25T10:46:00Z</time>
      </trkpt>
      <trkpt lat="46.40719167" lon="17.812645">
        <ele>171.4</ele>
        <time>2025-07-25T10:46:03Z</time>
      </trkpt>
      <trkpt lat="46.40709833" lon="17.81264167">
        <ele>170.9</ele>
        <time>2025-07-25T10:46:05Z</time>
      </trkpt>
      <trkpt lat="46.40699667" lon="17.81261">
        <ele>170.2</ele>
        <time>2025-07-25T10:46:07Z</time>
      </trkpt>
      <trkpt lat="46.406915" lon="17.81255333">
        <ele>168.9</ele>
        <time>2025-07-25T10:46:09Z</time>
      </trkpt>
      <trkpt lat="46.40680667" lon="17.81246333">
        <ele>168.9</ele>
        <time>2025-07-25T10:46:12Z</time>
      </trkpt>
      <trkpt lat="46.40671833" lon="17.81234167">
        <ele>167.8</ele>
        <time>2025-07-25T10:46:15Z</time>
      </trkpt>
      <trkpt lat="46.40664167" lon="17.81222333">
        <ele>165.5</ele>
        <time>2025-07-25T10:46:18Z</time>
      </trkpt>
      <trkpt lat="46.40653333" lon="17.81211833">
        <ele>164.5</ele>
        <time>2025-07-25T10:46:21Z</time>
      </trkpt>
      <trkpt lat="46.40644167" lon="17.81203">
        <ele>164.4</ele>
        <time>2025-07-25T10:46:23Z</time>
      </trkpt>
      <trkpt lat="46.40635333" lon="17.811965">
        <ele>165.4</ele>
        <time>2025-07-25T10:46:25Z</time>
      </trkpt>
      <trkpt lat="46.40621167" lon="17.81189167">
        <ele>166.8</ele>
        <time>2025-07-25T10:46:28Z</time>
      </trkpt>
      <trkpt lat="46.40610833" lon="17.81182833">
        <ele>169.4</ele>
        <time>2025-07-25T10:46:30Z</time>
      </trkpt>
      <trkpt lat="46.40601667" lon="17.811775">
        <ele>170.7</ele>
        <time>2025-07-25T10:46:32Z</time>
      </trkpt>
      <trkpt lat="46.40591667" lon="17.81173333">
        <ele>172.4</ele>
        <time>2025-07-25T10:46:34Z</time>
      </trkpt>
      <trkpt lat="46.40583167" lon="17.811685">
        <ele>174.4</ele>
        <time>2025-07-25T10:46:36Z</time>
      </trkpt>
      <trkpt lat="46.40574167" lon="17.81164833">
        <ele>175.2</ele>
        <time>2025-07-25T10:46:38Z</time>
      </trkpt>
      <trkpt lat="46.40564167" lon="17.81159">
        <ele>175.8</ele>
        <time>2025-07-25T10:46:41Z</time>
      </trkpt>
      <trkpt lat="46.40564167" lon="17.811425">
        <ele>177</ele>
        <time>2025-07-25T10:46:49Z</time>
      </trkpt>
      <trkpt lat="46.40568833" lon="17.811305">
        <ele>175.5</ele>
        <time>2025-07-25T10:46:51Z</time>
      </trkpt>
      <trkpt lat="46.40572833" lon="17.81117833">
        <ele>174.4</ele>
        <time>2025-07-25T10:46:53Z</time>
      </trkpt>
      <trkpt lat="46.405715" lon="17.81102">
        <ele>172.5</ele>
        <time>2025-07-25T10:46:56Z</time>
      </trkpt>
      <trkpt lat="46.40563667" lon="17.81093333">
        <ele>169.6</ele>
        <time>2025-07-25T10:46:58Z</time>
      </trkpt>
      <trkpt lat="46.40554167" lon="17.81089">
        <ele>167.6</ele>
        <time>2025-07-25T10:47:00Z</time>
      </trkpt>
      <trkpt lat="46.40545" lon="17.81087667">
        <ele>165.1</ele>
        <time>2025-07-25T10:47:02Z</time>
      </trkpt>
      <trkpt lat="46.40531833" lon="17.81083333">
        <ele>160.5</ele>
        <time>2025-07-25T10:47:05Z</time>
      </trkpt>
      <trkpt lat="46.40521667" lon="17.81082833">
        <ele>158.9</ele>
        <time>2025-07-25T10:47:07Z</time>
      </trkpt>
      <trkpt lat="46.40509333" lon="17.810875">
        <ele>158.2</ele>
        <time>2025-07-25T10:47:09Z</time>
      </trkpt>
      <trkpt lat="46.40493" lon="17.81090333">
        <ele>160</ele>
        <time>2025-07-25T10:47:11Z</time>
      </trkpt>
      <trkpt lat="46.404795" lon="17.81096167">
        <ele>161.3</ele>
        <time>2025-07-25T10:47:13Z</time>
      </trkpt>
      <trkpt lat="46.40466167" lon="17.81102667">
        <ele>162.8</ele>
        <time>2025-07-25T10:47:15Z</time>
      </trkpt>
      <trkpt lat="46.40454" lon="17.81107833">
        <ele>165.2</ele>
        <time>2025-07-25T10:47:17Z</time>
      </trkpt>
      <trkpt lat="46.404445" lon="17.81112667">
        <ele>165.5</ele>
        <time>2025-07-25T10:47:19Z</time>
      </trkpt>
      <trkpt lat="46.40435833" lon="17.811165">
        <ele>166.3</ele>
        <time>2025-07-25T10:47:21Z</time>
      </trkpt>
      <trkpt lat="46.40426833" lon="17.81119667">
        <ele>166.8</ele>
        <time>2025-07-25T10:47:23Z</time>
      </trkpt>
      <trkpt lat="46.40416" lon="17.81121">
        <ele>166.6</ele>
        <time>2025-07-25T10:47:26Z</time>
      </trkpt>
      <trkpt lat="46.404055" lon="17.81124833">
        <ele>167.6</ele>
        <time>2025-07-25T10:47:29Z</time>
      </trkpt>
      <trkpt lat="46.40396167" lon="17.81128333">
        <ele>167.7</ele>
        <time>2025-07-25T10:47:32Z</time>
      </trkpt>
      <trkpt lat="46.40387167" lon="17.81129833">
        <ele>167.1</ele>
        <time>2025-07-25T10:47:35Z</time>
      </trkpt>
      <trkpt lat="46.40376" lon="17.81130833">
        <ele>166</ele>
        <time>2025-07-25T10:47:38Z</time>
      </trkpt>
      <trkpt lat="46.40366" lon="17.81130667">
        <ele>165.9</ele>
        <time>2025-07-25T10:47:42Z</time>
      </trkpt>
      <trkpt lat="46.40356333" lon="17.81124">
        <ele>163.1</ele>
        <time>2025-07-25T10:47:46Z</time>
      </trkpt>
      <trkpt lat="46.40344833" lon="17.81114833">
        <ele>159.2</ele>
        <time>2025-07-25T10:47:50Z</time>
      </trkpt>
      <trkpt lat="46.40333" lon="17.81102333">
        <ele>156.7</ele>
        <time>2025-07-25T10:47:53Z</time>
      </trkpt>
      <trkpt lat="46.40323833" lon="17.81094333">
        <ele>155.5</ele>
        <time>2025-07-25T10:47:55Z</time>
      </trkpt>
      <trkpt lat="46.40313833" lon="17.81085333">
        <ele>155</ele>
        <time>2025-07-25T10:47:57Z</time>
      </trkpt>
      <trkpt lat="46.403035" lon="17.81077667">
        <ele>154.8</ele>
        <time>2025-07-25T10:47:59Z</time>
      </trkpt>
      <trkpt lat="46.402915" lon="17.81071333">
        <ele>154.2</ele>
        <time>2025-07-25T10:48:01Z</time>
      </trkpt>
      <trkpt lat="46.40281667" lon="17.81064833">
        <ele>154.4</ele>
        <time>2025-07-25T10:48:02Z</time>
      </trkpt>
      <trkpt lat="46.40272833" lon="17.8106">
        <ele>154.5</ele>
        <time>2025-07-25T10:48:03Z</time>
      </trkpt>
      <trkpt lat="46.40254333" lon="17.810515">
        <ele>155.6</ele>
        <time>2025-07-25T10:48:05Z</time>
      </trkpt>
      <trkpt lat="46.40243" lon="17.81046833">
        <ele>157.5</ele>
        <time>2025-07-25T10:48:06Z</time>
      </trkpt>
      <trkpt lat="46.402335" lon="17.81044">
        <ele>160.1</ele>
        <time>2025-07-25T10:48:07Z</time>
      </trkpt>
      <trkpt lat="46.40218333" lon="17.810375">
        <ele>166.3</ele>
        <time>2025-07-25T10:48:09Z</time>
      </trkpt>
      <trkpt lat="46.402085" lon="17.810335">
        <ele>167.4</ele>
        <time>2025-07-25T10:48:11Z</time>
      </trkpt>
      <trkpt lat="46.40199" lon="17.81028167">
        <ele>168.4</ele>
        <time>2025-07-25T10:48:13Z</time>
      </trkpt>
      <trkpt lat="46.4019" lon="17.810235">
        <ele>169.2</ele>
        <time>2025-07-25T10:48:15Z</time>
      </trkpt>
      <trkpt lat="46.40177833" lon="17.81018667">
        <ele>170.5</ele>
        <time>2025-07-25T10:48:18Z</time>
      </trkpt>
      <trkpt lat="46.40169167" lon="17.81014333">
        <ele>172.2</ele>
        <time>2025-07-25T10:48:20Z</time>
      </trkpt>
      <trkpt lat="46.40160333" lon="17.81009333">
        <ele>173.4</ele>
        <time>2025-07-25T10:48:22Z</time>
      </trkpt>
      <trkpt lat="46.401485" lon="17.810055">
        <ele>175.3</ele>
        <time>2025-07-25T10:48:25Z</time>
      </trkpt>
      <trkpt lat="46.40137833" lon="17.810015">
        <ele>175.1</ele>
        <time>2025-07-25T10:48:27Z</time>
      </trkpt>
      <trkpt lat="46.40125167" lon="17.809955">
        <ele>175.7</ele>
        <time>2025-07-25T10:48:30Z</time>
      </trkpt>
      <trkpt lat="46.40116167" lon="17.809925">
        <ele>175.9</ele>
        <time>2025-07-25T10:48:32Z</time>
      </trkpt>
      <trkpt lat="46.40104" lon="17.80988833">
        <ele>176.1</ele>
        <time>2025-07-25T10:48:35Z</time>
      </trkpt>
      <trkpt lat="46.40090333" lon="17.80990333">
        <ele>171.3</ele>
        <time>2025-07-25T10:48:39Z</time>
      </trkpt>
      <trkpt lat="46.40079333" lon="17.80989667">
        <ele>170.1</ele>
        <time>2025-07-25T10:48:42Z</time>
      </trkpt>
      <trkpt lat="46.40069833" lon="17.809865">
        <ele>168.7</ele>
        <time>2025-07-25T10:48:44Z</time>
      </trkpt>
      <trkpt lat="46.400565" lon="17.80985667">
        <ele>169.2</ele>
        <time>2025-07-25T10:48:47Z</time>
      </trkpt>
      <trkpt lat="46.40046833" lon="17.80986">
        <ele>170.3</ele>
        <time>2025-07-25T10:48:49Z</time>
      </trkpt>
      <trkpt lat="46.40037167" lon="17.809875">
        <ele>171.5</ele>
        <time>2025-07-25T10:48:51Z</time>
      </trkpt>
      <trkpt lat="46.40027667" lon="17.80990333">
        <ele>173.1</ele>
        <time>2025-07-25T10:48:53Z</time>
      </trkpt>
      <trkpt lat="46.40018" lon="17.809915">
        <ele>174.8</ele>
        <time>2025-07-25T10:48:55Z</time>
      </trkpt>
      <trkpt lat="46.40008167" lon="17.80992667">
        <ele>175.2</ele>
        <time>2025-07-25T10:48:57Z</time>
      </trkpt>
      <trkpt lat="46.39998167" lon="17.80993">
        <ele>175</ele>
        <time>2025-07-25T10:48:59Z</time>
      </trkpt>
      <trkpt lat="46.39988333" lon="17.80993667">
        <ele>174.4</ele>
        <time>2025-07-25T10:49:01Z</time>
      </trkpt>
      <trkpt lat="46.399775" lon="17.80999167">
        <ele>173.1</ele>
        <time>2025-07-25T10:49:04Z</time>
      </trkpt>
      <trkpt lat="46.39969333" lon="17.81006167">
        <ele>174.7</ele>
        <time>2025-07-25T10:49:06Z</time>
      </trkpt>
      <trkpt lat="46.39960333" lon="17.81017">
        <ele>176.9</ele>
        <time>2025-07-25T10:49:08Z</time>
      </trkpt>
      <trkpt lat="46.39949667" lon="17.810335">
        <ele>177.3</ele>
        <time>2025-07-25T10:49:10Z</time>
      </trkpt>
      <trkpt lat="46.39942" lon="17.81049333">
        <ele>182</ele>
        <time>2025-07-25T10:49:12Z</time>
      </trkpt>
      <trkpt lat="46.39936333" lon="17.81070833">
        <ele>188.8</ele>
        <time>2025-07-25T10:49:14Z</time>
      </trkpt>
      <trkpt lat="46.39930833" lon="17.81083833">
        <ele>191.2</ele>
        <time>2025-07-25T10:49:16Z</time>
      </trkpt>
      <trkpt lat="46.39921333" lon="17.81093833">
        <ele>188.5</ele>
        <time>2025-07-25T10:49:18Z</time>
      </trkpt>
      <trkpt lat="46.39914333" lon="17.81103167">
        <ele>188</ele>
        <time>2025-07-25T10:49:20Z</time>
      </trkpt>
      <trkpt lat="46.39905167" lon="17.81111167">
        <ele>186</ele>
        <time>2025-07-25T10:49:23Z</time>
      </trkpt>
      <trkpt lat="46.39893833" lon="17.81118">
        <ele>182.1</ele>
        <time>2025-07-25T10:49:26Z</time>
      </trkpt>
      <trkpt lat="46.39883833" lon="17.81119667">
        <ele>178.3</ele>
        <time>2025-07-25T10:49:29Z</time>
      </trkpt>
      <trkpt lat="46.398745" lon="17.81118833">
        <ele>172.4</ele>
        <time>2025-07-25T10:49:32Z</time>
      </trkpt>
      <trkpt lat="46.39864" lon="17.81111667">
        <ele>161.4</ele>
        <time>2025-07-25T10:49:36Z</time>
      </trkpt>
      <trkpt lat="46.39852333" lon="17.81102333">
        <ele>155.1</ele>
        <time>2025-07-25T10:49:39Z</time>
      </trkpt>
      <trkpt lat="46.39841167" lon="17.81093667">
        <ele>152</ele>
        <time>2025-07-25T10:49:41Z</time>
      </trkpt>
      <trkpt lat="46.39830667" lon="17.81085833">
        <ele>148.9</ele>
        <time>2025-07-25T10:49:43Z</time>
      </trkpt>
      <trkpt lat="46.39820667" lon="17.81081167">
        <ele>145.7</ele>
        <time>2025-07-25T10:49:45Z</time>
      </trkpt>
      <trkpt lat="46.398095" lon="17.81082167">
        <ele>141.6</ele>
        <time>2025-07-25T10:49:47Z</time>
      </trkpt>
      <trkpt lat="46.39795667" lon="17.81086">
        <ele>140.2</ele>
        <time>2025-07-25T10:49:49Z</time>
      </trkpt>
      <trkpt lat="46.39783" lon="17.81088333">
        <ele>140.3</ele>
        <time>2025-07-25T10:49:51Z</time>
      </trkpt>
      <trkpt lat="46.397695" lon="17.81093167">
        <ele>141.4</ele>
        <time>2025-07-25T10:49:53Z</time>
      </trkpt>
      <trkpt lat="46.39755167" lon="17.811035">
        <ele>145.9</ele>
        <time>2025-07-25T10:49:55Z</time>
      </trkpt>
      <trkpt lat="46.39745667" lon="17.811155">
        <ele>151.3</ele>
        <time>2025-07-25T10:49:57Z</time>
      </trkpt>
      <trkpt lat="46.39739" lon="17.81131333">
        <ele>155.5</ele>
        <time>2025-07-25T10:49:59Z</time>
      </trkpt>
      <trkpt lat="46.39738" lon="17.81151333">
        <ele>161.2</ele>
        <time>2025-07-25T10:50:01Z</time>
      </trkpt>
      <trkpt lat="46.39740333" lon="17.81170833">
        <ele>167.7</ele>
        <time>2025-07-25T10:50:03Z</time>
      </trkpt>
      <trkpt lat="46.39746333" lon="17.81183833">
        <ele>169.3</ele>
        <time>2025-07-25T10:50:05Z</time>
      </trkpt>
      <trkpt lat="46.39753" lon="17.81198167">
        <ele>170.8</ele>
        <time>2025-07-25T10:50:07Z</time>
      </trkpt>
      <trkpt lat="46.397595" lon="17.81212333">
        <ele>172.1</ele>
        <time>2025-07-25T10:50:09Z</time>
      </trkpt>
      <trkpt lat="46.39766833" lon="17.81227833">
        <ele>175.7</ele>
        <time>2025-07-25T10:50:11Z</time>
      </trkpt>
      <trkpt lat="46.397745" lon="17.81242167">
        <ele>178</ele>
        <time>2025-07-25T10:50:13Z</time>
      </trkpt>
      <trkpt lat="46.39782" lon="17.812555">
        <ele>179.3</ele>
        <time>2025-07-25T10:50:15Z</time>
      </trkpt>
      <trkpt lat="46.397895" lon="17.81267">
        <ele>179.5</ele>
        <time>2025-07-25T10:50:17Z</time>
      </trkpt>
      <trkpt lat="46.39796667" lon="17.8128">
        <ele>179.7</ele>
        <time>2025-07-25T10:50:19Z</time>
      </trkpt>
      <trkpt lat="46.398035" lon="17.81292">
        <ele>179.7</ele>
        <time>2025-07-25T10:50:21Z</time>
      </trkpt>
      <trkpt lat="46.3981" lon="17.81304833">
        <ele>179.5</ele>
        <time>2025-07-25T10:50:23Z</time>
      </trkpt>
      <trkpt lat="46.39815667" lon="17.81315">
        <ele>178.8</ele>
        <time>2025-07-25T10:50:25Z</time>
      </trkpt>
      <trkpt lat="46.39823" lon="17.81327167">
        <ele>177.8</ele>
        <time>2025-07-25T10:50:27Z</time>
      </trkpt>
      <trkpt lat="46.39830667" lon="17.81338333">
        <ele>176.7</ele>
        <time>2025-07-25T10:50:29Z</time>
      </trkpt>
      <trkpt lat="46.39838" lon="17.8135">
        <ele>176.6</ele>
        <time>2025-07-25T10:50:31Z</time>
      </trkpt>
      <trkpt lat="46.39844167" lon="17.813625">
        <ele>176.1</ele>
        <time>2025-07-25T10:50:33Z</time>
      </trkpt>
      <trkpt lat="46.39849833" lon="17.81377667">
        <ele>175.9</ele>
        <time>2025-07-25T10:50:36Z</time>
      </trkpt>
      <trkpt lat="46.398565" lon="17.81393833">
        <ele>177.9</ele>
        <time>2025-07-25T10:50:40Z</time>
      </trkpt>
      <trkpt lat="46.39861" lon="17.814085">
        <ele>180</ele>
        <time>2025-07-25T10:50:44Z</time>
      </trkpt>
      <trkpt lat="46.39862333" lon="17.81422">
        <ele>180.6</ele>
        <time>2025-07-25T10:50:47Z</time>
      </trkpt>
      <trkpt lat="46.39860667" lon="17.81435833">
        <ele>180.3</ele>
        <time>2025-07-25T10:50:50Z</time>
      </trkpt>
      <trkpt lat="46.39856167" lon="17.81449333">
        <ele>180.1</ele>
        <time>2025-07-25T10:50:53Z</time>
      </trkpt>
      <trkpt lat="46.39850333" lon="17.81462">
        <ele>180</ele>
        <time>2025-07-25T10:50:56Z</time>
      </trkpt>
      <trkpt lat="46.39842833" lon="17.814745">
        <ele>178.5</ele>
        <time>2025-07-25T10:50:58Z</time>
      </trkpt>
      <trkpt lat="46.39833167" lon="17.81487667">
        <ele>177.1</ele>
        <time>2025-07-25T10:51:00Z</time>
      </trkpt>
      <trkpt lat="46.39820833" lon="17.81502">
        <ele>176.6</ele>
        <time>2025-07-25T10:51:02Z</time>
      </trkpt>
      <trkpt lat="46.39808667" lon="17.81511833">
        <ele>177.1</ele>
        <time>2025-07-25T10:51:04Z</time>
      </trkpt>
      <trkpt lat="46.39798" lon="17.815205">
        <ele>178.8</ele>
        <time>2025-07-25T10:51:06Z</time>
      </trkpt>
      <trkpt lat="46.39788333" lon="17.81531167">
        <ele>180</ele>
        <time>2025-07-25T10:51:09Z</time>
      </trkpt>
      <trkpt lat="46.39777833" lon="17.81542333">
        <ele>179.5</ele>
        <time>2025-07-25T10:51:12Z</time>
      </trkpt>
      <trkpt lat="46.39770333" lon="17.81550333">
        <ele>179.6</ele>
        <time>2025-07-25T10:51:14Z</time>
      </trkpt>
      <trkpt lat="46.397625" lon="17.81558833">
        <ele>180</ele>
        <time>2025-07-25T10:51:17Z</time>
      </trkpt>
      <trkpt lat="46.39753167" lon="17.81563">
        <ele>181.6</ele>
        <time>2025-07-25T10:51:20Z</time>
      </trkpt>
      <trkpt lat="46.39745" lon="17.81568833">
        <ele>179.5</ele>
        <time>2025-07-25T10:51:23Z</time>
      </trkpt>
      <trkpt lat="46.39735833" lon="17.81575667">
        <ele>178.5</ele>
        <time>2025-07-25T10:51:26Z</time>
      </trkpt>
      <trkpt lat="46.39726" lon="17.81584167">
        <ele>178.3</ele>
        <time>2025-07-25T10:51:30Z</time>
      </trkpt>
      <trkpt lat="46.39717833" lon="17.81591333">
        <ele>178</ele>
        <time>2025-07-25T10:51:34Z</time>
      </trkpt>
      <trkpt lat="46.397075" lon="17.81600833">
        <ele>178.8</ele>
        <time>2025-07-25T10:51:38Z</time>
      </trkpt>
      <trkpt lat="46.39698" lon="17.81609667">
        <ele>177.8</ele>
        <time>2025-07-25T10:51:41Z</time>
      </trkpt>
      <trkpt lat="46.39687833" lon="17.816195">
        <ele>178.5</ele>
        <time>2025-07-25T10:51:44Z</time>
      </trkpt>
      <trkpt lat="46.39677333" lon="17.816265">
        <ele>178.7</ele>
        <time>2025-07-25T10:51:47Z</time>
      </trkpt>
      <trkpt lat="46.396685" lon="17.81637167">
        <ele>178.6</ele>
        <time>2025-07-25T10:51:50Z</time>
      </trkpt>
      <trkpt lat="46.39659833" lon="17.81648">
        <ele>178.4</ele>
        <time>2025-07-25T10:51:53Z</time>
      </trkpt>
      <trkpt lat="46.39651833" lon="17.81660833">
        <ele>178.5</ele>
        <time>2025-07-25T10:51:55Z</time>
      </trkpt>
      <trkpt lat="46.39644" lon="17.81670833">
        <ele>177.3</ele>
        <time>2025-07-25T10:51:57Z</time>
      </trkpt>
      <trkpt lat="46.39636" lon="17.816775">
        <ele>175.6</ele>
        <time>2025-07-25T10:51:59Z</time>
      </trkpt>
      <trkpt lat="46.39624333" lon="17.81686833">
        <ele>173.6</ele>
        <time>2025-07-25T10:52:02Z</time>
      </trkpt>
      <trkpt lat="46.396145" lon="17.81695833">
        <ele>173.5</ele>
        <time>2025-07-25T10:52:04Z</time>
      </trkpt>
      <trkpt lat="46.39604" lon="17.817055">
        <ele>172.8</ele>
        <time>2025-07-25T10:52:06Z</time>
      </trkpt>
      <trkpt lat="46.39593667" lon="17.81714167">
        <ele>172</ele>
        <time>2025-07-25T10:52:08Z</time>
      </trkpt>
      <trkpt lat="46.395815" lon="17.81722667">
        <ele>172.1</ele>
        <time>2025-07-25T10:52:10Z</time>
      </trkpt>
      <trkpt lat="46.39569833" lon="17.81729833">
        <ele>172.4</ele>
        <time>2025-07-25T10:52:12Z</time>
      </trkpt>
      <trkpt lat="46.39558667" lon="17.817385">
        <ele>171.9</ele>
        <time>2025-07-25T10:52:14Z</time>
      </trkpt>
      <trkpt lat="46.39550333" lon="17.81748667">
        <ele>171.4</ele>
        <time>2025-07-25T10:52:16Z</time>
      </trkpt>
      <trkpt lat="46.39539833" lon="17.81758667">
        <ele>170.9</ele>
        <time>2025-07-25T10:52:19Z</time>
      </trkpt>
      <trkpt lat="46.39531667" lon="17.81772667">
        <ele>171.1</ele>
        <time>2025-07-25T10:52:22Z</time>
      </trkpt>
      <trkpt lat="46.39526333" lon="17.81786167">
        <ele>171.2</ele>
        <time>2025-07-25T10:52:24Z</time>
      </trkpt>
      <trkpt lat="46.3952" lon="17.81804333">
        <ele>170.9</ele>
        <time>2025-07-25T10:52:26Z</time>
      </trkpt>
      <trkpt lat="46.395145" lon="17.81818333">
        <ele>170.9</ele>
        <time>2025-07-25T10:52:28Z</time>
      </trkpt>
      <trkpt lat="46.39505833" lon="17.81830833">
        <ele>171.4</ele>
        <time>2025-07-25T10:52:30Z</time>
      </trkpt>
      <trkpt lat="46.39495" lon="17.81838833">
        <ele>172.3</ele>
        <time>2025-07-25T10:52:32Z</time>
      </trkpt>
      <trkpt lat="46.39483667" lon="17.81844">
        <ele>173.9</ele>
        <time>2025-07-25T10:52:34Z</time>
      </trkpt>
      <trkpt lat="46.394735" lon="17.81847667">
        <ele>174.8</ele>
        <time>2025-07-25T10:52:36Z</time>
      </trkpt>
      <trkpt lat="46.39463667" lon="17.81848333">
        <ele>174.9</ele>
        <time>2025-07-25T10:52:38Z</time>
      </trkpt>
      <trkpt lat="46.394535" lon="17.81847833">
        <ele>174.6</ele>
        <time>2025-07-25T10:52:40Z</time>
      </trkpt>
      <trkpt lat="46.39440833" lon="17.81845333">
        <ele>175.8</ele>
        <time>2025-07-25T10:52:43Z</time>
      </trkpt>
      <trkpt lat="46.39431333" lon="17.818445">
        <ele>175.9</ele>
        <time>2025-07-25T10:52:45Z</time>
      </trkpt>
      <trkpt lat="46.39418" lon="17.81845167">
        <ele>177.1</ele>
        <time>2025-07-25T10:52:48Z</time>
      </trkpt>
      <trkpt lat="46.39406333" lon="17.81845667">
        <ele>176.7</ele>
        <time>2025-07-25T10:52:50Z</time>
      </trkpt>
      <trkpt lat="46.39394333" lon="17.818485">
        <ele>176.2</ele>
        <time>2025-07-25T10:52:52Z</time>
      </trkpt>
      <trkpt lat="46.39382667" lon="17.81852667">
        <ele>175.3</ele>
        <time>2025-07-25T10:52:54Z</time>
      </trkpt>
      <trkpt lat="46.39370333" lon="17.81855667">
        <ele>174.3</ele>
        <time>2025-07-25T10:52:56Z</time>
      </trkpt>
      <trkpt lat="46.393565" lon="17.81858333">
        <ele>172.5</ele>
        <time>2025-07-25T10:52:58Z</time>
      </trkpt>
      <trkpt lat="46.39344167" lon="17.81860333">
        <ele>172.5</ele>
        <time>2025-07-25T10:53:00Z</time>
      </trkpt>
      <trkpt lat="46.393345" lon="17.81861667">
        <ele>172.7</ele>
        <time>2025-07-25T10:53:02Z</time>
      </trkpt>
      <trkpt lat="46.39323833" lon="17.81870333">
        <ele>173.3</ele>
        <time>2025-07-25T10:53:05Z</time>
      </trkpt>
      <trkpt lat="46.39316667" lon="17.81886333">
        <ele>176.1</ele>
        <time>2025-07-25T10:53:08Z</time>
      </trkpt>
      <trkpt lat="46.39312667" lon="17.81900167">
        <ele>176.8</ele>
        <time>2025-07-25T10:53:10Z</time>
      </trkpt>
      <trkpt lat="46.39309667" lon="17.819135">
        <ele>176.6</ele>
        <time>2025-07-25T10:53:12Z</time>
      </trkpt>
      <trkpt lat="46.39306333" lon="17.819285">
        <ele>176</ele>
        <time>2025-07-25T10:53:14Z</time>
      </trkpt>
      <trkpt lat="46.39303333" lon="17.81944333">
        <ele>175.4</ele>
        <time>2025-07-25T10:53:16Z</time>
      </trkpt>
      <trkpt lat="46.39300167" lon="17.8196">
        <ele>174.6</ele>
        <time>2025-07-25T10:53:18Z</time>
      </trkpt>
      <trkpt lat="46.39297167" lon="17.819765">
        <ele>174.2</ele>
        <time>2025-07-25T10:53:20Z</time>
      </trkpt>
      <trkpt lat="46.39294333" lon="17.81993333">
        <ele>173.8</ele>
        <time>2025-07-25T10:53:22Z</time>
      </trkpt>
      <trkpt lat="46.39292667" lon="17.82008833">
        <ele>173.5</ele>
        <time>2025-07-25T10:53:24Z</time>
      </trkpt>
      <trkpt lat="46.39288667" lon="17.8203">
        <ele>171.9</ele>
        <time>2025-07-25T10:53:27Z</time>
      </trkpt>
      <trkpt lat="46.39285" lon="17.82047667">
        <ele>171</ele>
        <time>2025-07-25T10:53:29Z</time>
      </trkpt>
      <trkpt lat="46.39281833" lon="17.82064167">
        <ele>170.5</ele>
        <time>2025-07-25T10:53:31Z</time>
      </trkpt>
      <trkpt lat="46.39279667" lon="17.82079667">
        <ele>170.6</ele>
        <time>2025-07-25T10:53:33Z</time>
      </trkpt>
      <trkpt lat="46.39276667" lon="17.82094">
        <ele>170.3</ele>
        <time>2025-07-25T10:53:35Z</time>
      </trkpt>
      <trkpt lat="46.39273833" lon="17.82109167">
        <ele>170.8</ele>
        <time>2025-07-25T10:53:37Z</time>
      </trkpt>
      <trkpt lat="46.392745" lon="17.82124667">
        <ele>171.5</ele>
        <time>2025-07-25T10:53:39Z</time>
      </trkpt>
      <trkpt lat="46.39278833" lon="17.82138667">
        <ele>172.9</ele>
        <time>2025-07-25T10:53:41Z</time>
      </trkpt>
      <trkpt lat="46.39289333" lon="17.82149">
        <ele>172.4</ele>
        <time>2025-07-25T10:53:44Z</time>
      </trkpt>
      <trkpt lat="46.392975" lon="17.82160167">
        <ele>170.9</ele>
        <time>2025-07-25T10:53:47Z</time>
      </trkpt>
      <trkpt lat="46.39309" lon="17.82172167">
        <ele>168.6</ele>
        <time>2025-07-25T10:53:50Z</time>
      </trkpt>
      <trkpt lat="46.393205" lon="17.82178667">
        <ele>167.8</ele>
        <time>2025-07-25T10:53:52Z</time>
      </trkpt>
      <trkpt lat="46.39332" lon="17.82186667">
        <ele>167.8</ele>
        <time>2025-07-25T10:53:54Z</time>
      </trkpt>
      <trkpt lat="46.39342333" lon="17.82194667">
        <ele>167.9</ele>
        <time>2025-07-25T10:53:56Z</time>
      </trkpt>
      <trkpt lat="46.39351333" lon="17.82201667">
        <ele>168.5</ele>
        <time>2025-07-25T10:53:58Z</time>
      </trkpt>
      <trkpt lat="46.39362333" lon="17.822085">
        <ele>166.8</ele>
        <time>2025-07-25T10:54:01Z</time>
      </trkpt>
      <trkpt lat="46.39371667" lon="17.82217333">
        <ele>165</ele>
        <time>2025-07-25T10:54:04Z</time>
      </trkpt>
      <trkpt lat="46.39381667" lon="17.82224667">
        <ele>162.6</ele>
        <time>2025-07-25T10:54:07Z</time>
      </trkpt>
      <trkpt lat="46.39391167" lon="17.82231833">
        <ele>160.3</ele>
        <time>2025-07-25T10:54:09Z</time>
      </trkpt>
      <trkpt lat="46.394025" lon="17.82238333">
        <ele>160.5</ele>
        <time>2025-07-25T10:54:11Z</time>
      </trkpt>
      <trkpt lat="46.39415667" lon="17.82246833">
        <ele>161.7</ele>
        <time>2025-07-25T10:54:13Z</time>
      </trkpt>
      <trkpt lat="46.39428" lon="17.82254667">
        <ele>163.3</ele>
        <time>2025-07-25T10:54:15Z</time>
      </trkpt>
      <trkpt lat="46.3944" lon="17.822615">
        <ele>165.1</ele>
        <time>2025-07-25T10:54:17Z</time>
      </trkpt>
      <trkpt lat="46.39452667" lon="17.82268333">
        <ele>165.4</ele>
        <time>2025-07-25T10:54:19Z</time>
      </trkpt>
      <trkpt lat="46.39464667" lon="17.82275667">
        <ele>166.7</ele>
        <time>2025-07-25T10:54:21Z</time>
      </trkpt>
      <trkpt lat="46.39475833" lon="17.82279833">
        <ele>166.5</ele>
        <time>2025-07-25T10:54:23Z</time>
      </trkpt>
      <trkpt lat="46.39488833" lon="17.82282167">
        <ele>167.2</ele>
        <time>2025-07-25T10:54:25Z</time>
      </trkpt>
      <trkpt lat="46.39503667" lon="17.822835">
        <ele>167.5</ele>
        <time>2025-07-25T10:54:27Z</time>
      </trkpt>
      <trkpt lat="46.39518667" lon="17.82283667">
        <ele>169.4</ele>
        <time>2025-07-25T10:54:29Z</time>
      </trkpt>
      <trkpt lat="46.39532167" lon="17.82282">
        <ele>171.7</ele>
        <time>2025-07-25T10:54:31Z</time>
      </trkpt>
      <trkpt lat="46.395435" lon="17.82281833">
        <ele>173.4</ele>
        <time>2025-07-25T10:54:33Z</time>
      </trkpt>
      <trkpt lat="46.39553333" lon="17.82280667">
        <ele>174.5</ele>
        <time>2025-07-25T10:54:35Z</time>
      </trkpt>
      <trkpt lat="46.39565833" lon="17.82279833">
        <ele>175.6</ele>
        <time>2025-07-25T10:54:38Z</time>
      </trkpt>
      <trkpt lat="46.39578" lon="17.82278833">
        <ele>177.5</ele>
        <time>2025-07-25T10:54:41Z</time>
      </trkpt>
      <trkpt lat="46.39588667" lon="17.82276667">
        <ele>178</ele>
        <time>2025-07-25T10:54:44Z</time>
      </trkpt>
      <trkpt lat="46.39599167" lon="17.822725">
        <ele>178.3</ele>
        <time>2025-07-25T10:54:48Z</time>
      </trkpt>
      <trkpt lat="46.396095" lon="17.82268667">
        <ele>178.1</ele>
        <time>2025-07-25T10:54:51Z</time>
      </trkpt>
      <trkpt lat="46.39622667" lon="17.82263667">
        <ele>177.1</ele>
        <time>2025-07-25T10:54:54Z</time>
      </trkpt>
      <trkpt lat="46.39632167" lon="17.82260167">
        <ele>177.3</ele>
        <time>2025-07-25T10:54:56Z</time>
      </trkpt>
      <trkpt lat="46.39644333" lon="17.82256667">
        <ele>177.4</ele>
        <time>2025-07-25T10:54:59Z</time>
      </trkpt>
      <trkpt lat="46.396545" lon="17.82251833">
        <ele>176</ele>
        <time>2025-07-25T10:55:02Z</time>
      </trkpt>
      <trkpt lat="46.39664667" lon="17.822475">
        <ele>176.4</ele>
        <time>2025-07-25T10:55:05Z</time>
      </trkpt>
      <trkpt lat="46.39674667" lon="17.82244333">
        <ele>177.1</ele>
        <time>2025-07-25T10:55:08Z</time>
      </trkpt>
      <trkpt lat="46.39686167" lon="17.82241">
        <ele>177</ele>
        <time>2025-07-25T10:55:12Z</time>
      </trkpt>
      <trkpt lat="46.396965" lon="17.82237">
        <ele>174.9</ele>
        <time>2025-07-25T10:55:16Z</time>
      </trkpt>
      <trkpt lat="46.39705333" lon="17.82229">
        <ele>170.8</ele>
        <time>2025-07-25T10:55:22Z</time>
      </trkpt>
      <trkpt lat="46.39714167" lon="17.82224167">
        <ele>167</ele>
        <time>2025-07-25T10:55:27Z</time>
      </trkpt>
      <trkpt lat="46.39724167" lon="17.822185">
        <ele>163.1</ele>
        <time>2025-07-25T10:55:31Z</time>
      </trkpt>
      <trkpt lat="46.39735333" lon="17.82213">
        <ele>160.6</ele>
        <time>2025-07-25T10:55:34Z</time>
      </trkpt>
      <trkpt lat="46.39745667" lon="17.82209667">
        <ele>159.5</ele>
        <time>2025-07-25T10:55:37Z</time>
      </trkpt>
      <trkpt lat="46.397565" lon="17.82206333">
        <ele>159.6</ele>
        <time>2025-07-25T10:55:40Z</time>
      </trkpt>
      <trkpt lat="46.39765667" lon="17.822035">
        <ele>158.8</ele>
        <time>2025-07-25T10:55:43Z</time>
      </trkpt>
      <trkpt lat="46.39774667" lon="17.82200833">
        <ele>158.3</ele>
        <time>2025-07-25T10:55:46Z</time>
      </trkpt>
      <trkpt lat="46.39784333" lon="17.82197667">
        <ele>158</ele>
        <time>2025-07-25T10:55:49Z</time>
      </trkpt>
      <trkpt lat="46.39795667" lon="17.82191833">
        <ele>156.8</ele>
        <time>2025-07-25T10:55:52Z</time>
      </trkpt>
      <trkpt lat="46.39806833" lon="17.82184667">
        <ele>155.4</ele>
        <time>2025-07-25T10:55:55Z</time>
      </trkpt>
      <trkpt lat="46.39816833" lon="17.82177167">
        <ele>152.7</ele>
        <time>2025-07-25T10:55:58Z</time>
      </trkpt>
      <trkpt lat="46.39824833" lon="17.8217">
        <ele>150.3</ele>
        <time>2025-07-25T10:56:01Z</time>
      </trkpt>
      <trkpt lat="46.398345" lon="17.82159333">
        <ele>148</ele>
        <time>2025-07-25T10:56:04Z</time>
      </trkpt>
      <trkpt lat="46.39844667" lon="17.82149333">
        <ele>146.4</ele>
        <time>2025-07-25T10:56:07Z</time>
      </trkpt>
      <trkpt lat="46.39852333" lon="17.821395">
        <ele>146.2</ele>
        <time>2025-07-25T10:56:09Z</time>
      </trkpt>
      <trkpt lat="46.39864167" lon="17.82128667">
        <ele>144.8</ele>
        <time>2025-07-25T10:56:11Z</time>
      </trkpt>
      <trkpt lat="46.39875167" lon="17.82121333">
        <ele>142.5</ele>
        <time>2025-07-25T10:56:13Z</time>
      </trkpt>
      <trkpt lat="46.39886333" lon="17.82111167">
        <ele>140.5</ele>
        <time>2025-07-25T10:56:16Z</time>
      </trkpt>
      <trkpt lat="46.39894833" lon="17.821055">
        <ele>139.6</ele>
        <time>2025-07-25T10:56:18Z</time>
      </trkpt>
      <trkpt lat="46.399035" lon="17.821">
        <ele>138.6</ele>
        <time>2025-07-25T10:56:20Z</time>
      </trkpt>
      <trkpt lat="46.39912" lon="17.820945">
        <ele>137</ele>
        <time>2025-07-25T10:56:22Z</time>
      </trkpt>
      <trkpt lat="46.399225" lon="17.82087167">
        <ele>134.8</ele>
        <time>2025-07-25T10:56:25Z</time>
      </trkpt>
      <trkpt lat="46.39932667" lon="17.82079">
        <ele>131.9</ele>
        <time>2025-07-25T10:56:28Z</time>
      </trkpt>
      <trkpt lat="46.399435" lon="17.82069167">
        <ele>129.3</ele>
        <time>2025-07-25T10:56:31Z</time>
      </trkpt>
      <trkpt lat="46.39952833" lon="17.82059833">
        <ele>128.2</ele>
        <time>2025-07-25T10:56:34Z</time>
      </trkpt>
      <trkpt lat="46.39964833" lon="17.82043333">
        <ele>129.1</ele>
        <time>2025-07-25T10:56:37Z</time>
      </trkpt>
      <trkpt lat="46.39970833" lon="17.82033333">
        <ele>129.6</ele>
        <time>2025-07-25T10:56:39Z</time>
      </trkpt>
      <trkpt lat="46.39978333" lon="17.820165">
        <ele>128.5</ele>
        <time>2025-07-25T10:56:42Z</time>
      </trkpt>
      <trkpt lat="46.39984167" lon="17.82003833">
        <ele>127.7</ele>
        <time>2025-07-25T10:56:44Z</time>
      </trkpt>
      <trkpt lat="46.399895" lon="17.81989167">
        <ele>128.8</ele>
        <time>2025-07-25T10:56:46Z</time>
      </trkpt>
      <trkpt lat="46.399945" lon="17.81974167">
        <ele>131.6</ele>
        <time>2025-07-25T10:56:48Z</time>
      </trkpt>
      <trkpt lat="46.40001833" lon="17.81958333">
        <ele>134.5</ele>
        <time>2025-07-25T10:56:50Z</time>
      </trkpt>
      <trkpt lat="46.40009167" lon="17.81939833">
        <ele>138.6</ele>
        <time>2025-07-25T10:56:52Z</time>
      </trkpt>
      <trkpt lat="46.40012667" lon="17.81927">
        <ele>141.1</ele>
        <time>2025-07-25T10:56:54Z</time>
      </trkpt>
      <trkpt lat="46.40018667" lon="17.819105">
        <ele>144.4</ele>
        <time>2025-07-25T10:56:57Z</time>
      </trkpt>
      <trkpt lat="46.400235" lon="17.81893">
        <ele>147.6</ele>
        <time>2025-07-25T10:56:59Z</time>
      </trkpt>
      <trkpt lat="46.40027833" lon="17.81879333">
        <ele>149.3</ele>
        <time>2025-07-25T10:57:01Z</time>
      </trkpt>
      <trkpt lat="46.400305" lon="17.81858667">
        <ele>152.5</ele>
        <time>2025-07-25T10:57:04Z</time>
      </trkpt>
      <trkpt lat="46.40033167" lon="17.81841">
        <ele>157.6</ele>
        <time>2025-07-25T10:57:07Z</time>
      </trkpt>
      <trkpt lat="46.40036" lon="17.81827333">
        <ele>163.8</ele>
        <time>2025-07-25T10:57:10Z</time>
      </trkpt>
      <trkpt lat="46.40039" lon="17.81813">
        <ele>172.2</ele>
        <time>2025-07-25T10:57:14Z</time>
      </trkpt>
      <trkpt lat="46.40046167" lon="17.81803167">
        <ele>178.1</ele>
        <time>2025-07-25T10:57:19Z</time>
      </trkpt>
      <trkpt lat="46.40056167" lon="17.81793833">
        <ele>180.4</ele>
        <time>2025-07-25T10:57:23Z</time>
      </trkpt>
      <trkpt lat="46.40063667" lon="17.81785833">
        <ele>181.2</ele>
        <time>2025-07-25T10:57:27Z</time>
      </trkpt>
      <trkpt lat="46.40070833" lon="17.81777333">
        <ele>180.2</ele>
        <time>2025-07-25T10:57:33Z</time>
      </trkpt>
      <trkpt lat="46.40077667" lon="17.81768167">
        <ele>179.1</ele>
        <time>2025-07-25T10:57:37Z</time>
      </trkpt>
      <trkpt lat="46.400805" lon="17.81749833">
        <ele>178.2</ele>
        <time>2025-07-25T10:57:48Z</time>
      </trkpt>
      <trkpt lat="46.40087833" lon="17.817385">
        <ele>176.8</ele>
        <time>2025-07-25T10:58:24Z</time>
      </trkpt>
      <trkpt lat="46.40095167" lon="17.81730833">
        <ele>176.2</ele>
        <time>2025-07-25T10:58:28Z</time>
      </trkpt>
      <trkpt lat="46.40105" lon="17.81726667">
        <ele>175.2</ele>
        <time>2025-07-25T10:58:32Z</time>
      </trkpt>
      <trkpt lat="46.40114167" lon="17.817245">
        <ele>174.8</ele>
        <time>2025-07-25T10:58:37Z</time>
      </trkpt>
      <trkpt lat="46.40103833" lon="17.81724">
        <ele>173</ele>
        <time>2025-07-25T10:58:48Z</time>
      </trkpt>
      <trkpt lat="46.40093333" lon="17.81730167">
        <ele>173.7</ele>
        <time>2025-07-25T10:58:54Z</time>
      </trkpt>
      <trkpt lat="46.40079333" lon="17.81736667">
        <ele>172.8</ele>
        <time>2025-07-25T10:59:09Z</time>
      </trkpt>
    </trkseg>
  </trk>
</gpx>