<?xml version='1.0' encoding='UTF-8' standalone='yes' ?>
<gpx xmlns="http://www.topografix.com/GPX/1/1" xmlns:geotracker="http://ilyabogdanovich.com/gpx/extensions/geotracker" xmlns:xsi="http://www.w3.org/2001/XMLSchema-instance" xsi:schemaLocation="http://www.topografix.com/GPX/1/1 http://www.topografix.com/GPX/1/1/gpx.xsd" version="1.1" creator="Recorded in Geo Tracker for Android from Ilya Bogdanovich">
  <metadata>
    <name>f_0709_05</name>
    <author>
      <name>Recorded in Geo Tracker for Android from Ilya Bogdanovich</name>
      <link href="https://play.google.com/store/apps/details?id=com.ilyabogdanovich.geotracker" />
    </author>
    <link href="https://play.google.com/store/apps/details?id=com.ilyabogdanovich.geotracker" />
    <time>2025-07-09T11:14:33Z</time>
  </metadata>
  <trk>
    <name>f_0709_05</name>
    <src>Recorded in Geo Tracker for Android from Ilya Bogdanovich</src>
    <link href="https://play.google.com/store/apps/details?id=com.ilyabogdanovich.geotracker" />
    <extensions>
      <geotracker:meta>
        <geotracker:length>6572.79</geotracker:length>
        <geotracker:duration>1297252</geotracker:duration>
        <geotracker:creationtime>2025-07-09T11:14:33Z</geotracker:creationtime>
        <geotracker:activity>0</geotracker:activity>
      </geotracker:meta>
    </extensions>
    <trkseg>
      <trkpt lat="48.08803833" lon="22.63247333">
        <ele>155.9</ele>
        <time>2025-07-09T11:14:40Z</time>
      </trkpt>
      <trkpt lat="48.087925" lon="22.63246">
        <ele>154.8</ele>
        <time>2025-07-09T11:14:45Z</time>
      </trkpt>
      <trkpt lat="48.08783" lon="22.63244167">
        <ele>155.4</ele>
        <time>2025-07-09T11:14:48Z</time>
      </trkpt>
      <trkpt lat="48.08772167" lon="22.632405">
        <ele>156.1</ele>
        <time>2025-07-09T11:14:52Z</time>
      </trkpt>
      <trkpt lat="48.08764667" lon="22.63228667">
        <ele>156.4</ele>
        <time>2025-07-09T11:14:59Z</time>
      </trkpt>
      <trkpt lat="48.08758167" lon="22.63218833">
        <ele>156.4</ele>
        <time>2025-07-09T11:15:04Z</time>
      </trkpt>
      <trkpt lat="48.08749333" lon="22.63213167">
        <ele>156.4</ele>
        <time>2025-07-09T11:15:09Z</time>
      </trkpt>
      <trkpt lat="48.08738333" lon="22.63210333">
        <ele>154.8</ele>
        <time>2025-07-09T11:15:13Z</time>
      </trkpt>
      <trkpt lat="48.08727667" lon="22.63207167">
        <ele>153.7</ele>
        <time>2025-07-09T11:15:17Z</time>
      </trkpt>
      <trkpt lat="48.087175" lon="22.63203667">
        <ele>153.5</ele>
        <time>2025-07-09T11:15:21Z</time>
      </trkpt>
      <trkpt lat="48.08708" lon="22.63202">
        <ele>153.2</ele>
        <time>2025-07-09T11:15:24Z</time>
      </trkpt>
      <trkpt lat="48.08698167" lon="22.63200667">
        <ele>153.5</ele>
        <time>2025-07-09T11:15:27Z</time>
      </trkpt>
      <trkpt lat="48.08687833" lon="22.63199833">
        <ele>153.2</ele>
        <time>2025-07-09T11:15:30Z</time>
      </trkpt>
      <trkpt lat="48.08678167" lon="22.63198667">
        <ele>152.4</ele>
        <time>2025-07-09T11:15:33Z</time>
      </trkpt>
      <trkpt lat="48.08669333" lon="22.63195667">
        <ele>150.1</ele>
        <time>2025-07-09T11:15:36Z</time>
      </trkpt>
      <trkpt lat="48.08658333" lon="22.63192667">
        <ele>147.3</ele>
        <time>2025-07-09T11:15:39Z</time>
      </trkpt>
      <trkpt lat="48.086475" lon="22.63190167">
        <ele>143.7</ele>
        <time>2025-07-09T11:15:43Z</time>
      </trkpt>
      <trkpt lat="48.08637833" lon="22.63189">
        <ele>141.8</ele>
        <time>2025-07-09T11:15:46Z</time>
      </trkpt>
      <trkpt lat="48.086285" lon="22.63190333">
        <ele>142.1</ele>
        <time>2025-07-09T11:15:49Z</time>
      </trkpt>
      <trkpt lat="48.08619667" lon="22.63194167">
        <ele>141.6</ele>
        <time>2025-07-09T11:15:55Z</time>
      </trkpt>
      <trkpt lat="48.08610667" lon="22.63200667">
        <ele>148.6</ele>
        <time>2025-07-09T11:16:11Z</time>
      </trkpt>
      <trkpt lat="48.08601333" lon="22.632005">
        <ele>150.3</ele>
        <time>2025-07-09T11:16:22Z</time>
      </trkpt>
      <trkpt lat="48.08596833" lon="22.63213333">
        <ele>151.3</ele>
        <time>2025-07-09T11:16:31Z</time>
      </trkpt>
      <trkpt lat="48.08601333" lon="22.63231833">
        <ele>150.8</ele>
        <time>2025-07-09T11:16:34Z</time>
      </trkpt>
      <trkpt lat="48.08605167" lon="22.63248">
        <ele>150.5</ele>
        <time>2025-07-09T11:16:36Z</time>
      </trkpt>
      <trkpt lat="48.0861" lon="22.63266833">
        <ele>150.2</ele>
        <time>2025-07-09T11:16:38Z</time>
      </trkpt>
      <trkpt lat="48.08614167" lon="22.63284833">
        <ele>151.1</ele>
        <time>2025-07-09T11:16:40Z</time>
      </trkpt>
      <trkpt lat="48.08616667" lon="22.63302667">
        <ele>151.6</ele>
        <time>2025-07-09T11:16:42Z</time>
      </trkpt>
      <trkpt lat="48.08618833" lon="22.63321833">
        <ele>152.1</ele>
        <time>2025-07-09T11:16:44Z</time>
      </trkpt>
      <trkpt lat="48.08620667" lon="22.63341333">
        <ele>152</ele>
        <time>2025-07-09T11:16:46Z</time>
      </trkpt>
      <trkpt lat="48.08623833" lon="22.63361167">
        <ele>152.5</ele>
        <time>2025-07-09T11:16:48Z</time>
      </trkpt>
      <trkpt lat="48.08626167" lon="22.633795">
        <ele>151.4</ele>
        <time>2025-07-09T11:16:50Z</time>
      </trkpt>
      <trkpt lat="48.08628333" lon="22.633995">
        <ele>150.8</ele>
        <time>2025-07-09T11:16:52Z</time>
      </trkpt>
      <trkpt lat="48.08631667" lon="22.63417">
        <ele>150.4</ele>
        <time>2025-07-09T11:16:54Z</time>
      </trkpt>
      <trkpt lat="48.08634833" lon="22.63433167">
        <ele>148.8</ele>
        <time>2025-07-09T11:16:56Z</time>
      </trkpt>
      <trkpt lat="48.08637167" lon="22.634515">
        <ele>147.3</ele>
        <time>2025-07-09T11:16:58Z</time>
      </trkpt>
      <trkpt lat="48.08640833" lon="22.6347">
        <ele>147.1</ele>
        <time>2025-07-09T11:17:00Z</time>
      </trkpt>
      <trkpt lat="48.08643667" lon="22.63490333">
        <ele>147.4</ele>
        <time>2025-07-09T11:17:02Z</time>
      </trkpt>
      <trkpt lat="48.08645833" lon="22.635105">
        <ele>148</ele>
        <time>2025-07-09T11:17:04Z</time>
      </trkpt>
      <trkpt lat="48.08648667" lon="22.63529167">
        <ele>148.4</ele>
        <time>2025-07-09T11:17:06Z</time>
      </trkpt>
      <trkpt lat="48.08652167" lon="22.635475">
        <ele>148.7</ele>
        <time>2025-07-09T11:17:08Z</time>
      </trkpt>
      <trkpt lat="48.08654667" lon="22.635665">
        <ele>150.1</ele>
        <time>2025-07-09T11:17:10Z</time>
      </trkpt>
      <trkpt lat="48.08655667" lon="22.635845">
        <ele>151.6</ele>
        <time>2025-07-09T11:17:12Z</time>
      </trkpt>
      <trkpt lat="48.08658333" lon="22.636015">
        <ele>153.4</ele>
        <time>2025-07-09T11:17:14Z</time>
      </trkpt>
      <trkpt lat="48.086605" lon="22.63619167">
        <ele>156.4</ele>
        <time>2025-07-09T11:17:16Z</time>
      </trkpt>
      <trkpt lat="48.086615" lon="22.63633167">
        <ele>155.3</ele>
        <time>2025-07-09T11:17:18Z</time>
      </trkpt>
      <trkpt lat="48.086625" lon="22.63646667">
        <ele>153.1</ele>
        <time>2025-07-09T11:17:20Z</time>
      </trkpt>
      <trkpt lat="48.086635" lon="22.63661333">
        <ele>151.6</ele>
        <time>2025-07-09T11:17:22Z</time>
      </trkpt>
      <trkpt lat="48.08664167" lon="22.63676">
        <ele>149.8</ele>
        <time>2025-07-09T11:17:24Z</time>
      </trkpt>
      <trkpt lat="48.08665" lon="22.63689833">
        <ele>148</ele>
        <time>2025-07-09T11:17:26Z</time>
      </trkpt>
      <trkpt lat="48.08665333" lon="22.637045">
        <ele>147.4</ele>
        <time>2025-07-09T11:17:28Z</time>
      </trkpt>
      <trkpt lat="48.08666833" lon="22.63719333">
        <ele>147.1</ele>
        <time>2025-07-09T11:17:30Z</time>
      </trkpt>
      <trkpt lat="48.086675" lon="22.63734">
        <ele>147.5</ele>
        <time>2025-07-09T11:17:32Z</time>
      </trkpt>
      <trkpt lat="48.08667" lon="22.63747667">
        <ele>147.8</ele>
        <time>2025-07-09T11:17:34Z</time>
      </trkpt>
      <trkpt lat="48.08666167" lon="22.63767667">
        <ele>147.6</ele>
        <time>2025-07-09T11:17:37Z</time>
      </trkpt>
      <trkpt lat="48.08662667" lon="22.63787333">
        <ele>146.4</ele>
        <time>2025-07-09T11:17:40Z</time>
      </trkpt>
      <trkpt lat="48.08657" lon="22.63798333">
        <ele>145.6</ele>
        <time>2025-07-09T11:17:42Z</time>
      </trkpt>
      <trkpt lat="48.08645833" lon="22.638095">
        <ele>146.4</ele>
        <time>2025-07-09T11:17:45Z</time>
      </trkpt>
      <trkpt lat="48.08635833" lon="22.63813833">
        <ele>146.9</ele>
        <time>2025-07-09T11:17:47Z</time>
      </trkpt>
      <trkpt lat="48.08626" lon="22.63813833">
        <ele>146.9</ele>
        <time>2025-07-09T11:17:49Z</time>
      </trkpt>
      <trkpt lat="48.08616167" lon="22.638115">
        <ele>147.6</ele>
        <time>2025-07-09T11:17:51Z</time>
      </trkpt>
      <trkpt lat="48.08605167" lon="22.63808">
        <ele>148</ele>
        <time>2025-07-09T11:17:53Z</time>
      </trkpt>
      <trkpt lat="48.085945" lon="22.63805167">
        <ele>148.2</ele>
        <time>2025-07-09T11:17:55Z</time>
      </trkpt>
      <trkpt lat="48.08583667" lon="22.63803167">
        <ele>148.7</ele>
        <time>2025-07-09T11:17:57Z</time>
      </trkpt>
      <trkpt lat="48.08573" lon="22.63801">
        <ele>149.1</ele>
        <time>2025-07-09T11:17:59Z</time>
      </trkpt>
      <trkpt lat="48.08562167" lon="22.63799">
        <ele>148.8</ele>
        <time>2025-07-09T11:18:01Z</time>
      </trkpt>
      <trkpt lat="48.08551167" lon="22.63797">
        <ele>148.7</ele>
        <time>2025-07-09T11:18:03Z</time>
      </trkpt>
      <trkpt lat="48.085405" lon="22.63796">
        <ele>149.8</ele>
        <time>2025-07-09T11:18:05Z</time>
      </trkpt>
      <trkpt lat="48.085285" lon="22.63793667">
        <ele>149.6</ele>
        <time>2025-07-09T11:18:07Z</time>
      </trkpt>
      <trkpt lat="48.08517167" lon="22.637925">
        <ele>149.7</ele>
        <time>2025-07-09T11:18:09Z</time>
      </trkpt>
      <trkpt lat="48.08506333" lon="22.63791833">
        <ele>149.9</ele>
        <time>2025-07-09T11:18:11Z</time>
      </trkpt>
      <trkpt lat="48.08496333" lon="22.63789333">
        <ele>149.5</ele>
        <time>2025-07-09T11:18:13Z</time>
      </trkpt>
      <trkpt lat="48.084855" lon="22.63789">
        <ele>149.2</ele>
        <time>2025-07-09T11:18:15Z</time>
      </trkpt>
      <trkpt lat="48.08473667" lon="22.637875">
        <ele>148.8</ele>
        <time>2025-07-09T11:18:17Z</time>
      </trkpt>
      <trkpt lat="48.08463667" lon="22.63789333">
        <ele>148.7</ele>
        <time>2025-07-09T11:18:19Z</time>
      </trkpt>
      <trkpt lat="48.08454333" lon="22.63793167">
        <ele>148</ele>
        <time>2025-07-09T11:18:21Z</time>
      </trkpt>
      <trkpt lat="48.08443667" lon="22.63805167">
        <ele>145.7</ele>
        <time>2025-07-09T11:18:24Z</time>
      </trkpt>
      <trkpt lat="48.08438833" lon="22.63818667">
        <ele>145.1</ele>
        <time>2025-07-09T11:18:26Z</time>
      </trkpt>
      <trkpt lat="48.084335" lon="22.63834">
        <ele>145.5</ele>
        <time>2025-07-09T11:18:28Z</time>
      </trkpt>
      <trkpt lat="48.08429333" lon="22.63850167">
        <ele>145.4</ele>
        <time>2025-07-09T11:18:30Z</time>
      </trkpt>
      <trkpt lat="48.08425167" lon="22.63865667">
        <ele>145.8</ele>
        <time>2025-07-09T11:18:32Z</time>
      </trkpt>
      <trkpt lat="48.08420667" lon="22.638825">
        <ele>146.4</ele>
        <time>2025-07-09T11:18:34Z</time>
      </trkpt>
      <trkpt lat="48.08415833" lon="22.638975">
        <ele>147.5</ele>
        <time>2025-07-09T11:18:36Z</time>
      </trkpt>
      <trkpt lat="48.084105" lon="22.63912833">
        <ele>148.1</ele>
        <time>2025-07-09T11:18:38Z</time>
      </trkpt>
      <trkpt lat="48.08406667" lon="22.63928833">
        <ele>147.9</ele>
        <time>2025-07-09T11:18:40Z</time>
      </trkpt>
      <trkpt lat="48.084035" lon="22.63943333">
        <ele>147.5</ele>
        <time>2025-07-09T11:18:42Z</time>
      </trkpt>
      <trkpt lat="48.08399333" lon="22.63958667">
        <ele>147.3</ele>
        <time>2025-07-09T11:18:44Z</time>
      </trkpt>
      <trkpt lat="48.083945" lon="22.639745">
        <ele>147.2</ele>
        <time>2025-07-09T11:18:46Z</time>
      </trkpt>
      <trkpt lat="48.0839" lon="22.63990167">
        <ele>147.2</ele>
        <time>2025-07-09T11:18:48Z</time>
      </trkpt>
      <trkpt lat="48.08385667" lon="22.64006">
        <ele>147.5</ele>
        <time>2025-07-09T11:18:50Z</time>
      </trkpt>
      <trkpt lat="48.08381333" lon="22.64021667">
        <ele>148.3</ele>
        <time>2025-07-09T11:18:52Z</time>
      </trkpt>
      <trkpt lat="48.08378" lon="22.64036833">
        <ele>149</ele>
        <time>2025-07-09T11:18:54Z</time>
      </trkpt>
      <trkpt lat="48.08373833" lon="22.64052">
        <ele>149.4</ele>
        <time>2025-07-09T11:18:56Z</time>
      </trkpt>
      <trkpt lat="48.08370167" lon="22.64067167">
        <ele>150.5</ele>
        <time>2025-07-09T11:18:58Z</time>
      </trkpt>
      <trkpt lat="48.08366667" lon="22.64082">
        <ele>151</ele>
        <time>2025-07-09T11:19:00Z</time>
      </trkpt>
      <trkpt lat="48.08362667" lon="22.640965">
        <ele>150.8</ele>
        <time>2025-07-09T11:19:02Z</time>
      </trkpt>
      <trkpt lat="48.08357167" lon="22.64113667">
        <ele>150.7</ele>
        <time>2025-07-09T11:19:04Z</time>
      </trkpt>
      <trkpt lat="48.083525" lon="22.64131333">
        <ele>151</ele>
        <time>2025-07-09T11:19:06Z</time>
      </trkpt>
      <trkpt lat="48.08348" lon="22.641455">
        <ele>151</ele>
        <time>2025-07-09T11:19:08Z</time>
      </trkpt>
      <trkpt lat="48.08344167" lon="22.64161167">
        <ele>151.4</ele>
        <time>2025-07-09T11:19:10Z</time>
      </trkpt>
      <trkpt lat="48.083405" lon="22.64176833">
        <ele>151.2</ele>
        <time>2025-07-09T11:19:12Z</time>
      </trkpt>
      <trkpt lat="48.08336833" lon="22.641915">
        <ele>150.4</ele>
        <time>2025-07-09T11:19:14Z</time>
      </trkpt>
      <trkpt lat="48.083335" lon="22.64205167">
        <ele>150.2</ele>
        <time>2025-07-09T11:19:16Z</time>
      </trkpt>
      <trkpt lat="48.08329833" lon="22.64218167">
        <ele>150.1</ele>
        <time>2025-07-09T11:19:18Z</time>
      </trkpt>
      <trkpt lat="48.08326" lon="22.64232333">
        <ele>149.3</ele>
        <time>2025-07-09T11:19:20Z</time>
      </trkpt>
      <trkpt lat="48.08322333" lon="22.64247833">
        <ele>148.5</ele>
        <time>2025-07-09T11:19:22Z</time>
      </trkpt>
      <trkpt lat="48.08318667" lon="22.64262167">
        <ele>148.1</ele>
        <time>2025-07-09T11:19:24Z</time>
      </trkpt>
      <trkpt lat="48.08314833" lon="22.64275167">
        <ele>147.5</ele>
        <time>2025-07-09T11:19:26Z</time>
      </trkpt>
      <trkpt lat="48.08309667" lon="22.64288333">
        <ele>147.2</ele>
        <time>2025-07-09T11:19:28Z</time>
      </trkpt>
      <trkpt lat="48.08304667" lon="22.64304167">
        <ele>146.2</ele>
        <time>2025-07-09T11:19:30Z</time>
      </trkpt>
      <trkpt lat="48.08300167" lon="22.643215">
        <ele>149.5</ele>
        <time>2025-07-09T11:19:32Z</time>
      </trkpt>
      <trkpt lat="48.08296667" lon="22.64337">
        <ele>154.7</ele>
        <time>2025-07-09T11:19:34Z</time>
      </trkpt>
      <trkpt lat="48.08292333" lon="22.64352167">
        <ele>155.8</ele>
        <time>2025-07-09T11:19:36Z</time>
      </trkpt>
      <trkpt lat="48.08288" lon="22.643685">
        <ele>156.3</ele>
        <time>2025-07-09T11:19:38Z</time>
      </trkpt>
      <trkpt lat="48.082845" lon="22.64384333">
        <ele>156.2</ele>
        <time>2025-07-09T11:19:40Z</time>
      </trkpt>
      <trkpt lat="48.08280333" lon="22.64399">
        <ele>155</ele>
        <time>2025-07-09T11:19:42Z</time>
      </trkpt>
      <trkpt lat="48.08276" lon="22.64414667">
        <ele>153.6</ele>
        <time>2025-07-09T11:19:44Z</time>
      </trkpt>
      <trkpt lat="48.08271167" lon="22.64429833">
        <ele>152.2</ele>
        <time>2025-07-09T11:19:46Z</time>
      </trkpt>
      <trkpt lat="48.08267" lon="22.64445">
        <ele>151.3</ele>
        <time>2025-07-09T11:19:48Z</time>
      </trkpt>
      <trkpt lat="48.08263167" lon="22.6446">
        <ele>151</ele>
        <time>2025-07-09T11:19:50Z</time>
      </trkpt>
      <trkpt lat="48.082585" lon="22.64477">
        <ele>150.9</ele>
        <time>2025-07-09T11:19:52Z</time>
      </trkpt>
      <trkpt lat="48.08254" lon="22.64492667">
        <ele>151</ele>
        <time>2025-07-09T11:19:54Z</time>
      </trkpt>
      <trkpt lat="48.08250167" lon="22.64507167">
        <ele>150.8</ele>
        <time>2025-07-09T11:19:56Z</time>
      </trkpt>
      <trkpt lat="48.08246" lon="22.64523833">
        <ele>151.5</ele>
        <time>2025-07-09T11:19:58Z</time>
      </trkpt>
      <trkpt lat="48.082415" lon="22.64540167">
        <ele>152.3</ele>
        <time>2025-07-09T11:20:00Z</time>
      </trkpt>
      <trkpt lat="48.082365" lon="22.64554333">
        <ele>151.7</ele>
        <time>2025-07-09T11:20:02Z</time>
      </trkpt>
      <trkpt lat="48.08233167" lon="22.64568667">
        <ele>152</ele>
        <time>2025-07-09T11:20:04Z</time>
      </trkpt>
      <trkpt lat="48.082295" lon="22.64583833">
        <ele>150.9</ele>
        <time>2025-07-09T11:20:06Z</time>
      </trkpt>
      <trkpt lat="48.08225333" lon="22.64597833">
        <ele>150.2</ele>
        <time>2025-07-09T11:20:08Z</time>
      </trkpt>
      <trkpt lat="48.08222333" lon="22.64612833">
        <ele>149.9</ele>
        <time>2025-07-09T11:20:10Z</time>
      </trkpt>
      <trkpt lat="48.08217833" lon="22.646295">
        <ele>149.9</ele>
        <time>2025-07-09T11:20:12Z</time>
      </trkpt>
      <trkpt lat="48.08212833" lon="22.64646333">
        <ele>149.5</ele>
        <time>2025-07-09T11:20:14Z</time>
      </trkpt>
      <trkpt lat="48.08209333" lon="22.64661167">
        <ele>148.8</ele>
        <time>2025-07-09T11:20:16Z</time>
      </trkpt>
      <trkpt lat="48.08204833" lon="22.64675833">
        <ele>148.2</ele>
        <time>2025-07-09T11:20:18Z</time>
      </trkpt>
      <trkpt lat="48.082005" lon="22.64690333">
        <ele>148</ele>
        <time>2025-07-09T11:20:20Z</time>
      </trkpt>
      <trkpt lat="48.08195833" lon="22.64705833">
        <ele>147.5</ele>
        <time>2025-07-09T11:20:22Z</time>
      </trkpt>
      <trkpt lat="48.081915" lon="22.647205">
        <ele>146.6</ele>
        <time>2025-07-09T11:20:24Z</time>
      </trkpt>
      <trkpt lat="48.081875" lon="22.64735333">
        <ele>146.6</ele>
        <time>2025-07-09T11:20:26Z</time>
      </trkpt>
      <trkpt lat="48.08182167" lon="22.64751667">
        <ele>147.6</ele>
        <time>2025-07-09T11:20:28Z</time>
      </trkpt>
      <trkpt lat="48.081775" lon="22.64767167">
        <ele>148.8</ele>
        <time>2025-07-09T11:20:30Z</time>
      </trkpt>
      <trkpt lat="48.08173167" lon="22.64782167">
        <ele>149.5</ele>
        <time>2025-07-09T11:20:32Z</time>
      </trkpt>
      <trkpt lat="48.08169333" lon="22.64798">
        <ele>150.5</ele>
        <time>2025-07-09T11:20:34Z</time>
      </trkpt>
      <trkpt lat="48.08164667" lon="22.64814167">
        <ele>152.1</ele>
        <time>2025-07-09T11:20:36Z</time>
      </trkpt>
      <trkpt lat="48.08160833" lon="22.64831167">
        <ele>152.5</ele>
        <time>2025-07-09T11:20:38Z</time>
      </trkpt>
      <trkpt lat="48.08156667" lon="22.64847667">
        <ele>152.9</ele>
        <time>2025-07-09T11:20:40Z</time>
      </trkpt>
      <trkpt lat="48.08152833" lon="22.648645">
        <ele>152.9</ele>
        <time>2025-07-09T11:20:42Z</time>
      </trkpt>
      <trkpt lat="48.08148333" lon="22.64879667">
        <ele>152.9</ele>
        <time>2025-07-09T11:20:44Z</time>
      </trkpt>
      <trkpt lat="48.08145333" lon="22.64894333">
        <ele>152.9</ele>
        <time>2025-07-09T11:20:46Z</time>
      </trkpt>
      <trkpt lat="48.081415" lon="22.6491">
        <ele>153.7</ele>
        <time>2025-07-09T11:20:48Z</time>
      </trkpt>
      <trkpt lat="48.08136833" lon="22.64926">
        <ele>153.3</ele>
        <time>2025-07-09T11:20:50Z</time>
      </trkpt>
      <trkpt lat="48.08131833" lon="22.64941333">
        <ele>153.4</ele>
        <time>2025-07-09T11:20:52Z</time>
      </trkpt>
      <trkpt lat="48.08127333" lon="22.64955833">
        <ele>154</ele>
        <time>2025-07-09T11:20:54Z</time>
      </trkpt>
      <trkpt lat="48.08122333" lon="22.64972333">
        <ele>154.5</ele>
        <time>2025-07-09T11:20:56Z</time>
      </trkpt>
      <trkpt lat="48.081185" lon="22.64986333">
        <ele>154.7</ele>
        <time>2025-07-09T11:20:58Z</time>
      </trkpt>
      <trkpt lat="48.08115667" lon="22.649995">
        <ele>154.5</ele>
        <time>2025-07-09T11:21:00Z</time>
      </trkpt>
      <trkpt lat="48.08111667" lon="22.65015">
        <ele>154.1</ele>
        <time>2025-07-09T11:21:02Z</time>
      </trkpt>
      <trkpt lat="48.081065" lon="22.65031167">
        <ele>153.3</ele>
        <time>2025-07-09T11:21:04Z</time>
      </trkpt>
      <trkpt lat="48.08103333" lon="22.65044833">
        <ele>152.9</ele>
        <time>2025-07-09T11:21:06Z</time>
      </trkpt>
      <trkpt lat="48.08099167" lon="22.65058667">
        <ele>154</ele>
        <time>2025-07-09T11:21:08Z</time>
      </trkpt>
      <trkpt lat="48.080955" lon="22.65074">
        <ele>153</ele>
        <time>2025-07-09T11:21:10Z</time>
      </trkpt>
      <trkpt lat="48.08091833" lon="22.65091833">
        <ele>153.1</ele>
        <time>2025-07-09T11:21:12Z</time>
      </trkpt>
      <trkpt lat="48.08086833" lon="22.65108">
        <ele>154.6</ele>
        <time>2025-07-09T11:21:14Z</time>
      </trkpt>
      <trkpt lat="48.08082667" lon="22.65124">
        <ele>155.1</ele>
        <time>2025-07-09T11:21:16Z</time>
      </trkpt>
      <trkpt lat="48.08078333" lon="22.65139833">
        <ele>155.4</ele>
        <time>2025-07-09T11:21:18Z</time>
      </trkpt>
      <trkpt lat="48.08075833" lon="22.65155333">
        <ele>155.5</ele>
        <time>2025-07-09T11:21:20Z</time>
      </trkpt>
      <trkpt lat="48.08072167" lon="22.651695">
        <ele>154.9</ele>
        <time>2025-07-09T11:21:22Z</time>
      </trkpt>
      <trkpt lat="48.08068333" lon="22.65184">
        <ele>154.2</ele>
        <time>2025-07-09T11:21:24Z</time>
      </trkpt>
      <trkpt lat="48.08064333" lon="22.651995">
        <ele>154.3</ele>
        <time>2025-07-09T11:21:26Z</time>
      </trkpt>
      <trkpt lat="48.080595" lon="22.65214667">
        <ele>153.4</ele>
        <time>2025-07-09T11:21:28Z</time>
      </trkpt>
      <trkpt lat="48.08055" lon="22.6523">
        <ele>152.6</ele>
        <time>2025-07-09T11:21:30Z</time>
      </trkpt>
      <trkpt lat="48.08051" lon="22.65246833">
        <ele>151.6</ele>
        <time>2025-07-09T11:21:32Z</time>
      </trkpt>
      <trkpt lat="48.08045333" lon="22.65264167">
        <ele>150.6</ele>
        <time>2025-07-09T11:21:34Z</time>
      </trkpt>
      <trkpt lat="48.08040833" lon="22.65278167">
        <ele>150.4</ele>
        <time>2025-07-09T11:21:36Z</time>
      </trkpt>
      <trkpt lat="48.080355" lon="22.652935">
        <ele>149.9</ele>
        <time>2025-07-09T11:21:38Z</time>
      </trkpt>
      <trkpt lat="48.08031167" lon="22.653085">
        <ele>151.1</ele>
        <time>2025-07-09T11:21:40Z</time>
      </trkpt>
      <trkpt lat="48.08027167" lon="22.65325">
        <ele>151.7</ele>
        <time>2025-07-09T11:21:42Z</time>
      </trkpt>
      <trkpt lat="48.08023" lon="22.65340167">
        <ele>150.9</ele>
        <time>2025-07-09T11:21:44Z</time>
      </trkpt>
      <trkpt lat="48.08019" lon="22.65356333">
        <ele>151.4</ele>
        <time>2025-07-09T11:21:46Z</time>
      </trkpt>
      <trkpt lat="48.08014333" lon="22.65371167">
        <ele>152.1</ele>
        <time>2025-07-09T11:21:48Z</time>
      </trkpt>
      <trkpt lat="48.08009333" lon="22.65386167">
        <ele>153.1</ele>
        <time>2025-07-09T11:21:50Z</time>
      </trkpt>
      <trkpt lat="48.08005333" lon="22.65403167">
        <ele>154.1</ele>
        <time>2025-07-09T11:21:52Z</time>
      </trkpt>
      <trkpt lat="48.08001333" lon="22.65419333">
        <ele>154.7</ele>
        <time>2025-07-09T11:21:54Z</time>
      </trkpt>
      <trkpt lat="48.07997833" lon="22.65434167">
        <ele>155.9</ele>
        <time>2025-07-09T11:21:56Z</time>
      </trkpt>
      <trkpt lat="48.07993667" lon="22.65449667">
        <ele>156.3</ele>
        <time>2025-07-09T11:21:58Z</time>
      </trkpt>
      <trkpt lat="48.0799" lon="22.65465">
        <ele>156.8</ele>
        <time>2025-07-09T11:22:00Z</time>
      </trkpt>
      <trkpt lat="48.07987" lon="22.654795">
        <ele>158</ele>
        <time>2025-07-09T11:22:02Z</time>
      </trkpt>
      <trkpt lat="48.07983333" lon="22.65495">
        <ele>158.3</ele>
        <time>2025-07-09T11:22:04Z</time>
      </trkpt>
      <trkpt lat="48.07978667" lon="22.65509667">
        <ele>158.1</ele>
        <time>2025-07-09T11:22:06Z</time>
      </trkpt>
      <trkpt lat="48.079735" lon="22.65525833">
        <ele>157.7</ele>
        <time>2025-07-09T11:22:08Z</time>
      </trkpt>
      <trkpt lat="48.07968667" lon="22.65542833">
        <ele>157.5</ele>
        <time>2025-07-09T11:22:10Z</time>
      </trkpt>
      <trkpt lat="48.07964167" lon="22.65558333">
        <ele>157.3</ele>
        <time>2025-07-09T11:22:12Z</time>
      </trkpt>
      <trkpt lat="48.079615" lon="22.65573">
        <ele>157.1</ele>
        <time>2025-07-09T11:22:14Z</time>
      </trkpt>
      <trkpt lat="48.07957333" lon="22.65587167">
        <ele>155.8</ele>
        <time>2025-07-09T11:22:16Z</time>
      </trkpt>
      <trkpt lat="48.07953" lon="22.65600833">
        <ele>154.6</ele>
        <time>2025-07-09T11:22:18Z</time>
      </trkpt>
      <trkpt lat="48.07949333" lon="22.65615667">
        <ele>154.3</ele>
        <time>2025-07-09T11:22:20Z</time>
      </trkpt>
      <trkpt lat="48.07946167" lon="22.65629">
        <ele>154.8</ele>
        <time>2025-07-09T11:22:22Z</time>
      </trkpt>
      <trkpt lat="48.07942" lon="22.65644833">
        <ele>154.9</ele>
        <time>2025-07-09T11:22:24Z</time>
      </trkpt>
      <trkpt lat="48.079385" lon="22.656605">
        <ele>155.1</ele>
        <time>2025-07-09T11:22:26Z</time>
      </trkpt>
      <trkpt lat="48.07933833" lon="22.65674667">
        <ele>155.2</ele>
        <time>2025-07-09T11:22:28Z</time>
      </trkpt>
      <trkpt lat="48.079295" lon="22.65688167">
        <ele>154.5</ele>
        <time>2025-07-09T11:22:30Z</time>
      </trkpt>
      <trkpt lat="48.07925167" lon="22.65706333">
        <ele>153.5</ele>
        <time>2025-07-09T11:22:33Z</time>
      </trkpt>
      <trkpt lat="48.079195" lon="22.65725333">
        <ele>150.2</ele>
        <time>2025-07-09T11:22:36Z</time>
      </trkpt>
      <trkpt lat="48.07914667" lon="22.65741167">
        <ele>150.8</ele>
        <time>2025-07-09T11:22:38Z</time>
      </trkpt>
      <trkpt lat="48.079115" lon="22.65754333">
        <ele>151.4</ele>
        <time>2025-07-09T11:22:40Z</time>
      </trkpt>
      <trkpt lat="48.07905833" lon="22.65773833">
        <ele>151.4</ele>
        <time>2025-07-09T11:22:43Z</time>
      </trkpt>
      <trkpt lat="48.07901833" lon="22.65788167">
        <ele>150.1</ele>
        <time>2025-07-09T11:22:45Z</time>
      </trkpt>
      <trkpt lat="48.07898667" lon="22.65802667">
        <ele>149.6</ele>
        <time>2025-07-09T11:22:47Z</time>
      </trkpt>
      <trkpt lat="48.07894833" lon="22.658185">
        <ele>149.6</ele>
        <time>2025-07-09T11:22:49Z</time>
      </trkpt>
      <trkpt lat="48.07890167" lon="22.658345">
        <ele>151</ele>
        <time>2025-07-09T11:22:51Z</time>
      </trkpt>
      <trkpt lat="48.07884667" lon="22.65849667">
        <ele>152.4</ele>
        <time>2025-07-09T11:22:53Z</time>
      </trkpt>
      <trkpt lat="48.07881167" lon="22.658645">
        <ele>151.8</ele>
        <time>2025-07-09T11:22:55Z</time>
      </trkpt>
      <trkpt lat="48.07876" lon="22.658805">
        <ele>151.3</ele>
        <time>2025-07-09T11:22:57Z</time>
      </trkpt>
      <trkpt lat="48.07871167" lon="22.65894833">
        <ele>151.3</ele>
        <time>2025-07-09T11:22:59Z</time>
      </trkpt>
      <trkpt lat="48.07867" lon="22.659085">
        <ele>152</ele>
        <time>2025-07-09T11:23:01Z</time>
      </trkpt>
      <trkpt lat="48.07863667" lon="22.65922667">
        <ele>152.4</ele>
        <time>2025-07-09T11:23:03Z</time>
      </trkpt>
      <trkpt lat="48.078595" lon="22.65940833">
        <ele>152</ele>
        <time>2025-07-09T11:23:06Z</time>
      </trkpt>
      <trkpt lat="48.07856667" lon="22.65956167">
        <ele>151.6</ele>
        <time>2025-07-09T11:23:08Z</time>
      </trkpt>
      <trkpt lat="48.07854833" lon="22.659695">
        <ele>150.9</ele>
        <time>2025-07-09T11:23:10Z</time>
      </trkpt>
      <trkpt lat="48.07851667" lon="22.65983">
        <ele>150.9</ele>
        <time>2025-07-09T11:23:12Z</time>
      </trkpt>
      <trkpt lat="48.07846667" lon="22.660005">
        <ele>151.5</ele>
        <time>2025-07-09T11:23:15Z</time>
      </trkpt>
      <trkpt lat="48.07840333" lon="22.660155">
        <ele>151.7</ele>
        <time>2025-07-09T11:23:18Z</time>
      </trkpt>
      <trkpt lat="48.07836833" lon="22.66029333">
        <ele>152.7</ele>
        <time>2025-07-09T11:23:20Z</time>
      </trkpt>
      <trkpt lat="48.07833167" lon="22.66043833">
        <ele>151.7</ele>
        <time>2025-07-09T11:23:22Z</time>
      </trkpt>
      <trkpt lat="48.07829167" lon="22.66058833">
        <ele>151.6</ele>
        <time>2025-07-09T11:23:24Z</time>
      </trkpt>
      <trkpt lat="48.07825" lon="22.66072833">
        <ele>152.1</ele>
        <time>2025-07-09T11:23:26Z</time>
      </trkpt>
      <trkpt lat="48.07821667" lon="22.66086667">
        <ele>152.1</ele>
        <time>2025-07-09T11:23:28Z</time>
      </trkpt>
      <trkpt lat="48.07818333" lon="22.660995">
        <ele>151.7</ele>
        <time>2025-07-09T11:23:30Z</time>
      </trkpt>
      <trkpt lat="48.07814167" lon="22.66112333">
        <ele>152.1</ele>
        <time>2025-07-09T11:23:32Z</time>
      </trkpt>
      <trkpt lat="48.07810667" lon="22.66127167">
        <ele>152.9</ele>
        <time>2025-07-09T11:23:34Z</time>
      </trkpt>
      <trkpt lat="48.07807667" lon="22.66141">
        <ele>153.3</ele>
        <time>2025-07-09T11:23:36Z</time>
      </trkpt>
      <trkpt lat="48.07803667" lon="22.66157167">
        <ele>153.5</ele>
        <time>2025-07-09T11:23:38Z</time>
      </trkpt>
      <trkpt lat="48.07798667" lon="22.66172">
        <ele>153.1</ele>
        <time>2025-07-09T11:23:40Z</time>
      </trkpt>
      <trkpt lat="48.07794667" lon="22.661875">
        <ele>154.2</ele>
        <time>2025-07-09T11:23:42Z</time>
      </trkpt>
      <trkpt lat="48.077905" lon="22.66202333">
        <ele>156</ele>
        <time>2025-07-09T11:23:44Z</time>
      </trkpt>
      <trkpt lat="48.07786333" lon="22.662165">
        <ele>157.3</ele>
        <time>2025-07-09T11:23:46Z</time>
      </trkpt>
      <trkpt lat="48.07781667" lon="22.66229667">
        <ele>157.7</ele>
        <time>2025-07-09T11:23:48Z</time>
      </trkpt>
      <trkpt lat="48.077775" lon="22.66244833">
        <ele>157</ele>
        <time>2025-07-09T11:23:50Z</time>
      </trkpt>
      <trkpt lat="48.07772333" lon="22.66260667">
        <ele>155.6</ele>
        <time>2025-07-09T11:23:52Z</time>
      </trkpt>
      <trkpt lat="48.07768833" lon="22.66275333">
        <ele>154.8</ele>
        <time>2025-07-09T11:23:54Z</time>
      </trkpt>
      <trkpt lat="48.07764833" lon="22.662905">
        <ele>155.4</ele>
        <time>2025-07-09T11:23:56Z</time>
      </trkpt>
      <trkpt lat="48.077605" lon="22.66305">
        <ele>154.7</ele>
        <time>2025-07-09T11:23:58Z</time>
      </trkpt>
      <trkpt lat="48.07756167" lon="22.66320167">
        <ele>153.6</ele>
        <time>2025-07-09T11:24:00Z</time>
      </trkpt>
      <trkpt lat="48.07751833" lon="22.66334667">
        <ele>153.2</ele>
        <time>2025-07-09T11:24:02Z</time>
      </trkpt>
      <trkpt lat="48.07747833" lon="22.663485">
        <ele>153.7</ele>
        <time>2025-07-09T11:24:04Z</time>
      </trkpt>
      <trkpt lat="48.07744667" lon="22.66363667">
        <ele>153.8</ele>
        <time>2025-07-09T11:24:06Z</time>
      </trkpt>
      <trkpt lat="48.077405" lon="22.66379">
        <ele>152.7</ele>
        <time>2025-07-09T11:24:08Z</time>
      </trkpt>
      <trkpt lat="48.07737" lon="22.663915">
        <ele>152.6</ele>
        <time>2025-07-09T11:24:10Z</time>
      </trkpt>
      <trkpt lat="48.07733" lon="22.66405167">
        <ele>152.1</ele>
        <time>2025-07-09T11:24:12Z</time>
      </trkpt>
      <trkpt lat="48.07729167" lon="22.66419167">
        <ele>151.3</ele>
        <time>2025-07-09T11:24:14Z</time>
      </trkpt>
      <trkpt lat="48.07725333" lon="22.66433167">
        <ele>150.2</ele>
        <time>2025-07-09T11:24:16Z</time>
      </trkpt>
      <trkpt lat="48.07721" lon="22.66446833">
        <ele>151.1</ele>
        <time>2025-07-09T11:24:18Z</time>
      </trkpt>
      <trkpt lat="48.07717" lon="22.66460833">
        <ele>152</ele>
        <time>2025-07-09T11:24:20Z</time>
      </trkpt>
      <trkpt lat="48.07713833" lon="22.66475833">
        <ele>152.1</ele>
        <time>2025-07-09T11:24:22Z</time>
      </trkpt>
      <trkpt lat="48.0771" lon="22.66491">
        <ele>153.1</ele>
        <time>2025-07-09T11:24:24Z</time>
      </trkpt>
      <trkpt lat="48.07706167" lon="22.66507">
        <ele>153.3</ele>
        <time>2025-07-09T11:24:26Z</time>
      </trkpt>
      <trkpt lat="48.07702167" lon="22.665205">
        <ele>153.7</ele>
        <time>2025-07-09T11:24:28Z</time>
      </trkpt>
      <trkpt lat="48.07698333" lon="22.66534333">
        <ele>153</ele>
        <time>2025-07-09T11:24:30Z</time>
      </trkpt>
      <trkpt lat="48.07695167" lon="22.665495">
        <ele>152.8</ele>
        <time>2025-07-09T11:24:32Z</time>
      </trkpt>
      <trkpt lat="48.07691" lon="22.66564167">
        <ele>152.4</ele>
        <time>2025-07-09T11:24:34Z</time>
      </trkpt>
      <trkpt lat="48.07687" lon="22.66578667">
        <ele>152.2</ele>
        <time>2025-07-09T11:24:36Z</time>
      </trkpt>
      <trkpt lat="48.07683167" lon="22.66593333">
        <ele>151</ele>
        <time>2025-07-09T11:24:38Z</time>
      </trkpt>
      <trkpt lat="48.07678333" lon="22.6661">
        <ele>150.1</ele>
        <time>2025-07-09T11:24:40Z</time>
      </trkpt>
      <trkpt lat="48.07674667" lon="22.66624167">
        <ele>150.8</ele>
        <time>2025-07-09T11:24:42Z</time>
      </trkpt>
      <trkpt lat="48.07671667" lon="22.66640333">
        <ele>150.5</ele>
        <time>2025-07-09T11:24:44Z</time>
      </trkpt>
      <trkpt lat="48.07667667" lon="22.66654167">
        <ele>151.1</ele>
        <time>2025-07-09T11:24:46Z</time>
      </trkpt>
      <trkpt lat="48.07663667" lon="22.66669">
        <ele>151.7</ele>
        <time>2025-07-09T11:24:48Z</time>
      </trkpt>
      <trkpt lat="48.07659333" lon="22.66684833">
        <ele>151.8</ele>
        <time>2025-07-09T11:24:50Z</time>
      </trkpt>
      <trkpt lat="48.07655" lon="22.667">
        <ele>151.2</ele>
        <time>2025-07-09T11:24:52Z</time>
      </trkpt>
      <trkpt lat="48.07650833" lon="22.66713333">
        <ele>151.2</ele>
        <time>2025-07-09T11:24:54Z</time>
      </trkpt>
      <trkpt lat="48.076465" lon="22.66726833">
        <ele>150.2</ele>
        <time>2025-07-09T11:24:56Z</time>
      </trkpt>
      <trkpt lat="48.07642333" lon="22.66741667">
        <ele>149.9</ele>
        <time>2025-07-09T11:24:58Z</time>
      </trkpt>
      <trkpt lat="48.07637833" lon="22.667575">
        <ele>150.6</ele>
        <time>2025-07-09T11:25:00Z</time>
      </trkpt>
      <trkpt lat="48.07633667" lon="22.66774833">
        <ele>151.6</ele>
        <time>2025-07-09T11:25:02Z</time>
      </trkpt>
      <trkpt lat="48.07628833" lon="22.66792167">
        <ele>151.4</ele>
        <time>2025-07-09T11:25:04Z</time>
      </trkpt>
      <trkpt lat="48.07623667" lon="22.66809333">
        <ele>151</ele>
        <time>2025-07-09T11:25:06Z</time>
      </trkpt>
      <trkpt lat="48.07618833" lon="22.668245">
        <ele>151.4</ele>
        <time>2025-07-09T11:25:08Z</time>
      </trkpt>
      <trkpt lat="48.07614333" lon="22.66839167">
        <ele>151.9</ele>
        <time>2025-07-09T11:25:10Z</time>
      </trkpt>
      <trkpt lat="48.0761" lon="22.668535">
        <ele>152.8</ele>
        <time>2025-07-09T11:25:12Z</time>
      </trkpt>
      <trkpt lat="48.07606667" lon="22.66868167">
        <ele>153.7</ele>
        <time>2025-07-09T11:25:14Z</time>
      </trkpt>
      <trkpt lat="48.07603" lon="22.66883">
        <ele>154.1</ele>
        <time>2025-07-09T11:25:16Z</time>
      </trkpt>
      <trkpt lat="48.07598833" lon="22.668975">
        <ele>154.6</ele>
        <time>2025-07-09T11:25:18Z</time>
      </trkpt>
      <trkpt lat="48.075955" lon="22.66912333">
        <ele>154.3</ele>
        <time>2025-07-09T11:25:20Z</time>
      </trkpt>
      <trkpt lat="48.07593167" lon="22.66926833">
        <ele>154.2</ele>
        <time>2025-07-09T11:25:22Z</time>
      </trkpt>
      <trkpt lat="48.07588667" lon="22.66941">
        <ele>154.6</ele>
        <time>2025-07-09T11:25:24Z</time>
      </trkpt>
      <trkpt lat="48.075845" lon="22.66955333">
        <ele>155.4</ele>
        <time>2025-07-09T11:25:26Z</time>
      </trkpt>
      <trkpt lat="48.07579167" lon="22.66969333">
        <ele>155.8</ele>
        <time>2025-07-09T11:25:28Z</time>
      </trkpt>
      <trkpt lat="48.075745" lon="22.66985167">
        <ele>156.5</ele>
        <time>2025-07-09T11:25:30Z</time>
      </trkpt>
      <trkpt lat="48.075705" lon="22.67002833">
        <ele>156.9</ele>
        <time>2025-07-09T11:25:32Z</time>
      </trkpt>
      <trkpt lat="48.07566167" lon="22.67017833">
        <ele>156.9</ele>
        <time>2025-07-09T11:25:34Z</time>
      </trkpt>
      <trkpt lat="48.07562333" lon="22.67033333">
        <ele>156.7</ele>
        <time>2025-07-09T11:25:36Z</time>
      </trkpt>
      <trkpt lat="48.075575" lon="22.67048667">
        <ele>155.9</ele>
        <time>2025-07-09T11:25:38Z</time>
      </trkpt>
      <trkpt lat="48.075535" lon="22.67063833">
        <ele>155.5</ele>
        <time>2025-07-09T11:25:40Z</time>
      </trkpt>
      <trkpt lat="48.07549833" lon="22.670795">
        <ele>155.9</ele>
        <time>2025-07-09T11:25:42Z</time>
      </trkpt>
      <trkpt lat="48.07546167" lon="22.67095833">
        <ele>156.1</ele>
        <time>2025-07-09T11:25:44Z</time>
      </trkpt>
      <trkpt lat="48.07542333" lon="22.67112333">
        <ele>155.8</ele>
        <time>2025-07-09T11:25:46Z</time>
      </trkpt>
      <trkpt lat="48.07537833" lon="22.671275">
        <ele>155.5</ele>
        <time>2025-07-09T11:25:48Z</time>
      </trkpt>
      <trkpt lat="48.07533167" lon="22.67141333">
        <ele>155</ele>
        <time>2025-07-09T11:25:50Z</time>
      </trkpt>
      <trkpt lat="48.07527167" lon="22.67161333">
        <ele>153.6</ele>
        <time>2025-07-09T11:25:53Z</time>
      </trkpt>
      <trkpt lat="48.07523167" lon="22.671755">
        <ele>152.9</ele>
        <time>2025-07-09T11:25:55Z</time>
      </trkpt>
      <trkpt lat="48.075195" lon="22.67189333">
        <ele>152.9</ele>
        <time>2025-07-09T11:25:57Z</time>
      </trkpt>
      <trkpt lat="48.07516167" lon="22.672045">
        <ele>152.7</ele>
        <time>2025-07-09T11:25:59Z</time>
      </trkpt>
      <trkpt lat="48.07512167" lon="22.67221667">
        <ele>152.2</ele>
        <time>2025-07-09T11:26:01Z</time>
      </trkpt>
      <trkpt lat="48.07508833" lon="22.67237667">
        <ele>152.7</ele>
        <time>2025-07-09T11:26:03Z</time>
      </trkpt>
      <trkpt lat="48.07504667" lon="22.67252833">
        <ele>152.8</ele>
        <time>2025-07-09T11:26:05Z</time>
      </trkpt>
      <trkpt lat="48.07500833" lon="22.67266667">
        <ele>152.3</ele>
        <time>2025-07-09T11:26:07Z</time>
      </trkpt>
      <trkpt lat="48.07496833" lon="22.672815">
        <ele>152.5</ele>
        <time>2025-07-09T11:26:09Z</time>
      </trkpt>
      <trkpt lat="48.07493" lon="22.67294333">
        <ele>153.4</ele>
        <time>2025-07-09T11:26:11Z</time>
      </trkpt>
      <trkpt lat="48.07488667" lon="22.67309167">
        <ele>152.4</ele>
        <time>2025-07-09T11:26:13Z</time>
      </trkpt>
      <trkpt lat="48.07484167" lon="22.67323167">
        <ele>151.9</ele>
        <time>2025-07-09T11:26:15Z</time>
      </trkpt>
      <trkpt lat="48.074795" lon="22.673375">
        <ele>151.3</ele>
        <time>2025-07-09T11:26:17Z</time>
      </trkpt>
      <trkpt lat="48.07475667" lon="22.67350667">
        <ele>151.2</ele>
        <time>2025-07-09T11:26:19Z</time>
      </trkpt>
      <trkpt lat="48.0747" lon="22.67369">
        <ele>151.6</ele>
        <time>2025-07-09T11:26:22Z</time>
      </trkpt>
      <trkpt lat="48.07466167" lon="22.67383167">
        <ele>151.3</ele>
        <time>2025-07-09T11:26:24Z</time>
      </trkpt>
      <trkpt lat="48.07463" lon="22.67397833">
        <ele>151.6</ele>
        <time>2025-07-09T11:26:26Z</time>
      </trkpt>
      <trkpt lat="48.07458667" lon="22.67415167">
        <ele>152.3</ele>
        <time>2025-07-09T11:26:29Z</time>
      </trkpt>
      <trkpt lat="48.07453833" lon="22.67433667">
        <ele>152.1</ele>
        <time>2025-07-09T11:26:32Z</time>
      </trkpt>
      <trkpt lat="48.07450167" lon="22.67448">
        <ele>152</ele>
        <time>2025-07-09T11:26:34Z</time>
      </trkpt>
      <trkpt lat="48.074455" lon="22.67466667">
        <ele>150.7</ele>
        <time>2025-07-09T11:26:37Z</time>
      </trkpt>
      <trkpt lat="48.07442333" lon="22.67479333">
        <ele>149.7</ele>
        <time>2025-07-09T11:26:39Z</time>
      </trkpt>
      <trkpt lat="48.07437833" lon="22.67494">
        <ele>149</ele>
        <time>2025-07-09T11:26:41Z</time>
      </trkpt>
      <trkpt lat="48.07433167" lon="22.67510333">
        <ele>148.1</ele>
        <time>2025-07-09T11:26:43Z</time>
      </trkpt>
      <trkpt lat="48.07427333" lon="22.67529167">
        <ele>147.3</ele>
        <time>2025-07-09T11:26:45Z</time>
      </trkpt>
      <trkpt lat="48.07422333" lon="22.67545667">
        <ele>147.1</ele>
        <time>2025-07-09T11:26:47Z</time>
      </trkpt>
      <trkpt lat="48.07417" lon="22.67560667">
        <ele>147</ele>
        <time>2025-07-09T11:26:49Z</time>
      </trkpt>
      <trkpt lat="48.07412333" lon="22.67575667">
        <ele>146.1</ele>
        <time>2025-07-09T11:26:51Z</time>
      </trkpt>
      <trkpt lat="48.07407833" lon="22.67590833">
        <ele>145.5</ele>
        <time>2025-07-09T11:26:53Z</time>
      </trkpt>
      <trkpt lat="48.07403833" lon="22.67604833">
        <ele>145.8</ele>
        <time>2025-07-09T11:26:55Z</time>
      </trkpt>
      <trkpt lat="48.074005" lon="22.6762">
        <ele>146.5</ele>
        <time>2025-07-09T11:26:57Z</time>
      </trkpt>
      <trkpt lat="48.073985" lon="22.676335">
        <ele>147.8</ele>
        <time>2025-07-09T11:26:59Z</time>
      </trkpt>
      <trkpt lat="48.073945" lon="22.67652833">
        <ele>148.3</ele>
        <time>2025-07-09T11:27:02Z</time>
      </trkpt>
      <trkpt lat="48.07390667" lon="22.67668">
        <ele>148</ele>
        <time>2025-07-09T11:27:04Z</time>
      </trkpt>
      <trkpt lat="48.07387333" lon="22.67680667">
        <ele>148.6</ele>
        <time>2025-07-09T11:27:06Z</time>
      </trkpt>
      <trkpt lat="48.07383333" lon="22.67698167">
        <ele>149.5</ele>
        <time>2025-07-09T11:27:09Z</time>
      </trkpt>
      <trkpt lat="48.07379167" lon="22.67716">
        <ele>150.1</ele>
        <time>2025-07-09T11:27:12Z</time>
      </trkpt>
      <trkpt lat="48.07375667" lon="22.67729333">
        <ele>150.3</ele>
        <time>2025-07-09T11:27:14Z</time>
      </trkpt>
      <trkpt lat="48.07371" lon="22.67742667">
        <ele>149.8</ele>
        <time>2025-07-09T11:27:16Z</time>
      </trkpt>
      <trkpt lat="48.07366" lon="22.67758667">
        <ele>149.9</ele>
        <time>2025-07-09T11:27:18Z</time>
      </trkpt>
      <trkpt lat="48.073625" lon="22.67771833">
        <ele>149.5</ele>
        <time>2025-07-09T11:27:20Z</time>
      </trkpt>
      <trkpt lat="48.07357833" lon="22.67786833">
        <ele>148.1</ele>
        <time>2025-07-09T11:27:22Z</time>
      </trkpt>
      <trkpt lat="48.073515" lon="22.67801667">
        <ele>148.5</ele>
        <time>2025-07-09T11:27:25Z</time>
      </trkpt>
      <trkpt lat="48.07347333" lon="22.67816667">
        <ele>150</ele>
        <time>2025-07-09T11:27:29Z</time>
      </trkpt>
      <trkpt lat="48.07346" lon="22.67832333">
        <ele>151.4</ele>
        <time>2025-07-09T11:27:40Z</time>
      </trkpt>
      <trkpt lat="48.07353167" lon="22.67841167">
        <ele>151.8</ele>
        <time>2025-07-09T11:27:45Z</time>
      </trkpt>
      <trkpt lat="48.07362667" lon="22.67842">
        <ele>152.2</ele>
        <time>2025-07-09T11:27:48Z</time>
      </trkpt>
      <trkpt lat="48.07371667" lon="22.67841667">
        <ele>151.3</ele>
        <time>2025-07-09T11:27:51Z</time>
      </trkpt>
      <trkpt lat="48.07381833" lon="22.67840833">
        <ele>150.1</ele>
        <time>2025-07-09T11:27:54Z</time>
      </trkpt>
      <trkpt lat="48.07394333" lon="22.678395">
        <ele>149.7</ele>
        <time>2025-07-09T11:27:57Z</time>
      </trkpt>
      <trkpt lat="48.07404167" lon="22.678385">
        <ele>149.8</ele>
        <time>2025-07-09T11:27:59Z</time>
      </trkpt>
      <trkpt lat="48.07414167" lon="22.67838333">
        <ele>149.8</ele>
        <time>2025-07-09T11:28:01Z</time>
      </trkpt>
      <trkpt lat="48.07423167" lon="22.67837167">
        <ele>150</ele>
        <time>2025-07-09T11:28:03Z</time>
      </trkpt>
      <trkpt lat="48.07433833" lon="22.67836833">
        <ele>149</ele>
        <time>2025-07-09T11:28:05Z</time>
      </trkpt>
      <trkpt lat="48.07444" lon="22.67836167">
        <ele>147.4</ele>
        <time>2025-07-09T11:28:07Z</time>
      </trkpt>
      <trkpt lat="48.07453833" lon="22.67834">
        <ele>146.2</ele>
        <time>2025-07-09T11:28:09Z</time>
      </trkpt>
      <trkpt lat="48.07463667" lon="22.678345">
        <ele>147.1</ele>
        <time>2025-07-09T11:28:11Z</time>
      </trkpt>
      <trkpt lat="48.07473833" lon="22.678355">
        <ele>147.9</ele>
        <time>2025-07-09T11:28:13Z</time>
      </trkpt>
      <trkpt lat="48.074835" lon="22.678355">
        <ele>148.9</ele>
        <time>2025-07-09T11:28:15Z</time>
      </trkpt>
      <trkpt lat="48.07493167" lon="22.67835167">
        <ele>148.4</ele>
        <time>2025-07-09T11:28:17Z</time>
      </trkpt>
      <trkpt lat="48.07506333" lon="22.678335">
        <ele>151</ele>
        <time>2025-07-09T11:28:20Z</time>
      </trkpt>
      <trkpt lat="48.07519667" lon="22.67833167">
        <ele>151.1</ele>
        <time>2025-07-09T11:28:23Z</time>
      </trkpt>
      <trkpt lat="48.07528667" lon="22.67833">
        <ele>151.3</ele>
        <time>2025-07-09T11:28:25Z</time>
      </trkpt>
      <trkpt lat="48.07541333" lon="22.67831">
        <ele>151.3</ele>
        <time>2025-07-09T11:28:28Z</time>
      </trkpt>
      <trkpt lat="48.07552833" lon="22.67829333">
        <ele>150.4</ele>
        <time>2025-07-09T11:28:31Z</time>
      </trkpt>
      <trkpt lat="48.07564833" lon="22.67829">
        <ele>149.3</ele>
        <time>2025-07-09T11:28:34Z</time>
      </trkpt>
      <trkpt lat="48.07577" lon="22.67827833">
        <ele>149.1</ele>
        <time>2025-07-09T11:28:37Z</time>
      </trkpt>
      <trkpt lat="48.07589" lon="22.67827333">
        <ele>147.9</ele>
        <time>2025-07-09T11:28:40Z</time>
      </trkpt>
      <trkpt lat="48.07600667" lon="22.67825833">
        <ele>147.3</ele>
        <time>2025-07-09T11:28:43Z</time>
      </trkpt>
      <trkpt lat="48.07613667" lon="22.67825167">
        <ele>147.9</ele>
        <time>2025-07-09T11:28:46Z</time>
      </trkpt>
      <trkpt lat="48.07623833" lon="22.67825833">
        <ele>147.8</ele>
        <time>2025-07-09T11:28:48Z</time>
      </trkpt>
      <trkpt lat="48.07636" lon="22.67826333">
        <ele>146.9</ele>
        <time>2025-07-09T11:28:50Z</time>
      </trkpt>
      <trkpt lat="48.07648833" lon="22.67830167">
        <ele>147.5</ele>
        <time>2025-07-09T11:28:52Z</time>
      </trkpt>
      <trkpt lat="48.07659667" lon="22.67838333">
        <ele>148.2</ele>
        <time>2025-07-09T11:28:54Z</time>
      </trkpt>
      <trkpt lat="48.07667333" lon="22.67851833">
        <ele>147.4</ele>
        <time>2025-07-09T11:28:56Z</time>
      </trkpt>
      <trkpt lat="48.07673333" lon="22.678655">
        <ele>145.7</ele>
        <time>2025-07-09T11:28:58Z</time>
      </trkpt>
      <trkpt lat="48.076785" lon="22.67879333">
        <ele>145.4</ele>
        <time>2025-07-09T11:29:00Z</time>
      </trkpt>
      <trkpt lat="48.07683833" lon="22.678925">
        <ele>146</ele>
        <time>2025-07-09T11:29:02Z</time>
      </trkpt>
      <trkpt lat="48.07688333" lon="22.67904833">
        <ele>146.3</ele>
        <time>2025-07-09T11:29:04Z</time>
      </trkpt>
      <trkpt lat="48.076925" lon="22.67917167">
        <ele>146.7</ele>
        <time>2025-07-09T11:29:06Z</time>
      </trkpt>
      <trkpt lat="48.07695833" lon="22.67931">
        <ele>147.1</ele>
        <time>2025-07-09T11:29:08Z</time>
      </trkpt>
      <trkpt lat="48.07700167" lon="22.679445">
        <ele>147.1</ele>
        <time>2025-07-09T11:29:10Z</time>
      </trkpt>
      <trkpt lat="48.07705333" lon="22.67957667">
        <ele>148</ele>
        <time>2025-07-09T11:29:12Z</time>
      </trkpt>
      <trkpt lat="48.07710667" lon="22.67971">
        <ele>149.5</ele>
        <time>2025-07-09T11:29:14Z</time>
      </trkpt>
      <trkpt lat="48.07716167" lon="22.67984333">
        <ele>150.7</ele>
        <time>2025-07-09T11:29:16Z</time>
      </trkpt>
      <trkpt lat="48.07722" lon="22.67996333">
        <ele>150.7</ele>
        <time>2025-07-09T11:29:18Z</time>
      </trkpt>
      <trkpt lat="48.07728833" lon="22.68008667">
        <ele>150.7</ele>
        <time>2025-07-09T11:29:20Z</time>
      </trkpt>
      <trkpt lat="48.07735667" lon="22.68020667">
        <ele>150.6</ele>
        <time>2025-07-09T11:29:22Z</time>
      </trkpt>
      <trkpt lat="48.077435" lon="22.68032667">
        <ele>151</ele>
        <time>2025-07-09T11:29:24Z</time>
      </trkpt>
      <trkpt lat="48.07750167" lon="22.68043167">
        <ele>149.7</ele>
        <time>2025-07-09T11:29:26Z</time>
      </trkpt>
      <trkpt lat="48.07757333" lon="22.68052833">
        <ele>148.7</ele>
        <time>2025-07-09T11:29:28Z</time>
      </trkpt>
      <trkpt lat="48.077655" lon="22.68066167">
        <ele>149.2</ele>
        <time>2025-07-09T11:29:30Z</time>
      </trkpt>
      <trkpt lat="48.07774667" lon="22.68078667">
        <ele>150.6</ele>
        <time>2025-07-09T11:29:32Z</time>
      </trkpt>
      <trkpt lat="48.077835" lon="22.68089667">
        <ele>152.7</ele>
        <time>2025-07-09T11:29:34Z</time>
      </trkpt>
      <trkpt lat="48.07792333" lon="22.68099">
        <ele>153.4</ele>
        <time>2025-07-09T11:29:36Z</time>
      </trkpt>
      <trkpt lat="48.078025" lon="22.68107667">
        <ele>155</ele>
        <time>2025-07-09T11:29:38Z</time>
      </trkpt>
      <trkpt lat="48.07813833" lon="22.68114333">
        <ele>156.2</ele>
        <time>2025-07-09T11:29:40Z</time>
      </trkpt>
      <trkpt lat="48.07825167" lon="22.68120667">
        <ele>156.3</ele>
        <time>2025-07-09T11:29:42Z</time>
      </trkpt>
      <trkpt lat="48.07835333" lon="22.68125833">
        <ele>156.8</ele>
        <time>2025-07-09T11:29:44Z</time>
      </trkpt>
      <trkpt lat="48.07844" lon="22.68131333">
        <ele>156.1</ele>
        <time>2025-07-09T11:29:46Z</time>
      </trkpt>
      <trkpt lat="48.07854333" lon="22.68136667">
        <ele>156</ele>
        <time>2025-07-09T11:29:48Z</time>
      </trkpt>
      <trkpt lat="48.07864833" lon="22.68142167">
        <ele>156</ele>
        <time>2025-07-09T11:29:50Z</time>
      </trkpt>
      <trkpt lat="48.078765" lon="22.68149833">
        <ele>156.7</ele>
        <time>2025-07-09T11:29:52Z</time>
      </trkpt>
      <trkpt lat="48.07888667" lon="22.681565">
        <ele>156.7</ele>
        <time>2025-07-09T11:29:54Z</time>
      </trkpt>
      <trkpt lat="48.079015" lon="22.681615">
        <ele>156.6</ele>
        <time>2025-07-09T11:29:56Z</time>
      </trkpt>
      <trkpt lat="48.079135" lon="22.68165">
        <ele>156.9</ele>
        <time>2025-07-09T11:29:58Z</time>
      </trkpt>
      <trkpt lat="48.079235" lon="22.68165333">
        <ele>155.3</ele>
        <time>2025-07-09T11:30:00Z</time>
      </trkpt>
      <trkpt lat="48.07934833" lon="22.68164833">
        <ele>155.4</ele>
        <time>2025-07-09T11:30:02Z</time>
      </trkpt>
      <trkpt lat="48.07944833" lon="22.68164333">
        <ele>156.6</ele>
        <time>2025-07-09T11:30:04Z</time>
      </trkpt>
      <trkpt lat="48.079555" lon="22.68163333">
        <ele>156.5</ele>
        <time>2025-07-09T11:30:06Z</time>
      </trkpt>
      <trkpt lat="48.079655" lon="22.68162167">
        <ele>155.6</ele>
        <time>2025-07-09T11:30:08Z</time>
      </trkpt>
      <trkpt lat="48.07978833" lon="22.681585">
        <ele>152.9</ele>
        <time>2025-07-09T11:30:11Z</time>
      </trkpt>
      <trkpt lat="48.0799" lon="22.68156167">
        <ele>151.8</ele>
        <time>2025-07-09T11:30:13Z</time>
      </trkpt>
      <trkpt lat="48.079995" lon="22.68154">
        <ele>149.9</ele>
        <time>2025-07-09T11:30:15Z</time>
      </trkpt>
      <trkpt lat="48.08010833" lon="22.68152">
        <ele>150.2</ele>
        <time>2025-07-09T11:30:17Z</time>
      </trkpt>
      <trkpt lat="48.08021" lon="22.68150167">
        <ele>150.9</ele>
        <time>2025-07-09T11:30:19Z</time>
      </trkpt>
      <trkpt lat="48.08031" lon="22.681485">
        <ele>152</ele>
        <time>2025-07-09T11:30:21Z</time>
      </trkpt>
      <trkpt lat="48.08042333" lon="22.68145833">
        <ele>152.8</ele>
        <time>2025-07-09T11:30:23Z</time>
      </trkpt>
      <trkpt lat="48.080535" lon="22.68142333">
        <ele>152.7</ele>
        <time>2025-07-09T11:30:25Z</time>
      </trkpt>
      <trkpt lat="48.08064333" lon="22.68140167">
        <ele>152.8</ele>
        <time>2025-07-09T11:30:27Z</time>
      </trkpt>
      <trkpt lat="48.08073667" lon="22.681375">
        <ele>151.8</ele>
        <time>2025-07-09T11:30:29Z</time>
      </trkpt>
      <trkpt lat="48.08084" lon="22.68135667">
        <ele>150.2</ele>
        <time>2025-07-09T11:30:31Z</time>
      </trkpt>
      <trkpt lat="48.08095833" lon="22.68135667">
        <ele>149.1</ele>
        <time>2025-07-09T11:30:33Z</time>
      </trkpt>
      <trkpt lat="48.08107667" lon="22.68139167">
        <ele>150.4</ele>
        <time>2025-07-09T11:30:35Z</time>
      </trkpt>
      <trkpt lat="48.08117833" lon="22.68144333">
        <ele>151</ele>
        <time>2025-07-09T11:30:37Z</time>
      </trkpt>
      <trkpt lat="48.08126667" lon="22.68151">
        <ele>150.8</ele>
        <time>2025-07-09T11:30:39Z</time>
      </trkpt>
      <trkpt lat="48.08135333" lon="22.681605">
        <ele>151.3</ele>
        <time>2025-07-09T11:30:41Z</time>
      </trkpt>
      <trkpt lat="48.08143833" lon="22.68172">
        <ele>151.3</ele>
        <time>2025-07-09T11:30:43Z</time>
      </trkpt>
      <trkpt lat="48.08151" lon="22.68180667">
        <ele>150.7</ele>
        <time>2025-07-09T11:30:45Z</time>
      </trkpt>
      <trkpt lat="48.08160333" lon="22.68194">
        <ele>150.4</ele>
        <time>2025-07-09T11:30:48Z</time>
      </trkpt>
      <trkpt lat="48.08168833" lon="22.68208667">
        <ele>149.4</ele>
        <time>2025-07-09T11:30:51Z</time>
      </trkpt>
      <trkpt lat="48.081755" lon="22.68218667">
        <ele>147.4</ele>
        <time>2025-07-09T11:30:53Z</time>
      </trkpt>
      <trkpt lat="48.08184833" lon="22.682295">
        <ele>147.6</ele>
        <time>2025-07-09T11:30:55Z</time>
      </trkpt>
      <trkpt lat="48.08193333" lon="22.68237333">
        <ele>148.6</ele>
        <time>2025-07-09T11:30:57Z</time>
      </trkpt>
      <trkpt lat="48.082045" lon="22.68245667">
        <ele>150.8</ele>
        <time>2025-07-09T11:31:00Z</time>
      </trkpt>
      <trkpt lat="48.08213667" lon="22.682515">
        <ele>150.3</ele>
        <time>2025-07-09T11:31:02Z</time>
      </trkpt>
      <trkpt lat="48.08224667" lon="22.68256333">
        <ele>150.3</ele>
        <time>2025-07-09T11:31:04Z</time>
      </trkpt>
      <trkpt lat="48.08235167" lon="22.68261333">
        <ele>150.6</ele>
        <time>2025-07-09T11:31:06Z</time>
      </trkpt>
      <trkpt lat="48.08246833" lon="22.682695">
        <ele>152.3</ele>
        <time>2025-07-09T11:31:09Z</time>
      </trkpt>
      <trkpt lat="48.08259" lon="22.68276167">
        <ele>152.6</ele>
        <time>2025-07-09T11:31:12Z</time>
      </trkpt>
      <trkpt lat="48.08271167" lon="22.68282833">
        <ele>152.4</ele>
        <time>2025-07-09T11:31:15Z</time>
      </trkpt>
      <trkpt lat="48.082815" lon="22.68291667">
        <ele>153.5</ele>
        <time>2025-07-09T11:31:18Z</time>
      </trkpt>
      <trkpt lat="48.082885" lon="22.68301333">
        <ele>154.3</ele>
        <time>2025-07-09T11:31:21Z</time>
      </trkpt>
      <trkpt lat="48.08293167" lon="22.68317167">
        <ele>153.4</ele>
        <time>2025-07-09T11:31:25Z</time>
      </trkpt>
      <trkpt lat="48.08299" lon="22.68331667">
        <ele>153.2</ele>
        <time>2025-07-09T11:31:29Z</time>
      </trkpt>
      <trkpt lat="48.08303833" lon="22.68345667">
        <ele>154.4</ele>
        <time>2025-07-09T11:31:33Z</time>
      </trkpt>
      <trkpt lat="48.08307333" lon="22.68360167">
        <ele>154.5</ele>
        <time>2025-07-09T11:31:37Z</time>
      </trkpt>
      <trkpt lat="48.08312" lon="22.68375833">
        <ele>153.7</ele>
        <time>2025-07-09T11:31:41Z</time>
      </trkpt>
      <trkpt lat="48.08316667" lon="22.683895">
        <ele>153</ele>
        <time>2025-07-09T11:31:44Z</time>
      </trkpt>
      <trkpt lat="48.08320333" lon="22.68405167">
        <ele>152.5</ele>
        <time>2025-07-09T11:31:47Z</time>
      </trkpt>
      <trkpt lat="48.08325" lon="22.68420667">
        <ele>153.6</ele>
        <time>2025-07-09T11:31:50Z</time>
      </trkpt>
      <trkpt lat="48.08328833" lon="22.68435333">
        <ele>153.7</ele>
        <time>2025-07-09T11:31:53Z</time>
      </trkpt>
      <trkpt lat="48.08338333" lon="22.68441167">
        <ele>153</ele>
        <time>2025-07-09T11:31:56Z</time>
      </trkpt>
      <trkpt lat="48.08347667" lon="22.684385">
        <ele>152.5</ele>
        <time>2025-07-09T11:31:58Z</time>
      </trkpt>
      <trkpt lat="48.08356167" lon="22.68430333">
        <ele>152.1</ele>
        <time>2025-07-09T11:32:00Z</time>
      </trkpt>
      <trkpt lat="48.08365167" lon="22.684205">
        <ele>153.1</ele>
        <time>2025-07-09T11:32:02Z</time>
      </trkpt>
      <trkpt lat="48.08371667" lon="22.68409667">
        <ele>154.6</ele>
        <time>2025-07-09T11:32:04Z</time>
      </trkpt>
      <trkpt lat="48.08378" lon="22.683995">
        <ele>154.9</ele>
        <time>2025-07-09T11:32:06Z</time>
      </trkpt>
      <trkpt lat="48.08386667" lon="22.68388667">
        <ele>156.1</ele>
        <time>2025-07-09T11:32:09Z</time>
      </trkpt>
      <trkpt lat="48.08395" lon="22.68378333">
        <ele>154.2</ele>
        <time>2025-07-09T11:32:12Z</time>
      </trkpt>
      <trkpt lat="48.08406" lon="22.68369833">
        <ele>154.6</ele>
        <time>2025-07-09T11:32:15Z</time>
      </trkpt>
      <trkpt lat="48.08419" lon="22.683655">
        <ele>156.3</ele>
        <time>2025-07-09T11:32:18Z</time>
      </trkpt>
      <trkpt lat="48.08429833" lon="22.68357667">
        <ele>156.6</ele>
        <time>2025-07-09T11:32:21Z</time>
      </trkpt>
      <trkpt lat="48.084395" lon="22.68351833">
        <ele>157.4</ele>
        <time>2025-07-09T11:32:24Z</time>
      </trkpt>
      <trkpt lat="48.08448667" lon="22.68346">
        <ele>157.2</ele>
        <time>2025-07-09T11:32:27Z</time>
      </trkpt>
      <trkpt lat="48.08459" lon="22.68340333">
        <ele>158.1</ele>
        <time>2025-07-09T11:32:30Z</time>
      </trkpt>
      <trkpt lat="48.08469667" lon="22.68334167">
        <ele>157.6</ele>
        <time>2025-07-09T11:32:33Z</time>
      </trkpt>
      <trkpt lat="48.08478667" lon="22.68329">
        <ele>156.6</ele>
        <time>2025-07-09T11:32:35Z</time>
      </trkpt>
      <trkpt lat="48.08489333" lon="22.68322333">
        <ele>156.5</ele>
        <time>2025-07-09T11:32:38Z</time>
      </trkpt>
      <trkpt lat="48.08499667" lon="22.68316333">
        <ele>155.8</ele>
        <time>2025-07-09T11:32:41Z</time>
      </trkpt>
      <trkpt lat="48.08511667" lon="22.68310167">
        <ele>156.1</ele>
        <time>2025-07-09T11:32:44Z</time>
      </trkpt>
      <trkpt lat="48.08523167" lon="22.68302333">
        <ele>155</ele>
        <time>2025-07-09T11:32:47Z</time>
      </trkpt>
      <trkpt lat="48.085355" lon="22.68296833">
        <ele>155.7</ele>
        <time>2025-07-09T11:32:50Z</time>
      </trkpt>
      <trkpt lat="48.08546" lon="22.68289833">
        <ele>155.3</ele>
        <time>2025-07-09T11:32:53Z</time>
      </trkpt>
      <trkpt lat="48.085565" lon="22.68282667">
        <ele>155.4</ele>
        <time>2025-07-09T11:32:56Z</time>
      </trkpt>
      <trkpt lat="48.08568167" lon="22.682755">
        <ele>156.3</ele>
        <time>2025-07-09T11:32:59Z</time>
      </trkpt>
      <trkpt lat="48.08579333" lon="22.68268333">
        <ele>155.3</ele>
        <time>2025-07-09T11:33:02Z</time>
      </trkpt>
      <trkpt lat="48.08590167" lon="22.682605">
        <ele>156.6</ele>
        <time>2025-07-09T11:33:05Z</time>
      </trkpt>
      <trkpt lat="48.086025" lon="22.682555">
        <ele>156.1</ele>
        <time>2025-07-09T11:33:08Z</time>
      </trkpt>
      <trkpt lat="48.08614" lon="22.68251333">
        <ele>155.9</ele>
        <time>2025-07-09T11:33:11Z</time>
      </trkpt>
      <trkpt lat="48.08624833" lon="22.68245167">
        <ele>155.6</ele>
        <time>2025-07-09T11:33:14Z</time>
      </trkpt>
      <trkpt lat="48.08633833" lon="22.682365">
        <ele>157.1</ele>
        <time>2025-07-09T11:33:17Z</time>
      </trkpt>
      <trkpt lat="48.08643333" lon="22.68228">
        <ele>156.3</ele>
        <time>2025-07-09T11:33:20Z</time>
      </trkpt>
      <trkpt lat="48.08653333" lon="22.68216667">
        <ele>155.4</ele>
        <time>2025-07-09T11:33:23Z</time>
      </trkpt>
      <trkpt lat="48.08663833" lon="22.68204667">
        <ele>153</ele>
        <time>2025-07-09T11:33:26Z</time>
      </trkpt>
      <trkpt lat="48.08672" lon="22.68196333">
        <ele>151.5</ele>
        <time>2025-07-09T11:33:28Z</time>
      </trkpt>
      <trkpt lat="48.08681333" lon="22.681875">
        <ele>150.5</ele>
        <time>2025-07-09T11:33:30Z</time>
      </trkpt>
      <trkpt lat="48.08691167" lon="22.68179">
        <ele>148.5</ele>
        <time>2025-07-09T11:33:32Z</time>
      </trkpt>
      <trkpt lat="48.087025" lon="22.681695">
        <ele>147.3</ele>
        <time>2025-07-09T11:33:34Z</time>
      </trkpt>
      <trkpt lat="48.08714167" lon="22.68162167">
        <ele>146.6</ele>
        <time>2025-07-09T11:33:36Z</time>
      </trkpt>
      <trkpt lat="48.08727167" lon="22.68155833">
        <ele>146.1</ele>
        <time>2025-07-09T11:33:38Z</time>
      </trkpt>
      <trkpt lat="48.08739333" lon="22.68149167">
        <ele>145.6</ele>
        <time>2025-07-09T11:33:40Z</time>
      </trkpt>
      <trkpt lat="48.08749667" lon="22.68142167">
        <ele>146.3</ele>
        <time>2025-07-09T11:33:42Z</time>
      </trkpt>
      <trkpt lat="48.08762" lon="22.681335">
        <ele>146.3</ele>
        <time>2025-07-09T11:33:45Z</time>
      </trkpt>
      <trkpt lat="48.08771833" lon="22.68126667">
        <ele>146.7</ele>
        <time>2025-07-09T11:33:47Z</time>
      </trkpt>
      <trkpt lat="48.08781333" lon="22.6812">
        <ele>146.3</ele>
        <time>2025-07-09T11:33:49Z</time>
      </trkpt>
      <trkpt lat="48.087905" lon="22.68113833">
        <ele>145.5</ele>
        <time>2025-07-09T11:33:51Z</time>
      </trkpt>
      <trkpt lat="48.088015" lon="22.681075">
        <ele>144.2</ele>
        <time>2025-07-09T11:33:53Z</time>
      </trkpt>
      <trkpt lat="48.08812667" lon="22.68101">
        <ele>142.9</ele>
        <time>2025-07-09T11:33:55Z</time>
      </trkpt>
      <trkpt lat="48.08824333" lon="22.68093833">
        <ele>141.7</ele>
        <time>2025-07-09T11:33:57Z</time>
      </trkpt>
      <trkpt lat="48.08835167" lon="22.680875">
        <ele>140.4</ele>
        <time>2025-07-09T11:33:59Z</time>
      </trkpt>
      <trkpt lat="48.088475" lon="22.680795">
        <ele>140.3</ele>
        <time>2025-07-09T11:34:01Z</time>
      </trkpt>
      <trkpt lat="48.0886" lon="22.68071667">
        <ele>140.3</ele>
        <time>2025-07-09T11:34:03Z</time>
      </trkpt>
      <trkpt lat="48.08872167" lon="22.68065667">
        <ele>140.9</ele>
        <time>2025-07-09T11:34:05Z</time>
      </trkpt>
      <trkpt lat="48.08884333" lon="22.68059333">
        <ele>142.1</ele>
        <time>2025-07-09T11:34:07Z</time>
      </trkpt>
      <trkpt lat="48.08896167" lon="22.680535">
        <ele>143.2</ele>
        <time>2025-07-09T11:34:09Z</time>
      </trkpt>
      <trkpt lat="48.08905333" lon="22.68046667">
        <ele>144.1</ele>
        <time>2025-07-09T11:34:11Z</time>
      </trkpt>
      <trkpt lat="48.08914833" lon="22.68040333">
        <ele>145.4</ele>
        <time>2025-07-09T11:34:13Z</time>
      </trkpt>
      <trkpt lat="48.089235" lon="22.68033667">
        <ele>144.8</ele>
        <time>2025-07-09T11:34:15Z</time>
      </trkpt>
      <trkpt lat="48.08931667" lon="22.68025667">
        <ele>144.2</ele>
        <time>2025-07-09T11:34:17Z</time>
      </trkpt>
      <trkpt lat="48.089405" lon="22.68016667">
        <ele>143.4</ele>
        <time>2025-07-09T11:34:19Z</time>
      </trkpt>
      <trkpt lat="48.08948833" lon="22.68009833">
        <ele>143.3</ele>
        <time>2025-07-09T11:34:21Z</time>
      </trkpt>
      <trkpt lat="48.08959667" lon="22.67999667">
        <ele>142.8</ele>
        <time>2025-07-09T11:34:24Z</time>
      </trkpt>
      <trkpt lat="48.08966833" lon="22.67988667">
        <ele>140.6</ele>
        <time>2025-07-09T11:34:27Z</time>
      </trkpt>
      <trkpt lat="48.08972333" lon="22.679775">
        <ele>137.8</ele>
        <time>2025-07-09T11:34:31Z</time>
      </trkpt>
      <trkpt lat="48.08979667" lon="22.67965167">
        <ele>135.5</ele>
        <time>2025-07-09T11:34:36Z</time>
      </trkpt>
      <trkpt lat="48.08987" lon="22.67955167">
        <ele>134.6</ele>
        <time>2025-07-09T11:34:40Z</time>
      </trkpt>
      <trkpt lat="48.08995333" lon="22.67946667">
        <ele>134.2</ele>
        <time>2025-07-09T11:34:44Z</time>
      </trkpt>
      <trkpt lat="48.09003" lon="22.67936667">
        <ele>132.7</ele>
        <time>2025-07-09T11:34:47Z</time>
      </trkpt>
      <trkpt lat="48.09012333" lon="22.67926833">
        <ele>131.4</ele>
        <time>2025-07-09T11:34:50Z</time>
      </trkpt>
      <trkpt lat="48.090195" lon="22.67918">
        <ele>130.9</ele>
        <time>2025-07-09T11:34:53Z</time>
      </trkpt>
      <trkpt lat="48.090285" lon="22.67910833">
        <ele>129.1</ele>
        <time>2025-07-09T11:34:56Z</time>
      </trkpt>
      <trkpt lat="48.09037833" lon="22.67901">
        <ele>127.4</ele>
        <time>2025-07-09T11:34:59Z</time>
      </trkpt>
      <trkpt lat="48.09046667" lon="22.67893333">
        <ele>125.8</ele>
        <time>2025-07-09T11:35:02Z</time>
      </trkpt>
      <trkpt lat="48.09055167" lon="22.67884167">
        <ele>124.5</ele>
        <time>2025-07-09T11:35:05Z</time>
      </trkpt>
      <trkpt lat="48.09064" lon="22.67871333">
        <ele>121.8</ele>
        <time>2025-07-09T11:35:09Z</time>
      </trkpt>
      <trkpt lat="48.09073" lon="22.67862333">
        <ele>120.9</ele>
        <time>2025-07-09T11:35:12Z</time>
      </trkpt>
      <trkpt lat="48.09081" lon="22.67846833">
        <ele>120.6</ele>
        <time>2025-07-09T11:35:15Z</time>
      </trkpt>
      <trkpt lat="48.09088667" lon="22.67835333">
        <ele>121.1</ele>
        <time>2025-07-09T11:35:18Z</time>
      </trkpt>
      <trkpt lat="48.090965" lon="22.67821">
        <ele>122.7</ele>
        <time>2025-07-09T11:35:21Z</time>
      </trkpt>
      <trkpt lat="48.09102833" lon="22.67809333">
        <ele>124.5</ele>
        <time>2025-07-09T11:35:24Z</time>
      </trkpt>
      <trkpt lat="48.091105" lon="22.67799333">
        <ele>129.5</ele>
        <time>2025-07-09T11:35:27Z</time>
      </trkpt>
      <trkpt lat="48.0912" lon="22.67790833">
        <ele>135.5</ele>
        <time>2025-07-09T11:35:30Z</time>
      </trkpt>
      <trkpt lat="48.09127333" lon="22.677815">
        <ele>140.1</ele>
        <time>2025-07-09T11:35:33Z</time>
      </trkpt>
      <trkpt lat="48.09135" lon="22.67768">
        <ele>144.8</ele>
        <time>2025-07-09T11:35:37Z</time>
      </trkpt>
      <trkpt lat="48.09141333" lon="22.67757">
        <ele>146.9</ele>
        <time>2025-07-09T11:35:40Z</time>
      </trkpt>
      <trkpt lat="48.09147333" lon="22.67744667">
        <ele>146.6</ele>
        <time>2025-07-09T11:35:44Z</time>
      </trkpt>
      <trkpt lat="48.091515" lon="22.67732667">
        <ele>146.8</ele>
        <time>2025-07-09T11:35:48Z</time>
      </trkpt>
    </trkseg>
  </trk>
</gpx>