<?xml version='1.0' encoding='UTF-8' standalone='yes' ?>
<gpx xmlns="http://www.topografix.com/GPX/1/1" xmlns:geotracker="http://ilyabogdanovich.com/gpx/extensions/geotracker" xmlns:xsi="http://www.w3.org/2001/XMLSchema-instance" xsi:schemaLocation="http://www.topografix.com/GPX/1/1 http://www.topografix.com/GPX/1/1/gpx.xsd" version="1.1" creator="Recorded in Geo Tracker for Android from Ilya Bogdanovich">
  <metadata>
    <name>f_0716_06</name>
    <author>
      <name>Recorded in Geo Tracker for Android from Ilya Bogdanovich</name>
      <link href="https://play.google.com/store/apps/details?id=com.ilyabogdanovich.geotracker" />
    </author>
    <link href="https://play.google.com/store/apps/details?id=com.ilyabogdanovich.geotracker" />
    <time>2025-07-16T13:02:57Z</time>
  </metadata>
  <trk>
    <name>f_0716_06</name>
    <src>Recorded in Geo Tracker for Android from Ilya Bogdanovich</src>
    <link href="https://play.google.com/store/apps/details?id=com.ilyabogdanovich.geotracker" />
    <extensions>
      <geotracker:meta>
        <geotracker:length>231.35</geotracker:length>
        <geotracker:duration>165164</geotracker:duration>
        <geotracker:creationtime>2025-07-16T13:02:57Z</geotracker:creationtime>
        <geotracker:activity>0</geotracker:activity>
      </geotracker:meta>
    </extensions>
    <trkseg>
      <trkpt lat="46.84684167" lon="16.58487333">
        <ele>242.1</ele>
        <time>2025-07-16T13:03:06Z</time>
      </trkpt>
      <trkpt lat="46.84688667" lon="16.58467333">
        <ele>243.2</ele>
        <time>2025-07-16T13:03:55Z</time>
      </trkpt>
      <trkpt lat="46.84697167" lon="16.58459167">
        <ele>243.8</ele>
        <time>2025-07-16T13:04:01Z</time>
      </trkpt>
      <trkpt lat="46.84701167" lon="16.58444333">
        <ele>243.6</ele>
        <time>2025-07-16T13:04:04Z</time>
      </trkpt>
      <trkpt lat="46.84703" lon="16.58427667">
        <ele>242.7</ele>
        <time>2025-07-16T13:04:07Z</time>
      </trkpt>
      <trkpt lat="46.84705333" lon="16.58408333">
        <ele>242.2</ele>
        <time>2025-07-16T13:04:10Z</time>
      </trkpt>
      <trkpt lat="46.847095" lon="16.58390333">
        <ele>240.8</ele>
        <time>2025-07-16T13:04:13Z</time>
      </trkpt>
      <trkpt lat="46.84712667" lon="16.58376333">
        <ele>240.2</ele>
        <time>2025-07-16T13:04:15Z</time>
      </trkpt>
      <trkpt lat="46.847155" lon="16.58362667">
        <ele>239.1</ele>
        <time>2025-07-16T13:04:17Z</time>
      </trkpt>
      <trkpt lat="46.847175" lon="16.58348833">
        <ele>237.7</ele>
        <time>2025-07-16T13:04:19Z</time>
      </trkpt>
      <trkpt lat="46.84720333" lon="16.58333">
        <ele>236.3</ele>
        <time>2025-07-16T13:04:22Z</time>
      </trkpt>
      <trkpt lat="46.84723333" lon="16.58319667">
        <ele>234</ele>
        <time>2025-07-16T13:04:26Z</time>
      </trkpt>
      <trkpt lat="46.847235" lon="16.58306333">
        <ele>233.3</ele>
        <time>2025-07-16T13:04:30Z</time>
      </trkpt>
      <trkpt lat="46.847235" lon="16.58292667">
        <ele>236.8</ele>
        <time>2025-07-16T13:04:35Z</time>
      </trkpt>
      <trkpt lat="46.84733833" lon="16.582865">
        <ele>246.8</ele>
        <time>2025-07-16T13:05:09Z</time>
      </trkpt>
      <trkpt lat="46.84742667" lon="16.58281">
        <ele>248.7</ele>
        <time>2025-07-16T13:05:15Z</time>
      </trkpt>
      <trkpt lat="46.84741333" lon="16.58266333">
        <ele>250.1</ele>
        <time>2025-07-16T13:05:20Z</time>
      </trkpt>
      <trkpt lat="46.84732" lon="16.58251167">
        <ele>250.8</ele>
        <time>2025-07-16T13:05:22Z</time>
      </trkpt>
      <trkpt lat="46.84725" lon="16.582385">
        <ele>251.5</ele>
        <time>2025-07-16T13:05:24Z</time>
      </trkpt>
      <trkpt lat="46.84718667" lon="16.58228333">
        <ele>252.3</ele>
        <time>2025-07-16T13:05:27Z</time>
      </trkpt>
    </trkseg>
  </trk>
</gpx>