<?xml version='1.0' encoding='UTF-8' standalone='yes' ?>
<gpx xmlns="http://www.topografix.com/GPX/1/1" xmlns:geotracker="http://ilyabogdanovich.com/gpx/extensions/geotracker" xmlns:xsi="http://www.w3.org/2001/XMLSchema-instance" xsi:schemaLocation="http://www.topografix.com/GPX/1/1 http://www.topografix.com/GPX/1/1/gpx.xsd" version="1.1" creator="Recorded in Geo Tracker for Android from Ilya Bogdanovich">
  <metadata>
    <name>f_0709_02</name>
    <author>
      <name>Recorded in Geo Tracker for Android from Ilya Bogdanovich</name>
      <link href="https://play.google.com/store/apps/details?id=com.ilyabogdanovich.geotracker" />
    </author>
    <link href="https://play.google.com/store/apps/details?id=com.ilyabogdanovich.geotracker" />
    <time>2025-07-09T08:56:56Z</time>
  </metadata>
  <trk>
    <name>f_0709_02</name>
    <src>Recorded in Geo Tracker for Android from Ilya Bogdanovich</src>
    <link href="https://play.google.com/store/apps/details?id=com.ilyabogdanovich.geotracker" />
    <extensions>
      <geotracker:meta>
        <geotracker:length>7031.63</geotracker:length>
        <geotracker:duration>1470412</geotracker:duration>
        <geotracker:creationtime>2025-07-09T08:56:56Z</geotracker:creationtime>
        <geotracker:activity>0</geotracker:activity>
      </geotracker:meta>
    </extensions>
    <trkseg>
      <trkpt lat="48.08550833" lon="22.624315">
        <ele>174.1</ele>
        <time>2025-07-09T08:57:02Z</time>
      </trkpt>
      <trkpt lat="48.08537667" lon="22.62429167">
        <ele>161.5</ele>
        <time>2025-07-09T08:58:16Z</time>
      </trkpt>
      <trkpt lat="48.08549667" lon="22.62435667">
        <ele>154.3</ele>
        <time>2025-07-09T08:58:50Z</time>
      </trkpt>
      <trkpt lat="48.08541333" lon="22.62430333">
        <ele>151.6</ele>
        <time>2025-07-09T08:58:59Z</time>
      </trkpt>
      <trkpt lat="48.08557833" lon="22.624225">
        <ele>151.9</ele>
        <time>2025-07-09T08:59:32Z</time>
      </trkpt>
      <trkpt lat="48.08567167" lon="22.62417833">
        <ele>153.7</ele>
        <time>2025-07-09T08:59:40Z</time>
      </trkpt>
      <trkpt lat="48.08570333" lon="22.62403167">
        <ele>154.1</ele>
        <time>2025-07-09T08:59:44Z</time>
      </trkpt>
      <trkpt lat="48.08569833" lon="22.62389667">
        <ele>154.5</ele>
        <time>2025-07-09T08:59:47Z</time>
      </trkpt>
      <trkpt lat="48.08569167" lon="22.62374167">
        <ele>154.8</ele>
        <time>2025-07-09T08:59:50Z</time>
      </trkpt>
      <trkpt lat="48.08567" lon="22.62356667">
        <ele>155</ele>
        <time>2025-07-09T08:59:53Z</time>
      </trkpt>
      <trkpt lat="48.08565667" lon="22.62337833">
        <ele>155</ele>
        <time>2025-07-09T08:59:56Z</time>
      </trkpt>
      <trkpt lat="48.08564667" lon="22.623185">
        <ele>154.8</ele>
        <time>2025-07-09T08:59:59Z</time>
      </trkpt>
      <trkpt lat="48.08564167" lon="22.62298833">
        <ele>154.2</ele>
        <time>2025-07-09T09:00:02Z</time>
      </trkpt>
      <trkpt lat="48.085645" lon="22.62284">
        <ele>151.7</ele>
        <time>2025-07-09T09:00:04Z</time>
      </trkpt>
      <trkpt lat="48.08563833" lon="22.62270333">
        <ele>151.7</ele>
        <time>2025-07-09T09:00:06Z</time>
      </trkpt>
      <trkpt lat="48.08563667" lon="22.622505">
        <ele>152</ele>
        <time>2025-07-09T09:00:09Z</time>
      </trkpt>
      <trkpt lat="48.08563667" lon="22.622365">
        <ele>151.5</ele>
        <time>2025-07-09T09:00:11Z</time>
      </trkpt>
      <trkpt lat="48.08563333" lon="22.62217167">
        <ele>150.9</ele>
        <time>2025-07-09T09:00:14Z</time>
      </trkpt>
      <trkpt lat="48.08561667" lon="22.62202">
        <ele>151</ele>
        <time>2025-07-09T09:00:16Z</time>
      </trkpt>
      <trkpt lat="48.08560667" lon="22.62187167">
        <ele>151.4</ele>
        <time>2025-07-09T09:00:18Z</time>
      </trkpt>
      <trkpt lat="48.0856" lon="22.62172">
        <ele>151.9</ele>
        <time>2025-07-09T09:00:20Z</time>
      </trkpt>
      <trkpt lat="48.08559167" lon="22.62155833">
        <ele>152.3</ele>
        <time>2025-07-09T09:00:22Z</time>
      </trkpt>
      <trkpt lat="48.085575" lon="22.62139667">
        <ele>152.3</ele>
        <time>2025-07-09T09:00:24Z</time>
      </trkpt>
      <trkpt lat="48.085565" lon="22.62123667">
        <ele>152.2</ele>
        <time>2025-07-09T09:00:26Z</time>
      </trkpt>
      <trkpt lat="48.08555167" lon="22.62107667">
        <ele>151.7</ele>
        <time>2025-07-09T09:00:28Z</time>
      </trkpt>
      <trkpt lat="48.08554" lon="22.62093167">
        <ele>152</ele>
        <time>2025-07-09T09:00:30Z</time>
      </trkpt>
      <trkpt lat="48.08553667" lon="22.62077833">
        <ele>152</ele>
        <time>2025-07-09T09:00:32Z</time>
      </trkpt>
      <trkpt lat="48.08553" lon="22.62063333">
        <ele>152.3</ele>
        <time>2025-07-09T09:00:34Z</time>
      </trkpt>
      <trkpt lat="48.08552" lon="22.62048833">
        <ele>153.6</ele>
        <time>2025-07-09T09:00:36Z</time>
      </trkpt>
      <trkpt lat="48.08550333" lon="22.62035">
        <ele>154.2</ele>
        <time>2025-07-09T09:00:38Z</time>
      </trkpt>
      <trkpt lat="48.08547667" lon="22.62014833">
        <ele>155</ele>
        <time>2025-07-09T09:00:41Z</time>
      </trkpt>
      <trkpt lat="48.08545167" lon="22.62000833">
        <ele>154.3</ele>
        <time>2025-07-09T09:00:43Z</time>
      </trkpt>
      <trkpt lat="48.08542" lon="22.61982833">
        <ele>153.6</ele>
        <time>2025-07-09T09:00:46Z</time>
      </trkpt>
      <trkpt lat="48.085375" lon="22.61964833">
        <ele>152.6</ele>
        <time>2025-07-09T09:00:49Z</time>
      </trkpt>
      <trkpt lat="48.08533167" lon="22.61947">
        <ele>152.1</ele>
        <time>2025-07-09T09:00:52Z</time>
      </trkpt>
      <trkpt lat="48.08527667" lon="22.61929833">
        <ele>151.7</ele>
        <time>2025-07-09T09:00:55Z</time>
      </trkpt>
      <trkpt lat="48.08522" lon="22.61912833">
        <ele>151.4</ele>
        <time>2025-07-09T09:00:58Z</time>
      </trkpt>
      <trkpt lat="48.085185" lon="22.61895">
        <ele>149.7</ele>
        <time>2025-07-09T09:01:01Z</time>
      </trkpt>
      <trkpt lat="48.08515167" lon="22.618825">
        <ele>149.2</ele>
        <time>2025-07-09T09:01:03Z</time>
      </trkpt>
      <trkpt lat="48.08512167" lon="22.61867">
        <ele>147.8</ele>
        <time>2025-07-09T09:01:06Z</time>
      </trkpt>
      <trkpt lat="48.08508333" lon="22.618475">
        <ele>146.5</ele>
        <time>2025-07-09T09:01:09Z</time>
      </trkpt>
      <trkpt lat="48.08507" lon="22.61834">
        <ele>146.3</ele>
        <time>2025-07-09T09:01:11Z</time>
      </trkpt>
      <trkpt lat="48.08505167" lon="22.61814">
        <ele>146.8</ele>
        <time>2025-07-09T09:01:14Z</time>
      </trkpt>
      <trkpt lat="48.08504333" lon="22.618">
        <ele>147.1</ele>
        <time>2025-07-09T09:01:16Z</time>
      </trkpt>
      <trkpt lat="48.08501833" lon="22.61787">
        <ele>147.6</ele>
        <time>2025-07-09T09:01:18Z</time>
      </trkpt>
      <trkpt lat="48.08500167" lon="22.61773167">
        <ele>147.5</ele>
        <time>2025-07-09T09:01:20Z</time>
      </trkpt>
      <trkpt lat="48.08498833" lon="22.61758833">
        <ele>147.1</ele>
        <time>2025-07-09T09:01:22Z</time>
      </trkpt>
      <trkpt lat="48.08497" lon="22.61745167">
        <ele>147.6</ele>
        <time>2025-07-09T09:01:24Z</time>
      </trkpt>
      <trkpt lat="48.08495667" lon="22.61731">
        <ele>147.6</ele>
        <time>2025-07-09T09:01:26Z</time>
      </trkpt>
      <trkpt lat="48.08494" lon="22.61716667">
        <ele>147.4</ele>
        <time>2025-07-09T09:01:28Z</time>
      </trkpt>
      <trkpt lat="48.08492167" lon="22.61701333">
        <ele>147.3</ele>
        <time>2025-07-09T09:01:30Z</time>
      </trkpt>
      <trkpt lat="48.08490333" lon="22.616865">
        <ele>147.8</ele>
        <time>2025-07-09T09:01:32Z</time>
      </trkpt>
      <trkpt lat="48.08488" lon="22.61671667">
        <ele>148.3</ele>
        <time>2025-07-09T09:01:34Z</time>
      </trkpt>
      <trkpt lat="48.084865" lon="22.61658">
        <ele>148</ele>
        <time>2025-07-09T09:01:36Z</time>
      </trkpt>
      <trkpt lat="48.08483667" lon="22.61639667">
        <ele>147.7</ele>
        <time>2025-07-09T09:01:39Z</time>
      </trkpt>
      <trkpt lat="48.08482" lon="22.61626333">
        <ele>147.9</ele>
        <time>2025-07-09T09:01:41Z</time>
      </trkpt>
      <trkpt lat="48.0848" lon="22.61613167">
        <ele>148.3</ele>
        <time>2025-07-09T09:01:43Z</time>
      </trkpt>
      <trkpt lat="48.084785" lon="22.61599167">
        <ele>148.8</ele>
        <time>2025-07-09T09:01:45Z</time>
      </trkpt>
      <trkpt lat="48.08476667" lon="22.61579333">
        <ele>148.8</ele>
        <time>2025-07-09T09:01:48Z</time>
      </trkpt>
      <trkpt lat="48.08475333" lon="22.61564333">
        <ele>149</ele>
        <time>2025-07-09T09:01:50Z</time>
      </trkpt>
      <trkpt lat="48.08473667" lon="22.6155">
        <ele>149.2</ele>
        <time>2025-07-09T09:01:52Z</time>
      </trkpt>
      <trkpt lat="48.084715" lon="22.615365">
        <ele>149.5</ele>
        <time>2025-07-09T09:01:54Z</time>
      </trkpt>
      <trkpt lat="48.08470167" lon="22.61516333">
        <ele>149.3</ele>
        <time>2025-07-09T09:01:57Z</time>
      </trkpt>
      <trkpt lat="48.08467833" lon="22.61502333">
        <ele>150</ele>
        <time>2025-07-09T09:01:59Z</time>
      </trkpt>
      <trkpt lat="48.08467167" lon="22.61488333">
        <ele>150.1</ele>
        <time>2025-07-09T09:02:01Z</time>
      </trkpt>
      <trkpt lat="48.08465167" lon="22.61472667">
        <ele>150.3</ele>
        <time>2025-07-09T09:02:03Z</time>
      </trkpt>
      <trkpt lat="48.08463" lon="22.61457667">
        <ele>150.3</ele>
        <time>2025-07-09T09:02:05Z</time>
      </trkpt>
      <trkpt lat="48.08461333" lon="22.61444">
        <ele>150.4</ele>
        <time>2025-07-09T09:02:07Z</time>
      </trkpt>
      <trkpt lat="48.08459667" lon="22.61430167">
        <ele>150.2</ele>
        <time>2025-07-09T09:02:09Z</time>
      </trkpt>
      <trkpt lat="48.08457667" lon="22.614165">
        <ele>150.1</ele>
        <time>2025-07-09T09:02:11Z</time>
      </trkpt>
      <trkpt lat="48.08456" lon="22.614025">
        <ele>150.1</ele>
        <time>2025-07-09T09:02:13Z</time>
      </trkpt>
      <trkpt lat="48.08454167" lon="22.61389167">
        <ele>149.9</ele>
        <time>2025-07-09T09:02:15Z</time>
      </trkpt>
      <trkpt lat="48.08451" lon="22.6137">
        <ele>149.6</ele>
        <time>2025-07-09T09:02:18Z</time>
      </trkpt>
      <trkpt lat="48.08448333" lon="22.61350833">
        <ele>149.3</ele>
        <time>2025-07-09T09:02:21Z</time>
      </trkpt>
      <trkpt lat="48.08445667" lon="22.61334833">
        <ele>149.5</ele>
        <time>2025-07-09T09:02:23Z</time>
      </trkpt>
      <trkpt lat="48.08444" lon="22.613195">
        <ele>149.1</ele>
        <time>2025-07-09T09:02:25Z</time>
      </trkpt>
      <trkpt lat="48.08441833" lon="22.613045">
        <ele>149</ele>
        <time>2025-07-09T09:02:27Z</time>
      </trkpt>
      <trkpt lat="48.08439833" lon="22.61290833">
        <ele>148.3</ele>
        <time>2025-07-09T09:02:29Z</time>
      </trkpt>
      <trkpt lat="48.084385" lon="22.61275833">
        <ele>148.3</ele>
        <time>2025-07-09T09:02:31Z</time>
      </trkpt>
      <trkpt lat="48.08437167" lon="22.61261">
        <ele>148.9</ele>
        <time>2025-07-09T09:02:33Z</time>
      </trkpt>
      <trkpt lat="48.08435833" lon="22.61246">
        <ele>149</ele>
        <time>2025-07-09T09:02:35Z</time>
      </trkpt>
      <trkpt lat="48.08434333" lon="22.61232333">
        <ele>148.9</ele>
        <time>2025-07-09T09:02:37Z</time>
      </trkpt>
      <trkpt lat="48.084325" lon="22.61218333">
        <ele>148.6</ele>
        <time>2025-07-09T09:02:39Z</time>
      </trkpt>
      <trkpt lat="48.08431333" lon="22.61204333">
        <ele>148.3</ele>
        <time>2025-07-09T09:02:41Z</time>
      </trkpt>
      <trkpt lat="48.0843" lon="22.611905">
        <ele>147.8</ele>
        <time>2025-07-09T09:02:43Z</time>
      </trkpt>
      <trkpt lat="48.08427833" lon="22.61176333">
        <ele>148.2</ele>
        <time>2025-07-09T09:02:45Z</time>
      </trkpt>
      <trkpt lat="48.08425667" lon="22.61161833">
        <ele>147.8</ele>
        <time>2025-07-09T09:02:47Z</time>
      </trkpt>
      <trkpt lat="48.08423833" lon="22.61146667">
        <ele>148.2</ele>
        <time>2025-07-09T09:02:49Z</time>
      </trkpt>
      <trkpt lat="48.08422167" lon="22.61131">
        <ele>149.1</ele>
        <time>2025-07-09T09:02:51Z</time>
      </trkpt>
      <trkpt lat="48.0842" lon="22.61116167">
        <ele>149.8</ele>
        <time>2025-07-09T09:02:53Z</time>
      </trkpt>
      <trkpt lat="48.08417833" lon="22.61102333">
        <ele>149.9</ele>
        <time>2025-07-09T09:02:55Z</time>
      </trkpt>
      <trkpt lat="48.08415833" lon="22.61088167">
        <ele>150</ele>
        <time>2025-07-09T09:02:57Z</time>
      </trkpt>
      <trkpt lat="48.084135" lon="22.61072833">
        <ele>150.3</ele>
        <time>2025-07-09T09:02:59Z</time>
      </trkpt>
      <trkpt lat="48.08410667" lon="22.61059167">
        <ele>150.3</ele>
        <time>2025-07-09T09:03:01Z</time>
      </trkpt>
      <trkpt lat="48.08407667" lon="22.61046">
        <ele>150.1</ele>
        <time>2025-07-09T09:03:03Z</time>
      </trkpt>
      <trkpt lat="48.08405333" lon="22.61030667">
        <ele>150.2</ele>
        <time>2025-07-09T09:03:05Z</time>
      </trkpt>
      <trkpt lat="48.08404" lon="22.61014667">
        <ele>150.2</ele>
        <time>2025-07-09T09:03:07Z</time>
      </trkpt>
      <trkpt lat="48.08403833" lon="22.60998667">
        <ele>150.5</ele>
        <time>2025-07-09T09:03:09Z</time>
      </trkpt>
      <trkpt lat="48.08403167" lon="22.609835">
        <ele>150.7</ele>
        <time>2025-07-09T09:03:11Z</time>
      </trkpt>
      <trkpt lat="48.08401" lon="22.60968667">
        <ele>150.7</ele>
        <time>2025-07-09T09:03:13Z</time>
      </trkpt>
      <trkpt lat="48.08399167" lon="22.60953667">
        <ele>150.7</ele>
        <time>2025-07-09T09:03:15Z</time>
      </trkpt>
      <trkpt lat="48.08397" lon="22.60939667">
        <ele>150.6</ele>
        <time>2025-07-09T09:03:17Z</time>
      </trkpt>
      <trkpt lat="48.08395333" lon="22.609255">
        <ele>150</ele>
        <time>2025-07-09T09:03:19Z</time>
      </trkpt>
      <trkpt lat="48.08394167" lon="22.60909333">
        <ele>149.8</ele>
        <time>2025-07-09T09:03:21Z</time>
      </trkpt>
      <trkpt lat="48.08392333" lon="22.60893">
        <ele>149.3</ele>
        <time>2025-07-09T09:03:23Z</time>
      </trkpt>
      <trkpt lat="48.08390667" lon="22.60876333">
        <ele>149</ele>
        <time>2025-07-09T09:03:25Z</time>
      </trkpt>
      <trkpt lat="48.08389333" lon="22.60861333">
        <ele>148.5</ele>
        <time>2025-07-09T09:03:27Z</time>
      </trkpt>
      <trkpt lat="48.08387" lon="22.60847">
        <ele>148.9</ele>
        <time>2025-07-09T09:03:29Z</time>
      </trkpt>
      <trkpt lat="48.08384167" lon="22.608315">
        <ele>149.5</ele>
        <time>2025-07-09T09:03:31Z</time>
      </trkpt>
      <trkpt lat="48.08381667" lon="22.60815667">
        <ele>149.7</ele>
        <time>2025-07-09T09:03:33Z</time>
      </trkpt>
      <trkpt lat="48.08380167" lon="22.607995">
        <ele>150</ele>
        <time>2025-07-09T09:03:35Z</time>
      </trkpt>
      <trkpt lat="48.08378833" lon="22.60783667">
        <ele>150.5</ele>
        <time>2025-07-09T09:03:37Z</time>
      </trkpt>
      <trkpt lat="48.08377" lon="22.607705">
        <ele>150.1</ele>
        <time>2025-07-09T09:03:39Z</time>
      </trkpt>
      <trkpt lat="48.08375" lon="22.60749167">
        <ele>150.1</ele>
        <time>2025-07-09T09:03:42Z</time>
      </trkpt>
      <trkpt lat="48.08374" lon="22.60731167">
        <ele>149.1</ele>
        <time>2025-07-09T09:03:45Z</time>
      </trkpt>
      <trkpt lat="48.08371833" lon="22.60716">
        <ele>149.1</ele>
        <time>2025-07-09T09:03:47Z</time>
      </trkpt>
      <trkpt lat="48.083695" lon="22.60699833">
        <ele>149.3</ele>
        <time>2025-07-09T09:03:49Z</time>
      </trkpt>
      <trkpt lat="48.083675" lon="22.60686">
        <ele>149.5</ele>
        <time>2025-07-09T09:03:51Z</time>
      </trkpt>
      <trkpt lat="48.08365167" lon="22.606725">
        <ele>149.5</ele>
        <time>2025-07-09T09:03:53Z</time>
      </trkpt>
      <trkpt lat="48.08362833" lon="22.606555">
        <ele>149.8</ele>
        <time>2025-07-09T09:03:55Z</time>
      </trkpt>
      <trkpt lat="48.08361333" lon="22.60634833">
        <ele>149.8</ele>
        <time>2025-07-09T09:03:58Z</time>
      </trkpt>
      <trkpt lat="48.08359667" lon="22.606205">
        <ele>150.3</ele>
        <time>2025-07-09T09:04:00Z</time>
      </trkpt>
      <trkpt lat="48.08358" lon="22.60605667">
        <ele>151</ele>
        <time>2025-07-09T09:04:02Z</time>
      </trkpt>
      <trkpt lat="48.083555" lon="22.605855">
        <ele>151</ele>
        <time>2025-07-09T09:04:05Z</time>
      </trkpt>
      <trkpt lat="48.08353333" lon="22.60566667">
        <ele>151</ele>
        <time>2025-07-09T09:04:08Z</time>
      </trkpt>
      <trkpt lat="48.08350833" lon="22.60547167">
        <ele>150.9</ele>
        <time>2025-07-09T09:04:11Z</time>
      </trkpt>
      <trkpt lat="48.08349167" lon="22.60533167">
        <ele>150.7</ele>
        <time>2025-07-09T09:04:13Z</time>
      </trkpt>
      <trkpt lat="48.08347167" lon="22.60519667">
        <ele>150.4</ele>
        <time>2025-07-09T09:04:15Z</time>
      </trkpt>
      <trkpt lat="48.08344" lon="22.60502333">
        <ele>149.7</ele>
        <time>2025-07-09T09:04:18Z</time>
      </trkpt>
      <trkpt lat="48.083425" lon="22.60488167">
        <ele>148.9</ele>
        <time>2025-07-09T09:04:20Z</time>
      </trkpt>
      <trkpt lat="48.083405" lon="22.60474">
        <ele>148.7</ele>
        <time>2025-07-09T09:04:22Z</time>
      </trkpt>
      <trkpt lat="48.083375" lon="22.60455333">
        <ele>148.4</ele>
        <time>2025-07-09T09:04:25Z</time>
      </trkpt>
      <trkpt lat="48.08335833" lon="22.60439833">
        <ele>148.4</ele>
        <time>2025-07-09T09:04:27Z</time>
      </trkpt>
      <trkpt lat="48.08334167" lon="22.60425333">
        <ele>148.2</ele>
        <time>2025-07-09T09:04:29Z</time>
      </trkpt>
      <trkpt lat="48.08331833" lon="22.60407833">
        <ele>148.9</ele>
        <time>2025-07-09T09:04:31Z</time>
      </trkpt>
      <trkpt lat="48.08329833" lon="22.60394333">
        <ele>149</ele>
        <time>2025-07-09T09:04:33Z</time>
      </trkpt>
      <trkpt lat="48.08328" lon="22.60379833">
        <ele>148.9</ele>
        <time>2025-07-09T09:04:35Z</time>
      </trkpt>
      <trkpt lat="48.08326667" lon="22.60364167">
        <ele>150.2</ele>
        <time>2025-07-09T09:04:37Z</time>
      </trkpt>
      <trkpt lat="48.08325667" lon="22.60349333">
        <ele>151.5</ele>
        <time>2025-07-09T09:04:39Z</time>
      </trkpt>
      <trkpt lat="48.08323" lon="22.60332667">
        <ele>150.6</ele>
        <time>2025-07-09T09:04:42Z</time>
      </trkpt>
      <trkpt lat="48.08320667" lon="22.60315167">
        <ele>151.1</ele>
        <time>2025-07-09T09:04:45Z</time>
      </trkpt>
      <trkpt lat="48.08319333" lon="22.60301833">
        <ele>150.3</ele>
        <time>2025-07-09T09:04:47Z</time>
      </trkpt>
      <trkpt lat="48.08317333" lon="22.60286">
        <ele>149.5</ele>
        <time>2025-07-09T09:04:49Z</time>
      </trkpt>
      <trkpt lat="48.08316667" lon="22.60271833">
        <ele>148.8</ele>
        <time>2025-07-09T09:04:51Z</time>
      </trkpt>
      <trkpt lat="48.08314833" lon="22.60257667">
        <ele>149</ele>
        <time>2025-07-09T09:04:53Z</time>
      </trkpt>
      <trkpt lat="48.08312167" lon="22.60239333">
        <ele>148.8</ele>
        <time>2025-07-09T09:04:56Z</time>
      </trkpt>
      <trkpt lat="48.08309833" lon="22.602195">
        <ele>148.8</ele>
        <time>2025-07-09T09:04:59Z</time>
      </trkpt>
      <trkpt lat="48.08307" lon="22.602005">
        <ele>149</ele>
        <time>2025-07-09T09:05:02Z</time>
      </trkpt>
      <trkpt lat="48.08305167" lon="22.60184">
        <ele>148.9</ele>
        <time>2025-07-09T09:05:05Z</time>
      </trkpt>
      <trkpt lat="48.08302667" lon="22.60166833">
        <ele>148.2</ele>
        <time>2025-07-09T09:05:08Z</time>
      </trkpt>
      <trkpt lat="48.08300667" lon="22.60148833">
        <ele>146.9</ele>
        <time>2025-07-09T09:05:11Z</time>
      </trkpt>
      <trkpt lat="48.08299333" lon="22.60135333">
        <ele>146.2</ele>
        <time>2025-07-09T09:05:13Z</time>
      </trkpt>
      <trkpt lat="48.08298" lon="22.601195">
        <ele>145.3</ele>
        <time>2025-07-09T09:05:15Z</time>
      </trkpt>
      <trkpt lat="48.082965" lon="22.60103">
        <ele>144.3</ele>
        <time>2025-07-09T09:05:17Z</time>
      </trkpt>
      <trkpt lat="48.08294667" lon="22.600865">
        <ele>143.2</ele>
        <time>2025-07-09T09:05:19Z</time>
      </trkpt>
      <trkpt lat="48.082925" lon="22.60070833">
        <ele>142.9</ele>
        <time>2025-07-09T09:05:21Z</time>
      </trkpt>
      <trkpt lat="48.08291333" lon="22.60053167">
        <ele>143.7</ele>
        <time>2025-07-09T09:05:23Z</time>
      </trkpt>
      <trkpt lat="48.082895" lon="22.60035">
        <ele>144.4</ele>
        <time>2025-07-09T09:05:25Z</time>
      </trkpt>
      <trkpt lat="48.08288167" lon="22.600175">
        <ele>145.2</ele>
        <time>2025-07-09T09:05:27Z</time>
      </trkpt>
      <trkpt lat="48.08287" lon="22.60002">
        <ele>145.3</ele>
        <time>2025-07-09T09:05:29Z</time>
      </trkpt>
      <trkpt lat="48.08285333" lon="22.59982333">
        <ele>146</ele>
        <time>2025-07-09T09:05:32Z</time>
      </trkpt>
      <trkpt lat="48.08282333" lon="22.59963833">
        <ele>146.8</ele>
        <time>2025-07-09T09:05:34Z</time>
      </trkpt>
      <trkpt lat="48.08279333" lon="22.59946167">
        <ele>147.7</ele>
        <time>2025-07-09T09:05:36Z</time>
      </trkpt>
      <trkpt lat="48.082765" lon="22.59929833">
        <ele>149</ele>
        <time>2025-07-09T09:05:38Z</time>
      </trkpt>
      <trkpt lat="48.08274167" lon="22.59915333">
        <ele>150.2</ele>
        <time>2025-07-09T09:05:40Z</time>
      </trkpt>
      <trkpt lat="48.08272833" lon="22.598995">
        <ele>150.5</ele>
        <time>2025-07-09T09:05:42Z</time>
      </trkpt>
      <trkpt lat="48.082715" lon="22.598815">
        <ele>151.6</ele>
        <time>2025-07-09T09:05:44Z</time>
      </trkpt>
      <trkpt lat="48.08270167" lon="22.598655">
        <ele>152.5</ele>
        <time>2025-07-09T09:05:46Z</time>
      </trkpt>
      <trkpt lat="48.08268333" lon="22.59850167">
        <ele>152.6</ele>
        <time>2025-07-09T09:05:48Z</time>
      </trkpt>
      <trkpt lat="48.08265833" lon="22.59833333">
        <ele>153.4</ele>
        <time>2025-07-09T09:05:50Z</time>
      </trkpt>
      <trkpt lat="48.08264333" lon="22.59816667">
        <ele>154.1</ele>
        <time>2025-07-09T09:05:52Z</time>
      </trkpt>
      <trkpt lat="48.08262833" lon="22.59803">
        <ele>153.9</ele>
        <time>2025-07-09T09:05:54Z</time>
      </trkpt>
      <trkpt lat="48.082605" lon="22.59787667">
        <ele>153.6</ele>
        <time>2025-07-09T09:05:56Z</time>
      </trkpt>
      <trkpt lat="48.08259" lon="22.59768">
        <ele>153.6</ele>
        <time>2025-07-09T09:05:59Z</time>
      </trkpt>
      <trkpt lat="48.08257" lon="22.59752">
        <ele>153.5</ele>
        <time>2025-07-09T09:06:01Z</time>
      </trkpt>
      <trkpt lat="48.08254667" lon="22.59733333">
        <ele>153.1</ele>
        <time>2025-07-09T09:06:04Z</time>
      </trkpt>
      <trkpt lat="48.082545" lon="22.59714667">
        <ele>150.3</ele>
        <time>2025-07-09T09:06:07Z</time>
      </trkpt>
      <trkpt lat="48.08251667" lon="22.59697">
        <ele>149.6</ele>
        <time>2025-07-09T09:06:09Z</time>
      </trkpt>
      <trkpt lat="48.08249833" lon="22.59681833">
        <ele>149.5</ele>
        <time>2025-07-09T09:06:11Z</time>
      </trkpt>
      <trkpt lat="48.082475" lon="22.59668333">
        <ele>149.5</ele>
        <time>2025-07-09T09:06:13Z</time>
      </trkpt>
      <trkpt lat="48.08245667" lon="22.59650333">
        <ele>149.4</ele>
        <time>2025-07-09T09:06:16Z</time>
      </trkpt>
      <trkpt lat="48.082425" lon="22.59634">
        <ele>149.3</ele>
        <time>2025-07-09T09:06:18Z</time>
      </trkpt>
      <trkpt lat="48.082405" lon="22.59615167">
        <ele>148.7</ele>
        <time>2025-07-09T09:06:21Z</time>
      </trkpt>
      <trkpt lat="48.08239333" lon="22.59601167">
        <ele>148.7</ele>
        <time>2025-07-09T09:06:23Z</time>
      </trkpt>
      <trkpt lat="48.082375" lon="22.59587667">
        <ele>148.7</ele>
        <time>2025-07-09T09:06:25Z</time>
      </trkpt>
      <trkpt lat="48.08234667" lon="22.59569667">
        <ele>147.9</ele>
        <time>2025-07-09T09:06:28Z</time>
      </trkpt>
      <trkpt lat="48.08233333" lon="22.59556167">
        <ele>147.6</ele>
        <time>2025-07-09T09:06:30Z</time>
      </trkpt>
      <trkpt lat="48.082325" lon="22.59542333">
        <ele>146.7</ele>
        <time>2025-07-09T09:06:32Z</time>
      </trkpt>
      <trkpt lat="48.08230833" lon="22.59528167">
        <ele>146.2</ele>
        <time>2025-07-09T09:06:34Z</time>
      </trkpt>
      <trkpt lat="48.08228" lon="22.59511833">
        <ele>146.3</ele>
        <time>2025-07-09T09:06:36Z</time>
      </trkpt>
      <trkpt lat="48.08225667" lon="22.59494">
        <ele>146.5</ele>
        <time>2025-07-09T09:06:38Z</time>
      </trkpt>
      <trkpt lat="48.08223333" lon="22.59472833">
        <ele>145.5</ele>
        <time>2025-07-09T09:06:41Z</time>
      </trkpt>
      <trkpt lat="48.08221333" lon="22.59459167">
        <ele>145.2</ele>
        <time>2025-07-09T09:06:43Z</time>
      </trkpt>
      <trkpt lat="48.08219167" lon="22.59444333">
        <ele>146.2</ele>
        <time>2025-07-09T09:06:45Z</time>
      </trkpt>
      <trkpt lat="48.08216833" lon="22.59428833">
        <ele>146.9</ele>
        <time>2025-07-09T09:06:47Z</time>
      </trkpt>
      <trkpt lat="48.08215167" lon="22.59413167">
        <ele>147.7</ele>
        <time>2025-07-09T09:06:49Z</time>
      </trkpt>
      <trkpt lat="48.08214333" lon="22.59394667">
        <ele>147.8</ele>
        <time>2025-07-09T09:06:52Z</time>
      </trkpt>
      <trkpt lat="48.08213667" lon="22.59381167">
        <ele>147.5</ele>
        <time>2025-07-09T09:06:54Z</time>
      </trkpt>
      <trkpt lat="48.082115" lon="22.59360667">
        <ele>146.5</ele>
        <time>2025-07-09T09:06:57Z</time>
      </trkpt>
      <trkpt lat="48.08208667" lon="22.593445">
        <ele>147</ele>
        <time>2025-07-09T09:06:59Z</time>
      </trkpt>
      <trkpt lat="48.082075" lon="22.59324833">
        <ele>145.8</ele>
        <time>2025-07-09T09:07:02Z</time>
      </trkpt>
      <trkpt lat="48.082055" lon="22.59311333">
        <ele>144.8</ele>
        <time>2025-07-09T09:07:04Z</time>
      </trkpt>
      <trkpt lat="48.08203" lon="22.592915">
        <ele>144</ele>
        <time>2025-07-09T09:07:07Z</time>
      </trkpt>
      <trkpt lat="48.08201" lon="22.59275333">
        <ele>143.8</ele>
        <time>2025-07-09T09:07:09Z</time>
      </trkpt>
      <trkpt lat="48.081985" lon="22.59258333">
        <ele>144.4</ele>
        <time>2025-07-09T09:07:11Z</time>
      </trkpt>
      <trkpt lat="48.081975" lon="22.592385">
        <ele>144.9</ele>
        <time>2025-07-09T09:07:14Z</time>
      </trkpt>
      <trkpt lat="48.08196" lon="22.59224833">
        <ele>145.1</ele>
        <time>2025-07-09T09:07:16Z</time>
      </trkpt>
      <trkpt lat="48.08193667" lon="22.59208167">
        <ele>145.9</ele>
        <time>2025-07-09T09:07:18Z</time>
      </trkpt>
      <trkpt lat="48.08191" lon="22.591895">
        <ele>146.7</ele>
        <time>2025-07-09T09:07:20Z</time>
      </trkpt>
      <trkpt lat="48.081895" lon="22.59172167">
        <ele>145.3</ele>
        <time>2025-07-09T09:07:23Z</time>
      </trkpt>
      <trkpt lat="48.081875" lon="22.59156833">
        <ele>145.4</ele>
        <time>2025-07-09T09:07:25Z</time>
      </trkpt>
      <trkpt lat="48.08184667" lon="22.59140833">
        <ele>145.8</ele>
        <time>2025-07-09T09:07:27Z</time>
      </trkpt>
      <trkpt lat="48.08182" lon="22.59124167">
        <ele>147.4</ele>
        <time>2025-07-09T09:07:29Z</time>
      </trkpt>
      <trkpt lat="48.08179833" lon="22.59106667">
        <ele>148.4</ele>
        <time>2025-07-09T09:07:31Z</time>
      </trkpt>
      <trkpt lat="48.08177833" lon="22.590905">
        <ele>149.6</ele>
        <time>2025-07-09T09:07:33Z</time>
      </trkpt>
      <trkpt lat="48.08176" lon="22.590695">
        <ele>149.6</ele>
        <time>2025-07-09T09:07:36Z</time>
      </trkpt>
      <trkpt lat="48.08173833" lon="22.59054833">
        <ele>150.3</ele>
        <time>2025-07-09T09:07:38Z</time>
      </trkpt>
      <trkpt lat="48.08173333" lon="22.59037">
        <ele>150.7</ele>
        <time>2025-07-09T09:07:41Z</time>
      </trkpt>
      <trkpt lat="48.08170667" lon="22.59022167">
        <ele>151.4</ele>
        <time>2025-07-09T09:07:43Z</time>
      </trkpt>
      <trkpt lat="48.08168" lon="22.590045">
        <ele>152.3</ele>
        <time>2025-07-09T09:07:45Z</time>
      </trkpt>
      <trkpt lat="48.08167167" lon="22.58986667">
        <ele>153.6</ele>
        <time>2025-07-09T09:07:48Z</time>
      </trkpt>
      <trkpt lat="48.08165667" lon="22.58967333">
        <ele>153</ele>
        <time>2025-07-09T09:07:51Z</time>
      </trkpt>
      <trkpt lat="48.08163333" lon="22.5895">
        <ele>151.9</ele>
        <time>2025-07-09T09:07:54Z</time>
      </trkpt>
      <trkpt lat="48.08161" lon="22.58935333">
        <ele>150.3</ele>
        <time>2025-07-09T09:07:56Z</time>
      </trkpt>
      <trkpt lat="48.081585" lon="22.58918">
        <ele>149.2</ele>
        <time>2025-07-09T09:07:58Z</time>
      </trkpt>
      <trkpt lat="48.08156667" lon="22.58904167">
        <ele>147.6</ele>
        <time>2025-07-09T09:08:00Z</time>
      </trkpt>
      <trkpt lat="48.08154667" lon="22.58890667">
        <ele>146</ele>
        <time>2025-07-09T09:08:02Z</time>
      </trkpt>
      <trkpt lat="48.08151167" lon="22.58871333">
        <ele>146.1</ele>
        <time>2025-07-09T09:08:04Z</time>
      </trkpt>
      <trkpt lat="48.08147167" lon="22.58852833">
        <ele>147</ele>
        <time>2025-07-09T09:08:06Z</time>
      </trkpt>
      <trkpt lat="48.08144167" lon="22.588355">
        <ele>147.8</ele>
        <time>2025-07-09T09:08:08Z</time>
      </trkpt>
      <trkpt lat="48.08141833" lon="22.58818167">
        <ele>148.5</ele>
        <time>2025-07-09T09:08:10Z</time>
      </trkpt>
      <trkpt lat="48.08140167" lon="22.58803">
        <ele>149.4</ele>
        <time>2025-07-09T09:08:12Z</time>
      </trkpt>
      <trkpt lat="48.08138833" lon="22.587865">
        <ele>150.4</ele>
        <time>2025-07-09T09:08:14Z</time>
      </trkpt>
      <trkpt lat="48.08136833" lon="22.587705">
        <ele>150.7</ele>
        <time>2025-07-09T09:08:16Z</time>
      </trkpt>
      <trkpt lat="48.08134833" lon="22.58753667">
        <ele>151.1</ele>
        <time>2025-07-09T09:08:18Z</time>
      </trkpt>
      <trkpt lat="48.08134" lon="22.58739667">
        <ele>151.2</ele>
        <time>2025-07-09T09:08:20Z</time>
      </trkpt>
      <trkpt lat="48.08135" lon="22.58721667">
        <ele>150.2</ele>
        <time>2025-07-09T09:08:23Z</time>
      </trkpt>
      <trkpt lat="48.08133667" lon="22.58707167">
        <ele>150</ele>
        <time>2025-07-09T09:08:25Z</time>
      </trkpt>
      <trkpt lat="48.08131333" lon="22.586925">
        <ele>148.7</ele>
        <time>2025-07-09T09:08:27Z</time>
      </trkpt>
      <trkpt lat="48.08128333" lon="22.58674833">
        <ele>149.4</ele>
        <time>2025-07-09T09:08:29Z</time>
      </trkpt>
      <trkpt lat="48.08126333" lon="22.586595">
        <ele>149.9</ele>
        <time>2025-07-09T09:08:31Z</time>
      </trkpt>
      <trkpt lat="48.08125833" lon="22.58645833">
        <ele>150.6</ele>
        <time>2025-07-09T09:08:33Z</time>
      </trkpt>
      <trkpt lat="48.08124333" lon="22.58631167">
        <ele>150.7</ele>
        <time>2025-07-09T09:08:35Z</time>
      </trkpt>
      <trkpt lat="48.08122167" lon="22.586165">
        <ele>151</ele>
        <time>2025-07-09T09:08:37Z</time>
      </trkpt>
      <trkpt lat="48.08119167" lon="22.58598833">
        <ele>150.8</ele>
        <time>2025-07-09T09:08:39Z</time>
      </trkpt>
      <trkpt lat="48.08116833" lon="22.58581667">
        <ele>151.1</ele>
        <time>2025-07-09T09:08:41Z</time>
      </trkpt>
      <trkpt lat="48.081155" lon="22.58566667">
        <ele>151.3</ele>
        <time>2025-07-09T09:08:43Z</time>
      </trkpt>
      <trkpt lat="48.08113" lon="22.58549">
        <ele>151.4</ele>
        <time>2025-07-09T09:08:45Z</time>
      </trkpt>
      <trkpt lat="48.08110333" lon="22.58531833">
        <ele>151.8</ele>
        <time>2025-07-09T09:08:47Z</time>
      </trkpt>
      <trkpt lat="48.08108" lon="22.58514833">
        <ele>152.5</ele>
        <time>2025-07-09T09:08:49Z</time>
      </trkpt>
      <trkpt lat="48.08106333" lon="22.585">
        <ele>152.8</ele>
        <time>2025-07-09T09:08:51Z</time>
      </trkpt>
      <trkpt lat="48.081045" lon="22.58484833">
        <ele>152.9</ele>
        <time>2025-07-09T09:08:53Z</time>
      </trkpt>
      <trkpt lat="48.081025" lon="22.58468667">
        <ele>152.8</ele>
        <time>2025-07-09T09:08:55Z</time>
      </trkpt>
      <trkpt lat="48.08100833" lon="22.58453333">
        <ele>152.4</ele>
        <time>2025-07-09T09:08:57Z</time>
      </trkpt>
      <trkpt lat="48.080985" lon="22.584375">
        <ele>152.9</ele>
        <time>2025-07-09T09:08:59Z</time>
      </trkpt>
      <trkpt lat="48.08096667" lon="22.584225">
        <ele>153.2</ele>
        <time>2025-07-09T09:09:01Z</time>
      </trkpt>
      <trkpt lat="48.08095833" lon="22.58408167">
        <ele>152.5</ele>
        <time>2025-07-09T09:09:03Z</time>
      </trkpt>
      <trkpt lat="48.08094" lon="22.58393333">
        <ele>152.1</ele>
        <time>2025-07-09T09:09:05Z</time>
      </trkpt>
      <trkpt lat="48.08091667" lon="22.58379333">
        <ele>151.8</ele>
        <time>2025-07-09T09:09:07Z</time>
      </trkpt>
      <trkpt lat="48.08090667" lon="22.58365">
        <ele>150.6</ele>
        <time>2025-07-09T09:09:09Z</time>
      </trkpt>
      <trkpt lat="48.08088667" lon="22.583515">
        <ele>150.2</ele>
        <time>2025-07-09T09:09:11Z</time>
      </trkpt>
      <trkpt lat="48.08087167" lon="22.58337333">
        <ele>150</ele>
        <time>2025-07-09T09:09:13Z</time>
      </trkpt>
      <trkpt lat="48.08086" lon="22.58323167">
        <ele>149.5</ele>
        <time>2025-07-09T09:09:15Z</time>
      </trkpt>
      <trkpt lat="48.08086167" lon="22.58307333">
        <ele>146.3</ele>
        <time>2025-07-09T09:09:18Z</time>
      </trkpt>
      <trkpt lat="48.08085333" lon="22.582845">
        <ele>143.4</ele>
        <time>2025-07-09T09:09:21Z</time>
      </trkpt>
      <trkpt lat="48.08082833" lon="22.58262333">
        <ele>140.5</ele>
        <time>2025-07-09T09:09:24Z</time>
      </trkpt>
      <trkpt lat="48.08080167" lon="22.58246333">
        <ele>140.4</ele>
        <time>2025-07-09T09:09:26Z</time>
      </trkpt>
      <trkpt lat="48.08079167" lon="22.58231667">
        <ele>140.2</ele>
        <time>2025-07-09T09:09:28Z</time>
      </trkpt>
      <trkpt lat="48.08075833" lon="22.58213333">
        <ele>141</ele>
        <time>2025-07-09T09:09:30Z</time>
      </trkpt>
      <trkpt lat="48.08074167" lon="22.581965">
        <ele>142.3</ele>
        <time>2025-07-09T09:09:32Z</time>
      </trkpt>
      <trkpt lat="48.08071" lon="22.58179">
        <ele>142.5</ele>
        <time>2025-07-09T09:09:34Z</time>
      </trkpt>
      <trkpt lat="48.080685" lon="22.58162833">
        <ele>143.1</ele>
        <time>2025-07-09T09:09:36Z</time>
      </trkpt>
      <trkpt lat="48.08067167" lon="22.58149167">
        <ele>142.9</ele>
        <time>2025-07-09T09:09:38Z</time>
      </trkpt>
      <trkpt lat="48.08065333" lon="22.5813">
        <ele>141.7</ele>
        <time>2025-07-09T09:09:41Z</time>
      </trkpt>
      <trkpt lat="48.08061167" lon="22.58109833">
        <ele>140.7</ele>
        <time>2025-07-09T09:09:44Z</time>
      </trkpt>
      <trkpt lat="48.080575" lon="22.58093833">
        <ele>141.7</ele>
        <time>2025-07-09T09:09:46Z</time>
      </trkpt>
      <trkpt lat="48.08055833" lon="22.58078333">
        <ele>143.4</ele>
        <time>2025-07-09T09:09:48Z</time>
      </trkpt>
      <trkpt lat="48.08054333" lon="22.58062167">
        <ele>145</ele>
        <time>2025-07-09T09:09:50Z</time>
      </trkpt>
      <trkpt lat="48.08052" lon="22.58045">
        <ele>146.5</ele>
        <time>2025-07-09T09:09:52Z</time>
      </trkpt>
      <trkpt lat="48.08050167" lon="22.58029333">
        <ele>147</ele>
        <time>2025-07-09T09:09:54Z</time>
      </trkpt>
      <trkpt lat="48.08048" lon="22.580125">
        <ele>146.9</ele>
        <time>2025-07-09T09:09:56Z</time>
      </trkpt>
      <trkpt lat="48.08046" lon="22.57997667">
        <ele>147.1</ele>
        <time>2025-07-09T09:09:58Z</time>
      </trkpt>
      <trkpt lat="48.08043833" lon="22.579785">
        <ele>146.3</ele>
        <time>2025-07-09T09:10:01Z</time>
      </trkpt>
      <trkpt lat="48.08041667" lon="22.57963">
        <ele>147.5</ele>
        <time>2025-07-09T09:10:03Z</time>
      </trkpt>
      <trkpt lat="48.08039833" lon="22.57948833">
        <ele>147.6</ele>
        <time>2025-07-09T09:10:05Z</time>
      </trkpt>
      <trkpt lat="48.08038333" lon="22.57934">
        <ele>148.3</ele>
        <time>2025-07-09T09:10:07Z</time>
      </trkpt>
      <trkpt lat="48.08035333" lon="22.57917">
        <ele>148.4</ele>
        <time>2025-07-09T09:10:09Z</time>
      </trkpt>
      <trkpt lat="48.08032833" lon="22.57900667">
        <ele>148.3</ele>
        <time>2025-07-09T09:10:11Z</time>
      </trkpt>
      <trkpt lat="48.080315" lon="22.57885333">
        <ele>148</ele>
        <time>2025-07-09T09:10:13Z</time>
      </trkpt>
      <trkpt lat="48.080295" lon="22.57870167">
        <ele>148.1</ele>
        <time>2025-07-09T09:10:15Z</time>
      </trkpt>
      <trkpt lat="48.08026167" lon="22.578495">
        <ele>147.5</ele>
        <time>2025-07-09T09:10:18Z</time>
      </trkpt>
      <trkpt lat="48.08024167" lon="22.57833833">
        <ele>148.1</ele>
        <time>2025-07-09T09:10:20Z</time>
      </trkpt>
      <trkpt lat="48.08022167" lon="22.57818">
        <ele>149.1</ele>
        <time>2025-07-09T09:10:22Z</time>
      </trkpt>
      <trkpt lat="48.08020167" lon="22.577995">
        <ele>148.8</ele>
        <time>2025-07-09T09:10:25Z</time>
      </trkpt>
      <trkpt lat="48.08018333" lon="22.57785833">
        <ele>148.8</ele>
        <time>2025-07-09T09:10:27Z</time>
      </trkpt>
      <trkpt lat="48.08015167" lon="22.57770333">
        <ele>149</ele>
        <time>2025-07-09T09:10:29Z</time>
      </trkpt>
      <trkpt lat="48.08012333" lon="22.57756167">
        <ele>148.7</ele>
        <time>2025-07-09T09:10:31Z</time>
      </trkpt>
      <trkpt lat="48.08008833" lon="22.57740667">
        <ele>148.7</ele>
        <time>2025-07-09T09:10:33Z</time>
      </trkpt>
      <trkpt lat="48.08006167" lon="22.57726833">
        <ele>148.3</ele>
        <time>2025-07-09T09:10:35Z</time>
      </trkpt>
      <trkpt lat="48.08002333" lon="22.57713833">
        <ele>147.6</ele>
        <time>2025-07-09T09:10:37Z</time>
      </trkpt>
      <trkpt lat="48.079985" lon="22.57699833">
        <ele>146.9</ele>
        <time>2025-07-09T09:10:39Z</time>
      </trkpt>
      <trkpt lat="48.07994667" lon="22.57686333">
        <ele>148</ele>
        <time>2025-07-09T09:10:41Z</time>
      </trkpt>
      <trkpt lat="48.07990667" lon="22.57672667">
        <ele>150.7</ele>
        <time>2025-07-09T09:10:43Z</time>
      </trkpt>
      <trkpt lat="48.079855" lon="22.57658">
        <ele>149.9</ele>
        <time>2025-07-09T09:10:45Z</time>
      </trkpt>
      <trkpt lat="48.079795" lon="22.57640833">
        <ele>146.2</ele>
        <time>2025-07-09T09:10:48Z</time>
      </trkpt>
      <trkpt lat="48.07974333" lon="22.576295">
        <ele>145.5</ele>
        <time>2025-07-09T09:10:50Z</time>
      </trkpt>
      <trkpt lat="48.079675" lon="22.57615167">
        <ele>145.8</ele>
        <time>2025-07-09T09:10:53Z</time>
      </trkpt>
      <trkpt lat="48.079605" lon="22.57604">
        <ele>145.5</ele>
        <time>2025-07-09T09:10:55Z</time>
      </trkpt>
      <trkpt lat="48.07951667" lon="22.57592333">
        <ele>145.6</ele>
        <time>2025-07-09T09:10:57Z</time>
      </trkpt>
      <trkpt lat="48.07943" lon="22.57582167">
        <ele>145.6</ele>
        <time>2025-07-09T09:10:59Z</time>
      </trkpt>
      <trkpt lat="48.07935167" lon="22.57571833">
        <ele>146.5</ele>
        <time>2025-07-09T09:11:01Z</time>
      </trkpt>
      <trkpt lat="48.07927333" lon="22.57563333">
        <ele>148.9</ele>
        <time>2025-07-09T09:11:03Z</time>
      </trkpt>
      <trkpt lat="48.07919" lon="22.57554333">
        <ele>148.6</ele>
        <time>2025-07-09T09:11:05Z</time>
      </trkpt>
      <trkpt lat="48.07907333" lon="22.575425">
        <ele>148.4</ele>
        <time>2025-07-09T09:11:08Z</time>
      </trkpt>
      <trkpt lat="48.07898833" lon="22.57534">
        <ele>148.3</ele>
        <time>2025-07-09T09:11:10Z</time>
      </trkpt>
      <trkpt lat="48.07890333" lon="22.57525667">
        <ele>148.5</ele>
        <time>2025-07-09T09:11:12Z</time>
      </trkpt>
      <trkpt lat="48.07881667" lon="22.57516333">
        <ele>148.1</ele>
        <time>2025-07-09T09:11:14Z</time>
      </trkpt>
      <trkpt lat="48.07873167" lon="22.57508167">
        <ele>148.3</ele>
        <time>2025-07-09T09:11:16Z</time>
      </trkpt>
      <trkpt lat="48.07864833" lon="22.57501333">
        <ele>148.8</ele>
        <time>2025-07-09T09:11:18Z</time>
      </trkpt>
      <trkpt lat="48.07855833" lon="22.57493833">
        <ele>148.7</ele>
        <time>2025-07-09T09:11:20Z</time>
      </trkpt>
      <trkpt lat="48.07846333" lon="22.57486833">
        <ele>149</ele>
        <time>2025-07-09T09:11:22Z</time>
      </trkpt>
      <trkpt lat="48.07836833" lon="22.57481">
        <ele>149.6</ele>
        <time>2025-07-09T09:11:24Z</time>
      </trkpt>
      <trkpt lat="48.07828333" lon="22.574735">
        <ele>150.1</ele>
        <time>2025-07-09T09:11:26Z</time>
      </trkpt>
      <trkpt lat="48.07819667" lon="22.57466">
        <ele>150.6</ele>
        <time>2025-07-09T09:11:28Z</time>
      </trkpt>
      <trkpt lat="48.07810667" lon="22.57459333">
        <ele>150.3</ele>
        <time>2025-07-09T09:11:30Z</time>
      </trkpt>
      <trkpt lat="48.07802167" lon="22.57452167">
        <ele>150</ele>
        <time>2025-07-09T09:11:32Z</time>
      </trkpt>
      <trkpt lat="48.07793833" lon="22.57445833">
        <ele>149.4</ele>
        <time>2025-07-09T09:11:34Z</time>
      </trkpt>
      <trkpt lat="48.07784833" lon="22.574395">
        <ele>148.8</ele>
        <time>2025-07-09T09:11:36Z</time>
      </trkpt>
      <trkpt lat="48.07775833" lon="22.574335">
        <ele>148.1</ele>
        <time>2025-07-09T09:11:38Z</time>
      </trkpt>
      <trkpt lat="48.07767333" lon="22.57428">
        <ele>147.8</ele>
        <time>2025-07-09T09:11:40Z</time>
      </trkpt>
      <trkpt lat="48.07758333" lon="22.574225">
        <ele>147.1</ele>
        <time>2025-07-09T09:11:42Z</time>
      </trkpt>
      <trkpt lat="48.077495" lon="22.57417833">
        <ele>146.2</ele>
        <time>2025-07-09T09:11:44Z</time>
      </trkpt>
      <trkpt lat="48.077405" lon="22.57412833">
        <ele>145.4</ele>
        <time>2025-07-09T09:11:46Z</time>
      </trkpt>
      <trkpt lat="48.07730833" lon="22.57408667">
        <ele>144.7</ele>
        <time>2025-07-09T09:11:48Z</time>
      </trkpt>
      <trkpt lat="48.07720333" lon="22.574055">
        <ele>143.6</ele>
        <time>2025-07-09T09:11:50Z</time>
      </trkpt>
      <trkpt lat="48.07710833" lon="22.57402333">
        <ele>143.1</ele>
        <time>2025-07-09T09:11:52Z</time>
      </trkpt>
      <trkpt lat="48.07701333" lon="22.57399">
        <ele>142.7</ele>
        <time>2025-07-09T09:11:54Z</time>
      </trkpt>
      <trkpt lat="48.076905" lon="22.57397667">
        <ele>142.5</ele>
        <time>2025-07-09T09:11:56Z</time>
      </trkpt>
      <trkpt lat="48.07679333" lon="22.57395667">
        <ele>143</ele>
        <time>2025-07-09T09:11:58Z</time>
      </trkpt>
      <trkpt lat="48.07667833" lon="22.57393833">
        <ele>144.6</ele>
        <time>2025-07-09T09:12:00Z</time>
      </trkpt>
      <trkpt lat="48.07658167" lon="22.573925">
        <ele>144.7</ele>
        <time>2025-07-09T09:12:02Z</time>
      </trkpt>
      <trkpt lat="48.076485" lon="22.57390333">
        <ele>144.6</ele>
        <time>2025-07-09T09:12:04Z</time>
      </trkpt>
      <trkpt lat="48.07638833" lon="22.57390167">
        <ele>144</ele>
        <time>2025-07-09T09:12:06Z</time>
      </trkpt>
      <trkpt lat="48.07629167" lon="22.57389333">
        <ele>143.7</ele>
        <time>2025-07-09T09:12:08Z</time>
      </trkpt>
      <trkpt lat="48.07619833" lon="22.573885">
        <ele>142.4</ele>
        <time>2025-07-09T09:12:10Z</time>
      </trkpt>
      <trkpt lat="48.07607333" lon="22.57385667">
        <ele>141.1</ele>
        <time>2025-07-09T09:12:13Z</time>
      </trkpt>
      <trkpt lat="48.075965" lon="22.57384167">
        <ele>140.4</ele>
        <time>2025-07-09T09:12:15Z</time>
      </trkpt>
      <trkpt lat="48.07585" lon="22.57383667">
        <ele>139.7</ele>
        <time>2025-07-09T09:12:17Z</time>
      </trkpt>
      <trkpt lat="48.07570667" lon="22.573805">
        <ele>141.6</ele>
        <time>2025-07-09T09:12:19Z</time>
      </trkpt>
      <trkpt lat="48.075595" lon="22.57377">
        <ele>144.1</ele>
        <time>2025-07-09T09:12:21Z</time>
      </trkpt>
      <trkpt lat="48.07549333" lon="22.57373833">
        <ele>144.8</ele>
        <time>2025-07-09T09:12:23Z</time>
      </trkpt>
      <trkpt lat="48.07535833" lon="22.573705">
        <ele>145.4</ele>
        <time>2025-07-09T09:12:26Z</time>
      </trkpt>
      <trkpt lat="48.075265" lon="22.57368667">
        <ele>144.9</ele>
        <time>2025-07-09T09:12:28Z</time>
      </trkpt>
      <trkpt lat="48.075165" lon="22.57366833">
        <ele>144.3</ele>
        <time>2025-07-09T09:12:30Z</time>
      </trkpt>
      <trkpt lat="48.07505667" lon="22.57366167">
        <ele>142.9</ele>
        <time>2025-07-09T09:12:32Z</time>
      </trkpt>
      <trkpt lat="48.07494167" lon="22.57366167">
        <ele>139.9</ele>
        <time>2025-07-09T09:12:35Z</time>
      </trkpt>
      <trkpt lat="48.07483" lon="22.57364167">
        <ele>135.3</ele>
        <time>2025-07-09T09:12:38Z</time>
      </trkpt>
      <trkpt lat="48.07472667" lon="22.57363">
        <ele>134.1</ele>
        <time>2025-07-09T09:12:40Z</time>
      </trkpt>
      <trkpt lat="48.07460667" lon="22.573615">
        <ele>134.1</ele>
        <time>2025-07-09T09:12:42Z</time>
      </trkpt>
      <trkpt lat="48.074495" lon="22.57358">
        <ele>133.3</ele>
        <time>2025-07-09T09:12:44Z</time>
      </trkpt>
      <trkpt lat="48.074395" lon="22.57353167">
        <ele>132.3</ele>
        <time>2025-07-09T09:12:46Z</time>
      </trkpt>
      <trkpt lat="48.07429667" lon="22.57352">
        <ele>131.9</ele>
        <time>2025-07-09T09:12:48Z</time>
      </trkpt>
      <trkpt lat="48.07419167" lon="22.57351833">
        <ele>131.6</ele>
        <time>2025-07-09T09:12:50Z</time>
      </trkpt>
      <trkpt lat="48.07407333" lon="22.573515">
        <ele>132.9</ele>
        <time>2025-07-09T09:12:52Z</time>
      </trkpt>
      <trkpt lat="48.07395333" lon="22.5735">
        <ele>134.4</ele>
        <time>2025-07-09T09:12:54Z</time>
      </trkpt>
      <trkpt lat="48.073835" lon="22.57348167">
        <ele>135.6</ele>
        <time>2025-07-09T09:12:56Z</time>
      </trkpt>
      <trkpt lat="48.07372833" lon="22.57346833">
        <ele>137.4</ele>
        <time>2025-07-09T09:12:58Z</time>
      </trkpt>
      <trkpt lat="48.07362" lon="22.57343833">
        <ele>138.4</ele>
        <time>2025-07-09T09:13:00Z</time>
      </trkpt>
      <trkpt lat="48.07352" lon="22.57341333">
        <ele>139.3</ele>
        <time>2025-07-09T09:13:02Z</time>
      </trkpt>
      <trkpt lat="48.07341333" lon="22.57341167">
        <ele>140.1</ele>
        <time>2025-07-09T09:13:04Z</time>
      </trkpt>
      <trkpt lat="48.07330333" lon="22.57341333">
        <ele>140.9</ele>
        <time>2025-07-09T09:13:06Z</time>
      </trkpt>
      <trkpt lat="48.07321" lon="22.57339833">
        <ele>141.8</ele>
        <time>2025-07-09T09:13:08Z</time>
      </trkpt>
      <trkpt lat="48.07311833" lon="22.57337667">
        <ele>142</ele>
        <time>2025-07-09T09:13:10Z</time>
      </trkpt>
      <trkpt lat="48.07302167" lon="22.57335333">
        <ele>142.3</ele>
        <time>2025-07-09T09:13:12Z</time>
      </trkpt>
      <trkpt lat="48.072905" lon="22.57333333">
        <ele>142.5</ele>
        <time>2025-07-09T09:13:14Z</time>
      </trkpt>
      <trkpt lat="48.07279333" lon="22.57331833">
        <ele>142.8</ele>
        <time>2025-07-09T09:13:16Z</time>
      </trkpt>
      <trkpt lat="48.07268167" lon="22.57331">
        <ele>143</ele>
        <time>2025-07-09T09:13:18Z</time>
      </trkpt>
      <trkpt lat="48.072575" lon="22.57329333">
        <ele>143.3</ele>
        <time>2025-07-09T09:13:20Z</time>
      </trkpt>
      <trkpt lat="48.07246167" lon="22.57327333">
        <ele>143.7</ele>
        <time>2025-07-09T09:13:22Z</time>
      </trkpt>
      <trkpt lat="48.07235" lon="22.573255">
        <ele>143.7</ele>
        <time>2025-07-09T09:13:24Z</time>
      </trkpt>
      <trkpt lat="48.07223833" lon="22.57324167">
        <ele>143.6</ele>
        <time>2025-07-09T09:13:26Z</time>
      </trkpt>
      <trkpt lat="48.07212833" lon="22.57321833">
        <ele>143.8</ele>
        <time>2025-07-09T09:13:28Z</time>
      </trkpt>
      <trkpt lat="48.07202167" lon="22.57319667">
        <ele>143.6</ele>
        <time>2025-07-09T09:13:30Z</time>
      </trkpt>
      <trkpt lat="48.07192" lon="22.57316">
        <ele>143.1</ele>
        <time>2025-07-09T09:13:32Z</time>
      </trkpt>
      <trkpt lat="48.07182333" lon="22.57312833">
        <ele>142</ele>
        <time>2025-07-09T09:13:34Z</time>
      </trkpt>
      <trkpt lat="48.07171167" lon="22.57306167">
        <ele>138.9</ele>
        <time>2025-07-09T09:13:37Z</time>
      </trkpt>
      <trkpt lat="48.07157667" lon="22.57299667">
        <ele>137.4</ele>
        <time>2025-07-09T09:13:40Z</time>
      </trkpt>
      <trkpt lat="48.07146833" lon="22.57296167">
        <ele>138.1</ele>
        <time>2025-07-09T09:13:42Z</time>
      </trkpt>
      <trkpt lat="48.07136667" lon="22.57292333">
        <ele>138.5</ele>
        <time>2025-07-09T09:13:44Z</time>
      </trkpt>
      <trkpt lat="48.07125833" lon="22.57287167">
        <ele>138.8</ele>
        <time>2025-07-09T09:13:46Z</time>
      </trkpt>
      <trkpt lat="48.07116" lon="22.57280333">
        <ele>139.7</ele>
        <time>2025-07-09T09:13:48Z</time>
      </trkpt>
      <trkpt lat="48.07107" lon="22.57274167">
        <ele>140.2</ele>
        <time>2025-07-09T09:13:50Z</time>
      </trkpt>
      <trkpt lat="48.07098167" lon="22.57269333">
        <ele>141.2</ele>
        <time>2025-07-09T09:13:52Z</time>
      </trkpt>
      <trkpt lat="48.07087667" lon="22.57266333">
        <ele>141.8</ele>
        <time>2025-07-09T09:13:54Z</time>
      </trkpt>
      <trkpt lat="48.07078" lon="22.572645">
        <ele>142.6</ele>
        <time>2025-07-09T09:13:56Z</time>
      </trkpt>
      <trkpt lat="48.07069" lon="22.572635">
        <ele>143.3</ele>
        <time>2025-07-09T09:13:58Z</time>
      </trkpt>
      <trkpt lat="48.07059" lon="22.57260167">
        <ele>143.3</ele>
        <time>2025-07-09T09:14:00Z</time>
      </trkpt>
      <trkpt lat="48.07049333" lon="22.57255667">
        <ele>143</ele>
        <time>2025-07-09T09:14:02Z</time>
      </trkpt>
      <trkpt lat="48.07039333" lon="22.57253167">
        <ele>141.9</ele>
        <time>2025-07-09T09:14:04Z</time>
      </trkpt>
      <trkpt lat="48.07027833" lon="22.572505">
        <ele>142.1</ele>
        <time>2025-07-09T09:14:06Z</time>
      </trkpt>
      <trkpt lat="48.070165" lon="22.57245667">
        <ele>142.4</ele>
        <time>2025-07-09T09:14:08Z</time>
      </trkpt>
      <trkpt lat="48.07005833" lon="22.57242333">
        <ele>142.9</ele>
        <time>2025-07-09T09:14:10Z</time>
      </trkpt>
      <trkpt lat="48.06994333" lon="22.57238833">
        <ele>143.3</ele>
        <time>2025-07-09T09:14:12Z</time>
      </trkpt>
      <trkpt lat="48.06982667" lon="22.57235333">
        <ele>143.8</ele>
        <time>2025-07-09T09:14:14Z</time>
      </trkpt>
      <trkpt lat="48.06971333" lon="22.57233">
        <ele>143.7</ele>
        <time>2025-07-09T09:14:16Z</time>
      </trkpt>
      <trkpt lat="48.06959333" lon="22.572305">
        <ele>143.3</ele>
        <time>2025-07-09T09:14:18Z</time>
      </trkpt>
      <trkpt lat="48.06945833" lon="22.57229">
        <ele>144.1</ele>
        <time>2025-07-09T09:14:20Z</time>
      </trkpt>
      <trkpt lat="48.06932667" lon="22.57227">
        <ele>143.8</ele>
        <time>2025-07-09T09:14:22Z</time>
      </trkpt>
      <trkpt lat="48.0692" lon="22.57225167">
        <ele>143.9</ele>
        <time>2025-07-09T09:14:24Z</time>
      </trkpt>
      <trkpt lat="48.06908" lon="22.572225">
        <ele>143.9</ele>
        <time>2025-07-09T09:14:26Z</time>
      </trkpt>
      <trkpt lat="48.06896333" lon="22.57219167">
        <ele>143.7</ele>
        <time>2025-07-09T09:14:28Z</time>
      </trkpt>
      <trkpt lat="48.068865" lon="22.572165">
        <ele>143.5</ele>
        <time>2025-07-09T09:14:30Z</time>
      </trkpt>
      <trkpt lat="48.068765" lon="22.57214167">
        <ele>142.6</ele>
        <time>2025-07-09T09:14:32Z</time>
      </trkpt>
      <trkpt lat="48.06865" lon="22.572135">
        <ele>142.6</ele>
        <time>2025-07-09T09:14:34Z</time>
      </trkpt>
      <trkpt lat="48.06849667" lon="22.57208333">
        <ele>141.4</ele>
        <time>2025-07-09T09:14:37Z</time>
      </trkpt>
      <trkpt lat="48.06839833" lon="22.57204833">
        <ele>141</ele>
        <time>2025-07-09T09:14:39Z</time>
      </trkpt>
      <trkpt lat="48.06829167" lon="22.572025">
        <ele>140</ele>
        <time>2025-07-09T09:14:41Z</time>
      </trkpt>
      <trkpt lat="48.06815333" lon="22.571995">
        <ele>136.5</ele>
        <time>2025-07-09T09:14:44Z</time>
      </trkpt>
      <trkpt lat="48.06805667" lon="22.57197833">
        <ele>134</ele>
        <time>2025-07-09T09:14:46Z</time>
      </trkpt>
      <trkpt lat="48.06794167" lon="22.571955">
        <ele>132.8</ele>
        <time>2025-07-09T09:14:48Z</time>
      </trkpt>
      <trkpt lat="48.06782667" lon="22.571935">
        <ele>132.2</ele>
        <time>2025-07-09T09:14:50Z</time>
      </trkpt>
      <trkpt lat="48.06771667" lon="22.57192333">
        <ele>131.6</ele>
        <time>2025-07-09T09:14:52Z</time>
      </trkpt>
      <trkpt lat="48.06761" lon="22.57190167">
        <ele>131.5</ele>
        <time>2025-07-09T09:14:54Z</time>
      </trkpt>
      <trkpt lat="48.06749833" lon="22.571875">
        <ele>131.4</ele>
        <time>2025-07-09T09:14:56Z</time>
      </trkpt>
      <trkpt lat="48.06738333" lon="22.57184667">
        <ele>131</ele>
        <time>2025-07-09T09:14:58Z</time>
      </trkpt>
      <trkpt lat="48.06726667" lon="22.57181333">
        <ele>132</ele>
        <time>2025-07-09T09:15:00Z</time>
      </trkpt>
      <trkpt lat="48.067155" lon="22.571775">
        <ele>133.2</ele>
        <time>2025-07-09T09:15:02Z</time>
      </trkpt>
      <trkpt lat="48.067045" lon="22.57174333">
        <ele>135.3</ele>
        <time>2025-07-09T09:15:04Z</time>
      </trkpt>
      <trkpt lat="48.06693833" lon="22.57171">
        <ele>136.4</ele>
        <time>2025-07-09T09:15:06Z</time>
      </trkpt>
      <trkpt lat="48.06683333" lon="22.571665">
        <ele>137.2</ele>
        <time>2025-07-09T09:15:08Z</time>
      </trkpt>
      <trkpt lat="48.06673" lon="22.57161833">
        <ele>137.4</ele>
        <time>2025-07-09T09:15:10Z</time>
      </trkpt>
      <trkpt lat="48.066615" lon="22.57157">
        <ele>138</ele>
        <time>2025-07-09T09:15:12Z</time>
      </trkpt>
      <trkpt lat="48.06650333" lon="22.57151667">
        <ele>139</ele>
        <time>2025-07-09T09:15:14Z</time>
      </trkpt>
      <trkpt lat="48.06639833" lon="22.57146667">
        <ele>139.8</ele>
        <time>2025-07-09T09:15:16Z</time>
      </trkpt>
      <trkpt lat="48.06628667" lon="22.571415">
        <ele>140.5</ele>
        <time>2025-07-09T09:15:18Z</time>
      </trkpt>
      <trkpt lat="48.06617667" lon="22.571355">
        <ele>140.9</ele>
        <time>2025-07-09T09:15:20Z</time>
      </trkpt>
      <trkpt lat="48.06607" lon="22.57128833">
        <ele>141.3</ele>
        <time>2025-07-09T09:15:22Z</time>
      </trkpt>
      <trkpt lat="48.06596167" lon="22.57122333">
        <ele>141.9</ele>
        <time>2025-07-09T09:15:24Z</time>
      </trkpt>
      <trkpt lat="48.06586167" lon="22.57115667">
        <ele>142.6</ele>
        <time>2025-07-09T09:15:26Z</time>
      </trkpt>
      <trkpt lat="48.06575833" lon="22.57107667">
        <ele>143.5</ele>
        <time>2025-07-09T09:15:28Z</time>
      </trkpt>
      <trkpt lat="48.065665" lon="22.57099167">
        <ele>144.4</ele>
        <time>2025-07-09T09:15:30Z</time>
      </trkpt>
      <trkpt lat="48.065565" lon="22.57088833">
        <ele>146.2</ele>
        <time>2025-07-09T09:15:32Z</time>
      </trkpt>
      <trkpt lat="48.06546333" lon="22.57078333">
        <ele>147.5</ele>
        <time>2025-07-09T09:15:34Z</time>
      </trkpt>
      <trkpt lat="48.06537167" lon="22.57066833">
        <ele>147.7</ele>
        <time>2025-07-09T09:15:36Z</time>
      </trkpt>
      <trkpt lat="48.06528833" lon="22.570545">
        <ele>148.5</ele>
        <time>2025-07-09T09:15:38Z</time>
      </trkpt>
      <trkpt lat="48.06521" lon="22.57042667">
        <ele>149.3</ele>
        <time>2025-07-09T09:15:40Z</time>
      </trkpt>
      <trkpt lat="48.06513833" lon="22.57030667">
        <ele>150.1</ele>
        <time>2025-07-09T09:15:42Z</time>
      </trkpt>
      <trkpt lat="48.06507333" lon="22.57019">
        <ele>151.1</ele>
        <time>2025-07-09T09:15:44Z</time>
      </trkpt>
      <trkpt lat="48.06501" lon="22.57007667">
        <ele>151.6</ele>
        <time>2025-07-09T09:15:46Z</time>
      </trkpt>
      <trkpt lat="48.06493833" lon="22.56995833">
        <ele>152.4</ele>
        <time>2025-07-09T09:15:48Z</time>
      </trkpt>
      <trkpt lat="48.06487167" lon="22.569845">
        <ele>153</ele>
        <time>2025-07-09T09:15:50Z</time>
      </trkpt>
      <trkpt lat="48.06480333" lon="22.569725">
        <ele>153.3</ele>
        <time>2025-07-09T09:15:52Z</time>
      </trkpt>
      <trkpt lat="48.06473333" lon="22.56960833">
        <ele>153.7</ele>
        <time>2025-07-09T09:15:54Z</time>
      </trkpt>
      <trkpt lat="48.06466833" lon="22.56950667">
        <ele>153.5</ele>
        <time>2025-07-09T09:15:56Z</time>
      </trkpt>
      <trkpt lat="48.06460333" lon="22.56939833">
        <ele>153.4</ele>
        <time>2025-07-09T09:15:58Z</time>
      </trkpt>
      <trkpt lat="48.06452" lon="22.569255">
        <ele>153.2</ele>
        <time>2025-07-09T09:16:01Z</time>
      </trkpt>
      <trkpt lat="48.06444" lon="22.56910833">
        <ele>152.4</ele>
        <time>2025-07-09T09:16:04Z</time>
      </trkpt>
      <trkpt lat="48.06435333" lon="22.56895833">
        <ele>152.3</ele>
        <time>2025-07-09T09:16:07Z</time>
      </trkpt>
      <trkpt lat="48.06426667" lon="22.56881">
        <ele>151.6</ele>
        <time>2025-07-09T09:16:10Z</time>
      </trkpt>
      <trkpt lat="48.06417167" lon="22.56865">
        <ele>151</ele>
        <time>2025-07-09T09:16:13Z</time>
      </trkpt>
      <trkpt lat="48.06410167" lon="22.56853333">
        <ele>150.7</ele>
        <time>2025-07-09T09:16:15Z</time>
      </trkpt>
      <trkpt lat="48.06402" lon="22.568395">
        <ele>149.6</ele>
        <time>2025-07-09T09:16:17Z</time>
      </trkpt>
      <trkpt lat="48.06394" lon="22.56826">
        <ele>150.6</ele>
        <time>2025-07-09T09:16:19Z</time>
      </trkpt>
      <trkpt lat="48.06387667" lon="22.56814">
        <ele>149.1</ele>
        <time>2025-07-09T09:16:21Z</time>
      </trkpt>
      <trkpt lat="48.06380667" lon="22.56802833">
        <ele>148.1</ele>
        <time>2025-07-09T09:16:23Z</time>
      </trkpt>
      <trkpt lat="48.06373667" lon="22.56791333">
        <ele>148.4</ele>
        <time>2025-07-09T09:16:25Z</time>
      </trkpt>
      <trkpt lat="48.06366833" lon="22.56778833">
        <ele>148.8</ele>
        <time>2025-07-09T09:16:27Z</time>
      </trkpt>
      <trkpt lat="48.06358667" lon="22.56768167">
        <ele>150</ele>
        <time>2025-07-09T09:16:29Z</time>
      </trkpt>
      <trkpt lat="48.06352" lon="22.56758167">
        <ele>149.8</ele>
        <time>2025-07-09T09:16:31Z</time>
      </trkpt>
      <trkpt lat="48.06343167" lon="22.56745">
        <ele>149.5</ele>
        <time>2025-07-09T09:16:34Z</time>
      </trkpt>
      <trkpt lat="48.06337167" lon="22.56734">
        <ele>149.7</ele>
        <time>2025-07-09T09:16:36Z</time>
      </trkpt>
      <trkpt lat="48.06331667" lon="22.56722833">
        <ele>149.9</ele>
        <time>2025-07-09T09:16:38Z</time>
      </trkpt>
      <trkpt lat="48.06325833" lon="22.56711">
        <ele>150.1</ele>
        <time>2025-07-09T09:16:40Z</time>
      </trkpt>
      <trkpt lat="48.06319667" lon="22.56699833">
        <ele>150.4</ele>
        <time>2025-07-09T09:16:42Z</time>
      </trkpt>
      <trkpt lat="48.06312833" lon="22.56689167">
        <ele>150.6</ele>
        <time>2025-07-09T09:16:44Z</time>
      </trkpt>
      <trkpt lat="48.06306333" lon="22.56678">
        <ele>151</ele>
        <time>2025-07-09T09:16:46Z</time>
      </trkpt>
      <trkpt lat="48.06298" lon="22.566625">
        <ele>150.1</ele>
        <time>2025-07-09T09:16:49Z</time>
      </trkpt>
      <trkpt lat="48.06291167" lon="22.56651167">
        <ele>150.2</ele>
        <time>2025-07-09T09:16:51Z</time>
      </trkpt>
      <trkpt lat="48.062845" lon="22.566395">
        <ele>150.5</ele>
        <time>2025-07-09T09:16:53Z</time>
      </trkpt>
      <trkpt lat="48.06277667" lon="22.56628">
        <ele>150.5</ele>
        <time>2025-07-09T09:16:55Z</time>
      </trkpt>
      <trkpt lat="48.06271667" lon="22.56616667">
        <ele>151</ele>
        <time>2025-07-09T09:16:57Z</time>
      </trkpt>
      <trkpt lat="48.062655" lon="22.56606833">
        <ele>151.5</ele>
        <time>2025-07-09T09:16:59Z</time>
      </trkpt>
      <trkpt lat="48.06257333" lon="22.56592167">
        <ele>151.1</ele>
        <time>2025-07-09T09:17:02Z</time>
      </trkpt>
      <trkpt lat="48.06248167" lon="22.56578667">
        <ele>150.6</ele>
        <time>2025-07-09T09:17:05Z</time>
      </trkpt>
      <trkpt lat="48.06239333" lon="22.56564667">
        <ele>149.8</ele>
        <time>2025-07-09T09:17:08Z</time>
      </trkpt>
      <trkpt lat="48.06232333" lon="22.56553667">
        <ele>149.8</ele>
        <time>2025-07-09T09:17:10Z</time>
      </trkpt>
      <trkpt lat="48.06226" lon="22.56542">
        <ele>149.8</ele>
        <time>2025-07-09T09:17:12Z</time>
      </trkpt>
      <trkpt lat="48.0622" lon="22.56531333">
        <ele>149.7</ele>
        <time>2025-07-09T09:17:14Z</time>
      </trkpt>
      <trkpt lat="48.06211667" lon="22.56515667">
        <ele>148.6</ele>
        <time>2025-07-09T09:17:17Z</time>
      </trkpt>
      <trkpt lat="48.06202833" lon="22.565005">
        <ele>147.2</ele>
        <time>2025-07-09T09:17:20Z</time>
      </trkpt>
      <trkpt lat="48.06196333" lon="22.56488167">
        <ele>147</ele>
        <time>2025-07-09T09:17:22Z</time>
      </trkpt>
      <trkpt lat="48.06188167" lon="22.56474667">
        <ele>148.4</ele>
        <time>2025-07-09T09:17:24Z</time>
      </trkpt>
      <trkpt lat="48.06180667" lon="22.56461833">
        <ele>148.5</ele>
        <time>2025-07-09T09:17:26Z</time>
      </trkpt>
      <trkpt lat="48.06173333" lon="22.56446667">
        <ele>149.7</ele>
        <time>2025-07-09T09:17:28Z</time>
      </trkpt>
      <trkpt lat="48.06165667" lon="22.56433667">
        <ele>149.2</ele>
        <time>2025-07-09T09:17:30Z</time>
      </trkpt>
      <trkpt lat="48.06157167" lon="22.56422333">
        <ele>148.3</ele>
        <time>2025-07-09T09:17:32Z</time>
      </trkpt>
      <trkpt lat="48.06150333" lon="22.56411167">
        <ele>147.7</ele>
        <time>2025-07-09T09:17:34Z</time>
      </trkpt>
      <trkpt lat="48.06144333" lon="22.56399">
        <ele>146.8</ele>
        <time>2025-07-09T09:17:36Z</time>
      </trkpt>
      <trkpt lat="48.06138" lon="22.56389167">
        <ele>146.4</ele>
        <time>2025-07-09T09:17:38Z</time>
      </trkpt>
      <trkpt lat="48.06131167" lon="22.56380167">
        <ele>146.2</ele>
        <time>2025-07-09T09:17:40Z</time>
      </trkpt>
      <trkpt lat="48.061195" lon="22.563675">
        <ele>144.7</ele>
        <time>2025-07-09T09:17:43Z</time>
      </trkpt>
      <trkpt lat="48.06111" lon="22.563595">
        <ele>144.2</ele>
        <time>2025-07-09T09:17:45Z</time>
      </trkpt>
      <trkpt lat="48.06102167" lon="22.56349">
        <ele>144.7</ele>
        <time>2025-07-09T09:17:47Z</time>
      </trkpt>
      <trkpt lat="48.06093333" lon="22.56340167">
        <ele>144.9</ele>
        <time>2025-07-09T09:17:49Z</time>
      </trkpt>
      <trkpt lat="48.06085167" lon="22.563315">
        <ele>145.1</ele>
        <time>2025-07-09T09:17:51Z</time>
      </trkpt>
      <trkpt lat="48.06073833" lon="22.56322">
        <ele>144.1</ele>
        <time>2025-07-09T09:17:54Z</time>
      </trkpt>
      <trkpt lat="48.06062333" lon="22.56310667">
        <ele>143.7</ele>
        <time>2025-07-09T09:17:57Z</time>
      </trkpt>
      <trkpt lat="48.06055" lon="22.56302333">
        <ele>143.4</ele>
        <time>2025-07-09T09:17:59Z</time>
      </trkpt>
      <trkpt lat="48.060475" lon="22.56292833">
        <ele>142.3</ele>
        <time>2025-07-09T09:18:01Z</time>
      </trkpt>
      <trkpt lat="48.060365" lon="22.56280333">
        <ele>141.8</ele>
        <time>2025-07-09T09:18:04Z</time>
      </trkpt>
      <trkpt lat="48.06028" lon="22.56271">
        <ele>142.1</ele>
        <time>2025-07-09T09:18:06Z</time>
      </trkpt>
      <trkpt lat="48.06020167" lon="22.56263833">
        <ele>141.8</ele>
        <time>2025-07-09T09:18:08Z</time>
      </trkpt>
      <trkpt lat="48.06012167" lon="22.56257667">
        <ele>142.2</ele>
        <time>2025-07-09T09:18:10Z</time>
      </trkpt>
      <trkpt lat="48.060045" lon="22.56249667">
        <ele>142.9</ele>
        <time>2025-07-09T09:18:12Z</time>
      </trkpt>
      <trkpt lat="48.05994333" lon="22.56239333">
        <ele>143.6</ele>
        <time>2025-07-09T09:18:15Z</time>
      </trkpt>
      <trkpt lat="48.05986833" lon="22.56231833">
        <ele>143.2</ele>
        <time>2025-07-09T09:18:18Z</time>
      </trkpt>
      <trkpt lat="48.059785" lon="22.56225">
        <ele>142</ele>
        <time>2025-07-09T09:18:21Z</time>
      </trkpt>
      <trkpt lat="48.05968" lon="22.56219833">
        <ele>140.7</ele>
        <time>2025-07-09T09:18:24Z</time>
      </trkpt>
      <trkpt lat="48.05959167" lon="22.56213667">
        <ele>139.5</ele>
        <time>2025-07-09T09:18:27Z</time>
      </trkpt>
      <trkpt lat="48.0595" lon="22.56206833">
        <ele>137.1</ele>
        <time>2025-07-09T09:18:30Z</time>
      </trkpt>
      <trkpt lat="48.05942" lon="22.56198">
        <ele>136.6</ele>
        <time>2025-07-09T09:18:33Z</time>
      </trkpt>
      <trkpt lat="48.05935667" lon="22.56186667">
        <ele>137.9</ele>
        <time>2025-07-09T09:18:36Z</time>
      </trkpt>
      <trkpt lat="48.059295" lon="22.561725">
        <ele>140.3</ele>
        <time>2025-07-09T09:18:39Z</time>
      </trkpt>
      <trkpt lat="48.05925167" lon="22.56156333">
        <ele>141</ele>
        <time>2025-07-09T09:18:42Z</time>
      </trkpt>
      <trkpt lat="48.059195" lon="22.561425">
        <ele>142.2</ele>
        <time>2025-07-09T09:18:45Z</time>
      </trkpt>
      <trkpt lat="48.059155" lon="22.56126667">
        <ele>143.7</ele>
        <time>2025-07-09T09:18:48Z</time>
      </trkpt>
      <trkpt lat="48.05912" lon="22.56113167">
        <ele>143.2</ele>
        <time>2025-07-09T09:18:51Z</time>
      </trkpt>
      <trkpt lat="48.05908" lon="22.56095667">
        <ele>143.8</ele>
        <time>2025-07-09T09:18:54Z</time>
      </trkpt>
      <trkpt lat="48.05904" lon="22.56081167">
        <ele>143.8</ele>
        <time>2025-07-09T09:18:57Z</time>
      </trkpt>
      <trkpt lat="48.05899167" lon="22.560635">
        <ele>144.5</ele>
        <time>2025-07-09T09:19:00Z</time>
      </trkpt>
      <trkpt lat="48.058935" lon="22.56047667">
        <ele>145</ele>
        <time>2025-07-09T09:19:03Z</time>
      </trkpt>
      <trkpt lat="48.05887667" lon="22.56034833">
        <ele>145</ele>
        <time>2025-07-09T09:19:06Z</time>
      </trkpt>
      <trkpt lat="48.05881667" lon="22.560235">
        <ele>144.5</ele>
        <time>2025-07-09T09:19:09Z</time>
      </trkpt>
      <trkpt lat="48.05874" lon="22.560095">
        <ele>140.9</ele>
        <time>2025-07-09T09:19:12Z</time>
      </trkpt>
      <trkpt lat="48.05864833" lon="22.55998">
        <ele>140.9</ele>
        <time>2025-07-09T09:19:15Z</time>
      </trkpt>
      <trkpt lat="48.05855333" lon="22.55987833">
        <ele>140.9</ele>
        <time>2025-07-09T09:19:18Z</time>
      </trkpt>
      <trkpt lat="48.05845667" lon="22.55977333">
        <ele>140.6</ele>
        <time>2025-07-09T09:19:21Z</time>
      </trkpt>
      <trkpt lat="48.05836" lon="22.55965333">
        <ele>140.5</ele>
        <time>2025-07-09T09:19:24Z</time>
      </trkpt>
      <trkpt lat="48.05828833" lon="22.55951833">
        <ele>140.3</ele>
        <time>2025-07-09T09:19:27Z</time>
      </trkpt>
      <trkpt lat="48.05824167" lon="22.55935833">
        <ele>140.4</ele>
        <time>2025-07-09T09:19:30Z</time>
      </trkpt>
      <trkpt lat="48.058205" lon="22.55918">
        <ele>140.1</ele>
        <time>2025-07-09T09:19:33Z</time>
      </trkpt>
      <trkpt lat="48.058175" lon="22.55905">
        <ele>140.7</ele>
        <time>2025-07-09T09:19:35Z</time>
      </trkpt>
      <trkpt lat="48.05814167" lon="22.55888833">
        <ele>142.8</ele>
        <time>2025-07-09T09:19:37Z</time>
      </trkpt>
      <trkpt lat="48.058125" lon="22.558705">
        <ele>143.8</ele>
        <time>2025-07-09T09:19:40Z</time>
      </trkpt>
      <trkpt lat="48.05810167" lon="22.55857167">
        <ele>144.3</ele>
        <time>2025-07-09T09:19:42Z</time>
      </trkpt>
      <trkpt lat="48.05807333" lon="22.558435">
        <ele>145.6</ele>
        <time>2025-07-09T09:19:44Z</time>
      </trkpt>
      <trkpt lat="48.05805667" lon="22.55830167">
        <ele>146</ele>
        <time>2025-07-09T09:19:46Z</time>
      </trkpt>
      <trkpt lat="48.05805" lon="22.558165">
        <ele>145.4</ele>
        <time>2025-07-09T09:19:48Z</time>
      </trkpt>
      <trkpt lat="48.05803167" lon="22.55797833">
        <ele>144.4</ele>
        <time>2025-07-09T09:19:51Z</time>
      </trkpt>
      <trkpt lat="48.05801167" lon="22.55780167">
        <ele>143.1</ele>
        <time>2025-07-09T09:19:54Z</time>
      </trkpt>
      <trkpt lat="48.05799667" lon="22.55761167">
        <ele>142.8</ele>
        <time>2025-07-09T09:19:57Z</time>
      </trkpt>
      <trkpt lat="48.05799333" lon="22.55744333">
        <ele>144.5</ele>
        <time>2025-07-09T09:20:00Z</time>
      </trkpt>
      <trkpt lat="48.05798167" lon="22.557305">
        <ele>144.8</ele>
        <time>2025-07-09T09:20:03Z</time>
      </trkpt>
      <trkpt lat="48.05796667" lon="22.55716167">
        <ele>144.9</ele>
        <time>2025-07-09T09:20:06Z</time>
      </trkpt>
      <trkpt lat="48.05795" lon="22.55698833">
        <ele>144.6</ele>
        <time>2025-07-09T09:20:09Z</time>
      </trkpt>
      <trkpt lat="48.05792" lon="22.55680833">
        <ele>144.7</ele>
        <time>2025-07-09T09:20:12Z</time>
      </trkpt>
      <trkpt lat="48.05791167" lon="22.55661333">
        <ele>144.4</ele>
        <time>2025-07-09T09:20:15Z</time>
      </trkpt>
      <trkpt lat="48.0579" lon="22.55646667">
        <ele>146</ele>
        <time>2025-07-09T09:20:17Z</time>
      </trkpt>
      <trkpt lat="48.05787667" lon="22.55632333">
        <ele>145.9</ele>
        <time>2025-07-09T09:20:19Z</time>
      </trkpt>
      <trkpt lat="48.05785333" lon="22.55613333">
        <ele>145.8</ele>
        <time>2025-07-09T09:20:22Z</time>
      </trkpt>
      <trkpt lat="48.05782333" lon="22.55593833">
        <ele>146.6</ele>
        <time>2025-07-09T09:20:25Z</time>
      </trkpt>
      <trkpt lat="48.05780667" lon="22.55579833">
        <ele>146.9</ele>
        <time>2025-07-09T09:20:27Z</time>
      </trkpt>
      <trkpt lat="48.05779" lon="22.555655">
        <ele>147.2</ele>
        <time>2025-07-09T09:20:29Z</time>
      </trkpt>
      <trkpt lat="48.05776333" lon="22.55546">
        <ele>147.1</ele>
        <time>2025-07-09T09:20:32Z</time>
      </trkpt>
      <trkpt lat="48.05773833" lon="22.55532167">
        <ele>146.5</ele>
        <time>2025-07-09T09:20:34Z</time>
      </trkpt>
      <trkpt lat="48.05771" lon="22.55515333">
        <ele>145.2</ele>
        <time>2025-07-09T09:20:37Z</time>
      </trkpt>
      <trkpt lat="48.05768667" lon="22.55496667">
        <ele>145</ele>
        <time>2025-07-09T09:20:40Z</time>
      </trkpt>
      <trkpt lat="48.05766" lon="22.55483167">
        <ele>145.2</ele>
        <time>2025-07-09T09:20:42Z</time>
      </trkpt>
      <trkpt lat="48.05762333" lon="22.5547">
        <ele>145.1</ele>
        <time>2025-07-09T09:20:44Z</time>
      </trkpt>
      <trkpt lat="48.05756" lon="22.55453667">
        <ele>144.3</ele>
        <time>2025-07-09T09:20:47Z</time>
      </trkpt>
      <trkpt lat="48.05751667" lon="22.55435667">
        <ele>143.5</ele>
        <time>2025-07-09T09:20:50Z</time>
      </trkpt>
      <trkpt lat="48.05746333" lon="22.55417333">
        <ele>143</ele>
        <time>2025-07-09T09:20:53Z</time>
      </trkpt>
      <trkpt lat="48.05739833" lon="22.55400667">
        <ele>143.1</ele>
        <time>2025-07-09T09:20:56Z</time>
      </trkpt>
      <trkpt lat="48.05734333" lon="22.55387333">
        <ele>142.2</ele>
        <time>2025-07-09T09:20:59Z</time>
      </trkpt>
      <trkpt lat="48.05727167" lon="22.55373167">
        <ele>142.3</ele>
        <time>2025-07-09T09:21:02Z</time>
      </trkpt>
      <trkpt lat="48.05719667" lon="22.55361833">
        <ele>143.4</ele>
        <time>2025-07-09T09:21:05Z</time>
      </trkpt>
      <trkpt lat="48.05710667" lon="22.55352833">
        <ele>144.8</ele>
        <time>2025-07-09T09:21:09Z</time>
      </trkpt>
    </trkseg>
  </trk>
</gpx>