<?xml version='1.0' encoding='UTF-8' standalone='yes' ?>
<gpx xmlns="http://www.topografix.com/GPX/1/1" xmlns:geotracker="http://ilyabogdanovich.com/gpx/extensions/geotracker" xmlns:xsi="http://www.w3.org/2001/XMLSchema-instance" xsi:schemaLocation="http://www.topografix.com/GPX/1/1 http://www.topografix.com/GPX/1/1/gpx.xsd" version="1.1" creator="Recorded in Geo Tracker for Android from Ilya Bogdanovich">
  <metadata>
    <name>f_0725_02</name>
    <author>
      <name>Recorded in Geo Tracker for Android from Ilya Bogdanovich</name>
      <link href="https://play.google.com/store/apps/details?id=com.ilyabogdanovich.geotracker" />
    </author>
    <link href="https://play.google.com/store/apps/details?id=com.ilyabogdanovich.geotracker" />
    <time>2025-07-25T10:15:57Z</time>
  </metadata>
  <trk>
    <name>f_0725_02</name>
    <src>Recorded in Geo Tracker for Android from Ilya Bogdanovich</src>
    <link href="https://play.google.com/store/apps/details?id=com.ilyabogdanovich.geotracker" />
    <extensions>
      <geotracker:meta>
        <geotracker:length>3026.61</geotracker:length>
        <geotracker:duration>705747</geotracker:duration>
        <geotracker:creationtime>2025-07-25T10:15:57Z</geotracker:creationtime>
        <geotracker:activity>0</geotracker:activity>
      </geotracker:meta>
    </extensions>
    <trkseg>
      <trkpt lat="46.43871833" lon="17.79784667">
        <ele>179.5</ele>
        <time>2025-07-25T10:16:04Z</time>
      </trkpt>
      <trkpt lat="46.43874667" lon="17.79797833">
        <ele>179.8</ele>
        <time>2025-07-25T10:16:11Z</time>
      </trkpt>
      <trkpt lat="46.43865167" lon="17.79799">
        <ele>179.6</ele>
        <time>2025-07-25T10:16:14Z</time>
      </trkpt>
      <trkpt lat="46.43867333" lon="17.79786167">
        <ele>180.1</ele>
        <time>2025-07-25T10:16:24Z</time>
      </trkpt>
      <trkpt lat="46.438615" lon="17.79774333">
        <ele>180.8</ele>
        <time>2025-07-25T10:16:27Z</time>
      </trkpt>
      <trkpt lat="46.43853167" lon="17.79764">
        <ele>182.9</ele>
        <time>2025-07-25T10:16:55Z</time>
      </trkpt>
      <trkpt lat="46.43843167" lon="17.79759667">
        <ele>182.6</ele>
        <time>2025-07-25T10:16:59Z</time>
      </trkpt>
      <trkpt lat="46.43832833" lon="17.79755333">
        <ele>182.2</ele>
        <time>2025-07-25T10:17:02Z</time>
      </trkpt>
      <trkpt lat="46.43823667" lon="17.79749">
        <ele>180.4</ele>
        <time>2025-07-25T10:17:06Z</time>
      </trkpt>
      <trkpt lat="46.43824333" lon="17.79731833">
        <ele>179.3</ele>
        <time>2025-07-25T10:17:11Z</time>
      </trkpt>
      <trkpt lat="46.43828333" lon="17.79719333">
        <ele>178.1</ele>
        <time>2025-07-25T10:17:14Z</time>
      </trkpt>
      <trkpt lat="46.43834" lon="17.79707667">
        <ele>177.7</ele>
        <time>2025-07-25T10:17:19Z</time>
      </trkpt>
      <trkpt lat="46.43835" lon="17.796905">
        <ele>175.4</ele>
        <time>2025-07-25T10:17:22Z</time>
      </trkpt>
      <trkpt lat="46.438365" lon="17.79673333">
        <ele>173</ele>
        <time>2025-07-25T10:17:25Z</time>
      </trkpt>
      <trkpt lat="46.43838167" lon="17.79654333">
        <ele>170.6</ele>
        <time>2025-07-25T10:17:28Z</time>
      </trkpt>
      <trkpt lat="46.43838333" lon="17.79636333">
        <ele>168.7</ele>
        <time>2025-07-25T10:17:31Z</time>
      </trkpt>
      <trkpt lat="46.43838333" lon="17.796195">
        <ele>169</ele>
        <time>2025-07-25T10:17:34Z</time>
      </trkpt>
      <trkpt lat="46.43837833" lon="17.79604667">
        <ele>171</ele>
        <time>2025-07-25T10:17:37Z</time>
      </trkpt>
      <trkpt lat="46.43839167" lon="17.795905">
        <ele>172</ele>
        <time>2025-07-25T10:17:41Z</time>
      </trkpt>
      <trkpt lat="46.43841667" lon="17.79575667">
        <ele>173</ele>
        <time>2025-07-25T10:17:45Z</time>
      </trkpt>
      <trkpt lat="46.43846833" lon="17.79565">
        <ele>173.1</ele>
        <time>2025-07-25T10:17:50Z</time>
      </trkpt>
      <trkpt lat="46.438525" lon="17.79552167">
        <ele>171.9</ele>
        <time>2025-07-25T10:17:55Z</time>
      </trkpt>
      <trkpt lat="46.43858167" lon="17.795365">
        <ele>171</ele>
        <time>2025-07-25T10:17:59Z</time>
      </trkpt>
      <trkpt lat="46.43862333" lon="17.795245">
        <ele>170.9</ele>
        <time>2025-07-25T10:18:01Z</time>
      </trkpt>
      <trkpt lat="46.43866" lon="17.79510333">
        <ele>170.7</ele>
        <time>2025-07-25T10:18:03Z</time>
      </trkpt>
      <trkpt lat="46.438675" lon="17.79493833">
        <ele>169.8</ele>
        <time>2025-07-25T10:18:06Z</time>
      </trkpt>
      <trkpt lat="46.43862333" lon="17.79480167">
        <ele>168.4</ele>
        <time>2025-07-25T10:18:08Z</time>
      </trkpt>
      <trkpt lat="46.43854833" lon="17.79471167">
        <ele>168.2</ele>
        <time>2025-07-25T10:18:10Z</time>
      </trkpt>
      <trkpt lat="46.43845667" lon="17.794625">
        <ele>168.4</ele>
        <time>2025-07-25T10:18:12Z</time>
      </trkpt>
      <trkpt lat="46.438365" lon="17.79454833">
        <ele>168.8</ele>
        <time>2025-07-25T10:18:14Z</time>
      </trkpt>
      <trkpt lat="46.43826667" lon="17.79447167">
        <ele>169.6</ele>
        <time>2025-07-25T10:18:16Z</time>
      </trkpt>
      <trkpt lat="46.43816" lon="17.79439833">
        <ele>170.7</ele>
        <time>2025-07-25T10:18:18Z</time>
      </trkpt>
      <trkpt lat="46.43805333" lon="17.79431">
        <ele>171.2</ele>
        <time>2025-07-25T10:18:20Z</time>
      </trkpt>
      <trkpt lat="46.437965" lon="17.79421667">
        <ele>171.6</ele>
        <time>2025-07-25T10:18:22Z</time>
      </trkpt>
      <trkpt lat="46.43787667" lon="17.794125">
        <ele>172.5</ele>
        <time>2025-07-25T10:18:24Z</time>
      </trkpt>
      <trkpt lat="46.43779" lon="17.79402">
        <ele>173.6</ele>
        <time>2025-07-25T10:18:26Z</time>
      </trkpt>
      <trkpt lat="46.437715" lon="17.79391167">
        <ele>174</ele>
        <time>2025-07-25T10:18:28Z</time>
      </trkpt>
      <trkpt lat="46.43764667" lon="17.79382167">
        <ele>174.9</ele>
        <time>2025-07-25T10:18:30Z</time>
      </trkpt>
      <trkpt lat="46.43754667" lon="17.79371">
        <ele>175.3</ele>
        <time>2025-07-25T10:18:33Z</time>
      </trkpt>
      <trkpt lat="46.43744833" lon="17.79360667">
        <ele>175.3</ele>
        <time>2025-07-25T10:18:36Z</time>
      </trkpt>
      <trkpt lat="46.437335" lon="17.79351667">
        <ele>175.1</ele>
        <time>2025-07-25T10:18:39Z</time>
      </trkpt>
      <trkpt lat="46.43724833" lon="17.79346">
        <ele>174.8</ele>
        <time>2025-07-25T10:18:41Z</time>
      </trkpt>
      <trkpt lat="46.43716333" lon="17.79340667">
        <ele>174.7</ele>
        <time>2025-07-25T10:18:43Z</time>
      </trkpt>
      <trkpt lat="46.43703833" lon="17.79333333">
        <ele>175.8</ele>
        <time>2025-07-25T10:18:46Z</time>
      </trkpt>
      <trkpt lat="46.43691833" lon="17.79326667">
        <ele>176.4</ele>
        <time>2025-07-25T10:18:49Z</time>
      </trkpt>
      <trkpt lat="46.4368" lon="17.793205">
        <ele>176.1</ele>
        <time>2025-07-25T10:18:52Z</time>
      </trkpt>
      <trkpt lat="46.43667333" lon="17.79314167">
        <ele>176.6</ele>
        <time>2025-07-25T10:18:55Z</time>
      </trkpt>
      <trkpt lat="46.43658833" lon="17.79309">
        <ele>176.6</ele>
        <time>2025-07-25T10:18:57Z</time>
      </trkpt>
      <trkpt lat="46.43646833" lon="17.79301333">
        <ele>176.8</ele>
        <time>2025-07-25T10:19:00Z</time>
      </trkpt>
      <trkpt lat="46.43635167" lon="17.79293833">
        <ele>176.7</ele>
        <time>2025-07-25T10:19:03Z</time>
      </trkpt>
      <trkpt lat="46.43626333" lon="17.79288833">
        <ele>176.6</ele>
        <time>2025-07-25T10:19:05Z</time>
      </trkpt>
      <trkpt lat="46.43613667" lon="17.79281333">
        <ele>175.9</ele>
        <time>2025-07-25T10:19:08Z</time>
      </trkpt>
      <trkpt lat="46.43601333" lon="17.79274667">
        <ele>176.3</ele>
        <time>2025-07-25T10:19:11Z</time>
      </trkpt>
      <trkpt lat="46.435925" lon="17.79269833">
        <ele>176.3</ele>
        <time>2025-07-25T10:19:13Z</time>
      </trkpt>
      <trkpt lat="46.43581833" lon="17.79266">
        <ele>176.4</ele>
        <time>2025-07-25T10:19:15Z</time>
      </trkpt>
      <trkpt lat="46.43571667" lon="17.79264333">
        <ele>176.9</ele>
        <time>2025-07-25T10:19:17Z</time>
      </trkpt>
      <trkpt lat="46.435615" lon="17.792655">
        <ele>176.2</ele>
        <time>2025-07-25T10:19:19Z</time>
      </trkpt>
      <trkpt lat="46.43551167" lon="17.79267333">
        <ele>176.1</ele>
        <time>2025-07-25T10:19:21Z</time>
      </trkpt>
      <trkpt lat="46.43541167" lon="17.79270833">
        <ele>175.5</ele>
        <time>2025-07-25T10:19:23Z</time>
      </trkpt>
      <trkpt lat="46.43530333" lon="17.79273667">
        <ele>175.3</ele>
        <time>2025-07-25T10:19:25Z</time>
      </trkpt>
      <trkpt lat="46.43518333" lon="17.79276833">
        <ele>175.3</ele>
        <time>2025-07-25T10:19:27Z</time>
      </trkpt>
      <trkpt lat="46.435065" lon="17.79279333">
        <ele>175.3</ele>
        <time>2025-07-25T10:19:29Z</time>
      </trkpt>
      <trkpt lat="46.43495167" lon="17.792825">
        <ele>175.5</ele>
        <time>2025-07-25T10:19:31Z</time>
      </trkpt>
      <trkpt lat="46.434835" lon="17.79286167">
        <ele>176.2</ele>
        <time>2025-07-25T10:19:33Z</time>
      </trkpt>
      <trkpt lat="46.43472833" lon="17.79289167">
        <ele>176.5</ele>
        <time>2025-07-25T10:19:35Z</time>
      </trkpt>
      <trkpt lat="46.43462833" lon="17.79291833">
        <ele>176.3</ele>
        <time>2025-07-25T10:19:37Z</time>
      </trkpt>
      <trkpt lat="46.43452833" lon="17.79294167">
        <ele>176.3</ele>
        <time>2025-07-25T10:19:39Z</time>
      </trkpt>
      <trkpt lat="46.43442" lon="17.79297333">
        <ele>177</ele>
        <time>2025-07-25T10:19:41Z</time>
      </trkpt>
      <trkpt lat="46.43429667" lon="17.79300833">
        <ele>177.4</ele>
        <time>2025-07-25T10:19:43Z</time>
      </trkpt>
      <trkpt lat="46.43418333" lon="17.79304667">
        <ele>177.4</ele>
        <time>2025-07-25T10:19:45Z</time>
      </trkpt>
      <trkpt lat="46.434075" lon="17.793085">
        <ele>177.9</ele>
        <time>2025-07-25T10:19:47Z</time>
      </trkpt>
      <trkpt lat="46.43397333" lon="17.79311167">
        <ele>178.5</ele>
        <time>2025-07-25T10:19:49Z</time>
      </trkpt>
      <trkpt lat="46.433875" lon="17.79313333">
        <ele>178.9</ele>
        <time>2025-07-25T10:19:51Z</time>
      </trkpt>
      <trkpt lat="46.43378333" lon="17.79316">
        <ele>178.6</ele>
        <time>2025-07-25T10:19:53Z</time>
      </trkpt>
      <trkpt lat="46.43369167" lon="17.79319">
        <ele>178.5</ele>
        <time>2025-07-25T10:19:55Z</time>
      </trkpt>
      <trkpt lat="46.43356333" lon="17.793225">
        <ele>178.2</ele>
        <time>2025-07-25T10:19:58Z</time>
      </trkpt>
      <trkpt lat="46.43343667" lon="17.79324833">
        <ele>176.9</ele>
        <time>2025-07-25T10:20:01Z</time>
      </trkpt>
      <trkpt lat="46.43334" lon="17.79327333">
        <ele>177</ele>
        <time>2025-07-25T10:20:03Z</time>
      </trkpt>
      <trkpt lat="46.43324333" lon="17.79330833">
        <ele>177.7</ele>
        <time>2025-07-25T10:20:05Z</time>
      </trkpt>
      <trkpt lat="46.43315333" lon="17.79333667">
        <ele>178.2</ele>
        <time>2025-07-25T10:20:07Z</time>
      </trkpt>
      <trkpt lat="46.43302667" lon="17.79339667">
        <ele>178.6</ele>
        <time>2025-07-25T10:20:10Z</time>
      </trkpt>
      <trkpt lat="46.43294" lon="17.793455">
        <ele>178.9</ele>
        <time>2025-07-25T10:20:12Z</time>
      </trkpt>
      <trkpt lat="46.432855" lon="17.79351667">
        <ele>179.1</ele>
        <time>2025-07-25T10:20:14Z</time>
      </trkpt>
      <trkpt lat="46.43276833" lon="17.79358167">
        <ele>179.5</ele>
        <time>2025-07-25T10:20:16Z</time>
      </trkpt>
      <trkpt lat="46.432685" lon="17.79365">
        <ele>179.5</ele>
        <time>2025-07-25T10:20:18Z</time>
      </trkpt>
      <trkpt lat="46.43259333" lon="17.79372">
        <ele>179.4</ele>
        <time>2025-07-25T10:20:20Z</time>
      </trkpt>
      <trkpt lat="46.43250167" lon="17.79379333">
        <ele>179</ele>
        <time>2025-07-25T10:20:22Z</time>
      </trkpt>
      <trkpt lat="46.432415" lon="17.79386">
        <ele>178.4</ele>
        <time>2025-07-25T10:20:24Z</time>
      </trkpt>
      <trkpt lat="46.432325" lon="17.79392667">
        <ele>177.7</ele>
        <time>2025-07-25T10:20:26Z</time>
      </trkpt>
      <trkpt lat="46.43224667" lon="17.79399667">
        <ele>176.9</ele>
        <time>2025-07-25T10:20:28Z</time>
      </trkpt>
      <trkpt lat="46.43216333" lon="17.79405333">
        <ele>176.3</ele>
        <time>2025-07-25T10:20:30Z</time>
      </trkpt>
      <trkpt lat="46.43204667" lon="17.79414167">
        <ele>175.1</ele>
        <time>2025-07-25T10:20:33Z</time>
      </trkpt>
      <trkpt lat="46.43195333" lon="17.79423167">
        <ele>173.8</ele>
        <time>2025-07-25T10:20:36Z</time>
      </trkpt>
      <trkpt lat="46.43187167" lon="17.79430667">
        <ele>172.9</ele>
        <time>2025-07-25T10:20:38Z</time>
      </trkpt>
      <trkpt lat="46.43176" lon="17.79441333">
        <ele>171.4</ele>
        <time>2025-07-25T10:20:41Z</time>
      </trkpt>
      <trkpt lat="46.431655" lon="17.79453333">
        <ele>171.8</ele>
        <time>2025-07-25T10:20:43Z</time>
      </trkpt>
      <trkpt lat="46.43156667" lon="17.79463167">
        <ele>173.1</ele>
        <time>2025-07-25T10:20:45Z</time>
      </trkpt>
      <trkpt lat="46.43149333" lon="17.794715">
        <ele>173.4</ele>
        <time>2025-07-25T10:20:47Z</time>
      </trkpt>
      <trkpt lat="46.43139" lon="17.79483667">
        <ele>174.4</ele>
        <time>2025-07-25T10:20:50Z</time>
      </trkpt>
      <trkpt lat="46.43128833" lon="17.79494167">
        <ele>176</ele>
        <time>2025-07-25T10:20:53Z</time>
      </trkpt>
      <trkpt lat="46.43119833" lon="17.79502667">
        <ele>176.9</ele>
        <time>2025-07-25T10:20:56Z</time>
      </trkpt>
      <trkpt lat="46.43109833" lon="17.79512833">
        <ele>177.9</ele>
        <time>2025-07-25T10:20:59Z</time>
      </trkpt>
      <trkpt lat="46.43102333" lon="17.79521833">
        <ele>178.8</ele>
        <time>2025-07-25T10:21:02Z</time>
      </trkpt>
      <trkpt lat="46.43094" lon="17.79529667">
        <ele>178.7</ele>
        <time>2025-07-25T10:21:05Z</time>
      </trkpt>
      <trkpt lat="46.43084667" lon="17.79535833">
        <ele>178.3</ele>
        <time>2025-07-25T10:21:08Z</time>
      </trkpt>
      <trkpt lat="46.430745" lon="17.79544167">
        <ele>177.2</ele>
        <time>2025-07-25T10:21:11Z</time>
      </trkpt>
      <trkpt lat="46.430625" lon="17.795535">
        <ele>175.6</ele>
        <time>2025-07-25T10:21:14Z</time>
      </trkpt>
      <trkpt lat="46.43052167" lon="17.79560833">
        <ele>175.2</ele>
        <time>2025-07-25T10:21:16Z</time>
      </trkpt>
      <trkpt lat="46.43043667" lon="17.79568333">
        <ele>173.6</ele>
        <time>2025-07-25T10:21:18Z</time>
      </trkpt>
      <trkpt lat="46.43035167" lon="17.79578667">
        <ele>173</ele>
        <time>2025-07-25T10:21:20Z</time>
      </trkpt>
      <trkpt lat="46.43026" lon="17.795915">
        <ele>173</ele>
        <time>2025-07-25T10:21:22Z</time>
      </trkpt>
      <trkpt lat="46.43017667" lon="17.79604">
        <ele>173.4</ele>
        <time>2025-07-25T10:21:24Z</time>
      </trkpt>
      <trkpt lat="46.430115" lon="17.79614833">
        <ele>173.8</ele>
        <time>2025-07-25T10:21:26Z</time>
      </trkpt>
      <trkpt lat="46.43003" lon="17.79627167">
        <ele>173.9</ele>
        <time>2025-07-25T10:21:29Z</time>
      </trkpt>
      <trkpt lat="46.42992667" lon="17.79636833">
        <ele>173.9</ele>
        <time>2025-07-25T10:21:32Z</time>
      </trkpt>
      <trkpt lat="46.42982333" lon="17.796445">
        <ele>173.9</ele>
        <time>2025-07-25T10:21:35Z</time>
      </trkpt>
      <trkpt lat="46.42970167" lon="17.79651">
        <ele>173</ele>
        <time>2025-07-25T10:21:38Z</time>
      </trkpt>
      <trkpt lat="46.429595" lon="17.79656833">
        <ele>171.7</ele>
        <time>2025-07-25T10:21:41Z</time>
      </trkpt>
      <trkpt lat="46.42949167" lon="17.79662333">
        <ele>170.9</ele>
        <time>2025-07-25T10:21:43Z</time>
      </trkpt>
      <trkpt lat="46.42937667" lon="17.79668333">
        <ele>170.5</ele>
        <time>2025-07-25T10:21:45Z</time>
      </trkpt>
      <trkpt lat="46.42925667" lon="17.79675">
        <ele>170.8</ele>
        <time>2025-07-25T10:21:47Z</time>
      </trkpt>
      <trkpt lat="46.42914333" lon="17.79681">
        <ele>171.1</ele>
        <time>2025-07-25T10:21:49Z</time>
      </trkpt>
      <trkpt lat="46.429035" lon="17.79685833">
        <ele>172.3</ele>
        <time>2025-07-25T10:21:51Z</time>
      </trkpt>
      <trkpt lat="46.42893167" lon="17.796915">
        <ele>173.8</ele>
        <time>2025-07-25T10:21:53Z</time>
      </trkpt>
      <trkpt lat="46.42882833" lon="17.79694833">
        <ele>173.6</ele>
        <time>2025-07-25T10:21:55Z</time>
      </trkpt>
      <trkpt lat="46.42873333" lon="17.79694667">
        <ele>172.9</ele>
        <time>2025-07-25T10:21:57Z</time>
      </trkpt>
      <trkpt lat="46.428635" lon="17.79692667">
        <ele>171.8</ele>
        <time>2025-07-25T10:21:59Z</time>
      </trkpt>
      <trkpt lat="46.42852" lon="17.79691167">
        <ele>171.5</ele>
        <time>2025-07-25T10:22:01Z</time>
      </trkpt>
      <trkpt lat="46.42839333" lon="17.796905">
        <ele>173.5</ele>
        <time>2025-07-25T10:22:03Z</time>
      </trkpt>
      <trkpt lat="46.42829167" lon="17.79687667">
        <ele>176.1</ele>
        <time>2025-07-25T10:22:05Z</time>
      </trkpt>
      <trkpt lat="46.42819667" lon="17.79683">
        <ele>177.5</ele>
        <time>2025-07-25T10:22:07Z</time>
      </trkpt>
      <trkpt lat="46.42810667" lon="17.79677167">
        <ele>178.2</ele>
        <time>2025-07-25T10:22:09Z</time>
      </trkpt>
      <trkpt lat="46.42801833" lon="17.79671833">
        <ele>178.3</ele>
        <time>2025-07-25T10:22:11Z</time>
      </trkpt>
      <trkpt lat="46.42792333" lon="17.796665">
        <ele>178.4</ele>
        <time>2025-07-25T10:22:13Z</time>
      </trkpt>
      <trkpt lat="46.427825" lon="17.79660167">
        <ele>178.3</ele>
        <time>2025-07-25T10:22:15Z</time>
      </trkpt>
      <trkpt lat="46.427735" lon="17.79654">
        <ele>177.7</ele>
        <time>2025-07-25T10:22:17Z</time>
      </trkpt>
      <trkpt lat="46.42762833" lon="17.796485">
        <ele>177.6</ele>
        <time>2025-07-25T10:22:19Z</time>
      </trkpt>
      <trkpt lat="46.42752833" lon="17.79643167">
        <ele>177.3</ele>
        <time>2025-07-25T10:22:21Z</time>
      </trkpt>
      <trkpt lat="46.42740333" lon="17.796365">
        <ele>177.5</ele>
        <time>2025-07-25T10:22:24Z</time>
      </trkpt>
      <trkpt lat="46.42730833" lon="17.796325">
        <ele>179.3</ele>
        <time>2025-07-25T10:22:26Z</time>
      </trkpt>
      <trkpt lat="46.42721833" lon="17.79628">
        <ele>179.9</ele>
        <time>2025-07-25T10:22:28Z</time>
      </trkpt>
      <trkpt lat="46.42711167" lon="17.79622333">
        <ele>180.6</ele>
        <time>2025-07-25T10:22:31Z</time>
      </trkpt>
      <trkpt lat="46.42700667" lon="17.79618">
        <ele>181</ele>
        <time>2025-07-25T10:22:34Z</time>
      </trkpt>
      <trkpt lat="46.42689" lon="17.79611333">
        <ele>180.8</ele>
        <time>2025-07-25T10:22:37Z</time>
      </trkpt>
      <trkpt lat="46.4268" lon="17.79608">
        <ele>180.4</ele>
        <time>2025-07-25T10:22:39Z</time>
      </trkpt>
      <trkpt lat="46.42670167" lon="17.79607333">
        <ele>180</ele>
        <time>2025-07-25T10:22:41Z</time>
      </trkpt>
      <trkpt lat="46.42660667" lon="17.7961">
        <ele>179.7</ele>
        <time>2025-07-25T10:22:43Z</time>
      </trkpt>
      <trkpt lat="46.42652833" lon="17.79616667">
        <ele>179.5</ele>
        <time>2025-07-25T10:22:45Z</time>
      </trkpt>
      <trkpt lat="46.42645667" lon="17.796255">
        <ele>179.3</ele>
        <time>2025-07-25T10:22:47Z</time>
      </trkpt>
      <trkpt lat="46.426395" lon="17.79638">
        <ele>178.9</ele>
        <time>2025-07-25T10:22:49Z</time>
      </trkpt>
      <trkpt lat="46.42635833" lon="17.79650333">
        <ele>178.1</ele>
        <time>2025-07-25T10:22:51Z</time>
      </trkpt>
      <trkpt lat="46.42640333" lon="17.79667167">
        <ele>176.1</ele>
        <time>2025-07-25T10:22:54Z</time>
      </trkpt>
      <trkpt lat="46.426475" lon="17.79681667">
        <ele>175.4</ele>
        <time>2025-07-25T10:22:57Z</time>
      </trkpt>
      <trkpt lat="46.42651833" lon="17.79694833">
        <ele>168.7</ele>
        <time>2025-07-25T10:23:00Z</time>
      </trkpt>
      <trkpt lat="46.42656667" lon="17.79706">
        <ele>166.1</ele>
        <time>2025-07-25T10:23:02Z</time>
      </trkpt>
      <trkpt lat="46.42665333" lon="17.79720333">
        <ele>162.8</ele>
        <time>2025-07-25T10:23:05Z</time>
      </trkpt>
      <trkpt lat="46.42671667" lon="17.79729667">
        <ele>161.3</ele>
        <time>2025-07-25T10:23:07Z</time>
      </trkpt>
      <trkpt lat="46.42681" lon="17.79742333">
        <ele>160</ele>
        <time>2025-07-25T10:23:10Z</time>
      </trkpt>
      <trkpt lat="46.426875" lon="17.79754">
        <ele>158.9</ele>
        <time>2025-07-25T10:23:13Z</time>
      </trkpt>
      <trkpt lat="46.42695167" lon="17.79765667">
        <ele>157.7</ele>
        <time>2025-07-25T10:23:16Z</time>
      </trkpt>
      <trkpt lat="46.42703667" lon="17.79779167">
        <ele>157.4</ele>
        <time>2025-07-25T10:23:19Z</time>
      </trkpt>
      <trkpt lat="46.42710167" lon="17.79791667">
        <ele>156.8</ele>
        <time>2025-07-25T10:23:22Z</time>
      </trkpt>
      <trkpt lat="46.42715667" lon="17.79804">
        <ele>154.5</ele>
        <time>2025-07-25T10:23:25Z</time>
      </trkpt>
      <trkpt lat="46.427225" lon="17.79814">
        <ele>153.2</ele>
        <time>2025-07-25T10:23:28Z</time>
      </trkpt>
      <trkpt lat="46.42731" lon="17.79822167">
        <ele>150.3</ele>
        <time>2025-07-25T10:23:32Z</time>
      </trkpt>
      <trkpt lat="46.42741833" lon="17.79827333">
        <ele>149.8</ele>
        <time>2025-07-25T10:23:35Z</time>
      </trkpt>
      <trkpt lat="46.42751167" lon="17.79832667">
        <ele>150.6</ele>
        <time>2025-07-25T10:23:38Z</time>
      </trkpt>
      <trkpt lat="46.42758667" lon="17.798425">
        <ele>151.5</ele>
        <time>2025-07-25T10:23:41Z</time>
      </trkpt>
      <trkpt lat="46.42761167" lon="17.79857667">
        <ele>153.4</ele>
        <time>2025-07-25T10:23:44Z</time>
      </trkpt>
      <trkpt lat="46.42755167" lon="17.79868667">
        <ele>155.3</ele>
        <time>2025-07-25T10:23:46Z</time>
      </trkpt>
      <trkpt lat="46.42747" lon="17.79874667">
        <ele>154.5</ele>
        <time>2025-07-25T10:23:48Z</time>
      </trkpt>
      <trkpt lat="46.42736833" lon="17.79887167">
        <ele>160.5</ele>
        <time>2025-07-25T10:23:51Z</time>
      </trkpt>
      <trkpt lat="46.42729833" lon="17.79897833">
        <ele>165.6</ele>
        <time>2025-07-25T10:23:53Z</time>
      </trkpt>
      <trkpt lat="46.42721667" lon="17.79909">
        <ele>170</ele>
        <time>2025-07-25T10:23:55Z</time>
      </trkpt>
      <trkpt lat="46.42712333" lon="17.79918667">
        <ele>172.5</ele>
        <time>2025-07-25T10:23:57Z</time>
      </trkpt>
      <trkpt lat="46.42702833" lon="17.79928333">
        <ele>175</ele>
        <time>2025-07-25T10:23:59Z</time>
      </trkpt>
      <trkpt lat="46.42693167" lon="17.799365">
        <ele>176.4</ele>
        <time>2025-07-25T10:24:01Z</time>
      </trkpt>
      <trkpt lat="46.42683333" lon="17.79945333">
        <ele>178.3</ele>
        <time>2025-07-25T10:24:03Z</time>
      </trkpt>
      <trkpt lat="46.42672833" lon="17.79952833">
        <ele>179.8</ele>
        <time>2025-07-25T10:24:05Z</time>
      </trkpt>
      <trkpt lat="46.42662667" lon="17.7996">
        <ele>181.4</ele>
        <time>2025-07-25T10:24:07Z</time>
      </trkpt>
      <trkpt lat="46.426515" lon="17.79967333">
        <ele>183</ele>
        <time>2025-07-25T10:24:09Z</time>
      </trkpt>
      <trkpt lat="46.42639833" lon="17.79974667">
        <ele>183.3</ele>
        <time>2025-07-25T10:24:11Z</time>
      </trkpt>
      <trkpt lat="46.4263" lon="17.79979667">
        <ele>182.9</ele>
        <time>2025-07-25T10:24:13Z</time>
      </trkpt>
      <trkpt lat="46.42619833" lon="17.79985">
        <ele>182</ele>
        <time>2025-07-25T10:24:15Z</time>
      </trkpt>
      <trkpt lat="46.42606" lon="17.79987833">
        <ele>181.6</ele>
        <time>2025-07-25T10:24:18Z</time>
      </trkpt>
      <trkpt lat="46.42595333" lon="17.79991333">
        <ele>181.2</ele>
        <time>2025-07-25T10:24:20Z</time>
      </trkpt>
      <trkpt lat="46.42585667" lon="17.79994333">
        <ele>181.4</ele>
        <time>2025-07-25T10:24:22Z</time>
      </trkpt>
      <trkpt lat="46.42576667" lon="17.79995833">
        <ele>181.3</ele>
        <time>2025-07-25T10:24:24Z</time>
      </trkpt>
      <trkpt lat="46.42564667" lon="17.79998">
        <ele>181.7</ele>
        <time>2025-07-25T10:24:27Z</time>
      </trkpt>
      <trkpt lat="46.42553333" lon="17.80001167">
        <ele>181.5</ele>
        <time>2025-07-25T10:24:30Z</time>
      </trkpt>
      <trkpt lat="46.42542" lon="17.80002">
        <ele>180.6</ele>
        <time>2025-07-25T10:24:34Z</time>
      </trkpt>
      <trkpt lat="46.42532333" lon="17.800035">
        <ele>180.5</ele>
        <time>2025-07-25T10:24:37Z</time>
      </trkpt>
      <trkpt lat="46.42522833" lon="17.80006167">
        <ele>178.1</ele>
        <time>2025-07-25T10:24:40Z</time>
      </trkpt>
      <trkpt lat="46.42511" lon="17.80008333">
        <ele>177.1</ele>
        <time>2025-07-25T10:24:43Z</time>
      </trkpt>
      <trkpt lat="46.42500833" lon="17.80010167">
        <ele>178.1</ele>
        <time>2025-07-25T10:24:45Z</time>
      </trkpt>
      <trkpt lat="46.424915" lon="17.80014167">
        <ele>178.2</ele>
        <time>2025-07-25T10:24:47Z</time>
      </trkpt>
      <trkpt lat="46.42481667" lon="17.80017167">
        <ele>179</ele>
        <time>2025-07-25T10:24:49Z</time>
      </trkpt>
      <trkpt lat="46.42472" lon="17.80019167">
        <ele>179.8</ele>
        <time>2025-07-25T10:24:51Z</time>
      </trkpt>
      <trkpt lat="46.42462667" lon="17.80021167">
        <ele>179.5</ele>
        <time>2025-07-25T10:24:53Z</time>
      </trkpt>
      <trkpt lat="46.42452833" lon="17.80023333">
        <ele>180</ele>
        <time>2025-07-25T10:24:55Z</time>
      </trkpt>
      <trkpt lat="46.424435" lon="17.80025167">
        <ele>180.2</ele>
        <time>2025-07-25T10:24:57Z</time>
      </trkpt>
      <trkpt lat="46.424305" lon="17.80027333">
        <ele>180.3</ele>
        <time>2025-07-25T10:25:00Z</time>
      </trkpt>
      <trkpt lat="46.42417667" lon="17.80029833">
        <ele>180.9</ele>
        <time>2025-07-25T10:25:03Z</time>
      </trkpt>
      <trkpt lat="46.424065" lon="17.80028333">
        <ele>179.4</ele>
        <time>2025-07-25T10:25:06Z</time>
      </trkpt>
      <trkpt lat="46.42393833" lon="17.80028667">
        <ele>177.9</ele>
        <time>2025-07-25T10:25:09Z</time>
      </trkpt>
      <trkpt lat="46.42384167" lon="17.80028167">
        <ele>177.6</ele>
        <time>2025-07-25T10:25:11Z</time>
      </trkpt>
      <trkpt lat="46.42374667" lon="17.80025667">
        <ele>177</ele>
        <time>2025-07-25T10:25:13Z</time>
      </trkpt>
      <trkpt lat="46.423625" lon="17.80025833">
        <ele>176.3</ele>
        <time>2025-07-25T10:25:16Z</time>
      </trkpt>
      <trkpt lat="46.423495" lon="17.80031333">
        <ele>176.6</ele>
        <time>2025-07-25T10:25:19Z</time>
      </trkpt>
      <trkpt lat="46.42337667" lon="17.80036833">
        <ele>177.3</ele>
        <time>2025-07-25T10:25:22Z</time>
      </trkpt>
      <trkpt lat="46.42325833" lon="17.800405">
        <ele>178</ele>
        <time>2025-07-25T10:25:25Z</time>
      </trkpt>
      <trkpt lat="46.42313333" lon="17.80048333">
        <ele>178.8</ele>
        <time>2025-07-25T10:25:28Z</time>
      </trkpt>
      <trkpt lat="46.42303" lon="17.80054667">
        <ele>179.1</ele>
        <time>2025-07-25T10:25:30Z</time>
      </trkpt>
      <trkpt lat="46.422925" lon="17.80060333">
        <ele>180.5</ele>
        <time>2025-07-25T10:25:32Z</time>
      </trkpt>
      <trkpt lat="46.42283167" lon="17.80063333">
        <ele>181.9</ele>
        <time>2025-07-25T10:25:34Z</time>
      </trkpt>
      <trkpt lat="46.42270333" lon="17.800655">
        <ele>182.5</ele>
        <time>2025-07-25T10:25:37Z</time>
      </trkpt>
      <trkpt lat="46.42261333" lon="17.80065833">
        <ele>181.5</ele>
        <time>2025-07-25T10:25:39Z</time>
      </trkpt>
      <trkpt lat="46.42249" lon="17.80068667">
        <ele>179</ele>
        <time>2025-07-25T10:25:42Z</time>
      </trkpt>
      <trkpt lat="46.42235833" lon="17.80069833">
        <ele>175.6</ele>
        <time>2025-07-25T10:25:45Z</time>
      </trkpt>
      <trkpt lat="46.42226167" lon="17.80069833">
        <ele>174.4</ele>
        <time>2025-07-25T10:25:47Z</time>
      </trkpt>
      <trkpt lat="46.42217" lon="17.8007">
        <ele>173.4</ele>
        <time>2025-07-25T10:25:49Z</time>
      </trkpt>
      <trkpt lat="46.42203833" lon="17.80070833">
        <ele>172.2</ele>
        <time>2025-07-25T10:25:52Z</time>
      </trkpt>
      <trkpt lat="46.42192667" lon="17.80070333">
        <ele>171.6</ele>
        <time>2025-07-25T10:25:55Z</time>
      </trkpt>
      <trkpt lat="46.42183667" lon="17.8007">
        <ele>171.8</ele>
        <time>2025-07-25T10:25:57Z</time>
      </trkpt>
      <trkpt lat="46.42174667" lon="17.80068833">
        <ele>171.6</ele>
        <time>2025-07-25T10:25:59Z</time>
      </trkpt>
      <trkpt lat="46.42162" lon="17.80068833">
        <ele>172.6</ele>
        <time>2025-07-25T10:26:02Z</time>
      </trkpt>
      <trkpt lat="46.42151667" lon="17.800705">
        <ele>172.9</ele>
        <time>2025-07-25T10:26:04Z</time>
      </trkpt>
      <trkpt lat="46.42139167" lon="17.80074667">
        <ele>173.7</ele>
        <time>2025-07-25T10:26:06Z</time>
      </trkpt>
      <trkpt lat="46.42128333" lon="17.800775">
        <ele>174.3</ele>
        <time>2025-07-25T10:26:08Z</time>
      </trkpt>
      <trkpt lat="46.42117833" lon="17.80078667">
        <ele>174.6</ele>
        <time>2025-07-25T10:26:10Z</time>
      </trkpt>
      <trkpt lat="46.42106833" lon="17.80079667">
        <ele>174.4</ele>
        <time>2025-07-25T10:26:12Z</time>
      </trkpt>
      <trkpt lat="46.42097333" lon="17.80081">
        <ele>174.5</ele>
        <time>2025-07-25T10:26:14Z</time>
      </trkpt>
      <trkpt lat="46.42084667" lon="17.80079833">
        <ele>174.1</ele>
        <time>2025-07-25T10:26:17Z</time>
      </trkpt>
      <trkpt lat="46.42072667" lon="17.80079333">
        <ele>175.6</ele>
        <time>2025-07-25T10:26:20Z</time>
      </trkpt>
      <trkpt lat="46.42062" lon="17.80078333">
        <ele>177.3</ele>
        <time>2025-07-25T10:26:23Z</time>
      </trkpt>
      <trkpt lat="46.420515" lon="17.80077833">
        <ele>175.9</ele>
        <time>2025-07-25T10:26:26Z</time>
      </trkpt>
      <trkpt lat="46.42042833" lon="17.80071833">
        <ele>173.4</ele>
        <time>2025-07-25T10:26:29Z</time>
      </trkpt>
      <trkpt lat="46.42033333" lon="17.80068833">
        <ele>172.1</ele>
        <time>2025-07-25T10:26:32Z</time>
      </trkpt>
      <trkpt lat="46.42020833" lon="17.80067167">
        <ele>172.7</ele>
        <time>2025-07-25T10:26:35Z</time>
      </trkpt>
      <trkpt lat="46.42009667" lon="17.80068">
        <ele>175.9</ele>
        <time>2025-07-25T10:26:38Z</time>
      </trkpt>
      <trkpt lat="46.41997167" lon="17.80066833">
        <ele>182.4</ele>
        <time>2025-07-25T10:26:47Z</time>
      </trkpt>
      <trkpt lat="46.41988167" lon="17.800675">
        <ele>184.2</ele>
        <time>2025-07-25T10:26:54Z</time>
      </trkpt>
      <trkpt lat="46.41979833" lon="17.80076167">
        <ele>184.9</ele>
        <time>2025-07-25T10:27:02Z</time>
      </trkpt>
      <trkpt lat="46.41972833" lon="17.80084667">
        <ele>185.8</ele>
        <time>2025-07-25T10:27:06Z</time>
      </trkpt>
      <trkpt lat="46.41965" lon="17.80095333">
        <ele>186.6</ele>
        <time>2025-07-25T10:27:11Z</time>
      </trkpt>
      <trkpt lat="46.41956667" lon="17.80106">
        <ele>188.2</ele>
        <time>2025-07-25T10:27:16Z</time>
      </trkpt>
      <trkpt lat="46.41946" lon="17.80111167">
        <ele>189.4</ele>
        <time>2025-07-25T10:27:21Z</time>
      </trkpt>
      <trkpt lat="46.41937" lon="17.80116">
        <ele>190</ele>
        <time>2025-07-25T10:27:26Z</time>
      </trkpt>
      <trkpt lat="46.419305" lon="17.80126">
        <ele>190</ele>
        <time>2025-07-25T10:27:31Z</time>
      </trkpt>
    </trkseg>
  </trk>
</gpx>