<?xml version='1.0' encoding='UTF-8' standalone='yes' ?>
<gpx xmlns="http://www.topografix.com/GPX/1/1" xmlns:geotracker="http://ilyabogdanovich.com/gpx/extensions/geotracker" xmlns:xsi="http://www.w3.org/2001/XMLSchema-instance" xsi:schemaLocation="http://www.topografix.com/GPX/1/1 http://www.topografix.com/GPX/1/1/gpx.xsd" version="1.1" creator="Recorded in Geo Tracker for Android from Ilya Bogdanovich">
  <metadata>
    <name>f_0725_01</name>
    <author>
      <name>Recorded in Geo Tracker for Android from Ilya Bogdanovich</name>
      <link href="https://play.google.com/store/apps/details?id=com.ilyabogdanovich.geotracker" />
    </author>
    <link href="https://play.google.com/store/apps/details?id=com.ilyabogdanovich.geotracker" />
    <time>2025-07-25T09:32:01Z</time>
  </metadata>
  <wpt lat="46.408125" lon="17.81858667">
    <ele>174.2</ele>
    <time>2025-07-25T09:37:43Z</time>
    <name>Stop for ~3 min</name>
    <desc>Elevation: 174 m
Time from start: 00:05:41
Distance from start: 0,92 km</desc>
    <extensions>
      <geotracker:meta visited="1" />
    </extensions>
  </wpt>
  <trk>
    <name>f_0725_01</name>
    <src>Recorded in Geo Tracker for Android from Ilya Bogdanovich</src>
    <link href="https://play.google.com/store/apps/details?id=com.ilyabogdanovich.geotracker" />
    <extensions>
      <geotracker:meta>
        <geotracker:length>5329.63</geotracker:length>
        <geotracker:duration>1475641</geotracker:duration>
        <geotracker:creationtime>2025-07-25T09:32:01Z</geotracker:creationtime>
        <geotracker:activity>0</geotracker:activity>
      </geotracker:meta>
    </extensions>
    <trkseg>
      <trkpt lat="46.40097667" lon="17.817645">
        <ele>209.7</ele>
        <time>2025-07-25T09:32:08Z</time>
      </trkpt>
      <trkpt lat="46.40107" lon="17.81764833">
        <ele>210</ele>
        <time>2025-07-25T09:32:12Z</time>
      </trkpt>
      <trkpt lat="46.401" lon="17.817555">
        <ele>210</ele>
        <time>2025-07-25T09:32:23Z</time>
      </trkpt>
      <trkpt lat="46.40101833" lon="17.81742333">
        <ele>210</ele>
        <time>2025-07-25T09:32:32Z</time>
      </trkpt>
      <trkpt lat="46.401085" lon="17.817315">
        <ele>209.9</ele>
        <time>2025-07-25T09:32:36Z</time>
      </trkpt>
      <trkpt lat="46.40116833" lon="17.81720167">
        <ele>209.8</ele>
        <time>2025-07-25T09:32:39Z</time>
      </trkpt>
      <trkpt lat="46.401225" lon="17.81704833">
        <ele>209.6</ele>
        <time>2025-07-25T09:32:43Z</time>
      </trkpt>
      <trkpt lat="46.401305" lon="17.81692167">
        <ele>209.3</ele>
        <time>2025-07-25T09:32:46Z</time>
      </trkpt>
      <trkpt lat="46.40138167" lon="17.81676667">
        <ele>206.5</ele>
        <time>2025-07-25T09:32:49Z</time>
      </trkpt>
      <trkpt lat="46.40146333" lon="17.81663667">
        <ele>199.8</ele>
        <time>2025-07-25T09:32:52Z</time>
      </trkpt>
      <trkpt lat="46.40153833" lon="17.81653833">
        <ele>196.5</ele>
        <time>2025-07-25T09:32:54Z</time>
      </trkpt>
      <trkpt lat="46.40163833" lon="17.81645">
        <ele>192.1</ele>
        <time>2025-07-25T09:32:57Z</time>
      </trkpt>
      <trkpt lat="46.40174" lon="17.81634333">
        <ele>187.3</ele>
        <time>2025-07-25T09:33:00Z</time>
      </trkpt>
      <trkpt lat="46.40182833" lon="17.81623167">
        <ele>182.3</ele>
        <time>2025-07-25T09:33:03Z</time>
      </trkpt>
      <trkpt lat="46.40192333" lon="17.81615333">
        <ele>175.6</ele>
        <time>2025-07-25T09:33:07Z</time>
      </trkpt>
      <trkpt lat="46.40202667" lon="17.81610833">
        <ele>170.7</ele>
        <time>2025-07-25T09:33:11Z</time>
      </trkpt>
      <trkpt lat="46.40212167" lon="17.81608667">
        <ele>166.9</ele>
        <time>2025-07-25T09:33:14Z</time>
      </trkpt>
      <trkpt lat="46.40222167" lon="17.81611833">
        <ele>163.8</ele>
        <time>2025-07-25T09:33:17Z</time>
      </trkpt>
      <trkpt lat="46.402345" lon="17.81617333">
        <ele>161.9</ele>
        <time>2025-07-25T09:33:20Z</time>
      </trkpt>
      <trkpt lat="46.40247" lon="17.81620833">
        <ele>159.7</ele>
        <time>2025-07-25T09:33:23Z</time>
      </trkpt>
      <trkpt lat="46.40259167" lon="17.81627">
        <ele>158</ele>
        <time>2025-07-25T09:33:26Z</time>
      </trkpt>
      <trkpt lat="46.40269667" lon="17.81631667">
        <ele>157.5</ele>
        <time>2025-07-25T09:33:29Z</time>
      </trkpt>
      <trkpt lat="46.40281167" lon="17.8164">
        <ele>157.6</ele>
        <time>2025-07-25T09:33:32Z</time>
      </trkpt>
      <trkpt lat="46.40289333" lon="17.81649333">
        <ele>156.8</ele>
        <time>2025-07-25T09:33:35Z</time>
      </trkpt>
      <trkpt lat="46.40299" lon="17.816605">
        <ele>156.9</ele>
        <time>2025-07-25T09:33:38Z</time>
      </trkpt>
      <trkpt lat="46.40307" lon="17.81668833">
        <ele>157.1</ele>
        <time>2025-07-25T09:33:40Z</time>
      </trkpt>
      <trkpt lat="46.40316" lon="17.81676167">
        <ele>157.7</ele>
        <time>2025-07-25T09:33:42Z</time>
      </trkpt>
      <trkpt lat="46.40324833" lon="17.81681667">
        <ele>159.1</ele>
        <time>2025-07-25T09:33:44Z</time>
      </trkpt>
      <trkpt lat="46.40335333" lon="17.81689167">
        <ele>160.4</ele>
        <time>2025-07-25T09:33:46Z</time>
      </trkpt>
      <trkpt lat="46.40344833" lon="17.81698333">
        <ele>163.3</ele>
        <time>2025-07-25T09:33:48Z</time>
      </trkpt>
      <trkpt lat="46.40353667" lon="17.81708833">
        <ele>165.6</ele>
        <time>2025-07-25T09:33:51Z</time>
      </trkpt>
      <trkpt lat="46.403605" lon="17.81718667">
        <ele>167.4</ele>
        <time>2025-07-25T09:33:54Z</time>
      </trkpt>
      <trkpt lat="46.40367167" lon="17.81730167">
        <ele>170.7</ele>
        <time>2025-07-25T09:33:58Z</time>
      </trkpt>
      <trkpt lat="46.40374167" lon="17.81739833">
        <ele>172.4</ele>
        <time>2025-07-25T09:34:01Z</time>
      </trkpt>
      <trkpt lat="46.40384" lon="17.81748667">
        <ele>174.5</ele>
        <time>2025-07-25T09:34:04Z</time>
      </trkpt>
      <trkpt lat="46.40394833" lon="17.81758">
        <ele>177.3</ele>
        <time>2025-07-25T09:34:07Z</time>
      </trkpt>
      <trkpt lat="46.40406167" lon="17.81766167">
        <ele>176.5</ele>
        <time>2025-07-25T09:34:10Z</time>
      </trkpt>
      <trkpt lat="46.404165" lon="17.81769833">
        <ele>177.3</ele>
        <time>2025-07-25T09:34:12Z</time>
      </trkpt>
      <trkpt lat="46.40427667" lon="17.81775333">
        <ele>178.4</ele>
        <time>2025-07-25T09:34:15Z</time>
      </trkpt>
      <trkpt lat="46.40438667" lon="17.817815">
        <ele>179.5</ele>
        <time>2025-07-25T09:34:18Z</time>
      </trkpt>
      <trkpt lat="46.40450167" lon="17.81791333">
        <ele>178.8</ele>
        <time>2025-07-25T09:34:21Z</time>
      </trkpt>
      <trkpt lat="46.40461833" lon="17.81799">
        <ele>178.4</ele>
        <time>2025-07-25T09:34:23Z</time>
      </trkpt>
      <trkpt lat="46.40474167" lon="17.81806">
        <ele>178.7</ele>
        <time>2025-07-25T09:34:25Z</time>
      </trkpt>
      <trkpt lat="46.40485833" lon="17.81811667">
        <ele>179.3</ele>
        <time>2025-07-25T09:34:27Z</time>
      </trkpt>
      <trkpt lat="46.40498833" lon="17.81817333">
        <ele>179.8</ele>
        <time>2025-07-25T09:34:30Z</time>
      </trkpt>
      <trkpt lat="46.40507667" lon="17.818225">
        <ele>180.3</ele>
        <time>2025-07-25T09:34:32Z</time>
      </trkpt>
      <trkpt lat="46.40516167" lon="17.81828">
        <ele>180.6</ele>
        <time>2025-07-25T09:34:34Z</time>
      </trkpt>
      <trkpt lat="46.40527833" lon="17.81835667">
        <ele>179.5</ele>
        <time>2025-07-25T09:34:37Z</time>
      </trkpt>
      <trkpt lat="46.40536833" lon="17.81840333">
        <ele>180.9</ele>
        <time>2025-07-25T09:34:39Z</time>
      </trkpt>
      <trkpt lat="46.40547167" lon="17.818445">
        <ele>182.8</ele>
        <time>2025-07-25T09:34:41Z</time>
      </trkpt>
      <trkpt lat="46.40558333" lon="17.81852167">
        <ele>178</ele>
        <time>2025-07-25T09:34:44Z</time>
      </trkpt>
      <trkpt lat="46.40568167" lon="17.81858833">
        <ele>177.2</ele>
        <time>2025-07-25T09:34:47Z</time>
      </trkpt>
      <trkpt lat="46.40576333" lon="17.818645">
        <ele>176.5</ele>
        <time>2025-07-25T09:34:49Z</time>
      </trkpt>
      <trkpt lat="46.40584667" lon="17.81872">
        <ele>173.9</ele>
        <time>2025-07-25T09:34:52Z</time>
      </trkpt>
      <trkpt lat="46.40597833" lon="17.81877333">
        <ele>172.7</ele>
        <time>2025-07-25T09:34:55Z</time>
      </trkpt>
      <trkpt lat="46.40608667" lon="17.81881">
        <ele>172.8</ele>
        <time>2025-07-25T09:34:57Z</time>
      </trkpt>
      <trkpt lat="46.40617333" lon="17.81885">
        <ele>170.7</ele>
        <time>2025-07-25T09:34:59Z</time>
      </trkpt>
      <trkpt lat="46.40626333" lon="17.81888833">
        <ele>170.2</ele>
        <time>2025-07-25T09:35:01Z</time>
      </trkpt>
      <trkpt lat="46.406385" lon="17.81894">
        <ele>171</ele>
        <time>2025-07-25T09:35:04Z</time>
      </trkpt>
      <trkpt lat="46.4065" lon="17.81895667">
        <ele>170.6</ele>
        <time>2025-07-25T09:35:07Z</time>
      </trkpt>
      <trkpt lat="46.40661167" lon="17.818955">
        <ele>171.3</ele>
        <time>2025-07-25T09:35:11Z</time>
      </trkpt>
      <trkpt lat="46.40670833" lon="17.81894">
        <ele>171.3</ele>
        <time>2025-07-25T09:35:14Z</time>
      </trkpt>
      <trkpt lat="46.40682167" lon="17.81888833">
        <ele>170.9</ele>
        <time>2025-07-25T09:35:17Z</time>
      </trkpt>
      <trkpt lat="46.40693833" lon="17.818855">
        <ele>169.4</ele>
        <time>2025-07-25T09:35:20Z</time>
      </trkpt>
      <trkpt lat="46.40705" lon="17.81882833">
        <ele>167.6</ele>
        <time>2025-07-25T09:35:23Z</time>
      </trkpt>
      <trkpt lat="46.40716167" lon="17.81884667">
        <ele>165.4</ele>
        <time>2025-07-25T09:35:26Z</time>
      </trkpt>
      <trkpt lat="46.40725" lon="17.81880667">
        <ele>163.1</ele>
        <time>2025-07-25T09:35:30Z</time>
      </trkpt>
      <trkpt lat="46.407365" lon="17.81879667">
        <ele>161.8</ele>
        <time>2025-07-25T09:35:34Z</time>
      </trkpt>
      <trkpt lat="46.40746333" lon="17.81876167">
        <ele>161.8</ele>
        <time>2025-07-25T09:35:37Z</time>
      </trkpt>
      <trkpt lat="46.40760167" lon="17.818745">
        <ele>161.5</ele>
        <time>2025-07-25T09:35:40Z</time>
      </trkpt>
      <trkpt lat="46.407725" lon="17.81871833">
        <ele>160.3</ele>
        <time>2025-07-25T09:35:43Z</time>
      </trkpt>
      <trkpt lat="46.40783167" lon="17.81869">
        <ele>159.9</ele>
        <time>2025-07-25T09:35:46Z</time>
      </trkpt>
      <trkpt lat="46.40794333" lon="17.81864667">
        <ele>161.6</ele>
        <time>2025-07-25T09:35:50Z</time>
      </trkpt>
      <trkpt lat="46.408035" lon="17.81860333">
        <ele>165.2</ele>
        <time>2025-07-25T09:36:01Z</time>
      </trkpt>
      <trkpt lat="46.408125" lon="17.81858667">
        <ele>174.2</ele>
        <time>2025-07-25T09:37:43Z</time>
      </trkpt>
      <trkpt lat="46.40834833" lon="17.81839167">
        <ele>174.1</ele>
        <time>2025-07-25T09:39:24Z</time>
      </trkpt>
      <trkpt lat="46.40844167" lon="17.81833333">
        <ele>173.1</ele>
        <time>2025-07-25T09:39:27Z</time>
      </trkpt>
      <trkpt lat="46.40854833" lon="17.81828167">
        <ele>171.5</ele>
        <time>2025-07-25T09:39:31Z</time>
      </trkpt>
      <trkpt lat="46.40866167" lon="17.81825667">
        <ele>169.7</ele>
        <time>2025-07-25T09:39:34Z</time>
      </trkpt>
      <trkpt lat="46.40878833" lon="17.81823833">
        <ele>167.3</ele>
        <time>2025-07-25T09:39:37Z</time>
      </trkpt>
      <trkpt lat="46.40887833" lon="17.818185">
        <ele>165</ele>
        <time>2025-07-25T09:39:39Z</time>
      </trkpt>
      <trkpt lat="46.40895833" lon="17.81811833">
        <ele>164.5</ele>
        <time>2025-07-25T09:39:41Z</time>
      </trkpt>
      <trkpt lat="46.40905333" lon="17.81807167">
        <ele>162.4</ele>
        <time>2025-07-25T09:39:44Z</time>
      </trkpt>
      <trkpt lat="46.40913333" lon="17.81800667">
        <ele>162.8</ele>
        <time>2025-07-25T09:39:46Z</time>
      </trkpt>
      <trkpt lat="46.40920833" lon="17.81792667">
        <ele>164.3</ele>
        <time>2025-07-25T09:39:48Z</time>
      </trkpt>
      <trkpt lat="46.40930167" lon="17.81781333">
        <ele>165.5</ele>
        <time>2025-07-25T09:39:51Z</time>
      </trkpt>
      <trkpt lat="46.40938333" lon="17.81769667">
        <ele>166.9</ele>
        <time>2025-07-25T09:39:54Z</time>
      </trkpt>
      <trkpt lat="46.40948" lon="17.81758">
        <ele>168.5</ele>
        <time>2025-07-25T09:39:57Z</time>
      </trkpt>
      <trkpt lat="46.40958" lon="17.81747">
        <ele>169.2</ele>
        <time>2025-07-25T09:40:00Z</time>
      </trkpt>
      <trkpt lat="46.40967667" lon="17.81734333">
        <ele>169.1</ele>
        <time>2025-07-25T09:40:03Z</time>
      </trkpt>
      <trkpt lat="46.409775" lon="17.81722667">
        <ele>169.3</ele>
        <time>2025-07-25T09:40:06Z</time>
      </trkpt>
      <trkpt lat="46.40984667" lon="17.81714">
        <ele>169.3</ele>
        <time>2025-07-25T09:40:08Z</time>
      </trkpt>
      <trkpt lat="46.40991667" lon="17.81704333">
        <ele>169.8</ele>
        <time>2025-07-25T09:40:10Z</time>
      </trkpt>
      <trkpt lat="46.40999" lon="17.81696333">
        <ele>170.7</ele>
        <time>2025-07-25T09:40:12Z</time>
      </trkpt>
      <trkpt lat="46.410085" lon="17.81687667">
        <ele>170.5</ele>
        <time>2025-07-25T09:40:15Z</time>
      </trkpt>
      <trkpt lat="46.41016333" lon="17.81679333">
        <ele>170.9</ele>
        <time>2025-07-25T09:40:17Z</time>
      </trkpt>
      <trkpt lat="46.41027333" lon="17.81672167">
        <ele>170.9</ele>
        <time>2025-07-25T09:40:20Z</time>
      </trkpt>
      <trkpt lat="46.41041" lon="17.81665667">
        <ele>170.5</ele>
        <time>2025-07-25T09:40:23Z</time>
      </trkpt>
      <trkpt lat="46.41051167" lon="17.81664">
        <ele>171.5</ele>
        <time>2025-07-25T09:40:25Z</time>
      </trkpt>
      <trkpt lat="46.41064167" lon="17.81665333">
        <ele>170.5</ele>
        <time>2025-07-25T09:40:28Z</time>
      </trkpt>
      <trkpt lat="46.41075333" lon="17.816715">
        <ele>171</ele>
        <time>2025-07-25T09:40:31Z</time>
      </trkpt>
      <trkpt lat="46.41085167" lon="17.81683167">
        <ele>173</ele>
        <time>2025-07-25T09:40:34Z</time>
      </trkpt>
      <trkpt lat="46.41090833" lon="17.81693667">
        <ele>174.1</ele>
        <time>2025-07-25T09:40:36Z</time>
      </trkpt>
      <trkpt lat="46.410975" lon="17.81704333">
        <ele>174.9</ele>
        <time>2025-07-25T09:40:38Z</time>
      </trkpt>
      <trkpt lat="46.411025" lon="17.817175">
        <ele>176.6</ele>
        <time>2025-07-25T09:40:41Z</time>
      </trkpt>
      <trkpt lat="46.411085" lon="17.81729167">
        <ele>177.1</ele>
        <time>2025-07-25T09:40:44Z</time>
      </trkpt>
      <trkpt lat="46.41114167" lon="17.817405">
        <ele>178.2</ele>
        <time>2025-07-25T09:40:47Z</time>
      </trkpt>
      <trkpt lat="46.411185" lon="17.817535">
        <ele>178.3</ele>
        <time>2025-07-25T09:40:50Z</time>
      </trkpt>
      <trkpt lat="46.41123" lon="17.817665">
        <ele>176.9</ele>
        <time>2025-07-25T09:40:53Z</time>
      </trkpt>
      <trkpt lat="46.41127833" lon="17.81780167">
        <ele>176.5</ele>
        <time>2025-07-25T09:40:56Z</time>
      </trkpt>
      <trkpt lat="46.41131" lon="17.81793833">
        <ele>176.7</ele>
        <time>2025-07-25T09:40:59Z</time>
      </trkpt>
      <trkpt lat="46.411355" lon="17.81807167">
        <ele>176.3</ele>
        <time>2025-07-25T09:41:02Z</time>
      </trkpt>
      <trkpt lat="46.41142" lon="17.81820667">
        <ele>175.6</ele>
        <time>2025-07-25T09:41:05Z</time>
      </trkpt>
      <trkpt lat="46.41149167" lon="17.81835833">
        <ele>175</ele>
        <time>2025-07-25T09:41:08Z</time>
      </trkpt>
      <trkpt lat="46.41157667" lon="17.81850333">
        <ele>174.5</ele>
        <time>2025-07-25T09:41:11Z</time>
      </trkpt>
      <trkpt lat="46.41165833" lon="17.81857167">
        <ele>173.7</ele>
        <time>2025-07-25T09:41:13Z</time>
      </trkpt>
      <trkpt lat="46.411755" lon="17.81857333">
        <ele>174</ele>
        <time>2025-07-25T09:41:15Z</time>
      </trkpt>
      <trkpt lat="46.41185" lon="17.81849667">
        <ele>174.6</ele>
        <time>2025-07-25T09:41:17Z</time>
      </trkpt>
      <trkpt lat="46.41195" lon="17.81842333">
        <ele>174.8</ele>
        <time>2025-07-25T09:41:19Z</time>
      </trkpt>
      <trkpt lat="46.412025" lon="17.81834667">
        <ele>174.4</ele>
        <time>2025-07-25T09:41:21Z</time>
      </trkpt>
      <trkpt lat="46.41209667" lon="17.81826167">
        <ele>173.5</ele>
        <time>2025-07-25T09:41:23Z</time>
      </trkpt>
      <trkpt lat="46.41215333" lon="17.81815333">
        <ele>172.5</ele>
        <time>2025-07-25T09:41:25Z</time>
      </trkpt>
      <trkpt lat="46.41223667" lon="17.81800167">
        <ele>170.9</ele>
        <time>2025-07-25T09:41:28Z</time>
      </trkpt>
      <trkpt lat="46.41226667" lon="17.81787167">
        <ele>169.7</ele>
        <time>2025-07-25T09:41:30Z</time>
      </trkpt>
      <trkpt lat="46.41228167" lon="17.81771">
        <ele>168.8</ele>
        <time>2025-07-25T09:41:32Z</time>
      </trkpt>
      <trkpt lat="46.41229833" lon="17.81754">
        <ele>169.2</ele>
        <time>2025-07-25T09:41:34Z</time>
      </trkpt>
      <trkpt lat="46.41229" lon="17.81736333">
        <ele>168.1</ele>
        <time>2025-07-25T09:41:36Z</time>
      </trkpt>
      <trkpt lat="46.41231" lon="17.81716833">
        <ele>168.7</ele>
        <time>2025-07-25T09:41:38Z</time>
      </trkpt>
      <trkpt lat="46.41232333" lon="17.81695667">
        <ele>170</ele>
        <time>2025-07-25T09:41:40Z</time>
      </trkpt>
      <trkpt lat="46.41232333" lon="17.81677833">
        <ele>171</ele>
        <time>2025-07-25T09:41:42Z</time>
      </trkpt>
      <trkpt lat="46.41234" lon="17.81661167">
        <ele>172.6</ele>
        <time>2025-07-25T09:41:44Z</time>
      </trkpt>
      <trkpt lat="46.41236167" lon="17.81642">
        <ele>173.7</ele>
        <time>2025-07-25T09:41:46Z</time>
      </trkpt>
      <trkpt lat="46.41241167" lon="17.81626667">
        <ele>173.5</ele>
        <time>2025-07-25T09:41:48Z</time>
      </trkpt>
      <trkpt lat="46.41247667" lon="17.81612667">
        <ele>173.2</ele>
        <time>2025-07-25T09:41:50Z</time>
      </trkpt>
      <trkpt lat="46.41254667" lon="17.81601">
        <ele>172.9</ele>
        <time>2025-07-25T09:41:52Z</time>
      </trkpt>
      <trkpt lat="46.41261" lon="17.81591667">
        <ele>172.3</ele>
        <time>2025-07-25T09:41:54Z</time>
      </trkpt>
      <trkpt lat="46.412695" lon="17.81578667">
        <ele>172</ele>
        <time>2025-07-25T09:41:57Z</time>
      </trkpt>
      <trkpt lat="46.412765" lon="17.815695">
        <ele>171.4</ele>
        <time>2025-07-25T09:41:59Z</time>
      </trkpt>
      <trkpt lat="46.41282667" lon="17.815595">
        <ele>171</ele>
        <time>2025-07-25T09:42:01Z</time>
      </trkpt>
      <trkpt lat="46.41291167" lon="17.81547333">
        <ele>171.1</ele>
        <time>2025-07-25T09:42:04Z</time>
      </trkpt>
      <trkpt lat="46.41297667" lon="17.815345">
        <ele>171.4</ele>
        <time>2025-07-25T09:42:07Z</time>
      </trkpt>
      <trkpt lat="46.41304833" lon="17.81524167">
        <ele>171.6</ele>
        <time>2025-07-25T09:42:10Z</time>
      </trkpt>
      <trkpt lat="46.41314333" lon="17.815145">
        <ele>170.2</ele>
        <time>2025-07-25T09:42:13Z</time>
      </trkpt>
      <trkpt lat="46.41321667" lon="17.81503833">
        <ele>169.4</ele>
        <time>2025-07-25T09:42:15Z</time>
      </trkpt>
      <trkpt lat="46.41332" lon="17.81492167">
        <ele>167.4</ele>
        <time>2025-07-25T09:42:18Z</time>
      </trkpt>
      <trkpt lat="46.41338" lon="17.81481167">
        <ele>166.7</ele>
        <time>2025-07-25T09:42:20Z</time>
      </trkpt>
      <trkpt lat="46.41343333" lon="17.81464833">
        <ele>166.6</ele>
        <time>2025-07-25T09:42:23Z</time>
      </trkpt>
      <trkpt lat="46.41348167" lon="17.81447333">
        <ele>166</ele>
        <time>2025-07-25T09:42:26Z</time>
      </trkpt>
      <trkpt lat="46.413525" lon="17.81430833">
        <ele>166.5</ele>
        <time>2025-07-25T09:42:29Z</time>
      </trkpt>
      <trkpt lat="46.41359" lon="17.81415">
        <ele>166.4</ele>
        <time>2025-07-25T09:42:32Z</time>
      </trkpt>
      <trkpt lat="46.41364333" lon="17.81402833">
        <ele>166.3</ele>
        <time>2025-07-25T09:42:34Z</time>
      </trkpt>
      <trkpt lat="46.41371833" lon="17.81387667">
        <ele>166.4</ele>
        <time>2025-07-25T09:42:37Z</time>
      </trkpt>
      <trkpt lat="46.41379167" lon="17.81374">
        <ele>167</ele>
        <time>2025-07-25T09:42:40Z</time>
      </trkpt>
      <trkpt lat="46.413895" lon="17.81364">
        <ele>167.4</ele>
        <time>2025-07-25T09:42:43Z</time>
      </trkpt>
      <trkpt lat="46.41397667" lon="17.81358">
        <ele>167.9</ele>
        <time>2025-07-25T09:42:45Z</time>
      </trkpt>
      <trkpt lat="46.414055" lon="17.81350667">
        <ele>168.2</ele>
        <time>2025-07-25T09:42:47Z</time>
      </trkpt>
      <trkpt lat="46.414135" lon="17.81343333">
        <ele>168.1</ele>
        <time>2025-07-25T09:42:49Z</time>
      </trkpt>
      <trkpt lat="46.41423667" lon="17.81333333">
        <ele>167.8</ele>
        <time>2025-07-25T09:42:52Z</time>
      </trkpt>
      <trkpt lat="46.41431833" lon="17.81325667">
        <ele>167.2</ele>
        <time>2025-07-25T09:42:55Z</time>
      </trkpt>
      <trkpt lat="46.41441" lon="17.81317167">
        <ele>166.2</ele>
        <time>2025-07-25T09:42:58Z</time>
      </trkpt>
      <trkpt lat="46.414515" lon="17.81310667">
        <ele>165</ele>
        <time>2025-07-25T09:43:01Z</time>
      </trkpt>
      <trkpt lat="46.41463333" lon="17.813015">
        <ele>164.3</ele>
        <time>2025-07-25T09:43:04Z</time>
      </trkpt>
      <trkpt lat="46.41474333" lon="17.81293167">
        <ele>163.2</ele>
        <time>2025-07-25T09:43:07Z</time>
      </trkpt>
      <trkpt lat="46.41482167" lon="17.81285333">
        <ele>162.7</ele>
        <time>2025-07-25T09:43:09Z</time>
      </trkpt>
      <trkpt lat="46.41490833" lon="17.81279833">
        <ele>162.5</ele>
        <time>2025-07-25T09:43:11Z</time>
      </trkpt>
      <trkpt lat="46.41503167" lon="17.81271333">
        <ele>161.8</ele>
        <time>2025-07-25T09:43:14Z</time>
      </trkpt>
      <trkpt lat="46.41511333" lon="17.81265">
        <ele>161</ele>
        <time>2025-07-25T09:43:16Z</time>
      </trkpt>
      <trkpt lat="46.41519667" lon="17.812595">
        <ele>160.6</ele>
        <time>2025-07-25T09:43:18Z</time>
      </trkpt>
      <trkpt lat="46.41532" lon="17.81251">
        <ele>159.9</ele>
        <time>2025-07-25T09:43:21Z</time>
      </trkpt>
      <trkpt lat="46.41540333" lon="17.81241667">
        <ele>158.7</ele>
        <time>2025-07-25T09:43:23Z</time>
      </trkpt>
      <trkpt lat="46.41549833" lon="17.81231667">
        <ele>158.2</ele>
        <time>2025-07-25T09:43:25Z</time>
      </trkpt>
      <trkpt lat="46.41560333" lon="17.81223167">
        <ele>158.6</ele>
        <time>2025-07-25T09:43:27Z</time>
      </trkpt>
      <trkpt lat="46.41571" lon="17.812135">
        <ele>158.9</ele>
        <time>2025-07-25T09:43:29Z</time>
      </trkpt>
      <trkpt lat="46.415805" lon="17.81204">
        <ele>159.6</ele>
        <time>2025-07-25T09:43:31Z</time>
      </trkpt>
      <trkpt lat="46.41590167" lon="17.81194833">
        <ele>159.9</ele>
        <time>2025-07-25T09:43:33Z</time>
      </trkpt>
      <trkpt lat="46.41600333" lon="17.81185167">
        <ele>160.6</ele>
        <time>2025-07-25T09:43:35Z</time>
      </trkpt>
      <trkpt lat="46.41610833" lon="17.81174333">
        <ele>162.2</ele>
        <time>2025-07-25T09:43:37Z</time>
      </trkpt>
      <trkpt lat="46.41621667" lon="17.811645">
        <ele>164.8</ele>
        <time>2025-07-25T09:43:39Z</time>
      </trkpt>
      <trkpt lat="46.41631167" lon="17.81157167">
        <ele>165.5</ele>
        <time>2025-07-25T09:43:41Z</time>
      </trkpt>
      <trkpt lat="46.41640667" lon="17.81149333">
        <ele>167.6</ele>
        <time>2025-07-25T09:43:43Z</time>
      </trkpt>
      <trkpt lat="46.41649667" lon="17.81142167">
        <ele>169.7</ele>
        <time>2025-07-25T09:43:45Z</time>
      </trkpt>
      <trkpt lat="46.41658833" lon="17.811345">
        <ele>171</ele>
        <time>2025-07-25T09:43:47Z</time>
      </trkpt>
      <trkpt lat="46.41668" lon="17.81126167">
        <ele>173.7</ele>
        <time>2025-07-25T09:43:49Z</time>
      </trkpt>
      <trkpt lat="46.41675333" lon="17.81115167">
        <ele>174.5</ele>
        <time>2025-07-25T09:43:51Z</time>
      </trkpt>
      <trkpt lat="46.416825" lon="17.81102167">
        <ele>176.2</ele>
        <time>2025-07-25T09:43:53Z</time>
      </trkpt>
      <trkpt lat="46.41688" lon="17.81090167">
        <ele>177.9</ele>
        <time>2025-07-25T09:43:55Z</time>
      </trkpt>
      <trkpt lat="46.41694167" lon="17.81080167">
        <ele>178.3</ele>
        <time>2025-07-25T09:43:57Z</time>
      </trkpt>
      <trkpt lat="46.41701333" lon="17.8107">
        <ele>178.2</ele>
        <time>2025-07-25T09:43:59Z</time>
      </trkpt>
      <trkpt lat="46.41711" lon="17.81056333">
        <ele>178.8</ele>
        <time>2025-07-25T09:44:02Z</time>
      </trkpt>
      <trkpt lat="46.41718667" lon="17.810425">
        <ele>179.4</ele>
        <time>2025-07-25T09:44:05Z</time>
      </trkpt>
      <trkpt lat="46.417255" lon="17.81031333">
        <ele>180.7</ele>
        <time>2025-07-25T09:44:07Z</time>
      </trkpt>
      <trkpt lat="46.41734167" lon="17.81022833">
        <ele>181.3</ele>
        <time>2025-07-25T09:44:09Z</time>
      </trkpt>
      <trkpt lat="46.41745167" lon="17.81017">
        <ele>181.2</ele>
        <time>2025-07-25T09:44:11Z</time>
      </trkpt>
      <trkpt lat="46.41756333" lon="17.81010833">
        <ele>180.5</ele>
        <time>2025-07-25T09:44:13Z</time>
      </trkpt>
      <trkpt lat="46.41766333" lon="17.81005333">
        <ele>178.7</ele>
        <time>2025-07-25T09:44:15Z</time>
      </trkpt>
      <trkpt lat="46.41777167" lon="17.81000333">
        <ele>177.9</ele>
        <time>2025-07-25T09:44:17Z</time>
      </trkpt>
      <trkpt lat="46.41785833" lon="17.80996">
        <ele>178.5</ele>
        <time>2025-07-25T09:44:19Z</time>
      </trkpt>
      <trkpt lat="46.41794667" lon="17.809895">
        <ele>178.4</ele>
        <time>2025-07-25T09:44:21Z</time>
      </trkpt>
      <trkpt lat="46.41803667" lon="17.80983667">
        <ele>177.6</ele>
        <time>2025-07-25T09:44:23Z</time>
      </trkpt>
      <trkpt lat="46.41815833" lon="17.80977167">
        <ele>175.8</ele>
        <time>2025-07-25T09:44:26Z</time>
      </trkpt>
      <trkpt lat="46.41827833" lon="17.80971667">
        <ele>173.7</ele>
        <time>2025-07-25T09:44:29Z</time>
      </trkpt>
      <trkpt lat="46.418365" lon="17.80965667">
        <ele>171.9</ele>
        <time>2025-07-25T09:44:31Z</time>
      </trkpt>
      <trkpt lat="46.41845333" lon="17.80958">
        <ele>170.2</ele>
        <time>2025-07-25T09:44:33Z</time>
      </trkpt>
      <trkpt lat="46.41854" lon="17.809475">
        <ele>171</ele>
        <time>2025-07-25T09:44:35Z</time>
      </trkpt>
      <trkpt lat="46.41862167" lon="17.80940333">
        <ele>171.9</ele>
        <time>2025-07-25T09:44:37Z</time>
      </trkpt>
      <trkpt lat="46.41872" lon="17.809355">
        <ele>172.3</ele>
        <time>2025-07-25T09:44:39Z</time>
      </trkpt>
      <trkpt lat="46.418815" lon="17.80929833">
        <ele>172.8</ele>
        <time>2025-07-25T09:44:41Z</time>
      </trkpt>
      <trkpt lat="46.4189" lon="17.80924333">
        <ele>173</ele>
        <time>2025-07-25T09:44:43Z</time>
      </trkpt>
      <trkpt lat="46.41898667" lon="17.80918167">
        <ele>173.8</ele>
        <time>2025-07-25T09:44:45Z</time>
      </trkpt>
      <trkpt lat="46.41908" lon="17.809125">
        <ele>174.4</ele>
        <time>2025-07-25T09:44:47Z</time>
      </trkpt>
      <trkpt lat="46.419175" lon="17.80907833">
        <ele>175.2</ele>
        <time>2025-07-25T09:44:49Z</time>
      </trkpt>
      <trkpt lat="46.41926167" lon="17.80903667">
        <ele>175.7</ele>
        <time>2025-07-25T09:44:51Z</time>
      </trkpt>
      <trkpt lat="46.41938667" lon="17.80899">
        <ele>175.8</ele>
        <time>2025-07-25T09:44:54Z</time>
      </trkpt>
      <trkpt lat="46.41948" lon="17.80897333">
        <ele>175.4</ele>
        <time>2025-07-25T09:44:56Z</time>
      </trkpt>
      <trkpt lat="46.4196" lon="17.80888833">
        <ele>175.4</ele>
        <time>2025-07-25T09:44:59Z</time>
      </trkpt>
      <trkpt lat="46.41967" lon="17.80879667">
        <ele>175.4</ele>
        <time>2025-07-25T09:45:01Z</time>
      </trkpt>
      <trkpt lat="46.41971167" lon="17.808665">
        <ele>176.5</ele>
        <time>2025-07-25T09:45:03Z</time>
      </trkpt>
      <trkpt lat="46.41973167" lon="17.80850333">
        <ele>176.8</ele>
        <time>2025-07-25T09:45:05Z</time>
      </trkpt>
      <trkpt lat="46.419755" lon="17.80835667">
        <ele>177.5</ele>
        <time>2025-07-25T09:45:07Z</time>
      </trkpt>
      <trkpt lat="46.419795" lon="17.808215">
        <ele>176.8</ele>
        <time>2025-07-25T09:45:09Z</time>
      </trkpt>
      <trkpt lat="46.41984833" lon="17.80810167">
        <ele>177.5</ele>
        <time>2025-07-25T09:45:11Z</time>
      </trkpt>
      <trkpt lat="46.41990833" lon="17.80800333">
        <ele>177.7</ele>
        <time>2025-07-25T09:45:13Z</time>
      </trkpt>
      <trkpt lat="46.42001" lon="17.807885">
        <ele>178.5</ele>
        <time>2025-07-25T09:45:16Z</time>
      </trkpt>
      <trkpt lat="46.42009667" lon="17.80782833">
        <ele>179</ele>
        <time>2025-07-25T09:45:18Z</time>
      </trkpt>
      <trkpt lat="46.42021167" lon="17.80778">
        <ele>179.2</ele>
        <time>2025-07-25T09:45:21Z</time>
      </trkpt>
      <trkpt lat="46.42033667" lon="17.80778">
        <ele>178.5</ele>
        <time>2025-07-25T09:45:24Z</time>
      </trkpt>
      <trkpt lat="46.42042833" lon="17.807795">
        <ele>177.6</ele>
        <time>2025-07-25T09:45:26Z</time>
      </trkpt>
      <trkpt lat="46.42055167" lon="17.80783167">
        <ele>177</ele>
        <time>2025-07-25T09:45:29Z</time>
      </trkpt>
      <trkpt lat="46.42064167" lon="17.80785167">
        <ele>176.5</ele>
        <time>2025-07-25T09:45:31Z</time>
      </trkpt>
      <trkpt lat="46.42075167" lon="17.807885">
        <ele>176.5</ele>
        <time>2025-07-25T09:45:34Z</time>
      </trkpt>
      <trkpt lat="46.42084833" lon="17.80791167">
        <ele>177.1</ele>
        <time>2025-07-25T09:45:37Z</time>
      </trkpt>
      <trkpt lat="46.420955" lon="17.807935">
        <ele>177.3</ele>
        <time>2025-07-25T09:45:41Z</time>
      </trkpt>
      <trkpt lat="46.42106333" lon="17.80795167">
        <ele>176.5</ele>
        <time>2025-07-25T09:45:45Z</time>
      </trkpt>
      <trkpt lat="46.42115667" lon="17.80797167">
        <ele>176</ele>
        <time>2025-07-25T09:45:48Z</time>
      </trkpt>
      <trkpt lat="46.421245" lon="17.80801">
        <ele>175.2</ele>
        <time>2025-07-25T09:45:51Z</time>
      </trkpt>
      <trkpt lat="46.421335" lon="17.80798">
        <ele>174.5</ele>
        <time>2025-07-25T09:45:56Z</time>
      </trkpt>
      <trkpt lat="46.42140333" lon="17.80787833">
        <ele>173.1</ele>
        <time>2025-07-25T09:46:01Z</time>
      </trkpt>
      <trkpt lat="46.42153833" lon="17.80781">
        <ele>209.2</ele>
        <time>2025-07-25T09:46:34Z</time>
      </trkpt>
      <trkpt lat="46.42149667" lon="17.80767167">
        <ele>175.1</ele>
        <time>2025-07-25T09:47:22Z</time>
      </trkpt>
      <trkpt lat="46.42150833" lon="17.8075">
        <ele>175.1</ele>
        <time>2025-07-25T09:47:26Z</time>
      </trkpt>
      <trkpt lat="46.421535" lon="17.80731333">
        <ele>174.9</ele>
        <time>2025-07-25T09:47:30Z</time>
      </trkpt>
      <trkpt lat="46.421555" lon="17.80718167">
        <ele>175.2</ele>
        <time>2025-07-25T09:47:33Z</time>
      </trkpt>
      <trkpt lat="46.42157" lon="17.80704167">
        <ele>174.6</ele>
        <time>2025-07-25T09:47:37Z</time>
      </trkpt>
      <trkpt lat="46.42158167" lon="17.80689833">
        <ele>173.7</ele>
        <time>2025-07-25T09:47:42Z</time>
      </trkpt>
      <trkpt lat="46.42158667" lon="17.80675667">
        <ele>173.9</ele>
        <time>2025-07-25T09:47:48Z</time>
      </trkpt>
      <trkpt lat="46.42153833" lon="17.80662167">
        <ele>172.4</ele>
        <time>2025-07-25T09:47:56Z</time>
      </trkpt>
      <trkpt lat="46.42156167" lon="17.80649167">
        <ele>173.5</ele>
        <time>2025-07-25T09:48:08Z</time>
      </trkpt>
      <trkpt lat="46.42165833" lon="17.806465">
        <ele>173.4</ele>
        <time>2025-07-25T09:48:15Z</time>
      </trkpt>
      <trkpt lat="46.42177" lon="17.80647833">
        <ele>172.7</ele>
        <time>2025-07-25T09:48:20Z</time>
      </trkpt>
      <trkpt lat="46.42185833" lon="17.80651333">
        <ele>173</ele>
        <time>2025-07-25T09:48:23Z</time>
      </trkpt>
      <trkpt lat="46.42195667" lon="17.80654167">
        <ele>172.2</ele>
        <time>2025-07-25T09:48:27Z</time>
      </trkpt>
      <trkpt lat="46.42205167" lon="17.80658167">
        <ele>171.6</ele>
        <time>2025-07-25T09:48:30Z</time>
      </trkpt>
      <trkpt lat="46.422165" lon="17.80661333">
        <ele>171</ele>
        <time>2025-07-25T09:48:33Z</time>
      </trkpt>
      <trkpt lat="46.42226" lon="17.806635">
        <ele>169.8</ele>
        <time>2025-07-25T09:48:36Z</time>
      </trkpt>
      <trkpt lat="46.422365" lon="17.80665833">
        <ele>169.6</ele>
        <time>2025-07-25T09:48:38Z</time>
      </trkpt>
      <trkpt lat="46.42246667" lon="17.80666667">
        <ele>169</ele>
        <time>2025-07-25T09:48:41Z</time>
      </trkpt>
      <trkpt lat="46.42256833" lon="17.80667">
        <ele>168.7</ele>
        <time>2025-07-25T09:48:43Z</time>
      </trkpt>
      <trkpt lat="46.422695" lon="17.80666667">
        <ele>167.8</ele>
        <time>2025-07-25T09:48:46Z</time>
      </trkpt>
      <trkpt lat="46.42279167" lon="17.80665333">
        <ele>167.3</ele>
        <time>2025-07-25T09:48:49Z</time>
      </trkpt>
      <trkpt lat="46.42290167" lon="17.80662833">
        <ele>167</ele>
        <time>2025-07-25T09:48:53Z</time>
      </trkpt>
      <trkpt lat="46.423035" lon="17.8066">
        <ele>166.2</ele>
        <time>2025-07-25T09:48:57Z</time>
      </trkpt>
      <trkpt lat="46.42316333" lon="17.80658667">
        <ele>167.1</ele>
        <time>2025-07-25T09:49:00Z</time>
      </trkpt>
      <trkpt lat="46.423255" lon="17.80655">
        <ele>167.9</ele>
        <time>2025-07-25T09:49:03Z</time>
      </trkpt>
      <trkpt lat="46.42336667" lon="17.80651667">
        <ele>169</ele>
        <time>2025-07-25T09:49:07Z</time>
      </trkpt>
      <trkpt lat="46.42345" lon="17.80646667">
        <ele>169.3</ele>
        <time>2025-07-25T09:49:10Z</time>
      </trkpt>
      <trkpt lat="46.42355" lon="17.80643833">
        <ele>169.5</ele>
        <time>2025-07-25T09:49:13Z</time>
      </trkpt>
      <trkpt lat="46.42365" lon="17.80640167">
        <ele>169.6</ele>
        <time>2025-07-25T09:49:16Z</time>
      </trkpt>
      <trkpt lat="46.42375667" lon="17.80634">
        <ele>169.2</ele>
        <time>2025-07-25T09:49:19Z</time>
      </trkpt>
      <trkpt lat="46.42386" lon="17.8063">
        <ele>169.6</ele>
        <time>2025-07-25T09:49:22Z</time>
      </trkpt>
      <trkpt lat="46.42395167" lon="17.80627333">
        <ele>169.4</ele>
        <time>2025-07-25T09:49:25Z</time>
      </trkpt>
      <trkpt lat="46.42406" lon="17.80626667">
        <ele>168.7</ele>
        <time>2025-07-25T09:49:28Z</time>
      </trkpt>
      <trkpt lat="46.42416167" lon="17.80624667">
        <ele>167.8</ele>
        <time>2025-07-25T09:49:31Z</time>
      </trkpt>
      <trkpt lat="46.42426833" lon="17.80621833">
        <ele>167</ele>
        <time>2025-07-25T09:49:34Z</time>
      </trkpt>
      <trkpt lat="46.42438167" lon="17.80621333">
        <ele>165.1</ele>
        <time>2025-07-25T09:49:37Z</time>
      </trkpt>
      <trkpt lat="46.42447167" lon="17.80623667">
        <ele>164.2</ele>
        <time>2025-07-25T09:49:39Z</time>
      </trkpt>
      <trkpt lat="46.42460167" lon="17.80629833">
        <ele>163.2</ele>
        <time>2025-07-25T09:49:42Z</time>
      </trkpt>
      <trkpt lat="46.42472" lon="17.8063">
        <ele>162.7</ele>
        <time>2025-07-25T09:49:45Z</time>
      </trkpt>
      <trkpt lat="46.42482333" lon="17.80628333">
        <ele>162.8</ele>
        <time>2025-07-25T09:49:47Z</time>
      </trkpt>
      <trkpt lat="46.42495333" lon="17.80625667">
        <ele>163.2</ele>
        <time>2025-07-25T09:49:49Z</time>
      </trkpt>
      <trkpt lat="46.42506167" lon="17.80622167">
        <ele>163.9</ele>
        <time>2025-07-25T09:49:51Z</time>
      </trkpt>
      <trkpt lat="46.42516167" lon="17.806185">
        <ele>167</ele>
        <time>2025-07-25T09:49:53Z</time>
      </trkpt>
      <trkpt lat="46.42526667" lon="17.80612333">
        <ele>166.7</ele>
        <time>2025-07-25T09:49:56Z</time>
      </trkpt>
      <trkpt lat="46.42545833" lon="17.80613333">
        <ele>179.2</ele>
        <time>2025-07-25T09:49:57Z</time>
      </trkpt>
      <trkpt lat="46.42557" lon="17.80609">
        <ele>179.6</ele>
        <time>2025-07-25T09:50:00Z</time>
      </trkpt>
      <trkpt lat="46.425665" lon="17.80604833">
        <ele>180.7</ele>
        <time>2025-07-25T09:50:03Z</time>
      </trkpt>
      <trkpt lat="46.42576333" lon="17.80598167">
        <ele>180.5</ele>
        <time>2025-07-25T09:50:06Z</time>
      </trkpt>
      <trkpt lat="46.425865" lon="17.805915">
        <ele>180.8</ele>
        <time>2025-07-25T09:50:09Z</time>
      </trkpt>
      <trkpt lat="46.42597167" lon="17.805855">
        <ele>181.6</ele>
        <time>2025-07-25T09:50:12Z</time>
      </trkpt>
      <trkpt lat="46.42605667" lon="17.80581167">
        <ele>181.4</ele>
        <time>2025-07-25T09:50:14Z</time>
      </trkpt>
      <trkpt lat="46.42614833" lon="17.80576333">
        <ele>181.7</ele>
        <time>2025-07-25T09:50:16Z</time>
      </trkpt>
      <trkpt lat="46.42625167" lon="17.80569833">
        <ele>181.8</ele>
        <time>2025-07-25T09:50:19Z</time>
      </trkpt>
      <trkpt lat="46.42636667" lon="17.80562667">
        <ele>182.2</ele>
        <time>2025-07-25T09:50:22Z</time>
      </trkpt>
      <trkpt lat="46.42647" lon="17.80555833">
        <ele>181.4</ele>
        <time>2025-07-25T09:50:25Z</time>
      </trkpt>
      <trkpt lat="46.42659667" lon="17.80550333">
        <ele>180.4</ele>
        <time>2025-07-25T09:50:28Z</time>
      </trkpt>
      <trkpt lat="46.426685" lon="17.80545667">
        <ele>180.3</ele>
        <time>2025-07-25T09:50:31Z</time>
      </trkpt>
      <trkpt lat="46.42677" lon="17.80539">
        <ele>178.1</ele>
        <time>2025-07-25T09:50:34Z</time>
      </trkpt>
      <trkpt lat="46.42686333" lon="17.80534167">
        <ele>177.5</ele>
        <time>2025-07-25T09:50:36Z</time>
      </trkpt>
      <trkpt lat="46.42697167" lon="17.805295">
        <ele>177.4</ele>
        <time>2025-07-25T09:50:38Z</time>
      </trkpt>
      <trkpt lat="46.42706667" lon="17.80524333">
        <ele>179.3</ele>
        <time>2025-07-25T09:50:40Z</time>
      </trkpt>
      <trkpt lat="46.42716333" lon="17.80517667">
        <ele>180.9</ele>
        <time>2025-07-25T09:50:42Z</time>
      </trkpt>
      <trkpt lat="46.42726833" lon="17.8051">
        <ele>181.8</ele>
        <time>2025-07-25T09:50:45Z</time>
      </trkpt>
      <trkpt lat="46.42736167" lon="17.80502833">
        <ele>182.6</ele>
        <time>2025-07-25T09:50:48Z</time>
      </trkpt>
      <trkpt lat="46.427465" lon="17.80498167">
        <ele>183.3</ele>
        <time>2025-07-25T09:50:51Z</time>
      </trkpt>
      <trkpt lat="46.42757167" lon="17.804915">
        <ele>183.1</ele>
        <time>2025-07-25T09:50:55Z</time>
      </trkpt>
      <trkpt lat="46.42767333" lon="17.80483833">
        <ele>181.7</ele>
        <time>2025-07-25T09:50:58Z</time>
      </trkpt>
      <trkpt lat="46.42778667" lon="17.80477833">
        <ele>179.3</ele>
        <time>2025-07-25T09:51:01Z</time>
      </trkpt>
      <trkpt lat="46.42789167" lon="17.80470833">
        <ele>176.7</ele>
        <time>2025-07-25T09:51:04Z</time>
      </trkpt>
      <trkpt lat="46.42800167" lon="17.80464333">
        <ele>174.4</ele>
        <time>2025-07-25T09:51:07Z</time>
      </trkpt>
      <trkpt lat="46.42813667" lon="17.80457167">
        <ele>173.1</ele>
        <time>2025-07-25T09:51:10Z</time>
      </trkpt>
      <trkpt lat="46.42823333" lon="17.80452833">
        <ele>173</ele>
        <time>2025-07-25T09:51:12Z</time>
      </trkpt>
      <trkpt lat="46.42833667" lon="17.80447833">
        <ele>173.9</ele>
        <time>2025-07-25T09:51:14Z</time>
      </trkpt>
      <trkpt lat="46.428435" lon="17.80444167">
        <ele>175.9</ele>
        <time>2025-07-25T09:51:16Z</time>
      </trkpt>
      <trkpt lat="46.42855667" lon="17.80440667">
        <ele>178.8</ele>
        <time>2025-07-25T09:51:18Z</time>
      </trkpt>
      <trkpt lat="46.428675" lon="17.804385">
        <ele>181.8</ele>
        <time>2025-07-25T09:51:20Z</time>
      </trkpt>
      <trkpt lat="46.42878167" lon="17.80435833">
        <ele>185.4</ele>
        <time>2025-07-25T09:51:22Z</time>
      </trkpt>
      <trkpt lat="46.428885" lon="17.80429">
        <ele>187.3</ele>
        <time>2025-07-25T09:51:25Z</time>
      </trkpt>
      <trkpt lat="46.42897" lon="17.804225">
        <ele>188.1</ele>
        <time>2025-07-25T09:51:28Z</time>
      </trkpt>
      <trkpt lat="46.429065" lon="17.80413">
        <ele>188.7</ele>
        <time>2025-07-25T09:51:32Z</time>
      </trkpt>
      <trkpt lat="46.42917167" lon="17.80407167">
        <ele>188.4</ele>
        <time>2025-07-25T09:51:36Z</time>
      </trkpt>
      <trkpt lat="46.42925" lon="17.80400167">
        <ele>187</ele>
        <time>2025-07-25T09:51:39Z</time>
      </trkpt>
      <trkpt lat="46.429345" lon="17.80393167">
        <ele>186</ele>
        <time>2025-07-25T09:51:42Z</time>
      </trkpt>
      <trkpt lat="46.42943333" lon="17.80388167">
        <ele>185.6</ele>
        <time>2025-07-25T09:51:44Z</time>
      </trkpt>
      <trkpt lat="46.429555" lon="17.80383">
        <ele>184.9</ele>
        <time>2025-07-25T09:51:47Z</time>
      </trkpt>
      <trkpt lat="46.42965333" lon="17.80378667">
        <ele>184.6</ele>
        <time>2025-07-25T09:51:49Z</time>
      </trkpt>
      <trkpt lat="46.42976333" lon="17.80373167">
        <ele>184</ele>
        <time>2025-07-25T09:51:51Z</time>
      </trkpt>
      <trkpt lat="46.42986167" lon="17.80367167">
        <ele>183.1</ele>
        <time>2025-07-25T09:51:54Z</time>
      </trkpt>
      <trkpt lat="46.42996667" lon="17.80361667">
        <ele>182.4</ele>
        <time>2025-07-25T09:51:57Z</time>
      </trkpt>
      <trkpt lat="46.43005333" lon="17.803575">
        <ele>182.3</ele>
        <time>2025-07-25T09:51:59Z</time>
      </trkpt>
      <trkpt lat="46.43016833" lon="17.80350167">
        <ele>182.8</ele>
        <time>2025-07-25T09:52:03Z</time>
      </trkpt>
      <trkpt lat="46.43025833" lon="17.80341333">
        <ele>181.2</ele>
        <time>2025-07-25T09:52:07Z</time>
      </trkpt>
      <trkpt lat="46.430345" lon="17.80335833">
        <ele>179.3</ele>
        <time>2025-07-25T09:52:09Z</time>
      </trkpt>
      <trkpt lat="46.43044333" lon="17.80328833">
        <ele>175.8</ele>
        <time>2025-07-25T09:52:13Z</time>
      </trkpt>
      <trkpt lat="46.43055" lon="17.80322833">
        <ele>173.7</ele>
        <time>2025-07-25T09:52:15Z</time>
      </trkpt>
      <trkpt lat="46.43065667" lon="17.80317833">
        <ele>170</ele>
        <time>2025-07-25T09:52:19Z</time>
      </trkpt>
      <trkpt lat="46.430755" lon="17.80312">
        <ele>166.3</ele>
        <time>2025-07-25T09:52:23Z</time>
      </trkpt>
      <trkpt lat="46.43084667" lon="17.80303667">
        <ele>163</ele>
        <time>2025-07-25T09:52:26Z</time>
      </trkpt>
      <trkpt lat="46.43094667" lon="17.80299167">
        <ele>161.6</ele>
        <time>2025-07-25T09:52:29Z</time>
      </trkpt>
      <trkpt lat="46.43104" lon="17.80293">
        <ele>159.7</ele>
        <time>2025-07-25T09:52:32Z</time>
      </trkpt>
      <trkpt lat="46.43114167" lon="17.80283">
        <ele>155.3</ele>
        <time>2025-07-25T09:52:35Z</time>
      </trkpt>
      <trkpt lat="46.43124833" lon="17.80273333">
        <ele>151.9</ele>
        <time>2025-07-25T09:52:38Z</time>
      </trkpt>
      <trkpt lat="46.43135167" lon="17.80265333">
        <ele>149.5</ele>
        <time>2025-07-25T09:52:41Z</time>
      </trkpt>
      <trkpt lat="46.43145833" lon="17.80259333">
        <ele>147.3</ele>
        <time>2025-07-25T09:52:44Z</time>
      </trkpt>
      <trkpt lat="46.43154833" lon="17.80255333">
        <ele>146.3</ele>
        <time>2025-07-25T09:52:46Z</time>
      </trkpt>
      <trkpt lat="46.43165833" lon="17.80250667">
        <ele>144.7</ele>
        <time>2025-07-25T09:52:49Z</time>
      </trkpt>
      <trkpt lat="46.43175833" lon="17.80246833">
        <ele>143.5</ele>
        <time>2025-07-25T09:52:52Z</time>
      </trkpt>
      <trkpt lat="46.43186833" lon="17.8024">
        <ele>143.1</ele>
        <time>2025-07-25T09:52:55Z</time>
      </trkpt>
      <trkpt lat="46.43196167" lon="17.802305">
        <ele>142</ele>
        <time>2025-07-25T09:52:58Z</time>
      </trkpt>
      <trkpt lat="46.43206833" lon="17.80222333">
        <ele>140.3</ele>
        <time>2025-07-25T09:53:01Z</time>
      </trkpt>
      <trkpt lat="46.432175" lon="17.80214333">
        <ele>137.8</ele>
        <time>2025-07-25T09:53:04Z</time>
      </trkpt>
      <trkpt lat="46.43229167" lon="17.80206667">
        <ele>134.9</ele>
        <time>2025-07-25T09:53:07Z</time>
      </trkpt>
      <trkpt lat="46.43239667" lon="17.801995">
        <ele>133.4</ele>
        <time>2025-07-25T09:53:10Z</time>
      </trkpt>
      <trkpt lat="46.4325" lon="17.80193667">
        <ele>132.2</ele>
        <time>2025-07-25T09:53:13Z</time>
      </trkpt>
      <trkpt lat="46.43260833" lon="17.80186167">
        <ele>133.5</ele>
        <time>2025-07-25T09:53:15Z</time>
      </trkpt>
      <trkpt lat="46.43270167" lon="17.80182333">
        <ele>134.9</ele>
        <time>2025-07-25T09:53:17Z</time>
      </trkpt>
      <trkpt lat="46.43280333" lon="17.80177">
        <ele>136.7</ele>
        <time>2025-07-25T09:53:19Z</time>
      </trkpt>
      <trkpt lat="46.43290333" lon="17.80171833">
        <ele>139.6</ele>
        <time>2025-07-25T09:53:21Z</time>
      </trkpt>
      <trkpt lat="46.43303167" lon="17.801675">
        <ele>143</ele>
        <time>2025-07-25T09:53:23Z</time>
      </trkpt>
      <trkpt lat="46.43315167" lon="17.80164833">
        <ele>144.9</ele>
        <time>2025-07-25T09:53:25Z</time>
      </trkpt>
      <trkpt lat="46.43325667" lon="17.80162667">
        <ele>145.4</ele>
        <time>2025-07-25T09:53:27Z</time>
      </trkpt>
      <trkpt lat="46.43336833" lon="17.80160833">
        <ele>147.1</ele>
        <time>2025-07-25T09:53:29Z</time>
      </trkpt>
      <trkpt lat="46.43346833" lon="17.80157">
        <ele>146.9</ele>
        <time>2025-07-25T09:53:31Z</time>
      </trkpt>
      <trkpt lat="46.43357167" lon="17.80155">
        <ele>147.1</ele>
        <time>2025-07-25T09:53:33Z</time>
      </trkpt>
      <trkpt lat="46.433685" lon="17.80150333">
        <ele>150.5</ele>
        <time>2025-07-25T09:53:35Z</time>
      </trkpt>
      <trkpt lat="46.43381833" lon="17.80150167">
        <ele>154.5</ele>
        <time>2025-07-25T09:53:38Z</time>
      </trkpt>
      <trkpt lat="46.43390333" lon="17.80157833">
        <ele>158.5</ele>
        <time>2025-07-25T09:53:41Z</time>
      </trkpt>
      <trkpt lat="46.43403167" lon="17.80168333">
        <ele>162.4</ele>
        <time>2025-07-25T09:53:44Z</time>
      </trkpt>
      <trkpt lat="46.43417667" lon="17.80171333">
        <ele>166.1</ele>
        <time>2025-07-25T09:53:46Z</time>
      </trkpt>
      <trkpt lat="46.43426833" lon="17.801715">
        <ele>168.5</ele>
        <time>2025-07-25T09:53:47Z</time>
      </trkpt>
      <trkpt lat="46.43442333" lon="17.80170333">
        <ele>171.6</ele>
        <time>2025-07-25T09:53:49Z</time>
      </trkpt>
      <trkpt lat="46.43457667" lon="17.80168333">
        <ele>175</ele>
        <time>2025-07-25T09:53:51Z</time>
      </trkpt>
      <trkpt lat="46.43472667" lon="17.801665">
        <ele>177.4</ele>
        <time>2025-07-25T09:53:53Z</time>
      </trkpt>
      <trkpt lat="46.43485667" lon="17.80164333">
        <ele>180.2</ele>
        <time>2025-07-25T09:53:55Z</time>
      </trkpt>
      <trkpt lat="46.43496333" lon="17.80161">
        <ele>183.2</ele>
        <time>2025-07-25T09:53:57Z</time>
      </trkpt>
      <trkpt lat="46.435065" lon="17.801585">
        <ele>185.4</ele>
        <time>2025-07-25T09:53:59Z</time>
      </trkpt>
      <trkpt lat="46.43516" lon="17.80156667">
        <ele>187.1</ele>
        <time>2025-07-25T09:54:01Z</time>
      </trkpt>
      <trkpt lat="46.435285" lon="17.80155">
        <ele>189.9</ele>
        <time>2025-07-25T09:54:04Z</time>
      </trkpt>
      <trkpt lat="46.4354" lon="17.80153667">
        <ele>192.3</ele>
        <time>2025-07-25T09:54:08Z</time>
      </trkpt>
      <trkpt lat="46.435515" lon="17.801525">
        <ele>193.6</ele>
        <time>2025-07-25T09:54:12Z</time>
      </trkpt>
      <trkpt lat="46.43560667" lon="17.80151333">
        <ele>193.3</ele>
        <time>2025-07-25T09:54:15Z</time>
      </trkpt>
      <trkpt lat="46.435725" lon="17.80148">
        <ele>193.6</ele>
        <time>2025-07-25T09:54:18Z</time>
      </trkpt>
      <trkpt lat="46.435815" lon="17.80145833">
        <ele>193.6</ele>
        <time>2025-07-25T09:54:20Z</time>
      </trkpt>
      <trkpt lat="46.43593667" lon="17.80142667">
        <ele>194</ele>
        <time>2025-07-25T09:54:23Z</time>
      </trkpt>
      <trkpt lat="46.436055" lon="17.80139667">
        <ele>193.8</ele>
        <time>2025-07-25T09:54:26Z</time>
      </trkpt>
      <trkpt lat="46.43614333" lon="17.801365">
        <ele>193.3</ele>
        <time>2025-07-25T09:54:28Z</time>
      </trkpt>
      <trkpt lat="46.43624167" lon="17.80133167">
        <ele>193.1</ele>
        <time>2025-07-25T09:54:30Z</time>
      </trkpt>
      <trkpt lat="46.43633" lon="17.80130167">
        <ele>192.8</ele>
        <time>2025-07-25T09:54:32Z</time>
      </trkpt>
      <trkpt lat="46.43641833" lon="17.80126667">
        <ele>192.6</ele>
        <time>2025-07-25T09:54:34Z</time>
      </trkpt>
      <trkpt lat="46.43651" lon="17.80123333">
        <ele>192.6</ele>
        <time>2025-07-25T09:54:36Z</time>
      </trkpt>
      <trkpt lat="46.43663667" lon="17.80120333">
        <ele>192.8</ele>
        <time>2025-07-25T09:54:39Z</time>
      </trkpt>
      <trkpt lat="46.436725" lon="17.80117667">
        <ele>191</ele>
        <time>2025-07-25T09:54:42Z</time>
      </trkpt>
      <trkpt lat="46.43684667" lon="17.801135">
        <ele>188.5</ele>
        <time>2025-07-25T09:54:46Z</time>
      </trkpt>
      <trkpt lat="46.43695667" lon="17.80108667">
        <ele>186.8</ele>
        <time>2025-07-25T09:54:49Z</time>
      </trkpt>
      <trkpt lat="46.43707167" lon="17.80104167">
        <ele>184.9</ele>
        <time>2025-07-25T09:54:53Z</time>
      </trkpt>
      <trkpt lat="46.43717" lon="17.80101">
        <ele>184.4</ele>
        <time>2025-07-25T09:54:55Z</time>
      </trkpt>
      <trkpt lat="46.43727667" lon="17.800975">
        <ele>184.5</ele>
        <time>2025-07-25T09:54:57Z</time>
      </trkpt>
      <trkpt lat="46.43738667" lon="17.80094667">
        <ele>185.3</ele>
        <time>2025-07-25T09:54:59Z</time>
      </trkpt>
      <trkpt lat="46.43750833" lon="17.80089">
        <ele>185.7</ele>
        <time>2025-07-25T09:55:02Z</time>
      </trkpt>
      <trkpt lat="46.43759833" lon="17.80086">
        <ele>186.8</ele>
        <time>2025-07-25T09:55:04Z</time>
      </trkpt>
      <trkpt lat="46.43766833" lon="17.800725">
        <ele>189.5</ele>
        <time>2025-07-25T09:55:08Z</time>
      </trkpt>
      <trkpt lat="46.43768167" lon="17.800595">
        <ele>192.6</ele>
        <time>2025-07-25T09:55:10Z</time>
      </trkpt>
      <trkpt lat="46.437695" lon="17.80042667">
        <ele>194.8</ele>
        <time>2025-07-25T09:55:13Z</time>
      </trkpt>
      <trkpt lat="46.43769333" lon="17.800295">
        <ele>194.1</ele>
        <time>2025-07-25T09:55:16Z</time>
      </trkpt>
      <trkpt lat="46.43767167" lon="17.80013833">
        <ele>194.1</ele>
        <time>2025-07-25T09:55:19Z</time>
      </trkpt>
      <trkpt lat="46.43762833" lon="17.79997167">
        <ele>194.3</ele>
        <time>2025-07-25T09:55:22Z</time>
      </trkpt>
      <trkpt lat="46.437565" lon="17.79984667">
        <ele>193</ele>
        <time>2025-07-25T09:55:25Z</time>
      </trkpt>
      <trkpt lat="46.43746667" lon="17.79973833">
        <ele>190.7</ele>
        <time>2025-07-25T09:55:29Z</time>
      </trkpt>
      <trkpt lat="46.437365" lon="17.79965167">
        <ele>187.7</ele>
        <time>2025-07-25T09:55:32Z</time>
      </trkpt>
      <trkpt lat="46.437265" lon="17.799535">
        <ele>184</ele>
        <time>2025-07-25T09:55:35Z</time>
      </trkpt>
      <trkpt lat="46.43716333" lon="17.799415">
        <ele>180.6</ele>
        <time>2025-07-25T09:55:38Z</time>
      </trkpt>
      <trkpt lat="46.43709333" lon="17.79930333">
        <ele>178.2</ele>
        <time>2025-07-25T09:55:40Z</time>
      </trkpt>
      <trkpt lat="46.43704667" lon="17.79918833">
        <ele>177.6</ele>
        <time>2025-07-25T09:55:42Z</time>
      </trkpt>
      <trkpt lat="46.43700333" lon="17.79904667">
        <ele>176.7</ele>
        <time>2025-07-25T09:55:44Z</time>
      </trkpt>
      <trkpt lat="46.43696667" lon="17.798905">
        <ele>176.6</ele>
        <time>2025-07-25T09:55:46Z</time>
      </trkpt>
      <trkpt lat="46.43690333" lon="17.79874">
        <ele>176.5</ele>
        <time>2025-07-25T09:55:48Z</time>
      </trkpt>
      <trkpt lat="46.43683833" lon="17.79856333">
        <ele>176.5</ele>
        <time>2025-07-25T09:55:50Z</time>
      </trkpt>
      <trkpt lat="46.436815" lon="17.79840333">
        <ele>177.2</ele>
        <time>2025-07-25T09:55:52Z</time>
      </trkpt>
      <trkpt lat="46.43681833" lon="17.79825333">
        <ele>178.3</ele>
        <time>2025-07-25T09:55:54Z</time>
      </trkpt>
      <trkpt lat="46.43691333" lon="17.79816833">
        <ele>178.8</ele>
        <time>2025-07-25T09:55:57Z</time>
      </trkpt>
      <trkpt lat="46.43703167" lon="17.798105">
        <ele>178</ele>
        <time>2025-07-25T09:56:00Z</time>
      </trkpt>
      <trkpt lat="46.43714667" lon="17.798115">
        <ele>176.3</ele>
        <time>2025-07-25T09:56:03Z</time>
      </trkpt>
      <trkpt lat="46.437275" lon="17.79811333">
        <ele>171.7</ele>
        <time>2025-07-25T09:56:06Z</time>
      </trkpt>
      <trkpt lat="46.43739" lon="17.79812833">
        <ele>169.5</ele>
        <time>2025-07-25T09:56:08Z</time>
      </trkpt>
      <trkpt lat="46.43753667" lon="17.798135">
        <ele>163.6</ele>
        <time>2025-07-25T09:56:10Z</time>
      </trkpt>
      <trkpt lat="46.43767833" lon="17.79814333">
        <ele>157.2</ele>
        <time>2025-07-25T09:56:12Z</time>
      </trkpt>
      <trkpt lat="46.43781333" lon="17.79814833">
        <ele>150.8</ele>
        <time>2025-07-25T09:56:14Z</time>
      </trkpt>
      <trkpt lat="46.437915" lon="17.79813333">
        <ele>145.3</ele>
        <time>2025-07-25T09:56:16Z</time>
      </trkpt>
      <trkpt lat="46.43801333" lon="17.798145">
        <ele>142.3</ele>
        <time>2025-07-25T09:56:18Z</time>
      </trkpt>
      <trkpt lat="46.43810667" lon="17.79818167">
        <ele>138.4</ele>
        <time>2025-07-25T09:56:20Z</time>
      </trkpt>
      <trkpt lat="46.43822" lon="17.79820333">
        <ele>134.2</ele>
        <time>2025-07-25T09:56:23Z</time>
      </trkpt>
      <trkpt lat="46.43837833" lon="17.798105">
        <ele>143.4</ele>
        <time>2025-07-25T09:56:37Z</time>
      </trkpt>
    </trkseg>
  </trk>
</gpx>