<?xml version='1.0' encoding='UTF-8' standalone='yes' ?>
<gpx xmlns="http://www.topografix.com/GPX/1/1" xmlns:geotracker="http://ilyabogdanovich.com/gpx/extensions/geotracker" xmlns:xsi="http://www.w3.org/2001/XMLSchema-instance" xsi:schemaLocation="http://www.topografix.com/GPX/1/1 http://www.topografix.com/GPX/1/1/gpx.xsd" version="1.1" creator="Recorded in Geo Tracker for Android from Ilya Bogdanovich">
  <metadata>
    <name>f_0709_07</name>
    <author>
      <name>Recorded in Geo Tracker for Android from Ilya Bogdanovich</name>
      <link href="https://play.google.com/store/apps/details?id=com.ilyabogdanovich.geotracker" />
    </author>
    <link href="https://play.google.com/store/apps/details?id=com.ilyabogdanovich.geotracker" />
    <time>2025-07-09T12:26:45Z</time>
  </metadata>
  <trk>
    <name>f_0709_07</name>
    <src>Recorded in Geo Tracker for Android from Ilya Bogdanovich</src>
    <link href="https://play.google.com/store/apps/details?id=com.ilyabogdanovich.geotracker" />
    <extensions>
      <geotracker:meta>
        <geotracker:length>3390.69</geotracker:length>
        <geotracker:duration>658568</geotracker:duration>
        <geotracker:creationtime>2025-07-09T12:26:45Z</geotracker:creationtime>
        <geotracker:activity>0</geotracker:activity>
      </geotracker:meta>
    </extensions>
    <trkseg>
      <trkpt lat="48.110785" lon="22.74291333">
        <ele>156.1</ele>
        <time>2025-07-09T12:27:31Z</time>
      </trkpt>
      <trkpt lat="48.11081167" lon="22.74306167">
        <ele>156.9</ele>
        <time>2025-07-09T12:27:37Z</time>
      </trkpt>
      <trkpt lat="48.11088833" lon="22.74319667">
        <ele>156.5</ele>
        <time>2025-07-09T12:27:40Z</time>
      </trkpt>
      <trkpt lat="48.110885" lon="22.743375">
        <ele>155.5</ele>
        <time>2025-07-09T12:27:43Z</time>
      </trkpt>
      <trkpt lat="48.11083167" lon="22.74348667">
        <ele>154.7</ele>
        <time>2025-07-09T12:27:45Z</time>
      </trkpt>
      <trkpt lat="48.11075833" lon="22.743595">
        <ele>153.8</ele>
        <time>2025-07-09T12:27:47Z</time>
      </trkpt>
      <trkpt lat="48.110675" lon="22.74372">
        <ele>152.8</ele>
        <time>2025-07-09T12:27:49Z</time>
      </trkpt>
      <trkpt lat="48.11058833" lon="22.743845">
        <ele>151.8</ele>
        <time>2025-07-09T12:27:51Z</time>
      </trkpt>
      <trkpt lat="48.110495" lon="22.74396">
        <ele>151.1</ele>
        <time>2025-07-09T12:27:53Z</time>
      </trkpt>
      <trkpt lat="48.11040167" lon="22.74407167">
        <ele>150.7</ele>
        <time>2025-07-09T12:27:55Z</time>
      </trkpt>
      <trkpt lat="48.11031833" lon="22.744185">
        <ele>150.9</ele>
        <time>2025-07-09T12:27:57Z</time>
      </trkpt>
      <trkpt lat="48.110255" lon="22.7443">
        <ele>150.2</ele>
        <time>2025-07-09T12:27:59Z</time>
      </trkpt>
      <trkpt lat="48.11020167" lon="22.74441833">
        <ele>149.1</ele>
        <time>2025-07-09T12:28:01Z</time>
      </trkpt>
      <trkpt lat="48.11014333" lon="22.74459833">
        <ele>149.8</ele>
        <time>2025-07-09T12:28:04Z</time>
      </trkpt>
      <trkpt lat="48.11012333" lon="22.74473333">
        <ele>149.6</ele>
        <time>2025-07-09T12:28:06Z</time>
      </trkpt>
      <trkpt lat="48.11011333" lon="22.74486833">
        <ele>149.3</ele>
        <time>2025-07-09T12:28:08Z</time>
      </trkpt>
      <trkpt lat="48.11009833" lon="22.74504333">
        <ele>149.1</ele>
        <time>2025-07-09T12:28:11Z</time>
      </trkpt>
      <trkpt lat="48.11008" lon="22.745235">
        <ele>151.4</ele>
        <time>2025-07-09T12:28:14Z</time>
      </trkpt>
      <trkpt lat="48.11005833" lon="22.74537833">
        <ele>152.2</ele>
        <time>2025-07-09T12:28:16Z</time>
      </trkpt>
      <trkpt lat="48.11004167" lon="22.745525">
        <ele>153.4</ele>
        <time>2025-07-09T12:28:18Z</time>
      </trkpt>
      <trkpt lat="48.11002833" lon="22.74566667">
        <ele>153.6</ele>
        <time>2025-07-09T12:28:20Z</time>
      </trkpt>
      <trkpt lat="48.11002167" lon="22.74581167">
        <ele>153.8</ele>
        <time>2025-07-09T12:28:22Z</time>
      </trkpt>
      <trkpt lat="48.11001333" lon="22.74596667">
        <ele>153.8</ele>
        <time>2025-07-09T12:28:24Z</time>
      </trkpt>
      <trkpt lat="48.11000667" lon="22.74610167">
        <ele>152.7</ele>
        <time>2025-07-09T12:28:26Z</time>
      </trkpt>
      <trkpt lat="48.11000167" lon="22.74631">
        <ele>153.8</ele>
        <time>2025-07-09T12:28:28Z</time>
      </trkpt>
      <trkpt lat="48.11000333" lon="22.74648667">
        <ele>154.3</ele>
        <time>2025-07-09T12:28:30Z</time>
      </trkpt>
      <trkpt lat="48.11000667" lon="22.74664667">
        <ele>153.5</ele>
        <time>2025-07-09T12:28:32Z</time>
      </trkpt>
      <trkpt lat="48.11001" lon="22.74680833">
        <ele>153.6</ele>
        <time>2025-07-09T12:28:34Z</time>
      </trkpt>
      <trkpt lat="48.11002333" lon="22.74697">
        <ele>153.9</ele>
        <time>2025-07-09T12:28:36Z</time>
      </trkpt>
      <trkpt lat="48.11003667" lon="22.74713833">
        <ele>154.1</ele>
        <time>2025-07-09T12:28:38Z</time>
      </trkpt>
      <trkpt lat="48.11005333" lon="22.74730833">
        <ele>153.8</ele>
        <time>2025-07-09T12:28:40Z</time>
      </trkpt>
      <trkpt lat="48.11006167" lon="22.747465">
        <ele>153</ele>
        <time>2025-07-09T12:28:42Z</time>
      </trkpt>
      <trkpt lat="48.11007167" lon="22.74762833">
        <ele>152.7</ele>
        <time>2025-07-09T12:28:44Z</time>
      </trkpt>
      <trkpt lat="48.11009667" lon="22.74778833">
        <ele>151.3</ele>
        <time>2025-07-09T12:28:46Z</time>
      </trkpt>
      <trkpt lat="48.110115" lon="22.74794833">
        <ele>151.4</ele>
        <time>2025-07-09T12:28:48Z</time>
      </trkpt>
      <trkpt lat="48.110135" lon="22.74809333">
        <ele>151.5</ele>
        <time>2025-07-09T12:28:50Z</time>
      </trkpt>
      <trkpt lat="48.11016333" lon="22.74823">
        <ele>151.8</ele>
        <time>2025-07-09T12:28:52Z</time>
      </trkpt>
      <trkpt lat="48.11022667" lon="22.74839167">
        <ele>151.9</ele>
        <time>2025-07-09T12:28:55Z</time>
      </trkpt>
      <trkpt lat="48.11027333" lon="22.748515">
        <ele>151.3</ele>
        <time>2025-07-09T12:28:57Z</time>
      </trkpt>
      <trkpt lat="48.11031" lon="22.74864167">
        <ele>150.7</ele>
        <time>2025-07-09T12:28:59Z</time>
      </trkpt>
      <trkpt lat="48.110355" lon="22.74876167">
        <ele>150.3</ele>
        <time>2025-07-09T12:29:01Z</time>
      </trkpt>
      <trkpt lat="48.11042333" lon="22.74888333">
        <ele>150.3</ele>
        <time>2025-07-09T12:29:03Z</time>
      </trkpt>
      <trkpt lat="48.11050667" lon="22.74895667">
        <ele>149.7</ele>
        <time>2025-07-09T12:29:05Z</time>
      </trkpt>
      <trkpt lat="48.11058167" lon="22.74903833">
        <ele>150.8</ele>
        <time>2025-07-09T12:29:07Z</time>
      </trkpt>
      <trkpt lat="48.11066" lon="22.74919167">
        <ele>152.5</ele>
        <time>2025-07-09T12:29:10Z</time>
      </trkpt>
      <trkpt lat="48.11073667" lon="22.74928333">
        <ele>151.9</ele>
        <time>2025-07-09T12:29:12Z</time>
      </trkpt>
      <trkpt lat="48.11084" lon="22.74934">
        <ele>152.1</ele>
        <time>2025-07-09T12:29:14Z</time>
      </trkpt>
      <trkpt lat="48.11094167" lon="22.74944667">
        <ele>151.9</ele>
        <time>2025-07-09T12:29:16Z</time>
      </trkpt>
      <trkpt lat="48.11101" lon="22.74961167">
        <ele>151.7</ele>
        <time>2025-07-09T12:29:18Z</time>
      </trkpt>
      <trkpt lat="48.11106" lon="22.74978667">
        <ele>152.1</ele>
        <time>2025-07-09T12:29:20Z</time>
      </trkpt>
      <trkpt lat="48.11109333" lon="22.74995167">
        <ele>154.5</ele>
        <time>2025-07-09T12:29:22Z</time>
      </trkpt>
      <trkpt lat="48.11113" lon="22.7501">
        <ele>155.5</ele>
        <time>2025-07-09T12:29:24Z</time>
      </trkpt>
      <trkpt lat="48.11116" lon="22.75029">
        <ele>156.7</ele>
        <time>2025-07-09T12:29:27Z</time>
      </trkpt>
      <trkpt lat="48.11115333" lon="22.750465">
        <ele>158.9</ele>
        <time>2025-07-09T12:29:30Z</time>
      </trkpt>
      <trkpt lat="48.11111333" lon="22.750625">
        <ele>159.3</ele>
        <time>2025-07-09T12:29:33Z</time>
      </trkpt>
      <trkpt lat="48.11108" lon="22.75078833">
        <ele>159.3</ele>
        <time>2025-07-09T12:29:36Z</time>
      </trkpt>
      <trkpt lat="48.111045" lon="22.750915">
        <ele>158.1</ele>
        <time>2025-07-09T12:29:38Z</time>
      </trkpt>
      <trkpt lat="48.11100667" lon="22.75108667">
        <ele>157.1</ele>
        <time>2025-07-09T12:29:41Z</time>
      </trkpt>
      <trkpt lat="48.11097167" lon="22.75127">
        <ele>157.3</ele>
        <time>2025-07-09T12:29:44Z</time>
      </trkpt>
      <trkpt lat="48.110935" lon="22.75146333">
        <ele>157.6</ele>
        <time>2025-07-09T12:29:47Z</time>
      </trkpt>
      <trkpt lat="48.11089" lon="22.75164667">
        <ele>157.8</ele>
        <time>2025-07-09T12:29:50Z</time>
      </trkpt>
      <trkpt lat="48.110865" lon="22.75178">
        <ele>157.8</ele>
        <time>2025-07-09T12:29:52Z</time>
      </trkpt>
      <trkpt lat="48.110835" lon="22.751915">
        <ele>158</ele>
        <time>2025-07-09T12:29:54Z</time>
      </trkpt>
      <trkpt lat="48.11081" lon="22.752045">
        <ele>158</ele>
        <time>2025-07-09T12:29:56Z</time>
      </trkpt>
      <trkpt lat="48.11078167" lon="22.75218167">
        <ele>158.3</ele>
        <time>2025-07-09T12:29:58Z</time>
      </trkpt>
      <trkpt lat="48.11074833" lon="22.75231667">
        <ele>158.4</ele>
        <time>2025-07-09T12:30:00Z</time>
      </trkpt>
      <trkpt lat="48.11072" lon="22.75245167">
        <ele>158.3</ele>
        <time>2025-07-09T12:30:02Z</time>
      </trkpt>
      <trkpt lat="48.11066167" lon="22.752635">
        <ele>158.1</ele>
        <time>2025-07-09T12:30:05Z</time>
      </trkpt>
      <trkpt lat="48.11063333" lon="22.75276333">
        <ele>157.3</ele>
        <time>2025-07-09T12:30:07Z</time>
      </trkpt>
      <trkpt lat="48.11060667" lon="22.752905">
        <ele>157.2</ele>
        <time>2025-07-09T12:30:09Z</time>
      </trkpt>
      <trkpt lat="48.11057833" lon="22.75304167">
        <ele>156.8</ele>
        <time>2025-07-09T12:30:11Z</time>
      </trkpt>
      <trkpt lat="48.11053833" lon="22.75322833">
        <ele>157.3</ele>
        <time>2025-07-09T12:30:14Z</time>
      </trkpt>
      <trkpt lat="48.11051167" lon="22.75335833">
        <ele>156.8</ele>
        <time>2025-07-09T12:30:16Z</time>
      </trkpt>
      <trkpt lat="48.11048333" lon="22.75350167">
        <ele>157.7</ele>
        <time>2025-07-09T12:30:18Z</time>
      </trkpt>
      <trkpt lat="48.11045167" lon="22.75364167">
        <ele>157.6</ele>
        <time>2025-07-09T12:30:20Z</time>
      </trkpt>
      <trkpt lat="48.110425" lon="22.75378">
        <ele>157.3</ele>
        <time>2025-07-09T12:30:22Z</time>
      </trkpt>
      <trkpt lat="48.11039667" lon="22.75392333">
        <ele>157.3</ele>
        <time>2025-07-09T12:30:24Z</time>
      </trkpt>
      <trkpt lat="48.11036333" lon="22.75407333">
        <ele>156.9</ele>
        <time>2025-07-09T12:30:26Z</time>
      </trkpt>
      <trkpt lat="48.11032667" lon="22.75422333">
        <ele>156.8</ele>
        <time>2025-07-09T12:30:28Z</time>
      </trkpt>
      <trkpt lat="48.11029167" lon="22.75438">
        <ele>156.6</ele>
        <time>2025-07-09T12:30:30Z</time>
      </trkpt>
      <trkpt lat="48.11025667" lon="22.75453167">
        <ele>156.3</ele>
        <time>2025-07-09T12:30:32Z</time>
      </trkpt>
      <trkpt lat="48.11022" lon="22.75468">
        <ele>155.9</ele>
        <time>2025-07-09T12:30:34Z</time>
      </trkpt>
      <trkpt lat="48.110185" lon="22.75483">
        <ele>156</ele>
        <time>2025-07-09T12:30:36Z</time>
      </trkpt>
      <trkpt lat="48.11015333" lon="22.75498">
        <ele>156.4</ele>
        <time>2025-07-09T12:30:38Z</time>
      </trkpt>
      <trkpt lat="48.11011833" lon="22.75512">
        <ele>156.2</ele>
        <time>2025-07-09T12:30:40Z</time>
      </trkpt>
      <trkpt lat="48.11007833" lon="22.75525667">
        <ele>155.7</ele>
        <time>2025-07-09T12:30:42Z</time>
      </trkpt>
      <trkpt lat="48.11003667" lon="22.75539">
        <ele>155.2</ele>
        <time>2025-07-09T12:30:44Z</time>
      </trkpt>
      <trkpt lat="48.10999" lon="22.75552333">
        <ele>155</ele>
        <time>2025-07-09T12:30:46Z</time>
      </trkpt>
      <trkpt lat="48.10993833" lon="22.75566833">
        <ele>154.8</ele>
        <time>2025-07-09T12:30:48Z</time>
      </trkpt>
      <trkpt lat="48.10988167" lon="22.75581833">
        <ele>155.9</ele>
        <time>2025-07-09T12:30:50Z</time>
      </trkpt>
      <trkpt lat="48.109825" lon="22.755955">
        <ele>156</ele>
        <time>2025-07-09T12:30:52Z</time>
      </trkpt>
      <trkpt lat="48.10976667" lon="22.75608667">
        <ele>155.3</ele>
        <time>2025-07-09T12:30:54Z</time>
      </trkpt>
      <trkpt lat="48.10970333" lon="22.75621667">
        <ele>155.1</ele>
        <time>2025-07-09T12:30:56Z</time>
      </trkpt>
      <trkpt lat="48.10963167" lon="22.75634">
        <ele>154.8</ele>
        <time>2025-07-09T12:30:58Z</time>
      </trkpt>
      <trkpt lat="48.10956" lon="22.756465">
        <ele>154.5</ele>
        <time>2025-07-09T12:31:00Z</time>
      </trkpt>
      <trkpt lat="48.10948833" lon="22.756575">
        <ele>154.4</ele>
        <time>2025-07-09T12:31:02Z</time>
      </trkpt>
      <trkpt lat="48.10941667" lon="22.75666833">
        <ele>154.7</ele>
        <time>2025-07-09T12:31:04Z</time>
      </trkpt>
      <trkpt lat="48.10932667" lon="22.75678167">
        <ele>154.6</ele>
        <time>2025-07-09T12:31:06Z</time>
      </trkpt>
      <trkpt lat="48.10924167" lon="22.75687833">
        <ele>154.5</ele>
        <time>2025-07-09T12:31:08Z</time>
      </trkpt>
      <trkpt lat="48.10916" lon="22.75697833">
        <ele>154.2</ele>
        <time>2025-07-09T12:31:10Z</time>
      </trkpt>
      <trkpt lat="48.10907833" lon="22.75707667">
        <ele>154.3</ele>
        <time>2025-07-09T12:31:12Z</time>
      </trkpt>
      <trkpt lat="48.10899" lon="22.75717167">
        <ele>154.8</ele>
        <time>2025-07-09T12:31:14Z</time>
      </trkpt>
      <trkpt lat="48.108905" lon="22.757265">
        <ele>155.1</ele>
        <time>2025-07-09T12:31:16Z</time>
      </trkpt>
      <trkpt lat="48.10882667" lon="22.75736167">
        <ele>154.6</ele>
        <time>2025-07-09T12:31:18Z</time>
      </trkpt>
      <trkpt lat="48.10874333" lon="22.75747333">
        <ele>155.3</ele>
        <time>2025-07-09T12:31:20Z</time>
      </trkpt>
      <trkpt lat="48.10866" lon="22.75757833">
        <ele>155.4</ele>
        <time>2025-07-09T12:31:22Z</time>
      </trkpt>
      <trkpt lat="48.10857833" lon="22.75768833">
        <ele>155.4</ele>
        <time>2025-07-09T12:31:24Z</time>
      </trkpt>
      <trkpt lat="48.10849" lon="22.75780167">
        <ele>155.2</ele>
        <time>2025-07-09T12:31:26Z</time>
      </trkpt>
      <trkpt lat="48.10841" lon="22.75791667">
        <ele>154.6</ele>
        <time>2025-07-09T12:31:28Z</time>
      </trkpt>
      <trkpt lat="48.10833667" lon="22.75804167">
        <ele>154.5</ele>
        <time>2025-07-09T12:31:30Z</time>
      </trkpt>
      <trkpt lat="48.10826667" lon="22.75816667">
        <ele>154.7</ele>
        <time>2025-07-09T12:31:32Z</time>
      </trkpt>
      <trkpt lat="48.10821" lon="22.75828833">
        <ele>154.2</ele>
        <time>2025-07-09T12:31:34Z</time>
      </trkpt>
      <trkpt lat="48.10815333" lon="22.75839667">
        <ele>152</ele>
        <time>2025-07-09T12:31:36Z</time>
      </trkpt>
      <trkpt lat="48.10808833" lon="22.75854667">
        <ele>151.4</ele>
        <time>2025-07-09T12:31:38Z</time>
      </trkpt>
      <trkpt lat="48.108025" lon="22.75868333">
        <ele>151.2</ele>
        <time>2025-07-09T12:31:40Z</time>
      </trkpt>
      <trkpt lat="48.107965" lon="22.75881667">
        <ele>150.9</ele>
        <time>2025-07-09T12:31:42Z</time>
      </trkpt>
      <trkpt lat="48.107905" lon="22.75895667">
        <ele>151.5</ele>
        <time>2025-07-09T12:31:44Z</time>
      </trkpt>
      <trkpt lat="48.10784667" lon="22.75909833">
        <ele>151.4</ele>
        <time>2025-07-09T12:31:46Z</time>
      </trkpt>
      <trkpt lat="48.10778833" lon="22.75923">
        <ele>150.8</ele>
        <time>2025-07-09T12:31:48Z</time>
      </trkpt>
      <trkpt lat="48.10772333" lon="22.75936333">
        <ele>150.8</ele>
        <time>2025-07-09T12:31:50Z</time>
      </trkpt>
      <trkpt lat="48.10765833" lon="22.7595">
        <ele>151.3</ele>
        <time>2025-07-09T12:31:52Z</time>
      </trkpt>
      <trkpt lat="48.107595" lon="22.75963833">
        <ele>151.2</ele>
        <time>2025-07-09T12:31:54Z</time>
      </trkpt>
      <trkpt lat="48.10753667" lon="22.75977167">
        <ele>151.5</ele>
        <time>2025-07-09T12:31:56Z</time>
      </trkpt>
      <trkpt lat="48.10747333" lon="22.75991167">
        <ele>152</ele>
        <time>2025-07-09T12:31:58Z</time>
      </trkpt>
      <trkpt lat="48.10741" lon="22.76005833">
        <ele>152.3</ele>
        <time>2025-07-09T12:32:00Z</time>
      </trkpt>
      <trkpt lat="48.10735167" lon="22.76019833">
        <ele>152.5</ele>
        <time>2025-07-09T12:32:02Z</time>
      </trkpt>
      <trkpt lat="48.10730167" lon="22.76033167">
        <ele>152.2</ele>
        <time>2025-07-09T12:32:04Z</time>
      </trkpt>
      <trkpt lat="48.10724167" lon="22.76050333">
        <ele>153.3</ele>
        <time>2025-07-09T12:32:06Z</time>
      </trkpt>
      <trkpt lat="48.10719" lon="22.76065833">
        <ele>153.5</ele>
        <time>2025-07-09T12:32:08Z</time>
      </trkpt>
      <trkpt lat="48.10713833" lon="22.76080667">
        <ele>153.9</ele>
        <time>2025-07-09T12:32:10Z</time>
      </trkpt>
      <trkpt lat="48.1071" lon="22.76095833">
        <ele>153.5</ele>
        <time>2025-07-09T12:32:12Z</time>
      </trkpt>
      <trkpt lat="48.107065" lon="22.76110667">
        <ele>153.1</ele>
        <time>2025-07-09T12:32:14Z</time>
      </trkpt>
      <trkpt lat="48.10703333" lon="22.761255">
        <ele>152.3</ele>
        <time>2025-07-09T12:32:16Z</time>
      </trkpt>
      <trkpt lat="48.10699667" lon="22.76142667">
        <ele>151.9</ele>
        <time>2025-07-09T12:32:18Z</time>
      </trkpt>
      <trkpt lat="48.10696167" lon="22.76159333">
        <ele>151.7</ele>
        <time>2025-07-09T12:32:20Z</time>
      </trkpt>
      <trkpt lat="48.10692833" lon="22.761755">
        <ele>151.2</ele>
        <time>2025-07-09T12:32:22Z</time>
      </trkpt>
      <trkpt lat="48.10689167" lon="22.76191333">
        <ele>151.1</ele>
        <time>2025-07-09T12:32:24Z</time>
      </trkpt>
      <trkpt lat="48.10685667" lon="22.76207">
        <ele>150.8</ele>
        <time>2025-07-09T12:32:26Z</time>
      </trkpt>
      <trkpt lat="48.106825" lon="22.762225">
        <ele>150.6</ele>
        <time>2025-07-09T12:32:28Z</time>
      </trkpt>
      <trkpt lat="48.10679" lon="22.76238">
        <ele>150.8</ele>
        <time>2025-07-09T12:32:30Z</time>
      </trkpt>
      <trkpt lat="48.106755" lon="22.76253833">
        <ele>150.7</ele>
        <time>2025-07-09T12:32:32Z</time>
      </trkpt>
      <trkpt lat="48.10672" lon="22.7627">
        <ele>150.8</ele>
        <time>2025-07-09T12:32:34Z</time>
      </trkpt>
      <trkpt lat="48.10668667" lon="22.76286167">
        <ele>150.9</ele>
        <time>2025-07-09T12:32:36Z</time>
      </trkpt>
      <trkpt lat="48.10665167" lon="22.76302167">
        <ele>150.8</ele>
        <time>2025-07-09T12:32:38Z</time>
      </trkpt>
      <trkpt lat="48.10661833" lon="22.76318">
        <ele>150.6</ele>
        <time>2025-07-09T12:32:40Z</time>
      </trkpt>
      <trkpt lat="48.10658667" lon="22.763335">
        <ele>150.3</ele>
        <time>2025-07-09T12:32:42Z</time>
      </trkpt>
      <trkpt lat="48.10655833" lon="22.76348167">
        <ele>150.3</ele>
        <time>2025-07-09T12:32:44Z</time>
      </trkpt>
      <trkpt lat="48.10652833" lon="22.763635">
        <ele>151</ele>
        <time>2025-07-09T12:32:46Z</time>
      </trkpt>
      <trkpt lat="48.10649833" lon="22.76377833">
        <ele>152</ele>
        <time>2025-07-09T12:32:48Z</time>
      </trkpt>
      <trkpt lat="48.10646" lon="22.76394667">
        <ele>153.8</ele>
        <time>2025-07-09T12:32:50Z</time>
      </trkpt>
      <trkpt lat="48.10642333" lon="22.76409167">
        <ele>155.1</ele>
        <time>2025-07-09T12:32:52Z</time>
      </trkpt>
      <trkpt lat="48.10639667" lon="22.76422833">
        <ele>154.3</ele>
        <time>2025-07-09T12:32:54Z</time>
      </trkpt>
      <trkpt lat="48.10636" lon="22.76439333">
        <ele>154.9</ele>
        <time>2025-07-09T12:32:56Z</time>
      </trkpt>
      <trkpt lat="48.10633" lon="22.76455">
        <ele>155.3</ele>
        <time>2025-07-09T12:32:58Z</time>
      </trkpt>
      <trkpt lat="48.1063" lon="22.76470833">
        <ele>155.2</ele>
        <time>2025-07-09T12:33:00Z</time>
      </trkpt>
      <trkpt lat="48.10627" lon="22.76486">
        <ele>155.4</ele>
        <time>2025-07-09T12:33:02Z</time>
      </trkpt>
      <trkpt lat="48.10623667" lon="22.76501333">
        <ele>155.5</ele>
        <time>2025-07-09T12:33:04Z</time>
      </trkpt>
      <trkpt lat="48.10621" lon="22.76516667">
        <ele>155.4</ele>
        <time>2025-07-09T12:33:06Z</time>
      </trkpt>
      <trkpt lat="48.106185" lon="22.76531833">
        <ele>155.2</ele>
        <time>2025-07-09T12:33:08Z</time>
      </trkpt>
      <trkpt lat="48.106155" lon="22.76547333">
        <ele>155.3</ele>
        <time>2025-07-09T12:33:10Z</time>
      </trkpt>
      <trkpt lat="48.10612833" lon="22.76563167">
        <ele>155.6</ele>
        <time>2025-07-09T12:33:12Z</time>
      </trkpt>
      <trkpt lat="48.10610833" lon="22.765785">
        <ele>155.6</ele>
        <time>2025-07-09T12:33:14Z</time>
      </trkpt>
      <trkpt lat="48.10608667" lon="22.765945">
        <ele>156.1</ele>
        <time>2025-07-09T12:33:16Z</time>
      </trkpt>
      <trkpt lat="48.10606333" lon="22.76609833">
        <ele>156.7</ele>
        <time>2025-07-09T12:33:18Z</time>
      </trkpt>
      <trkpt lat="48.10604167" lon="22.76624833">
        <ele>157.5</ele>
        <time>2025-07-09T12:33:20Z</time>
      </trkpt>
      <trkpt lat="48.10600833" lon="22.76647833">
        <ele>156.8</ele>
        <time>2025-07-09T12:33:23Z</time>
      </trkpt>
      <trkpt lat="48.105985" lon="22.76663833">
        <ele>156.3</ele>
        <time>2025-07-09T12:33:25Z</time>
      </trkpt>
      <trkpt lat="48.10596667" lon="22.76679167">
        <ele>156.2</ele>
        <time>2025-07-09T12:33:27Z</time>
      </trkpt>
      <trkpt lat="48.10594667" lon="22.76694167">
        <ele>155.8</ele>
        <time>2025-07-09T12:33:29Z</time>
      </trkpt>
      <trkpt lat="48.10592333" lon="22.76710667">
        <ele>156.2</ele>
        <time>2025-07-09T12:33:31Z</time>
      </trkpt>
      <trkpt lat="48.10589667" lon="22.767265">
        <ele>155.8</ele>
        <time>2025-07-09T12:33:33Z</time>
      </trkpt>
      <trkpt lat="48.10587333" lon="22.76743833">
        <ele>155.9</ele>
        <time>2025-07-09T12:33:35Z</time>
      </trkpt>
      <trkpt lat="48.10585333" lon="22.76760667">
        <ele>155.9</ele>
        <time>2025-07-09T12:33:37Z</time>
      </trkpt>
      <trkpt lat="48.10583333" lon="22.76776667">
        <ele>155.5</ele>
        <time>2025-07-09T12:33:39Z</time>
      </trkpt>
      <trkpt lat="48.10581167" lon="22.76794167">
        <ele>155.9</ele>
        <time>2025-07-09T12:33:41Z</time>
      </trkpt>
      <trkpt lat="48.10580333" lon="22.76809">
        <ele>155.7</ele>
        <time>2025-07-09T12:33:43Z</time>
      </trkpt>
      <trkpt lat="48.10579833" lon="22.76826667">
        <ele>155.4</ele>
        <time>2025-07-09T12:33:45Z</time>
      </trkpt>
      <trkpt lat="48.10579333" lon="22.76843167">
        <ele>154.9</ele>
        <time>2025-07-09T12:33:47Z</time>
      </trkpt>
      <trkpt lat="48.1058" lon="22.76860667">
        <ele>155</ele>
        <time>2025-07-09T12:33:49Z</time>
      </trkpt>
      <trkpt lat="48.10582167" lon="22.76877">
        <ele>154.9</ele>
        <time>2025-07-09T12:33:51Z</time>
      </trkpt>
      <trkpt lat="48.105845" lon="22.76892167">
        <ele>155.2</ele>
        <time>2025-07-09T12:33:53Z</time>
      </trkpt>
      <trkpt lat="48.10587333" lon="22.76907167">
        <ele>155.8</ele>
        <time>2025-07-09T12:33:55Z</time>
      </trkpt>
      <trkpt lat="48.10591333" lon="22.76922667">
        <ele>156</ele>
        <time>2025-07-09T12:33:57Z</time>
      </trkpt>
      <trkpt lat="48.105955" lon="22.76937667">
        <ele>156.4</ele>
        <time>2025-07-09T12:33:59Z</time>
      </trkpt>
      <trkpt lat="48.10599333" lon="22.76953333">
        <ele>156.2</ele>
        <time>2025-07-09T12:34:01Z</time>
      </trkpt>
      <trkpt lat="48.10604167" lon="22.76967">
        <ele>155.9</ele>
        <time>2025-07-09T12:34:03Z</time>
      </trkpt>
      <trkpt lat="48.10609167" lon="22.76981833">
        <ele>155.9</ele>
        <time>2025-07-09T12:34:05Z</time>
      </trkpt>
      <trkpt lat="48.10615167" lon="22.76996167">
        <ele>156</ele>
        <time>2025-07-09T12:34:07Z</time>
      </trkpt>
      <trkpt lat="48.10620333" lon="22.77011333">
        <ele>156.5</ele>
        <time>2025-07-09T12:34:09Z</time>
      </trkpt>
      <trkpt lat="48.10625167" lon="22.77026">
        <ele>156.6</ele>
        <time>2025-07-09T12:34:11Z</time>
      </trkpt>
      <trkpt lat="48.10630667" lon="22.770405">
        <ele>157.3</ele>
        <time>2025-07-09T12:34:13Z</time>
      </trkpt>
      <trkpt lat="48.10636167" lon="22.77054667">
        <ele>157.2</ele>
        <time>2025-07-09T12:34:15Z</time>
      </trkpt>
      <trkpt lat="48.10641833" lon="22.77068333">
        <ele>157.5</ele>
        <time>2025-07-09T12:34:17Z</time>
      </trkpt>
      <trkpt lat="48.10647167" lon="22.770805">
        <ele>157.2</ele>
        <time>2025-07-09T12:34:19Z</time>
      </trkpt>
      <trkpt lat="48.10652667" lon="22.77094">
        <ele>157.2</ele>
        <time>2025-07-09T12:34:21Z</time>
      </trkpt>
      <trkpt lat="48.10658167" lon="22.771055">
        <ele>157.1</ele>
        <time>2025-07-09T12:34:23Z</time>
      </trkpt>
      <trkpt lat="48.10663833" lon="22.77116333">
        <ele>157.1</ele>
        <time>2025-07-09T12:34:25Z</time>
      </trkpt>
      <trkpt lat="48.106725" lon="22.77130667">
        <ele>157.1</ele>
        <time>2025-07-09T12:34:28Z</time>
      </trkpt>
      <trkpt lat="48.10680833" lon="22.77143333">
        <ele>156.8</ele>
        <time>2025-07-09T12:34:31Z</time>
      </trkpt>
      <trkpt lat="48.10689167" lon="22.77154833">
        <ele>156.3</ele>
        <time>2025-07-09T12:34:34Z</time>
      </trkpt>
      <trkpt lat="48.10698" lon="22.771665">
        <ele>156.5</ele>
        <time>2025-07-09T12:34:37Z</time>
      </trkpt>
      <trkpt lat="48.10706167" lon="22.77177667">
        <ele>157.2</ele>
        <time>2025-07-09T12:34:40Z</time>
      </trkpt>
      <trkpt lat="48.10711333" lon="22.771925">
        <ele>156.7</ele>
        <time>2025-07-09T12:34:44Z</time>
      </trkpt>
      <trkpt lat="48.10703833" lon="22.77207333">
        <ele>156.1</ele>
        <time>2025-07-09T12:34:47Z</time>
      </trkpt>
      <trkpt lat="48.10694667" lon="22.77219667">
        <ele>155.5</ele>
        <time>2025-07-09T12:34:49Z</time>
      </trkpt>
      <trkpt lat="48.10683667" lon="22.77233667">
        <ele>153.2</ele>
        <time>2025-07-09T12:34:51Z</time>
      </trkpt>
      <trkpt lat="48.10672833" lon="22.772505">
        <ele>151.7</ele>
        <time>2025-07-09T12:34:53Z</time>
      </trkpt>
      <trkpt lat="48.10662833" lon="22.77267167">
        <ele>151.3</ele>
        <time>2025-07-09T12:34:55Z</time>
      </trkpt>
      <trkpt lat="48.10652667" lon="22.772815">
        <ele>151.5</ele>
        <time>2025-07-09T12:34:57Z</time>
      </trkpt>
      <trkpt lat="48.10642833" lon="22.772945">
        <ele>151.1</ele>
        <time>2025-07-09T12:34:59Z</time>
      </trkpt>
      <trkpt lat="48.10633833" lon="22.77306">
        <ele>151.2</ele>
        <time>2025-07-09T12:35:01Z</time>
      </trkpt>
      <trkpt lat="48.10625" lon="22.773195">
        <ele>151.8</ele>
        <time>2025-07-09T12:35:03Z</time>
      </trkpt>
      <trkpt lat="48.106165" lon="22.77332">
        <ele>151.7</ele>
        <time>2025-07-09T12:35:05Z</time>
      </trkpt>
      <trkpt lat="48.10607667" lon="22.773445">
        <ele>152.6</ele>
        <time>2025-07-09T12:35:07Z</time>
      </trkpt>
      <trkpt lat="48.105995" lon="22.77356667">
        <ele>151.9</ele>
        <time>2025-07-09T12:35:09Z</time>
      </trkpt>
      <trkpt lat="48.10592" lon="22.77367667">
        <ele>150.7</ele>
        <time>2025-07-09T12:35:11Z</time>
      </trkpt>
      <trkpt lat="48.10583667" lon="22.77380333">
        <ele>151.7</ele>
        <time>2025-07-09T12:35:13Z</time>
      </trkpt>
      <trkpt lat="48.10575667" lon="22.77391833">
        <ele>151.4</ele>
        <time>2025-07-09T12:35:15Z</time>
      </trkpt>
      <trkpt lat="48.10567333" lon="22.77403833">
        <ele>151.5</ele>
        <time>2025-07-09T12:35:17Z</time>
      </trkpt>
      <trkpt lat="48.10559833" lon="22.77415">
        <ele>151.4</ele>
        <time>2025-07-09T12:35:19Z</time>
      </trkpt>
      <trkpt lat="48.10552167" lon="22.774265">
        <ele>151.2</ele>
        <time>2025-07-09T12:35:21Z</time>
      </trkpt>
      <trkpt lat="48.105445" lon="22.77438">
        <ele>150.2</ele>
        <time>2025-07-09T12:35:23Z</time>
      </trkpt>
      <trkpt lat="48.10536167" lon="22.77448667">
        <ele>150.1</ele>
        <time>2025-07-09T12:35:25Z</time>
      </trkpt>
      <trkpt lat="48.10529167" lon="22.77460167">
        <ele>150.5</ele>
        <time>2025-07-09T12:35:27Z</time>
      </trkpt>
      <trkpt lat="48.10521167" lon="22.77471167">
        <ele>150.9</ele>
        <time>2025-07-09T12:35:29Z</time>
      </trkpt>
      <trkpt lat="48.10513667" lon="22.77481833">
        <ele>150.8</ele>
        <time>2025-07-09T12:35:31Z</time>
      </trkpt>
      <trkpt lat="48.10506167" lon="22.77492833">
        <ele>151.5</ele>
        <time>2025-07-09T12:35:33Z</time>
      </trkpt>
      <trkpt lat="48.10498667" lon="22.77505167">
        <ele>151.7</ele>
        <time>2025-07-09T12:35:35Z</time>
      </trkpt>
      <trkpt lat="48.10492167" lon="22.77515">
        <ele>151.4</ele>
        <time>2025-07-09T12:35:37Z</time>
      </trkpt>
      <trkpt lat="48.10486333" lon="22.77527">
        <ele>151.1</ele>
        <time>2025-07-09T12:35:39Z</time>
      </trkpt>
      <trkpt lat="48.10482" lon="22.77539167">
        <ele>151.4</ele>
        <time>2025-07-09T12:35:41Z</time>
      </trkpt>
      <trkpt lat="48.10477" lon="22.77552333">
        <ele>151.6</ele>
        <time>2025-07-09T12:35:43Z</time>
      </trkpt>
      <trkpt lat="48.10471833" lon="22.775665">
        <ele>152.3</ele>
        <time>2025-07-09T12:35:45Z</time>
      </trkpt>
      <trkpt lat="48.10467167" lon="22.775805">
        <ele>151.4</ele>
        <time>2025-07-09T12:35:47Z</time>
      </trkpt>
      <trkpt lat="48.10463167" lon="22.77592667">
        <ele>151.7</ele>
        <time>2025-07-09T12:35:49Z</time>
      </trkpt>
      <trkpt lat="48.104585" lon="22.77606833">
        <ele>151.9</ele>
        <time>2025-07-09T12:35:51Z</time>
      </trkpt>
      <trkpt lat="48.10454333" lon="22.77620833">
        <ele>152.4</ele>
        <time>2025-07-09T12:35:53Z</time>
      </trkpt>
      <trkpt lat="48.10451" lon="22.77635333">
        <ele>152.5</ele>
        <time>2025-07-09T12:35:55Z</time>
      </trkpt>
      <trkpt lat="48.10448333" lon="22.77648667">
        <ele>151.8</ele>
        <time>2025-07-09T12:35:57Z</time>
      </trkpt>
      <trkpt lat="48.10444333" lon="22.776615">
        <ele>150.8</ele>
        <time>2025-07-09T12:35:59Z</time>
      </trkpt>
      <trkpt lat="48.104405" lon="22.77676333">
        <ele>149.7</ele>
        <time>2025-07-09T12:36:01Z</time>
      </trkpt>
      <trkpt lat="48.10436167" lon="22.77691">
        <ele>148.4</ele>
        <time>2025-07-09T12:36:03Z</time>
      </trkpt>
      <trkpt lat="48.10430167" lon="22.77708167">
        <ele>148.6</ele>
        <time>2025-07-09T12:36:06Z</time>
      </trkpt>
      <trkpt lat="48.10425333" lon="22.77719667">
        <ele>148.4</ele>
        <time>2025-07-09T12:36:08Z</time>
      </trkpt>
      <trkpt lat="48.104185" lon="22.77734333">
        <ele>147.8</ele>
        <time>2025-07-09T12:36:11Z</time>
      </trkpt>
      <trkpt lat="48.10415" lon="22.77748667">
        <ele>148.1</ele>
        <time>2025-07-09T12:36:13Z</time>
      </trkpt>
      <trkpt lat="48.10413333" lon="22.77764167">
        <ele>148.3</ele>
        <time>2025-07-09T12:36:15Z</time>
      </trkpt>
      <trkpt lat="48.10412167" lon="22.77779167">
        <ele>148.5</ele>
        <time>2025-07-09T12:36:17Z</time>
      </trkpt>
      <trkpt lat="48.10411333" lon="22.77795333">
        <ele>147.8</ele>
        <time>2025-07-09T12:36:19Z</time>
      </trkpt>
      <trkpt lat="48.10411167" lon="22.77812833">
        <ele>147.9</ele>
        <time>2025-07-09T12:36:21Z</time>
      </trkpt>
      <trkpt lat="48.10410667" lon="22.7783">
        <ele>148.4</ele>
        <time>2025-07-09T12:36:23Z</time>
      </trkpt>
      <trkpt lat="48.10410167" lon="22.77848833">
        <ele>148.8</ele>
        <time>2025-07-09T12:36:25Z</time>
      </trkpt>
      <trkpt lat="48.104095" lon="22.77865833">
        <ele>149.3</ele>
        <time>2025-07-09T12:36:27Z</time>
      </trkpt>
      <trkpt lat="48.10409333" lon="22.77883333">
        <ele>150.6</ele>
        <time>2025-07-09T12:36:29Z</time>
      </trkpt>
      <trkpt lat="48.10410333" lon="22.77899333">
        <ele>151.2</ele>
        <time>2025-07-09T12:36:31Z</time>
      </trkpt>
      <trkpt lat="48.10411333" lon="22.77914667">
        <ele>150.7</ele>
        <time>2025-07-09T12:36:33Z</time>
      </trkpt>
      <trkpt lat="48.10412167" lon="22.779305">
        <ele>150.5</ele>
        <time>2025-07-09T12:36:35Z</time>
      </trkpt>
      <trkpt lat="48.10413" lon="22.77947167">
        <ele>150.5</ele>
        <time>2025-07-09T12:36:37Z</time>
      </trkpt>
      <trkpt lat="48.10413833" lon="22.77961667">
        <ele>150.6</ele>
        <time>2025-07-09T12:36:39Z</time>
      </trkpt>
      <trkpt lat="48.10414833" lon="22.77977167">
        <ele>150.3</ele>
        <time>2025-07-09T12:36:41Z</time>
      </trkpt>
      <trkpt lat="48.10415333" lon="22.77991833">
        <ele>150.4</ele>
        <time>2025-07-09T12:36:43Z</time>
      </trkpt>
      <trkpt lat="48.104165" lon="22.78014">
        <ele>149.8</ele>
        <time>2025-07-09T12:36:46Z</time>
      </trkpt>
      <trkpt lat="48.10416667" lon="22.7803">
        <ele>149.4</ele>
        <time>2025-07-09T12:36:48Z</time>
      </trkpt>
      <trkpt lat="48.104175" lon="22.780455">
        <ele>149.7</ele>
        <time>2025-07-09T12:36:50Z</time>
      </trkpt>
      <trkpt lat="48.10418167" lon="22.78060167">
        <ele>149.7</ele>
        <time>2025-07-09T12:36:52Z</time>
      </trkpt>
      <trkpt lat="48.104185" lon="22.78075667">
        <ele>150.4</ele>
        <time>2025-07-09T12:36:54Z</time>
      </trkpt>
      <trkpt lat="48.10419" lon="22.78091">
        <ele>149.8</ele>
        <time>2025-07-09T12:36:56Z</time>
      </trkpt>
      <trkpt lat="48.10419333" lon="22.78105833">
        <ele>149.1</ele>
        <time>2025-07-09T12:36:58Z</time>
      </trkpt>
      <trkpt lat="48.1042" lon="22.78121667">
        <ele>149.1</ele>
        <time>2025-07-09T12:37:00Z</time>
      </trkpt>
      <trkpt lat="48.1042" lon="22.78138667">
        <ele>150.2</ele>
        <time>2025-07-09T12:37:02Z</time>
      </trkpt>
      <trkpt lat="48.104205" lon="22.78155">
        <ele>150.4</ele>
        <time>2025-07-09T12:37:04Z</time>
      </trkpt>
      <trkpt lat="48.10421" lon="22.78168833">
        <ele>149.7</ele>
        <time>2025-07-09T12:37:06Z</time>
      </trkpt>
      <trkpt lat="48.10420833" lon="22.78185">
        <ele>150.6</ele>
        <time>2025-07-09T12:37:08Z</time>
      </trkpt>
      <trkpt lat="48.10418333" lon="22.78199833">
        <ele>151</ele>
        <time>2025-07-09T12:37:10Z</time>
      </trkpt>
      <trkpt lat="48.10415667" lon="22.78215">
        <ele>150.6</ele>
        <time>2025-07-09T12:37:12Z</time>
      </trkpt>
      <trkpt lat="48.10413" lon="22.78230167">
        <ele>152.2</ele>
        <time>2025-07-09T12:37:14Z</time>
      </trkpt>
      <trkpt lat="48.104115" lon="22.78247">
        <ele>151.2</ele>
        <time>2025-07-09T12:37:17Z</time>
      </trkpt>
      <trkpt lat="48.10409833" lon="22.78260833">
        <ele>150.8</ele>
        <time>2025-07-09T12:37:20Z</time>
      </trkpt>
      <trkpt lat="48.10414667" lon="22.78272833">
        <ele>151.5</ele>
        <time>2025-07-09T12:37:26Z</time>
      </trkpt>
      <trkpt lat="48.10422833" lon="22.782805">
        <ele>205</ele>
        <time>2025-07-09T12:37:42Z</time>
      </trkpt>
    </trkseg>
  </trk>
</gpx>