<?xml version='1.0' encoding='UTF-8' standalone='yes' ?>
<gpx xmlns="http://www.topografix.com/GPX/1/1" xmlns:geotracker="http://ilyabogdanovich.com/gpx/extensions/geotracker" xmlns:xsi="http://www.w3.org/2001/XMLSchema-instance" xsi:schemaLocation="http://www.topografix.com/GPX/1/1 http://www.topografix.com/GPX/1/1/gpx.xsd" version="1.1" creator="Recorded in Geo Tracker for Android from Ilya Bogdanovich">
  <metadata>
    <name>w_0727_01</name>
    <author>
      <name>Recorded in Geo Tracker for Android from Ilya Bogdanovich</name>
      <link href="https://play.google.com/store/apps/details?id=com.ilyabogdanovich.geotracker" />
    </author>
    <link href="https://play.google.com/store/apps/details?id=com.ilyabogdanovich.geotracker" />
    <time>2025-07-27T07:18:11Z</time>
  </metadata>
  <wpt lat="47.66978667" lon="19.08241833">
    <ele>147.1</ele>
    <time>2025-07-27T07:24:16Z</time>
    <name>Stop for ~2 min</name>
    <desc>Elevation: 147 m
Time from start: 00:06:04
Distance from start: 0,83 km</desc>
    <extensions>
      <geotracker:meta visited="1" />
    </extensions>
  </wpt>
  <trk>
    <name>w_0727_01</name>
    <src>Recorded in Geo Tracker for Android from Ilya Bogdanovich</src>
    <link href="https://play.google.com/store/apps/details?id=com.ilyabogdanovich.geotracker" />
    <extensions>
      <geotracker:meta>
        <geotracker:length>857.1</geotracker:length>
        <geotracker:duration>511485</geotracker:duration>
        <geotracker:creationtime>2025-07-27T07:18:11Z</geotracker:creationtime>
        <geotracker:activity>0</geotracker:activity>
      </geotracker:meta>
    </extensions>
    <trkseg>
      <trkpt lat="47.67232667" lon="19.08743333">
        <ele>167.9</ele>
        <time>2025-07-27T07:18:18Z</time>
      </trkpt>
      <trkpt lat="47.67223" lon="19.08744667">
        <ele>167.8</ele>
        <time>2025-07-27T07:18:28Z</time>
      </trkpt>
      <trkpt lat="47.67212333" lon="19.08741167">
        <ele>167.7</ele>
        <time>2025-07-27T07:18:35Z</time>
      </trkpt>
      <trkpt lat="47.67202333" lon="19.08736">
        <ele>167.7</ele>
        <time>2025-07-27T07:18:41Z</time>
      </trkpt>
      <trkpt lat="47.67193167" lon="19.0873">
        <ele>167.7</ele>
        <time>2025-07-27T07:18:48Z</time>
      </trkpt>
      <trkpt lat="47.67183333" lon="19.08727">
        <ele>167.3</ele>
        <time>2025-07-27T07:18:56Z</time>
      </trkpt>
      <trkpt lat="47.67173167" lon="19.087275">
        <ele>165.2</ele>
        <time>2025-07-27T07:19:06Z</time>
      </trkpt>
      <trkpt lat="47.67163833" lon="19.087275">
        <ele>163.2</ele>
        <time>2025-07-27T07:19:16Z</time>
      </trkpt>
      <trkpt lat="47.67155" lon="19.08734167">
        <ele>161.6</ele>
        <time>2025-07-27T07:19:24Z</time>
      </trkpt>
      <trkpt lat="47.671455" lon="19.08730333">
        <ele>159.7</ele>
        <time>2025-07-27T07:19:31Z</time>
      </trkpt>
      <trkpt lat="47.67139333" lon="19.08717833">
        <ele>158.5</ele>
        <time>2025-07-27T07:19:34Z</time>
      </trkpt>
      <trkpt lat="47.671305" lon="19.08721667">
        <ele>156.1</ele>
        <time>2025-07-27T07:19:40Z</time>
      </trkpt>
      <trkpt lat="47.67121333" lon="19.087175">
        <ele>153.8</ele>
        <time>2025-07-27T07:19:44Z</time>
      </trkpt>
      <trkpt lat="47.671145" lon="19.08704667">
        <ele>151.8</ele>
        <time>2025-07-27T07:19:50Z</time>
      </trkpt>
      <trkpt lat="47.67106667" lon="19.08692833">
        <ele>151</ele>
        <time>2025-07-27T07:19:54Z</time>
      </trkpt>
      <trkpt lat="47.67099167" lon="19.08684">
        <ele>150.8</ele>
        <time>2025-07-27T07:19:57Z</time>
      </trkpt>
      <trkpt lat="47.67093" lon="19.08673167">
        <ele>148.2</ele>
        <time>2025-07-27T07:20:06Z</time>
      </trkpt>
      <trkpt lat="47.67089167" lon="19.08659667">
        <ele>148.7</ele>
        <time>2025-07-27T07:20:10Z</time>
      </trkpt>
      <trkpt lat="47.670935" lon="19.08642333">
        <ele>146.6</ele>
        <time>2025-07-27T07:20:13Z</time>
      </trkpt>
      <trkpt lat="47.67091333" lon="19.08626667">
        <ele>144.7</ele>
        <time>2025-07-27T07:20:19Z</time>
      </trkpt>
      <trkpt lat="47.67098167" lon="19.08613667">
        <ele>144</ele>
        <time>2025-07-27T07:20:25Z</time>
      </trkpt>
      <trkpt lat="47.67103167" lon="19.08602167">
        <ele>143.7</ele>
        <time>2025-07-27T07:20:32Z</time>
      </trkpt>
      <trkpt lat="47.67102833" lon="19.085885">
        <ele>142.2</ele>
        <time>2025-07-27T07:20:45Z</time>
      </trkpt>
      <trkpt lat="47.67107" lon="19.08574667">
        <ele>140.2</ele>
        <time>2025-07-27T07:20:56Z</time>
      </trkpt>
      <trkpt lat="47.671175" lon="19.085605">
        <ele>136.5</ele>
        <time>2025-07-27T07:21:02Z</time>
      </trkpt>
      <trkpt lat="47.67123" lon="19.08549333">
        <ele>135.1</ele>
        <time>2025-07-27T07:21:06Z</time>
      </trkpt>
      <trkpt lat="47.67131667" lon="19.08543">
        <ele>134.9</ele>
        <time>2025-07-27T07:21:10Z</time>
      </trkpt>
      <trkpt lat="47.67139333" lon="19.08535333">
        <ele>133.5</ele>
        <time>2025-07-27T07:21:15Z</time>
      </trkpt>
      <trkpt lat="47.671385" lon="19.085175">
        <ele>125.2</ele>
        <time>2025-07-27T07:21:22Z</time>
      </trkpt>
      <trkpt lat="47.67128667" lon="19.085095">
        <ele>111.9</ele>
        <time>2025-07-27T07:21:34Z</time>
      </trkpt>
      <trkpt lat="47.67120333" lon="19.084995">
        <ele>107.6</ele>
        <time>2025-07-27T07:21:40Z</time>
      </trkpt>
      <trkpt lat="47.67116667" lon="19.08485167">
        <ele>105</ele>
        <time>2025-07-27T07:21:45Z</time>
      </trkpt>
      <trkpt lat="47.671125" lon="19.08473167">
        <ele>104.1</ele>
        <time>2025-07-27T07:21:51Z</time>
      </trkpt>
      <trkpt lat="47.67104" lon="19.08464333">
        <ele>104</ele>
        <time>2025-07-27T07:21:58Z</time>
      </trkpt>
      <trkpt lat="47.67097333" lon="19.08454167">
        <ele>103.6</ele>
        <time>2025-07-27T07:22:04Z</time>
      </trkpt>
      <trkpt lat="47.67087333" lon="19.084475">
        <ele>105.9</ele>
        <time>2025-07-27T07:22:09Z</time>
      </trkpt>
      <trkpt lat="47.670795" lon="19.08439">
        <ele>109.7</ele>
        <time>2025-07-27T07:22:15Z</time>
      </trkpt>
      <trkpt lat="47.67070667" lon="19.084285">
        <ele>109.9</ele>
        <time>2025-07-27T07:22:20Z</time>
      </trkpt>
      <trkpt lat="47.67065167" lon="19.08415167">
        <ele>109.3</ele>
        <time>2025-07-27T07:22:23Z</time>
      </trkpt>
      <trkpt lat="47.67057667" lon="19.084065">
        <ele>110.8</ele>
        <time>2025-07-27T07:22:28Z</time>
      </trkpt>
      <trkpt lat="47.67052" lon="19.08395167">
        <ele>107.9</ele>
        <time>2025-07-27T07:22:33Z</time>
      </trkpt>
      <trkpt lat="47.67046833" lon="19.083825">
        <ele>106.9</ele>
        <time>2025-07-27T07:22:42Z</time>
      </trkpt>
      <trkpt lat="47.67037333" lon="19.08379333">
        <ele>109</ele>
        <time>2025-07-27T07:22:49Z</time>
      </trkpt>
      <trkpt lat="47.67034" lon="19.083665">
        <ele>108.6</ele>
        <time>2025-07-27T07:22:54Z</time>
      </trkpt>
      <trkpt lat="47.67040667" lon="19.083065">
        <ele>133.9</ele>
        <time>2025-07-27T07:23:01Z</time>
      </trkpt>
      <trkpt lat="47.67054" lon="19.08271833">
        <ele>136.2</ele>
        <time>2025-07-27T07:23:02Z</time>
      </trkpt>
      <trkpt lat="47.67045833" lon="19.08263667">
        <ele>138.2</ele>
        <time>2025-07-27T07:23:04Z</time>
      </trkpt>
      <trkpt lat="47.67018667" lon="19.08245">
        <ele>141</ele>
        <time>2025-07-27T07:23:07Z</time>
      </trkpt>
      <trkpt lat="47.670025" lon="19.08236667">
        <ele>139.7</ele>
        <time>2025-07-27T07:23:08Z</time>
      </trkpt>
      <trkpt lat="47.669905" lon="19.082275">
        <ele>138.9</ele>
        <time>2025-07-27T07:23:09Z</time>
      </trkpt>
      <trkpt lat="47.669595" lon="19.08221">
        <ele>139.4</ele>
        <time>2025-07-27T07:23:11Z</time>
      </trkpt>
      <trkpt lat="47.66952" lon="19.08232667">
        <ele>139.9</ele>
        <time>2025-07-27T07:23:12Z</time>
      </trkpt>
      <trkpt lat="47.66947333" lon="19.082675">
        <ele>135.9</ele>
        <time>2025-07-27T07:23:13Z</time>
      </trkpt>
      <trkpt lat="47.669475" lon="19.082915">
        <ele>139.6</ele>
        <time>2025-07-27T07:23:14Z</time>
      </trkpt>
      <trkpt lat="47.66957" lon="19.08306667">
        <ele>139.7</ele>
        <time>2025-07-27T07:23:16Z</time>
      </trkpt>
      <trkpt lat="47.66968" lon="19.08310167">
        <ele>142.6</ele>
        <time>2025-07-27T07:23:19Z</time>
      </trkpt>
      <trkpt lat="47.66975333" lon="19.08302167">
        <ele>141</ele>
        <time>2025-07-27T07:23:29Z</time>
      </trkpt>
      <trkpt lat="47.66974667" lon="19.082875">
        <ele>141.5</ele>
        <time>2025-07-27T07:23:35Z</time>
      </trkpt>
      <trkpt lat="47.66970167" lon="19.08273833">
        <ele>144.1</ele>
        <time>2025-07-27T07:23:41Z</time>
      </trkpt>
      <trkpt lat="47.66964833" lon="19.08260667">
        <ele>145.8</ele>
        <time>2025-07-27T07:23:46Z</time>
      </trkpt>
      <trkpt lat="47.66970833" lon="19.08250333">
        <ele>147.7</ele>
        <time>2025-07-27T07:24:04Z</time>
      </trkpt>
      <trkpt lat="47.66978667" lon="19.08241833">
        <ele>147.1</ele>
        <time>2025-07-27T07:24:16Z</time>
      </trkpt>
      <trkpt lat="47.66984" lon="19.08237">
        <ele>152.5</ele>
        <time>2025-07-27T07:26:22Z</time>
      </trkpt>
      <trkpt lat="47.66990833" lon="19.08227167">
        <ele>154.3</ele>
        <time>2025-07-27T07:26:34Z</time>
      </trkpt>
      <trkpt lat="47.66998167" lon="19.08217667">
        <ele>157.1</ele>
        <time>2025-07-27T07:26:43Z</time>
      </trkpt>
    </trkseg>
  </trk>
</gpx>