<?xml version='1.0' encoding='UTF-8' standalone='yes' ?>
<gpx xmlns="http://www.topografix.com/GPX/1/1" xmlns:geotracker="http://ilyabogdanovich.com/gpx/extensions/geotracker" xmlns:xsi="http://www.w3.org/2001/XMLSchema-instance" xsi:schemaLocation="http://www.topografix.com/GPX/1/1 http://www.topografix.com/GPX/1/1/gpx.xsd" version="1.1" creator="Recorded in Geo Tracker for Android from Ilya Bogdanovich">
  <metadata>
    <name>e_0720_02</name>
    <author>
      <name>Recorded in Geo Tracker for Android from Ilya Bogdanovich</name>
      <link href="https://play.google.com/store/apps/details?id=com.ilyabogdanovich.geotracker" />
    </author>
    <link href="https://play.google.com/store/apps/details?id=com.ilyabogdanovich.geotracker" />
    <time>2025-07-20T08:52:50Z</time>
  </metadata>
  <wpt lat="46.24871667" lon="18.85696">
    <ele>127.6</ele>
    <time>2025-07-20T08:54:47Z</time>
    <name>Stop for ~2 min</name>
    <desc>Elevation: 128 m
Time from start: 00:01:56
Distance from start: 48 m</desc>
    <extensions>
      <geotracker:meta visited="1" />
    </extensions>
  </wpt>
  <trk>
    <name>e_0720_02</name>
    <src>Recorded in Geo Tracker for Android from Ilya Bogdanovich</src>
    <link href="https://play.google.com/store/apps/details?id=com.ilyabogdanovich.geotracker" />
    <extensions>
      <geotracker:meta>
        <geotracker:length>7560.04</geotracker:length>
        <geotracker:duration>2299257</geotracker:duration>
        <geotracker:creationtime>2025-07-20T08:52:50Z</geotracker:creationtime>
        <geotracker:activity>0</geotracker:activity>
      </geotracker:meta>
    </extensions>
    <trkseg>
      <trkpt lat="46.24872833" lon="18.85691167">
        <ele>128.2</ele>
        <time>2025-07-20T08:52:59Z</time>
      </trkpt>
      <trkpt lat="46.248595" lon="18.856985">
        <ele>127.8</ele>
        <time>2025-07-20T08:53:43Z</time>
      </trkpt>
      <trkpt lat="46.248685" lon="18.85691833">
        <ele>127.5</ele>
        <time>2025-07-20T08:53:52Z</time>
      </trkpt>
      <trkpt lat="46.24877833" lon="18.85686333">
        <ele>127</ele>
        <time>2025-07-20T08:54:08Z</time>
      </trkpt>
      <trkpt lat="46.24871667" lon="18.85696">
        <ele>127.6</ele>
        <time>2025-07-20T08:54:47Z</time>
      </trkpt>
      <trkpt lat="46.248725" lon="18.856945">
        <ele>129</ele>
        <time>2025-07-20T08:56:53Z</time>
      </trkpt>
      <trkpt lat="46.24859167" lon="18.85693167">
        <ele>129.5</ele>
        <time>2025-07-20T08:57:33Z</time>
      </trkpt>
      <trkpt lat="46.24845667" lon="18.85690333">
        <ele>129.3</ele>
        <time>2025-07-20T08:57:41Z</time>
      </trkpt>
      <trkpt lat="46.24832333" lon="18.85688333">
        <ele>129.6</ele>
        <time>2025-07-20T08:57:45Z</time>
      </trkpt>
      <trkpt lat="46.248225" lon="18.85682">
        <ele>130.4</ele>
        <time>2025-07-20T08:57:48Z</time>
      </trkpt>
      <trkpt lat="46.24812167" lon="18.85683167">
        <ele>131.9</ele>
        <time>2025-07-20T08:57:53Z</time>
      </trkpt>
      <trkpt lat="46.24796" lon="18.85682667">
        <ele>133.1</ele>
        <time>2025-07-20T08:57:57Z</time>
      </trkpt>
      <trkpt lat="46.24786333" lon="18.85682833">
        <ele>133.6</ele>
        <time>2025-07-20T08:58:00Z</time>
      </trkpt>
      <trkpt lat="46.24775333" lon="18.85684">
        <ele>134.1</ele>
        <time>2025-07-20T08:58:03Z</time>
      </trkpt>
      <trkpt lat="46.24764333" lon="18.85685167">
        <ele>133.9</ele>
        <time>2025-07-20T08:58:07Z</time>
      </trkpt>
      <trkpt lat="46.24753" lon="18.85689667">
        <ele>133.3</ele>
        <time>2025-07-20T08:58:10Z</time>
      </trkpt>
      <trkpt lat="46.24739667" lon="18.85693">
        <ele>132.7</ele>
        <time>2025-07-20T08:58:13Z</time>
      </trkpt>
      <trkpt lat="46.24726167" lon="18.85695">
        <ele>131.7</ele>
        <time>2025-07-20T08:58:16Z</time>
      </trkpt>
      <trkpt lat="46.24713833" lon="18.85697667">
        <ele>130.9</ele>
        <time>2025-07-20T08:58:19Z</time>
      </trkpt>
      <trkpt lat="46.24701333" lon="18.85697333">
        <ele>130.1</ele>
        <time>2025-07-20T08:58:22Z</time>
      </trkpt>
      <trkpt lat="46.24692333" lon="18.85699333">
        <ele>129</ele>
        <time>2025-07-20T08:58:26Z</time>
      </trkpt>
      <trkpt lat="46.24682667" lon="18.857015">
        <ele>128.2</ele>
        <time>2025-07-20T08:58:29Z</time>
      </trkpt>
      <trkpt lat="46.246725" lon="18.857025">
        <ele>126.9</ele>
        <time>2025-07-20T08:58:34Z</time>
      </trkpt>
      <trkpt lat="46.24661" lon="18.857025">
        <ele>125.6</ele>
        <time>2025-07-20T08:58:39Z</time>
      </trkpt>
      <trkpt lat="46.246505" lon="18.85704">
        <ele>124.4</ele>
        <time>2025-07-20T08:58:43Z</time>
      </trkpt>
      <trkpt lat="46.24639167" lon="18.85704">
        <ele>123.5</ele>
        <time>2025-07-20T08:58:47Z</time>
      </trkpt>
      <trkpt lat="46.24627167" lon="18.85705">
        <ele>122.7</ele>
        <time>2025-07-20T08:58:50Z</time>
      </trkpt>
      <trkpt lat="46.24617333" lon="18.85705833">
        <ele>122</ele>
        <time>2025-07-20T08:58:53Z</time>
      </trkpt>
      <trkpt lat="46.24605667" lon="18.85708">
        <ele>121.3</ele>
        <time>2025-07-20T08:58:56Z</time>
      </trkpt>
      <trkpt lat="46.24593833" lon="18.85711">
        <ele>120.5</ele>
        <time>2025-07-20T08:58:59Z</time>
      </trkpt>
      <trkpt lat="46.24581333" lon="18.85714833">
        <ele>119.8</ele>
        <time>2025-07-20T08:59:02Z</time>
      </trkpt>
      <trkpt lat="46.24567" lon="18.85717333">
        <ele>118.9</ele>
        <time>2025-07-20T08:59:05Z</time>
      </trkpt>
      <trkpt lat="46.24555667" lon="18.857165">
        <ele>118.3</ele>
        <time>2025-07-20T08:59:07Z</time>
      </trkpt>
      <trkpt lat="46.245445" lon="18.85717333">
        <ele>117.7</ele>
        <time>2025-07-20T08:59:09Z</time>
      </trkpt>
      <trkpt lat="46.24534833" lon="18.85716833">
        <ele>117.1</ele>
        <time>2025-07-20T08:59:11Z</time>
      </trkpt>
      <trkpt lat="46.24524833" lon="18.85715333">
        <ele>116.1</ele>
        <time>2025-07-20T08:59:13Z</time>
      </trkpt>
      <trkpt lat="46.24513167" lon="18.85714333">
        <ele>115.6</ele>
        <time>2025-07-20T08:59:16Z</time>
      </trkpt>
      <trkpt lat="46.24502667" lon="18.85714333">
        <ele>114.8</ele>
        <time>2025-07-20T08:59:18Z</time>
      </trkpt>
      <trkpt lat="46.24491833" lon="18.85714667">
        <ele>113.5</ele>
        <time>2025-07-20T08:59:20Z</time>
      </trkpt>
      <trkpt lat="46.24478833" lon="18.85714167">
        <ele>112.2</ele>
        <time>2025-07-20T08:59:23Z</time>
      </trkpt>
      <trkpt lat="46.24468333" lon="18.85712667">
        <ele>111.4</ele>
        <time>2025-07-20T08:59:26Z</time>
      </trkpt>
      <trkpt lat="46.24459167" lon="18.85712167">
        <ele>110.6</ele>
        <time>2025-07-20T08:59:29Z</time>
      </trkpt>
      <trkpt lat="46.24449167" lon="18.85712833">
        <ele>109.8</ele>
        <time>2025-07-20T08:59:32Z</time>
      </trkpt>
      <trkpt lat="46.244395" lon="18.85714">
        <ele>109.1</ele>
        <time>2025-07-20T08:59:35Z</time>
      </trkpt>
      <trkpt lat="46.244285" lon="18.85715833">
        <ele>108.3</ele>
        <time>2025-07-20T08:59:38Z</time>
      </trkpt>
      <trkpt lat="46.24418167" lon="18.85714667">
        <ele>107.2</ele>
        <time>2025-07-20T08:59:42Z</time>
      </trkpt>
      <trkpt lat="46.24407667" lon="18.857155">
        <ele>106.6</ele>
        <time>2025-07-20T08:59:45Z</time>
      </trkpt>
      <trkpt lat="46.24396667" lon="18.85714667">
        <ele>105.9</ele>
        <time>2025-07-20T08:59:49Z</time>
      </trkpt>
      <trkpt lat="46.24386333" lon="18.857145">
        <ele>105.3</ele>
        <time>2025-07-20T08:59:51Z</time>
      </trkpt>
      <trkpt lat="46.24372833" lon="18.85713833">
        <ele>104.6</ele>
        <time>2025-07-20T08:59:54Z</time>
      </trkpt>
      <trkpt lat="46.24363667" lon="18.857135">
        <ele>104.1</ele>
        <time>2025-07-20T08:59:56Z</time>
      </trkpt>
      <trkpt lat="46.24354667" lon="18.85712">
        <ele>103.5</ele>
        <time>2025-07-20T08:59:58Z</time>
      </trkpt>
      <trkpt lat="46.24344333" lon="18.857125">
        <ele>103</ele>
        <time>2025-07-20T09:00:00Z</time>
      </trkpt>
      <trkpt lat="46.24333833" lon="18.85713">
        <ele>102.4</ele>
        <time>2025-07-20T09:00:02Z</time>
      </trkpt>
      <trkpt lat="46.24324" lon="18.857135">
        <ele>101.7</ele>
        <time>2025-07-20T09:00:04Z</time>
      </trkpt>
      <trkpt lat="46.24313333" lon="18.85714667">
        <ele>101</ele>
        <time>2025-07-20T09:00:06Z</time>
      </trkpt>
      <trkpt lat="46.24303333" lon="18.85716167">
        <ele>100.4</ele>
        <time>2025-07-20T09:00:08Z</time>
      </trkpt>
      <trkpt lat="46.24291333" lon="18.85718">
        <ele>99.9</ele>
        <time>2025-07-20T09:00:10Z</time>
      </trkpt>
      <trkpt lat="46.242805" lon="18.857185">
        <ele>99.3</ele>
        <time>2025-07-20T09:00:12Z</time>
      </trkpt>
      <trkpt lat="46.24270167" lon="18.85718167">
        <ele>98.8</ele>
        <time>2025-07-20T09:00:14Z</time>
      </trkpt>
      <trkpt lat="46.24259833" lon="18.85718167">
        <ele>98.5</ele>
        <time>2025-07-20T09:00:16Z</time>
      </trkpt>
      <trkpt lat="46.24250167" lon="18.85717167">
        <ele>98.3</ele>
        <time>2025-07-20T09:00:18Z</time>
      </trkpt>
      <trkpt lat="46.24239833" lon="18.857165">
        <ele>97.9</ele>
        <time>2025-07-20T09:00:20Z</time>
      </trkpt>
      <trkpt lat="46.242305" lon="18.85716667">
        <ele>97.3</ele>
        <time>2025-07-20T09:00:22Z</time>
      </trkpt>
      <trkpt lat="46.2422" lon="18.85715">
        <ele>96.3</ele>
        <time>2025-07-20T09:00:24Z</time>
      </trkpt>
      <trkpt lat="46.24209333" lon="18.85712667">
        <ele>95.7</ele>
        <time>2025-07-20T09:00:27Z</time>
      </trkpt>
      <trkpt lat="46.24198833" lon="18.85711333">
        <ele>95</ele>
        <time>2025-07-20T09:00:31Z</time>
      </trkpt>
      <trkpt lat="46.24185333" lon="18.85715833">
        <ele>94.6</ele>
        <time>2025-07-20T09:00:34Z</time>
      </trkpt>
      <trkpt lat="46.24174667" lon="18.85716167">
        <ele>93.7</ele>
        <time>2025-07-20T09:00:36Z</time>
      </trkpt>
      <trkpt lat="46.24164667" lon="18.85716833">
        <ele>93.1</ele>
        <time>2025-07-20T09:00:38Z</time>
      </trkpt>
      <trkpt lat="46.24151667" lon="18.85718167">
        <ele>92.7</ele>
        <time>2025-07-20T09:00:40Z</time>
      </trkpt>
      <trkpt lat="46.24137833" lon="18.85717167">
        <ele>92.7</ele>
        <time>2025-07-20T09:00:42Z</time>
      </trkpt>
      <trkpt lat="46.24125167" lon="18.85717">
        <ele>92.8</ele>
        <time>2025-07-20T09:00:44Z</time>
      </trkpt>
      <trkpt lat="46.241145" lon="18.85718333">
        <ele>92.7</ele>
        <time>2025-07-20T09:00:46Z</time>
      </trkpt>
      <trkpt lat="46.24104333" lon="18.85718667">
        <ele>92.1</ele>
        <time>2025-07-20T09:00:48Z</time>
      </trkpt>
      <trkpt lat="46.240895" lon="18.85717667">
        <ele>92.2</ele>
        <time>2025-07-20T09:00:50Z</time>
      </trkpt>
      <trkpt lat="46.24077833" lon="18.857185">
        <ele>92.4</ele>
        <time>2025-07-20T09:00:52Z</time>
      </trkpt>
      <trkpt lat="46.24065833" lon="18.85718167">
        <ele>92</ele>
        <time>2025-07-20T09:00:54Z</time>
      </trkpt>
      <trkpt lat="46.24052" lon="18.85718333">
        <ele>91.6</ele>
        <time>2025-07-20T09:00:57Z</time>
      </trkpt>
      <trkpt lat="46.24039667" lon="18.8572">
        <ele>91.5</ele>
        <time>2025-07-20T09:00:59Z</time>
      </trkpt>
      <trkpt lat="46.24026667" lon="18.85721833">
        <ele>91.1</ele>
        <time>2025-07-20T09:01:01Z</time>
      </trkpt>
      <trkpt lat="46.24014833" lon="18.857235">
        <ele>90.4</ele>
        <time>2025-07-20T09:01:03Z</time>
      </trkpt>
      <trkpt lat="46.24003" lon="18.857235">
        <ele>89.9</ele>
        <time>2025-07-20T09:01:06Z</time>
      </trkpt>
      <trkpt lat="46.23990833" lon="18.857235">
        <ele>89.8</ele>
        <time>2025-07-20T09:01:08Z</time>
      </trkpt>
      <trkpt lat="46.23976333" lon="18.857245">
        <ele>89.5</ele>
        <time>2025-07-20T09:01:12Z</time>
      </trkpt>
      <trkpt lat="46.23965167" lon="18.85725833">
        <ele>89.6</ele>
        <time>2025-07-20T09:01:16Z</time>
      </trkpt>
      <trkpt lat="46.23954333" lon="18.85724333">
        <ele>90.9</ele>
        <time>2025-07-20T09:01:20Z</time>
      </trkpt>
      <trkpt lat="46.23944333" lon="18.85724333">
        <ele>91.7</ele>
        <time>2025-07-20T09:01:23Z</time>
      </trkpt>
      <trkpt lat="46.239345" lon="18.85724">
        <ele>92.6</ele>
        <time>2025-07-20T09:01:26Z</time>
      </trkpt>
      <trkpt lat="46.23921833" lon="18.85723167">
        <ele>93.5</ele>
        <time>2025-07-20T09:01:29Z</time>
      </trkpt>
      <trkpt lat="46.23907833" lon="18.85722833">
        <ele>93.8</ele>
        <time>2025-07-20T09:01:32Z</time>
      </trkpt>
      <trkpt lat="46.23898833" lon="18.85721833">
        <ele>93.9</ele>
        <time>2025-07-20T09:01:34Z</time>
      </trkpt>
      <trkpt lat="46.23888" lon="18.85721833">
        <ele>93.8</ele>
        <time>2025-07-20T09:01:37Z</time>
      </trkpt>
      <trkpt lat="46.23878" lon="18.85721333">
        <ele>93.5</ele>
        <time>2025-07-20T09:01:39Z</time>
      </trkpt>
      <trkpt lat="46.23869" lon="18.8572">
        <ele>93.3</ele>
        <time>2025-07-20T09:01:41Z</time>
      </trkpt>
      <trkpt lat="46.238575" lon="18.85722167">
        <ele>93.9</ele>
        <time>2025-07-20T09:01:44Z</time>
      </trkpt>
      <trkpt lat="46.23846167" lon="18.85727167">
        <ele>94.3</ele>
        <time>2025-07-20T09:01:48Z</time>
      </trkpt>
      <trkpt lat="46.23836667" lon="18.85725667">
        <ele>95</ele>
        <time>2025-07-20T09:01:52Z</time>
      </trkpt>
      <trkpt lat="46.23826167" lon="18.85725333">
        <ele>95.7</ele>
        <time>2025-07-20T09:01:55Z</time>
      </trkpt>
      <trkpt lat="46.23817167" lon="18.85723667">
        <ele>96.6</ele>
        <time>2025-07-20T09:01:58Z</time>
      </trkpt>
      <trkpt lat="46.23805833" lon="18.857225">
        <ele>97.4</ele>
        <time>2025-07-20T09:02:01Z</time>
      </trkpt>
      <trkpt lat="46.23793667" lon="18.857235">
        <ele>97.3</ele>
        <time>2025-07-20T09:02:04Z</time>
      </trkpt>
      <trkpt lat="46.23784167" lon="18.85724333">
        <ele>97.6</ele>
        <time>2025-07-20T09:02:07Z</time>
      </trkpt>
      <trkpt lat="46.237725" lon="18.85727333">
        <ele>98.8</ele>
        <time>2025-07-20T09:02:12Z</time>
      </trkpt>
      <trkpt lat="46.23760667" lon="18.85726833">
        <ele>99.5</ele>
        <time>2025-07-20T09:02:16Z</time>
      </trkpt>
      <trkpt lat="46.2375" lon="18.85725833">
        <ele>100.6</ele>
        <time>2025-07-20T09:02:20Z</time>
      </trkpt>
      <trkpt lat="46.23739833" lon="18.85727">
        <ele>101.8</ele>
        <time>2025-07-20T09:02:25Z</time>
      </trkpt>
      <trkpt lat="46.23729667" lon="18.8573">
        <ele>101.3</ele>
        <time>2025-07-20T09:02:28Z</time>
      </trkpt>
      <trkpt lat="46.23720667" lon="18.85732">
        <ele>101.2</ele>
        <time>2025-07-20T09:02:31Z</time>
      </trkpt>
      <trkpt lat="46.23711" lon="18.857325">
        <ele>102.2</ele>
        <time>2025-07-20T09:02:36Z</time>
      </trkpt>
      <trkpt lat="46.23701333" lon="18.85731167">
        <ele>103.4</ele>
        <time>2025-07-20T09:02:42Z</time>
      </trkpt>
      <trkpt lat="46.23692333" lon="18.85730667">
        <ele>107</ele>
        <time>2025-07-20T09:04:04Z</time>
      </trkpt>
      <trkpt lat="46.23683333" lon="18.8573">
        <ele>107</ele>
        <time>2025-07-20T09:04:11Z</time>
      </trkpt>
      <trkpt lat="46.23670833" lon="18.85729667">
        <ele>107.1</ele>
        <time>2025-07-20T09:04:19Z</time>
      </trkpt>
      <trkpt lat="46.23660667" lon="18.85727">
        <ele>107.1</ele>
        <time>2025-07-20T09:04:26Z</time>
      </trkpt>
      <trkpt lat="46.236515" lon="18.85727667">
        <ele>107.3</ele>
        <time>2025-07-20T09:04:29Z</time>
      </trkpt>
      <trkpt lat="46.23641" lon="18.85727833">
        <ele>107.3</ele>
        <time>2025-07-20T09:04:35Z</time>
      </trkpt>
      <trkpt lat="46.23631167" lon="18.85726167">
        <ele>107.1</ele>
        <time>2025-07-20T09:04:40Z</time>
      </trkpt>
      <trkpt lat="46.23620667" lon="18.85726333">
        <ele>107</ele>
        <time>2025-07-20T09:04:44Z</time>
      </trkpt>
      <trkpt lat="46.23611333" lon="18.85725833">
        <ele>106.9</ele>
        <time>2025-07-20T09:04:47Z</time>
      </trkpt>
      <trkpt lat="46.23599333" lon="18.85725833">
        <ele>106.9</ele>
        <time>2025-07-20T09:04:51Z</time>
      </trkpt>
      <trkpt lat="46.23590333" lon="18.85722667">
        <ele>106.7</ele>
        <time>2025-07-20T09:04:54Z</time>
      </trkpt>
      <trkpt lat="46.23581167" lon="18.85721167">
        <ele>106.7</ele>
        <time>2025-07-20T09:04:56Z</time>
      </trkpt>
      <trkpt lat="46.23568667" lon="18.857195">
        <ele>106.6</ele>
        <time>2025-07-20T09:04:59Z</time>
      </trkpt>
      <trkpt lat="46.23558833" lon="18.85717">
        <ele>106.6</ele>
        <time>2025-07-20T09:05:02Z</time>
      </trkpt>
      <trkpt lat="46.23548667" lon="18.857135">
        <ele>106.7</ele>
        <time>2025-07-20T09:05:05Z</time>
      </trkpt>
      <trkpt lat="46.23539667" lon="18.85710333">
        <ele>106.8</ele>
        <time>2025-07-20T09:05:08Z</time>
      </trkpt>
      <trkpt lat="46.23529" lon="18.85709167">
        <ele>106.8</ele>
        <time>2025-07-20T09:05:11Z</time>
      </trkpt>
      <trkpt lat="46.235175" lon="18.85708833">
        <ele>106.8</ele>
        <time>2025-07-20T09:05:14Z</time>
      </trkpt>
      <trkpt lat="46.235055" lon="18.85706667">
        <ele>106.8</ele>
        <time>2025-07-20T09:05:18Z</time>
      </trkpt>
      <trkpt lat="46.23494333" lon="18.85708833">
        <ele>107</ele>
        <time>2025-07-20T09:05:21Z</time>
      </trkpt>
      <trkpt lat="46.23484" lon="18.85711833">
        <ele>107.2</ele>
        <time>2025-07-20T09:05:24Z</time>
      </trkpt>
      <trkpt lat="46.234715" lon="18.85716167">
        <ele>107.3</ele>
        <time>2025-07-20T09:05:28Z</time>
      </trkpt>
      <trkpt lat="46.234615" lon="18.857235">
        <ele>107.3</ele>
        <time>2025-07-20T09:05:32Z</time>
      </trkpt>
      <trkpt lat="46.234505" lon="18.85730167">
        <ele>107.3</ele>
        <time>2025-07-20T09:05:35Z</time>
      </trkpt>
      <trkpt lat="46.23438667" lon="18.85735167">
        <ele>107.2</ele>
        <time>2025-07-20T09:05:38Z</time>
      </trkpt>
      <trkpt lat="46.23428667" lon="18.85738667">
        <ele>107.2</ele>
        <time>2025-07-20T09:05:40Z</time>
      </trkpt>
      <trkpt lat="46.2342" lon="18.857435">
        <ele>107.1</ele>
        <time>2025-07-20T09:05:43Z</time>
      </trkpt>
      <trkpt lat="46.23409667" lon="18.85748833">
        <ele>107.1</ele>
        <time>2025-07-20T09:05:46Z</time>
      </trkpt>
      <trkpt lat="46.23394667" lon="18.85756">
        <ele>107.1</ele>
        <time>2025-07-20T09:05:49Z</time>
      </trkpt>
      <trkpt lat="46.23381333" lon="18.85760667">
        <ele>107.1</ele>
        <time>2025-07-20T09:05:51Z</time>
      </trkpt>
      <trkpt lat="46.23366333" lon="18.85766">
        <ele>107.3</ele>
        <time>2025-07-20T09:05:53Z</time>
      </trkpt>
      <trkpt lat="46.23354333" lon="18.857675">
        <ele>107.5</ele>
        <time>2025-07-20T09:05:55Z</time>
      </trkpt>
      <trkpt lat="46.23344167" lon="18.85772">
        <ele>107.7</ele>
        <time>2025-07-20T09:05:57Z</time>
      </trkpt>
      <trkpt lat="46.23333667" lon="18.857765">
        <ele>107.7</ele>
        <time>2025-07-20T09:05:59Z</time>
      </trkpt>
      <trkpt lat="46.23322333" lon="18.85781">
        <ele>107.7</ele>
        <time>2025-07-20T09:06:01Z</time>
      </trkpt>
      <trkpt lat="46.23313333" lon="18.85786833">
        <ele>107.6</ele>
        <time>2025-07-20T09:06:03Z</time>
      </trkpt>
      <trkpt lat="46.23301833" lon="18.85790833">
        <ele>107.6</ele>
        <time>2025-07-20T09:06:05Z</time>
      </trkpt>
      <trkpt lat="46.23292167" lon="18.85792833">
        <ele>107.7</ele>
        <time>2025-07-20T09:06:07Z</time>
      </trkpt>
      <trkpt lat="46.23275167" lon="18.85794167">
        <ele>107.7</ele>
        <time>2025-07-20T09:06:09Z</time>
      </trkpt>
      <trkpt lat="46.23265833" lon="18.85793667">
        <ele>107.7</ele>
        <time>2025-07-20T09:06:10Z</time>
      </trkpt>
      <trkpt lat="46.23249" lon="18.85793833">
        <ele>107.6</ele>
        <time>2025-07-20T09:06:12Z</time>
      </trkpt>
      <trkpt lat="46.23236" lon="18.85798">
        <ele>107.5</ele>
        <time>2025-07-20T09:06:14Z</time>
      </trkpt>
      <trkpt lat="46.23223333" lon="18.85802">
        <ele>107.4</ele>
        <time>2025-07-20T09:06:16Z</time>
      </trkpt>
      <trkpt lat="46.23213167" lon="18.85805833">
        <ele>107.3</ele>
        <time>2025-07-20T09:06:18Z</time>
      </trkpt>
      <trkpt lat="46.23202667" lon="18.85810667">
        <ele>107.2</ele>
        <time>2025-07-20T09:06:20Z</time>
      </trkpt>
      <trkpt lat="46.23190667" lon="18.85818">
        <ele>107</ele>
        <time>2025-07-20T09:06:23Z</time>
      </trkpt>
      <trkpt lat="46.23179667" lon="18.85822667">
        <ele>106.8</ele>
        <time>2025-07-20T09:06:26Z</time>
      </trkpt>
      <trkpt lat="46.23169833" lon="18.85826833">
        <ele>106.5</ele>
        <time>2025-07-20T09:06:30Z</time>
      </trkpt>
      <trkpt lat="46.23161167" lon="18.85831">
        <ele>106.3</ele>
        <time>2025-07-20T09:06:32Z</time>
      </trkpt>
      <trkpt lat="46.23151167" lon="18.85833">
        <ele>106</ele>
        <time>2025-07-20T09:06:34Z</time>
      </trkpt>
      <trkpt lat="46.231415" lon="18.85838167">
        <ele>105.6</ele>
        <time>2025-07-20T09:06:37Z</time>
      </trkpt>
      <trkpt lat="46.231335" lon="18.85844833">
        <ele>104.9</ele>
        <time>2025-07-20T09:06:43Z</time>
      </trkpt>
      <trkpt lat="46.23122167" lon="18.85854">
        <ele>104.8</ele>
        <time>2025-07-20T09:06:45Z</time>
      </trkpt>
      <trkpt lat="46.23106667" lon="18.85864833">
        <ele>104.5</ele>
        <time>2025-07-20T09:06:49Z</time>
      </trkpt>
      <trkpt lat="46.230995" lon="18.85873333">
        <ele>104.4</ele>
        <time>2025-07-20T09:06:52Z</time>
      </trkpt>
      <trkpt lat="46.230895" lon="18.85879167">
        <ele>104.2</ele>
        <time>2025-07-20T09:06:55Z</time>
      </trkpt>
      <trkpt lat="46.23081167" lon="18.85885667">
        <ele>104.1</ele>
        <time>2025-07-20T09:06:57Z</time>
      </trkpt>
      <trkpt lat="46.23063667" lon="18.858985">
        <ele>103.7</ele>
        <time>2025-07-20T09:07:01Z</time>
      </trkpt>
      <trkpt lat="46.23048167" lon="18.85907333">
        <ele>103.5</ele>
        <time>2025-07-20T09:07:03Z</time>
      </trkpt>
      <trkpt lat="46.23036833" lon="18.85917667">
        <ele>103.2</ele>
        <time>2025-07-20T09:07:07Z</time>
      </trkpt>
      <trkpt lat="46.23023333" lon="18.85923333">
        <ele>103.1</ele>
        <time>2025-07-20T09:07:09Z</time>
      </trkpt>
      <trkpt lat="46.23014167" lon="18.85927333">
        <ele>102.9</ele>
        <time>2025-07-20T09:07:11Z</time>
      </trkpt>
      <trkpt lat="46.22998167" lon="18.85933833">
        <ele>102.8</ele>
        <time>2025-07-20T09:07:13Z</time>
      </trkpt>
      <trkpt lat="46.22987" lon="18.85939333">
        <ele>102.7</ele>
        <time>2025-07-20T09:07:14Z</time>
      </trkpt>
      <trkpt lat="46.229745" lon="18.859465">
        <ele>102.6</ele>
        <time>2025-07-20T09:07:17Z</time>
      </trkpt>
      <trkpt lat="46.22767" lon="18.86119167">
        <ele>114</ele>
        <time>2025-07-20T09:08:18Z</time>
      </trkpt>
      <trkpt lat="46.227575" lon="18.861215">
        <ele>118.1</ele>
        <time>2025-07-20T09:08:23Z</time>
      </trkpt>
      <trkpt lat="46.22743833" lon="18.86135667">
        <ele>116.4</ele>
        <time>2025-07-20T09:08:27Z</time>
      </trkpt>
      <trkpt lat="46.22735667" lon="18.86142333">
        <ele>116.6</ele>
        <time>2025-07-20T09:08:29Z</time>
      </trkpt>
      <trkpt lat="46.22724" lon="18.86149">
        <ele>116.3</ele>
        <time>2025-07-20T09:08:31Z</time>
      </trkpt>
      <trkpt lat="46.227125" lon="18.86155833">
        <ele>116.3</ele>
        <time>2025-07-20T09:08:34Z</time>
      </trkpt>
      <trkpt lat="46.22704167" lon="18.86162667">
        <ele>116.6</ele>
        <time>2025-07-20T09:08:36Z</time>
      </trkpt>
      <trkpt lat="46.226945" lon="18.861655">
        <ele>116.9</ele>
        <time>2025-07-20T09:08:38Z</time>
      </trkpt>
      <trkpt lat="46.22681667" lon="18.86170667">
        <ele>117.1</ele>
        <time>2025-07-20T09:08:40Z</time>
      </trkpt>
      <trkpt lat="46.22671" lon="18.86175167">
        <ele>117.2</ele>
        <time>2025-07-20T09:08:42Z</time>
      </trkpt>
      <trkpt lat="46.22663" lon="18.86184833">
        <ele>117.4</ele>
        <time>2025-07-20T09:08:44Z</time>
      </trkpt>
      <trkpt lat="46.226535" lon="18.86191">
        <ele>107.9</ele>
        <time>2025-07-20T09:08:47Z</time>
      </trkpt>
      <trkpt lat="46.22644167" lon="18.86199667">
        <ele>108</ele>
        <time>2025-07-20T09:08:49Z</time>
      </trkpt>
      <trkpt lat="46.22627667" lon="18.86207667">
        <ele>107.8</ele>
        <time>2025-07-20T09:08:51Z</time>
      </trkpt>
      <trkpt lat="46.22616167" lon="18.86213167">
        <ele>109.1</ele>
        <time>2025-07-20T09:08:53Z</time>
      </trkpt>
      <trkpt lat="46.22592667" lon="18.86220167">
        <ele>109.7</ele>
        <time>2025-07-20T09:08:55Z</time>
      </trkpt>
      <trkpt lat="46.22582333" lon="18.86224667">
        <ele>109.9</ele>
        <time>2025-07-20T09:08:56Z</time>
      </trkpt>
      <trkpt lat="46.22572" lon="18.86232833">
        <ele>110.7</ele>
        <time>2025-07-20T09:08:58Z</time>
      </trkpt>
      <trkpt lat="46.22563833" lon="18.86238833">
        <ele>111</ele>
        <time>2025-07-20T09:09:00Z</time>
      </trkpt>
      <trkpt lat="46.22554333" lon="18.86247333">
        <ele>112</ele>
        <time>2025-07-20T09:09:03Z</time>
      </trkpt>
      <trkpt lat="46.22543" lon="18.86255">
        <ele>112.7</ele>
        <time>2025-07-20T09:09:06Z</time>
      </trkpt>
      <trkpt lat="46.22531667" lon="18.862615">
        <ele>113.1</ele>
        <time>2025-07-20T09:09:10Z</time>
      </trkpt>
      <trkpt lat="46.2252" lon="18.86272333">
        <ele>112.8</ele>
        <time>2025-07-20T09:09:13Z</time>
      </trkpt>
      <trkpt lat="46.22509667" lon="18.86282833">
        <ele>113</ele>
        <time>2025-07-20T09:09:16Z</time>
      </trkpt>
      <trkpt lat="46.22405" lon="18.86379667">
        <ele>112.7</ele>
        <time>2025-07-20T09:09:40Z</time>
      </trkpt>
      <trkpt lat="46.22400333" lon="18.86398">
        <ele>112.5</ele>
        <time>2025-07-20T09:09:43Z</time>
      </trkpt>
      <trkpt lat="46.22394667" lon="18.86412333">
        <ele>112.2</ele>
        <time>2025-07-20T09:09:47Z</time>
      </trkpt>
      <trkpt lat="46.22387167" lon="18.86423333">
        <ele>112</ele>
        <time>2025-07-20T09:09:50Z</time>
      </trkpt>
      <trkpt lat="46.22385" lon="18.864375">
        <ele>111.6</ele>
        <time>2025-07-20T09:09:54Z</time>
      </trkpt>
      <trkpt lat="46.22378167" lon="18.86447333">
        <ele>111.4</ele>
        <time>2025-07-20T09:09:58Z</time>
      </trkpt>
      <trkpt lat="46.22373333" lon="18.86459167">
        <ele>111.2</ele>
        <time>2025-07-20T09:10:01Z</time>
      </trkpt>
      <trkpt lat="46.22368167" lon="18.86472">
        <ele>111.1</ele>
        <time>2025-07-20T09:10:04Z</time>
      </trkpt>
      <trkpt lat="46.22360333" lon="18.86483667">
        <ele>110.9</ele>
        <time>2025-07-20T09:10:07Z</time>
      </trkpt>
      <trkpt lat="46.22353333" lon="18.86497167">
        <ele>110.7</ele>
        <time>2025-07-20T09:10:09Z</time>
      </trkpt>
      <trkpt lat="46.22348333" lon="18.865085">
        <ele>110.5</ele>
        <time>2025-07-20T09:10:12Z</time>
      </trkpt>
      <trkpt lat="46.223385" lon="18.865215">
        <ele>110.2</ele>
        <time>2025-07-20T09:10:15Z</time>
      </trkpt>
      <trkpt lat="46.223265" lon="18.86532833">
        <ele>110</ele>
        <time>2025-07-20T09:10:17Z</time>
      </trkpt>
      <trkpt lat="46.22316833" lon="18.86539333">
        <ele>109.9</ele>
        <time>2025-07-20T09:10:18Z</time>
      </trkpt>
      <trkpt lat="46.22305833" lon="18.86549">
        <ele>109.7</ele>
        <time>2025-07-20T09:10:21Z</time>
      </trkpt>
      <trkpt lat="46.22294" lon="18.865505">
        <ele>109.3</ele>
        <time>2025-07-20T09:10:25Z</time>
      </trkpt>
      <trkpt lat="46.222795" lon="18.86554333">
        <ele>109.2</ele>
        <time>2025-07-20T09:10:30Z</time>
      </trkpt>
      <trkpt lat="46.22269833" lon="18.86553667">
        <ele>108.8</ele>
        <time>2025-07-20T09:10:35Z</time>
      </trkpt>
      <trkpt lat="46.22121333" lon="18.865045">
        <ele>117.7</ele>
        <time>2025-07-20T09:11:16Z</time>
      </trkpt>
      <trkpt lat="46.22110333" lon="18.86500667">
        <ele>111.1</ele>
        <time>2025-07-20T09:11:19Z</time>
      </trkpt>
      <trkpt lat="46.22108833" lon="18.86485833">
        <ele>112.1</ele>
        <time>2025-07-20T09:11:23Z</time>
      </trkpt>
      <trkpt lat="46.22109333" lon="18.86468833">
        <ele>110.1</ele>
        <time>2025-07-20T09:11:28Z</time>
      </trkpt>
      <trkpt lat="46.22099833" lon="18.86463167">
        <ele>109.5</ele>
        <time>2025-07-20T09:11:31Z</time>
      </trkpt>
      <trkpt lat="46.22085833" lon="18.86459167">
        <ele>108.8</ele>
        <time>2025-07-20T09:11:33Z</time>
      </trkpt>
      <trkpt lat="46.22080333" lon="18.86444833">
        <ele>115.3</ele>
        <time>2025-07-20T09:11:39Z</time>
      </trkpt>
      <trkpt lat="46.22075" lon="18.864335">
        <ele>117.1</ele>
        <time>2025-07-20T09:11:42Z</time>
      </trkpt>
      <trkpt lat="46.22069167" lon="18.86419833">
        <ele>121.7</ele>
        <time>2025-07-20T09:11:45Z</time>
      </trkpt>
      <trkpt lat="46.22064167" lon="18.86407">
        <ele>126.4</ele>
        <time>2025-07-20T09:11:49Z</time>
      </trkpt>
      <trkpt lat="46.22057" lon="18.86395667">
        <ele>128.5</ele>
        <time>2025-07-20T09:11:53Z</time>
      </trkpt>
      <trkpt lat="46.22050667" lon="18.86382333">
        <ele>130.1</ele>
        <time>2025-07-20T09:11:57Z</time>
      </trkpt>
      <trkpt lat="46.22044333" lon="18.86370333">
        <ele>131.8</ele>
        <time>2025-07-20T09:12:01Z</time>
      </trkpt>
      <trkpt lat="46.22039333" lon="18.863595">
        <ele>131.6</ele>
        <time>2025-07-20T09:12:05Z</time>
      </trkpt>
      <trkpt lat="46.22033" lon="18.86344833">
        <ele>133.8</ele>
        <time>2025-07-20T09:12:10Z</time>
      </trkpt>
      <trkpt lat="46.22026667" lon="18.86333667">
        <ele>131.9</ele>
        <time>2025-07-20T09:12:14Z</time>
      </trkpt>
      <trkpt lat="46.22020667" lon="18.86320833">
        <ele>128.3</ele>
        <time>2025-07-20T09:12:18Z</time>
      </trkpt>
      <trkpt lat="46.22015333" lon="18.8631">
        <ele>124.2</ele>
        <time>2025-07-20T09:12:21Z</time>
      </trkpt>
      <trkpt lat="46.22010167" lon="18.86296833">
        <ele>123.8</ele>
        <time>2025-07-20T09:12:24Z</time>
      </trkpt>
      <trkpt lat="46.22004333" lon="18.86283833">
        <ele>123.7</ele>
        <time>2025-07-20T09:12:27Z</time>
      </trkpt>
      <trkpt lat="46.219975" lon="18.86274">
        <ele>123.2</ele>
        <time>2025-07-20T09:12:30Z</time>
      </trkpt>
      <trkpt lat="46.21990833" lon="18.862635">
        <ele>123.6</ele>
        <time>2025-07-20T09:12:33Z</time>
      </trkpt>
      <trkpt lat="46.21985" lon="18.86252667">
        <ele>123.5</ele>
        <time>2025-07-20T09:12:37Z</time>
      </trkpt>
      <trkpt lat="46.21976667" lon="18.86242">
        <ele>123.4</ele>
        <time>2025-07-20T09:12:42Z</time>
      </trkpt>
      <trkpt lat="46.21971333" lon="18.862305">
        <ele>122.8</ele>
        <time>2025-07-20T09:12:45Z</time>
      </trkpt>
      <trkpt lat="46.219695" lon="18.86217167">
        <ele>121.7</ele>
        <time>2025-07-20T09:12:50Z</time>
      </trkpt>
      <trkpt lat="46.21977667" lon="18.86210333">
        <ele>119.9</ele>
        <time>2025-07-20T09:12:58Z</time>
      </trkpt>
      <trkpt lat="46.21984667" lon="18.861965">
        <ele>119.1</ele>
        <time>2025-07-20T09:13:03Z</time>
      </trkpt>
      <trkpt lat="46.21978667" lon="18.861845">
        <ele>119.9</ele>
        <time>2025-07-20T09:13:06Z</time>
      </trkpt>
      <trkpt lat="46.219725" lon="18.86174833">
        <ele>122</ele>
        <time>2025-07-20T09:13:08Z</time>
      </trkpt>
      <trkpt lat="46.21970167" lon="18.86161167">
        <ele>125</ele>
        <time>2025-07-20T09:13:11Z</time>
      </trkpt>
      <trkpt lat="46.21962167" lon="18.86147">
        <ele>128.8</ele>
        <time>2025-07-20T09:13:16Z</time>
      </trkpt>
      <trkpt lat="46.21948833" lon="18.861265">
        <ele>129.7</ele>
        <time>2025-07-20T09:13:21Z</time>
      </trkpt>
      <trkpt lat="46.219415" lon="18.86115333">
        <ele>130.2</ele>
        <time>2025-07-20T09:13:23Z</time>
      </trkpt>
      <trkpt lat="46.21934" lon="18.86107167">
        <ele>129.4</ele>
        <time>2025-07-20T09:13:25Z</time>
      </trkpt>
      <trkpt lat="46.21928" lon="18.86094667">
        <ele>127.6</ele>
        <time>2025-07-20T09:13:28Z</time>
      </trkpt>
      <trkpt lat="46.21929667" lon="18.86077">
        <ele>125.7</ele>
        <time>2025-07-20T09:13:34Z</time>
      </trkpt>
      <trkpt lat="46.21927833" lon="18.860635">
        <ele>124.2</ele>
        <time>2025-07-20T09:13:37Z</time>
      </trkpt>
      <trkpt lat="46.219205" lon="18.86048333">
        <ele>124.8</ele>
        <time>2025-07-20T09:13:40Z</time>
      </trkpt>
      <trkpt lat="46.219145" lon="18.86037">
        <ele>125.7</ele>
        <time>2025-07-20T09:13:42Z</time>
      </trkpt>
      <trkpt lat="46.21911667" lon="18.86024667">
        <ele>126</ele>
        <time>2025-07-20T09:13:45Z</time>
      </trkpt>
      <trkpt lat="46.21911167" lon="18.86009167">
        <ele>125.5</ele>
        <time>2025-07-20T09:13:48Z</time>
      </trkpt>
      <trkpt lat="46.219075" lon="18.85996667">
        <ele>125.5</ele>
        <time>2025-07-20T09:13:51Z</time>
      </trkpt>
      <trkpt lat="46.21902" lon="18.85982333">
        <ele>126.5</ele>
        <time>2025-07-20T09:13:54Z</time>
      </trkpt>
      <trkpt lat="46.219005" lon="18.85969167">
        <ele>126.9</ele>
        <time>2025-07-20T09:13:57Z</time>
      </trkpt>
      <trkpt lat="46.21892" lon="18.85958833">
        <ele>128.3</ele>
        <time>2025-07-20T09:14:00Z</time>
      </trkpt>
      <trkpt lat="46.218825" lon="18.85949667">
        <ele>129.3</ele>
        <time>2025-07-20T09:14:02Z</time>
      </trkpt>
      <trkpt lat="46.21872" lon="18.85939">
        <ele>129.7</ele>
        <time>2025-07-20T09:14:04Z</time>
      </trkpt>
      <trkpt lat="46.218615" lon="18.85928667">
        <ele>129.6</ele>
        <time>2025-07-20T09:14:07Z</time>
      </trkpt>
      <trkpt lat="46.21852833" lon="18.859205">
        <ele>130.2</ele>
        <time>2025-07-20T09:14:10Z</time>
      </trkpt>
      <trkpt lat="46.21842167" lon="18.85913333">
        <ele>131</ele>
        <time>2025-07-20T09:14:11Z</time>
      </trkpt>
      <trkpt lat="46.21829333" lon="18.85903833">
        <ele>131.4</ele>
        <time>2025-07-20T09:14:13Z</time>
      </trkpt>
      <trkpt lat="46.21821667" lon="18.85895667">
        <ele>131.5</ele>
        <time>2025-07-20T09:14:14Z</time>
      </trkpt>
      <trkpt lat="46.21811667" lon="18.85888833">
        <ele>131.6</ele>
        <time>2025-07-20T09:14:15Z</time>
      </trkpt>
      <trkpt lat="46.21801333" lon="18.85883667">
        <ele>131.1</ele>
        <time>2025-07-20T09:14:16Z</time>
      </trkpt>
      <trkpt lat="46.217925" lon="18.85878833">
        <ele>130.9</ele>
        <time>2025-07-20T09:14:17Z</time>
      </trkpt>
      <trkpt lat="46.21783833" lon="18.85874333">
        <ele>130.4</ele>
        <time>2025-07-20T09:14:18Z</time>
      </trkpt>
      <trkpt lat="46.217735" lon="18.85869167">
        <ele>130.1</ele>
        <time>2025-07-20T09:14:20Z</time>
      </trkpt>
      <trkpt lat="46.217665" lon="18.85858833">
        <ele>130.8</ele>
        <time>2025-07-20T09:14:23Z</time>
      </trkpt>
      <trkpt lat="46.21756833" lon="18.85849667">
        <ele>131.6</ele>
        <time>2025-07-20T09:14:26Z</time>
      </trkpt>
      <trkpt lat="46.21749" lon="18.85839667">
        <ele>132</ele>
        <time>2025-07-20T09:14:28Z</time>
      </trkpt>
      <trkpt lat="46.21742" lon="18.85829833">
        <ele>132.9</ele>
        <time>2025-07-20T09:14:30Z</time>
      </trkpt>
      <trkpt lat="46.21728167" lon="18.85819667">
        <ele>134</ele>
        <time>2025-07-20T09:14:32Z</time>
      </trkpt>
      <trkpt lat="46.21715167" lon="18.85806167">
        <ele>134.6</ele>
        <time>2025-07-20T09:14:34Z</time>
      </trkpt>
      <trkpt lat="46.21708333" lon="18.857975">
        <ele>135.7</ele>
        <time>2025-07-20T09:14:37Z</time>
      </trkpt>
      <trkpt lat="46.21700333" lon="18.85788167">
        <ele>135.7</ele>
        <time>2025-07-20T09:14:39Z</time>
      </trkpt>
      <trkpt lat="46.21690167" lon="18.85778167">
        <ele>135.6</ele>
        <time>2025-07-20T09:14:42Z</time>
      </trkpt>
      <trkpt lat="46.21682333" lon="18.85771167">
        <ele>135.3</ele>
        <time>2025-07-20T09:14:44Z</time>
      </trkpt>
      <trkpt lat="46.21668667" lon="18.857585">
        <ele>135.5</ele>
        <time>2025-07-20T09:14:46Z</time>
      </trkpt>
      <trkpt lat="46.21660167" lon="18.85749333">
        <ele>135.5</ele>
        <time>2025-07-20T09:14:48Z</time>
      </trkpt>
      <trkpt lat="46.21651167" lon="18.85741833">
        <ele>135.6</ele>
        <time>2025-07-20T09:14:51Z</time>
      </trkpt>
      <trkpt lat="46.214785" lon="18.854945">
        <ele>120.4</ele>
        <time>2025-07-20T09:15:32Z</time>
      </trkpt>
      <trkpt lat="46.21476833" lon="18.85509833">
        <ele>124.9</ele>
        <time>2025-07-20T09:15:34Z</time>
      </trkpt>
      <trkpt lat="46.21467" lon="18.85508333">
        <ele>118.8</ele>
        <time>2025-07-20T09:15:35Z</time>
      </trkpt>
      <trkpt lat="46.21457833" lon="18.85505667">
        <ele>117.5</ele>
        <time>2025-07-20T09:15:38Z</time>
      </trkpt>
      <trkpt lat="46.21448667" lon="18.85500333">
        <ele>118.7</ele>
        <time>2025-07-20T09:15:42Z</time>
      </trkpt>
      <trkpt lat="46.21439833" lon="18.85494167">
        <ele>116.5</ele>
        <time>2025-07-20T09:15:45Z</time>
      </trkpt>
      <trkpt lat="46.21432" lon="18.85485333">
        <ele>116.4</ele>
        <time>2025-07-20T09:15:49Z</time>
      </trkpt>
      <trkpt lat="46.214255" lon="18.85473">
        <ele>115.5</ele>
        <time>2025-07-20T09:15:54Z</time>
      </trkpt>
      <trkpt lat="46.21421667" lon="18.85459167">
        <ele>113.5</ele>
        <time>2025-07-20T09:15:57Z</time>
      </trkpt>
      <trkpt lat="46.21418833" lon="18.85445333">
        <ele>111.8</ele>
        <time>2025-07-20T09:16:00Z</time>
      </trkpt>
      <trkpt lat="46.21412833" lon="18.85430333">
        <ele>109</ele>
        <time>2025-07-20T09:16:03Z</time>
      </trkpt>
      <trkpt lat="46.214075" lon="18.85415167">
        <ele>107.9</ele>
        <time>2025-07-20T09:16:06Z</time>
      </trkpt>
      <trkpt lat="46.21403833" lon="18.85400667">
        <ele>106.6</ele>
        <time>2025-07-20T09:16:10Z</time>
      </trkpt>
      <trkpt lat="46.21403" lon="18.85386667">
        <ele>105.8</ele>
        <time>2025-07-20T09:16:13Z</time>
      </trkpt>
      <trkpt lat="46.213605" lon="18.85106667">
        <ele>106.6</ele>
        <time>2025-07-20T09:16:52Z</time>
      </trkpt>
      <trkpt lat="46.213515" lon="18.85105167">
        <ele>106.6</ele>
        <time>2025-07-20T09:16:55Z</time>
      </trkpt>
      <trkpt lat="46.21349667" lon="18.850815">
        <ele>106.9</ele>
        <time>2025-07-20T09:17:00Z</time>
      </trkpt>
      <trkpt lat="46.21348667" lon="18.85067667">
        <ele>107.1</ele>
        <time>2025-07-20T09:17:02Z</time>
      </trkpt>
      <trkpt lat="46.21344833" lon="18.85052667">
        <ele>107.3</ele>
        <time>2025-07-20T09:17:05Z</time>
      </trkpt>
      <trkpt lat="46.21342667" lon="18.85039667">
        <ele>107.6</ele>
        <time>2025-07-20T09:17:08Z</time>
      </trkpt>
      <trkpt lat="46.21339667" lon="18.85027">
        <ele>107.9</ele>
        <time>2025-07-20T09:17:12Z</time>
      </trkpt>
      <trkpt lat="46.21339" lon="18.85012">
        <ele>108.1</ele>
        <time>2025-07-20T09:17:15Z</time>
      </trkpt>
      <trkpt lat="46.21337333" lon="18.849965">
        <ele>108.2</ele>
        <time>2025-07-20T09:17:18Z</time>
      </trkpt>
      <trkpt lat="46.21275333" lon="18.84457833">
        <ele>103.9</ele>
        <time>2025-07-20T09:18:40Z</time>
      </trkpt>
      <trkpt lat="46.21272833" lon="18.84438167">
        <ele>99.3</ele>
        <time>2025-07-20T09:18:43Z</time>
      </trkpt>
      <trkpt lat="46.21272667" lon="18.84418667">
        <ele>86.5</ele>
        <time>2025-07-20T09:18:45Z</time>
      </trkpt>
      <trkpt lat="46.212705" lon="18.84405833">
        <ele>85.8</ele>
        <time>2025-07-20T09:18:47Z</time>
      </trkpt>
      <trkpt lat="46.21265333" lon="18.8439">
        <ele>86.3</ele>
        <time>2025-07-20T09:18:50Z</time>
      </trkpt>
      <trkpt lat="46.21262833" lon="18.84372">
        <ele>85.6</ele>
        <time>2025-07-20T09:18:53Z</time>
      </trkpt>
      <trkpt lat="46.21259167" lon="18.84358333">
        <ele>84.1</ele>
        <time>2025-07-20T09:18:56Z</time>
      </trkpt>
      <trkpt lat="46.21253333" lon="18.84343667">
        <ele>86.3</ele>
        <time>2025-07-20T09:18:59Z</time>
      </trkpt>
      <trkpt lat="46.21251" lon="18.843265">
        <ele>87.4</ele>
        <time>2025-07-20T09:19:02Z</time>
      </trkpt>
      <trkpt lat="46.212495" lon="18.84311833">
        <ele>87.7</ele>
        <time>2025-07-20T09:19:04Z</time>
      </trkpt>
      <trkpt lat="46.212485" lon="18.84292667">
        <ele>88.5</ele>
        <time>2025-07-20T09:19:07Z</time>
      </trkpt>
      <trkpt lat="46.21247" lon="18.84279333">
        <ele>90.7</ele>
        <time>2025-07-20T09:19:09Z</time>
      </trkpt>
      <trkpt lat="46.21243833" lon="18.84264">
        <ele>96.4</ele>
        <time>2025-07-20T09:19:12Z</time>
      </trkpt>
      <trkpt lat="46.212405" lon="18.84249167">
        <ele>99.2</ele>
        <time>2025-07-20T09:19:15Z</time>
      </trkpt>
      <trkpt lat="46.212355" lon="18.84234333">
        <ele>100.9</ele>
        <time>2025-07-20T09:19:19Z</time>
      </trkpt>
      <trkpt lat="46.2123" lon="18.84220167">
        <ele>103.3</ele>
        <time>2025-07-20T09:19:23Z</time>
      </trkpt>
      <trkpt lat="46.21228833" lon="18.84206167">
        <ele>103.5</ele>
        <time>2025-07-20T09:19:26Z</time>
      </trkpt>
      <trkpt lat="46.212275" lon="18.84191">
        <ele>104.1</ele>
        <time>2025-07-20T09:19:29Z</time>
      </trkpt>
      <trkpt lat="46.212225" lon="18.84178">
        <ele>105.4</ele>
        <time>2025-07-20T09:19:32Z</time>
      </trkpt>
      <trkpt lat="46.21216833" lon="18.84160333">
        <ele>106.8</ele>
        <time>2025-07-20T09:19:35Z</time>
      </trkpt>
      <trkpt lat="46.21213333" lon="18.84143">
        <ele>108.5</ele>
        <time>2025-07-20T09:19:38Z</time>
      </trkpt>
      <trkpt lat="46.21209667" lon="18.84128167">
        <ele>110.8</ele>
        <time>2025-07-20T09:19:41Z</time>
      </trkpt>
      <trkpt lat="46.212075" lon="18.84114833">
        <ele>114.2</ele>
        <time>2025-07-20T09:19:43Z</time>
      </trkpt>
      <trkpt lat="46.21207833" lon="18.84090333">
        <ele>117.4</ele>
        <time>2025-07-20T09:19:45Z</time>
      </trkpt>
      <trkpt lat="46.21205333" lon="18.84072">
        <ele>118.6</ele>
        <time>2025-07-20T09:19:47Z</time>
      </trkpt>
      <trkpt lat="46.21202667" lon="18.840585">
        <ele>119.1</ele>
        <time>2025-07-20T09:19:49Z</time>
      </trkpt>
      <trkpt lat="46.21199667" lon="18.84045667">
        <ele>119.8</ele>
        <time>2025-07-20T09:19:51Z</time>
      </trkpt>
      <trkpt lat="46.21195833" lon="18.84028667">
        <ele>119.3</ele>
        <time>2025-07-20T09:19:53Z</time>
      </trkpt>
      <trkpt lat="46.21190167" lon="18.84016667">
        <ele>119.1</ele>
        <time>2025-07-20T09:19:55Z</time>
      </trkpt>
      <trkpt lat="46.21184333" lon="18.84003167">
        <ele>119.7</ele>
        <time>2025-07-20T09:19:58Z</time>
      </trkpt>
      <trkpt lat="46.211785" lon="18.83988833">
        <ele>118</ele>
        <time>2025-07-20T09:20:02Z</time>
      </trkpt>
      <trkpt lat="46.21171167" lon="18.839785">
        <ele>119.3</ele>
        <time>2025-07-20T09:20:05Z</time>
      </trkpt>
      <trkpt lat="46.21163167" lon="18.839685">
        <ele>120.4</ele>
        <time>2025-07-20T09:20:08Z</time>
      </trkpt>
      <trkpt lat="46.21156" lon="18.839605">
        <ele>123</ele>
        <time>2025-07-20T09:20:11Z</time>
      </trkpt>
      <trkpt lat="46.21146833" lon="18.83951333">
        <ele>125.2</ele>
        <time>2025-07-20T09:20:14Z</time>
      </trkpt>
      <trkpt lat="46.21138" lon="18.839415">
        <ele>125.6</ele>
        <time>2025-07-20T09:20:17Z</time>
      </trkpt>
      <trkpt lat="46.21129" lon="18.83930333">
        <ele>125.2</ele>
        <time>2025-07-20T09:20:20Z</time>
      </trkpt>
      <trkpt lat="46.21121333" lon="18.83921">
        <ele>124.5</ele>
        <time>2025-07-20T09:20:23Z</time>
      </trkpt>
      <trkpt lat="46.211135" lon="18.83912833">
        <ele>123.7</ele>
        <time>2025-07-20T09:20:26Z</time>
      </trkpt>
      <trkpt lat="46.21104333" lon="18.83904333">
        <ele>123.5</ele>
        <time>2025-07-20T09:20:29Z</time>
      </trkpt>
      <trkpt lat="46.21095667" lon="18.83894833">
        <ele>122.7</ele>
        <time>2025-07-20T09:20:32Z</time>
      </trkpt>
      <trkpt lat="46.21087" lon="18.83884167">
        <ele>122.3</ele>
        <time>2025-07-20T09:20:35Z</time>
      </trkpt>
      <trkpt lat="46.21077667" lon="18.83873167">
        <ele>120.9</ele>
        <time>2025-07-20T09:20:38Z</time>
      </trkpt>
      <trkpt lat="46.210695" lon="18.83862333">
        <ele>119.9</ele>
        <time>2025-07-20T09:20:41Z</time>
      </trkpt>
      <trkpt lat="46.21061333" lon="18.83851667">
        <ele>119.3</ele>
        <time>2025-07-20T09:20:44Z</time>
      </trkpt>
      <trkpt lat="46.21053" lon="18.83841">
        <ele>119.1</ele>
        <time>2025-07-20T09:20:47Z</time>
      </trkpt>
      <trkpt lat="46.21045333" lon="18.83829833">
        <ele>118.4</ele>
        <time>2025-07-20T09:20:50Z</time>
      </trkpt>
      <trkpt lat="46.21037167" lon="18.838195">
        <ele>117.9</ele>
        <time>2025-07-20T09:20:53Z</time>
      </trkpt>
      <trkpt lat="46.21029" lon="18.83809667">
        <ele>117.7</ele>
        <time>2025-07-20T09:20:56Z</time>
      </trkpt>
      <trkpt lat="46.21020333" lon="18.83799667">
        <ele>118</ele>
        <time>2025-07-20T09:20:59Z</time>
      </trkpt>
      <trkpt lat="46.21013333" lon="18.8379">
        <ele>117.8</ele>
        <time>2025-07-20T09:21:02Z</time>
      </trkpt>
      <trkpt lat="46.21006333" lon="18.83778833">
        <ele>117.2</ele>
        <time>2025-07-20T09:21:05Z</time>
      </trkpt>
      <trkpt lat="46.20998667" lon="18.83770167">
        <ele>116.7</ele>
        <time>2025-07-20T09:21:08Z</time>
      </trkpt>
      <trkpt lat="46.20991" lon="18.83761333">
        <ele>116.3</ele>
        <time>2025-07-20T09:21:11Z</time>
      </trkpt>
      <trkpt lat="46.20983" lon="18.83752167">
        <ele>116.2</ele>
        <time>2025-07-20T09:21:14Z</time>
      </trkpt>
      <trkpt lat="46.20974833" lon="18.83742">
        <ele>115.8</ele>
        <time>2025-07-20T09:21:17Z</time>
      </trkpt>
      <trkpt lat="46.20966833" lon="18.83731833">
        <ele>116.6</ele>
        <time>2025-07-20T09:21:20Z</time>
      </trkpt>
      <trkpt lat="46.20957833" lon="18.83721333">
        <ele>117.5</ele>
        <time>2025-07-20T09:21:23Z</time>
      </trkpt>
      <trkpt lat="46.20949167" lon="18.837125">
        <ele>118.4</ele>
        <time>2025-07-20T09:21:26Z</time>
      </trkpt>
      <trkpt lat="46.20940667" lon="18.83704">
        <ele>119.3</ele>
        <time>2025-07-20T09:21:29Z</time>
      </trkpt>
      <trkpt lat="46.20931667" lon="18.83695">
        <ele>119.5</ele>
        <time>2025-07-20T09:21:32Z</time>
      </trkpt>
      <trkpt lat="46.20924" lon="18.83685167">
        <ele>119.1</ele>
        <time>2025-07-20T09:21:35Z</time>
      </trkpt>
      <trkpt lat="46.20915833" lon="18.836755">
        <ele>118.8</ele>
        <time>2025-07-20T09:21:38Z</time>
      </trkpt>
      <trkpt lat="46.209085" lon="18.83667667">
        <ele>117.9</ele>
        <time>2025-07-20T09:21:41Z</time>
      </trkpt>
      <trkpt lat="46.20900333" lon="18.83657833">
        <ele>117.5</ele>
        <time>2025-07-20T09:21:44Z</time>
      </trkpt>
      <trkpt lat="46.208915" lon="18.836485">
        <ele>116.8</ele>
        <time>2025-07-20T09:21:47Z</time>
      </trkpt>
      <trkpt lat="46.20883667" lon="18.83638333">
        <ele>116.5</ele>
        <time>2025-07-20T09:21:50Z</time>
      </trkpt>
      <trkpt lat="46.20875167" lon="18.83626833">
        <ele>115</ele>
        <time>2025-07-20T09:21:54Z</time>
      </trkpt>
      <trkpt lat="46.20866667" lon="18.83614833">
        <ele>113.2</ele>
        <time>2025-07-20T09:21:58Z</time>
      </trkpt>
      <trkpt lat="46.20859833" lon="18.83602833">
        <ele>112.3</ele>
        <time>2025-07-20T09:22:01Z</time>
      </trkpt>
      <trkpt lat="46.20852667" lon="18.83592833">
        <ele>111.6</ele>
        <time>2025-07-20T09:22:04Z</time>
      </trkpt>
      <trkpt lat="46.20844667" lon="18.83583667">
        <ele>111.5</ele>
        <time>2025-07-20T09:22:07Z</time>
      </trkpt>
      <trkpt lat="46.20836333" lon="18.83576667">
        <ele>111.3</ele>
        <time>2025-07-20T09:22:10Z</time>
      </trkpt>
      <trkpt lat="46.20828833" lon="18.83566333">
        <ele>110.9</ele>
        <time>2025-07-20T09:22:13Z</time>
      </trkpt>
      <trkpt lat="46.20822333" lon="18.83556333">
        <ele>110.2</ele>
        <time>2025-07-20T09:22:16Z</time>
      </trkpt>
      <trkpt lat="46.20814333" lon="18.83546">
        <ele>109.8</ele>
        <time>2025-07-20T09:22:19Z</time>
      </trkpt>
      <trkpt lat="46.208045" lon="18.83535">
        <ele>109.3</ele>
        <time>2025-07-20T09:22:22Z</time>
      </trkpt>
      <trkpt lat="46.20794833" lon="18.83524167">
        <ele>108.8</ele>
        <time>2025-07-20T09:22:25Z</time>
      </trkpt>
      <trkpt lat="46.20784667" lon="18.83513">
        <ele>108.3</ele>
        <time>2025-07-20T09:22:28Z</time>
      </trkpt>
      <trkpt lat="46.20775" lon="18.83503">
        <ele>108</ele>
        <time>2025-07-20T09:22:31Z</time>
      </trkpt>
      <trkpt lat="46.20766833" lon="18.83492167">
        <ele>108.1</ele>
        <time>2025-07-20T09:22:34Z</time>
      </trkpt>
      <trkpt lat="46.20759" lon="18.83482667">
        <ele>108.1</ele>
        <time>2025-07-20T09:22:37Z</time>
      </trkpt>
      <trkpt lat="46.20751" lon="18.83472833">
        <ele>108.1</ele>
        <time>2025-07-20T09:22:40Z</time>
      </trkpt>
      <trkpt lat="46.207415" lon="18.83460833">
        <ele>107.6</ele>
        <time>2025-07-20T09:22:43Z</time>
      </trkpt>
      <trkpt lat="46.20732167" lon="18.83448667">
        <ele>107.4</ele>
        <time>2025-07-20T09:22:46Z</time>
      </trkpt>
      <trkpt lat="46.20722833" lon="18.83437167">
        <ele>107.8</ele>
        <time>2025-07-20T09:22:49Z</time>
      </trkpt>
      <trkpt lat="46.20713167" lon="18.83425167">
        <ele>108.1</ele>
        <time>2025-07-20T09:22:52Z</time>
      </trkpt>
      <trkpt lat="46.20705833" lon="18.83413667">
        <ele>108.6</ele>
        <time>2025-07-20T09:22:55Z</time>
      </trkpt>
      <trkpt lat="46.206965" lon="18.834025">
        <ele>109.3</ele>
        <time>2025-07-20T09:22:58Z</time>
      </trkpt>
      <trkpt lat="46.206865" lon="18.83391333">
        <ele>109.8</ele>
        <time>2025-07-20T09:23:01Z</time>
      </trkpt>
      <trkpt lat="46.20676167" lon="18.83380167">
        <ele>110.7</ele>
        <time>2025-07-20T09:23:04Z</time>
      </trkpt>
      <trkpt lat="46.20666333" lon="18.83368833">
        <ele>111.3</ele>
        <time>2025-07-20T09:23:07Z</time>
      </trkpt>
      <trkpt lat="46.20657833" lon="18.833575">
        <ele>111.8</ele>
        <time>2025-07-20T09:23:10Z</time>
      </trkpt>
      <trkpt lat="46.20650167" lon="18.833475">
        <ele>112.8</ele>
        <time>2025-07-20T09:23:13Z</time>
      </trkpt>
      <trkpt lat="46.20641667" lon="18.83336833">
        <ele>113.5</ele>
        <time>2025-07-20T09:23:16Z</time>
      </trkpt>
      <trkpt lat="46.20632" lon="18.833275">
        <ele>114.2</ele>
        <time>2025-07-20T09:23:19Z</time>
      </trkpt>
      <trkpt lat="46.20622667" lon="18.833195">
        <ele>115.2</ele>
        <time>2025-07-20T09:23:22Z</time>
      </trkpt>
      <trkpt lat="46.206135" lon="18.83311">
        <ele>115.8</ele>
        <time>2025-07-20T09:23:25Z</time>
      </trkpt>
      <trkpt lat="46.20605167" lon="18.833035">
        <ele>116.5</ele>
        <time>2025-07-20T09:23:28Z</time>
      </trkpt>
      <trkpt lat="46.20597" lon="18.83295833">
        <ele>117.1</ele>
        <time>2025-07-20T09:23:32Z</time>
      </trkpt>
      <trkpt lat="46.20589833" lon="18.83287">
        <ele>117.1</ele>
        <time>2025-07-20T09:23:36Z</time>
      </trkpt>
      <trkpt lat="46.205815" lon="18.83277333">
        <ele>116.1</ele>
        <time>2025-07-20T09:23:41Z</time>
      </trkpt>
      <trkpt lat="46.205735" lon="18.83269167">
        <ele>115.8</ele>
        <time>2025-07-20T09:23:45Z</time>
      </trkpt>
      <trkpt lat="46.20566167" lon="18.83257333">
        <ele>115</ele>
        <time>2025-07-20T09:24:09Z</time>
      </trkpt>
      <trkpt lat="46.20559" lon="18.83248167">
        <ele>116.6</ele>
        <time>2025-07-20T09:25:14Z</time>
      </trkpt>
      <trkpt lat="46.20553167" lon="18.83238">
        <ele>116.8</ele>
        <time>2025-07-20T09:25:22Z</time>
      </trkpt>
      <trkpt lat="46.20544" lon="18.832285">
        <ele>116.7</ele>
        <time>2025-07-20T09:25:28Z</time>
      </trkpt>
      <trkpt lat="46.20535833" lon="18.832155">
        <ele>118.2</ele>
        <time>2025-07-20T09:25:32Z</time>
      </trkpt>
      <trkpt lat="46.20528333" lon="18.83204">
        <ele>119.8</ele>
        <time>2025-07-20T09:25:36Z</time>
      </trkpt>
      <trkpt lat="46.20523833" lon="18.83191833">
        <ele>119.2</ele>
        <time>2025-07-20T09:25:40Z</time>
      </trkpt>
      <trkpt lat="46.20521167" lon="18.831785">
        <ele>118.3</ele>
        <time>2025-07-20T09:25:44Z</time>
      </trkpt>
      <trkpt lat="46.20517333" lon="18.83165667">
        <ele>118.9</ele>
        <time>2025-07-20T09:25:49Z</time>
      </trkpt>
      <trkpt lat="46.20510333" lon="18.831555">
        <ele>117.9</ele>
        <time>2025-07-20T09:25:55Z</time>
      </trkpt>
      <trkpt lat="46.20505833" lon="18.831435">
        <ele>117.4</ele>
        <time>2025-07-20T09:26:01Z</time>
      </trkpt>
      <trkpt lat="46.205005" lon="18.83131833">
        <ele>117</ele>
        <time>2025-07-20T09:26:06Z</time>
      </trkpt>
      <trkpt lat="46.20495833" lon="18.83117667">
        <ele>116.6</ele>
        <time>2025-07-20T09:26:09Z</time>
      </trkpt>
      <trkpt lat="46.20492167" lon="18.83102667">
        <ele>117</ele>
        <time>2025-07-20T09:26:13Z</time>
      </trkpt>
      <trkpt lat="46.20487667" lon="18.83088333">
        <ele>116.8</ele>
        <time>2025-07-20T09:26:17Z</time>
      </trkpt>
      <trkpt lat="46.20485667" lon="18.83072167">
        <ele>116.6</ele>
        <time>2025-07-20T09:26:21Z</time>
      </trkpt>
      <trkpt lat="46.20483333" lon="18.83059333">
        <ele>116.7</ele>
        <time>2025-07-20T09:26:25Z</time>
      </trkpt>
      <trkpt lat="46.20478333" lon="18.83046">
        <ele>117.9</ele>
        <time>2025-07-20T09:26:31Z</time>
      </trkpt>
      <trkpt lat="46.204735" lon="18.83034167">
        <ele>119.1</ele>
        <time>2025-07-20T09:26:37Z</time>
      </trkpt>
      <trkpt lat="46.204735" lon="18.83018667">
        <ele>120</ele>
        <time>2025-07-20T09:26:43Z</time>
      </trkpt>
      <trkpt lat="46.20471167" lon="18.83005333">
        <ele>120.4</ele>
        <time>2025-07-20T09:26:47Z</time>
      </trkpt>
      <trkpt lat="46.20468" lon="18.82989833">
        <ele>121</ele>
        <time>2025-07-20T09:26:51Z</time>
      </trkpt>
      <trkpt lat="46.20464167" lon="18.829755">
        <ele>121.8</ele>
        <time>2025-07-20T09:26:56Z</time>
      </trkpt>
      <trkpt lat="46.204605" lon="18.82962333">
        <ele>122.1</ele>
        <time>2025-07-20T09:27:00Z</time>
      </trkpt>
      <trkpt lat="46.20456167" lon="18.82948167">
        <ele>123.3</ele>
        <time>2025-07-20T09:27:04Z</time>
      </trkpt>
      <trkpt lat="46.20453167" lon="18.82935833">
        <ele>123.7</ele>
        <time>2025-07-20T09:27:07Z</time>
      </trkpt>
      <trkpt lat="46.20448667" lon="18.829235">
        <ele>124.4</ele>
        <time>2025-07-20T09:27:10Z</time>
      </trkpt>
      <trkpt lat="46.20446" lon="18.82907">
        <ele>124.7</ele>
        <time>2025-07-20T09:27:14Z</time>
      </trkpt>
      <trkpt lat="46.20443333" lon="18.82891">
        <ele>124.7</ele>
        <time>2025-07-20T09:27:18Z</time>
      </trkpt>
      <trkpt lat="46.20441167" lon="18.82875167">
        <ele>123.6</ele>
        <time>2025-07-20T09:27:21Z</time>
      </trkpt>
      <trkpt lat="46.20437333" lon="18.82859833">
        <ele>122.4</ele>
        <time>2025-07-20T09:27:24Z</time>
      </trkpt>
      <trkpt lat="46.20430833" lon="18.82844667">
        <ele>121</ele>
        <time>2025-07-20T09:27:27Z</time>
      </trkpt>
      <trkpt lat="46.20427833" lon="18.82828167">
        <ele>120.4</ele>
        <time>2025-07-20T09:27:30Z</time>
      </trkpt>
      <trkpt lat="46.20422833" lon="18.82812333">
        <ele>120.6</ele>
        <time>2025-07-20T09:27:33Z</time>
      </trkpt>
      <trkpt lat="46.204175" lon="18.82796">
        <ele>119.8</ele>
        <time>2025-07-20T09:27:36Z</time>
      </trkpt>
      <trkpt lat="46.20412667" lon="18.82783">
        <ele>120.5</ele>
        <time>2025-07-20T09:27:39Z</time>
      </trkpt>
      <trkpt lat="46.204075" lon="18.82767667">
        <ele>124.1</ele>
        <time>2025-07-20T09:27:43Z</time>
      </trkpt>
      <trkpt lat="46.20404167" lon="18.827535">
        <ele>125.1</ele>
        <time>2025-07-20T09:27:46Z</time>
      </trkpt>
      <trkpt lat="46.20400833" lon="18.82740167">
        <ele>126.2</ele>
        <time>2025-07-20T09:27:49Z</time>
      </trkpt>
      <trkpt lat="46.20394" lon="18.82727667">
        <ele>127.7</ele>
        <time>2025-07-20T09:27:53Z</time>
      </trkpt>
      <trkpt lat="46.20387" lon="18.82718">
        <ele>129.4</ele>
        <time>2025-07-20T09:27:57Z</time>
      </trkpt>
      <trkpt lat="46.20379667" lon="18.82708667">
        <ele>131.4</ele>
        <time>2025-07-20T09:28:02Z</time>
      </trkpt>
      <trkpt lat="46.20372" lon="18.82698833">
        <ele>131.7</ele>
        <time>2025-07-20T09:28:07Z</time>
      </trkpt>
      <trkpt lat="46.20365667" lon="18.82686833">
        <ele>131.3</ele>
        <time>2025-07-20T09:28:12Z</time>
      </trkpt>
      <trkpt lat="46.20361167" lon="18.82675">
        <ele>131.8</ele>
        <time>2025-07-20T09:28:16Z</time>
      </trkpt>
      <trkpt lat="46.203555" lon="18.82663167">
        <ele>132</ele>
        <time>2025-07-20T09:28:21Z</time>
      </trkpt>
      <trkpt lat="46.20348333" lon="18.82652333">
        <ele>131.4</ele>
        <time>2025-07-20T09:28:26Z</time>
      </trkpt>
      <trkpt lat="46.203405" lon="18.826455">
        <ele>131.6</ele>
        <time>2025-07-20T09:28:30Z</time>
      </trkpt>
      <trkpt lat="46.20331667" lon="18.82638667">
        <ele>131.7</ele>
        <time>2025-07-20T09:28:34Z</time>
      </trkpt>
      <trkpt lat="46.203235" lon="18.82628">
        <ele>131.4</ele>
        <time>2025-07-20T09:28:38Z</time>
      </trkpt>
      <trkpt lat="46.20315833" lon="18.82617667">
        <ele>130.4</ele>
        <time>2025-07-20T09:28:42Z</time>
      </trkpt>
      <trkpt lat="46.20308833" lon="18.82608167">
        <ele>129</ele>
        <time>2025-07-20T09:28:46Z</time>
      </trkpt>
      <trkpt lat="46.203035" lon="18.82597167">
        <ele>128.1</ele>
        <time>2025-07-20T09:28:50Z</time>
      </trkpt>
      <trkpt lat="46.20296167" lon="18.82587667">
        <ele>126.7</ele>
        <time>2025-07-20T09:28:57Z</time>
      </trkpt>
      <trkpt lat="46.20287333" lon="18.82580833">
        <ele>127.7</ele>
        <time>2025-07-20T09:29:02Z</time>
      </trkpt>
      <trkpt lat="46.20278833" lon="18.82574667">
        <ele>128.4</ele>
        <time>2025-07-20T09:29:08Z</time>
      </trkpt>
      <trkpt lat="46.2027" lon="18.825685">
        <ele>128.2</ele>
        <time>2025-07-20T09:29:12Z</time>
      </trkpt>
      <trkpt lat="46.202605" lon="18.82559">
        <ele>126.5</ele>
        <time>2025-07-20T09:29:16Z</time>
      </trkpt>
      <trkpt lat="46.20252667" lon="18.82551333">
        <ele>125.7</ele>
        <time>2025-07-20T09:29:20Z</time>
      </trkpt>
      <trkpt lat="46.20244333" lon="18.82542333">
        <ele>125.8</ele>
        <time>2025-07-20T09:29:24Z</time>
      </trkpt>
      <trkpt lat="46.20234667" lon="18.82532333">
        <ele>126.4</ele>
        <time>2025-07-20T09:29:28Z</time>
      </trkpt>
      <trkpt lat="46.20226167" lon="18.82522667">
        <ele>125.6</ele>
        <time>2025-07-20T09:29:31Z</time>
      </trkpt>
      <trkpt lat="46.20218" lon="18.82513">
        <ele>125.5</ele>
        <time>2025-07-20T09:29:35Z</time>
      </trkpt>
      <trkpt lat="46.2021" lon="18.82503667">
        <ele>125.2</ele>
        <time>2025-07-20T09:29:39Z</time>
      </trkpt>
      <trkpt lat="46.202005" lon="18.82496333">
        <ele>125</ele>
        <time>2025-07-20T09:29:44Z</time>
      </trkpt>
      <trkpt lat="46.201925" lon="18.82487167">
        <ele>125.1</ele>
        <time>2025-07-20T09:29:48Z</time>
      </trkpt>
      <trkpt lat="46.20185" lon="18.824795">
        <ele>125.9</ele>
        <time>2025-07-20T09:29:52Z</time>
      </trkpt>
      <trkpt lat="46.20177" lon="18.82472833">
        <ele>126.9</ele>
        <time>2025-07-20T09:29:54Z</time>
      </trkpt>
      <trkpt lat="46.20168" lon="18.82468167">
        <ele>128.3</ele>
        <time>2025-07-20T09:29:57Z</time>
      </trkpt>
      <trkpt lat="46.20158833" lon="18.824635">
        <ele>129.1</ele>
        <time>2025-07-20T09:30:01Z</time>
      </trkpt>
      <trkpt lat="46.20149333" lon="18.82460667">
        <ele>130</ele>
        <time>2025-07-20T09:30:05Z</time>
      </trkpt>
      <trkpt lat="46.201385" lon="18.82460167">
        <ele>130.5</ele>
        <time>2025-07-20T09:30:08Z</time>
      </trkpt>
      <trkpt lat="46.20128833" lon="18.82462167">
        <ele>131.2</ele>
        <time>2025-07-20T09:30:12Z</time>
      </trkpt>
      <trkpt lat="46.20118" lon="18.82464167">
        <ele>132.9</ele>
        <time>2025-07-20T09:30:17Z</time>
      </trkpt>
      <trkpt lat="46.20111667" lon="18.82473833">
        <ele>130.9</ele>
        <time>2025-07-20T09:30:27Z</time>
      </trkpt>
      <trkpt lat="46.20099" lon="18.82482167">
        <ele>129.1</ele>
        <time>2025-07-20T09:30:31Z</time>
      </trkpt>
      <trkpt lat="46.20088667" lon="18.824875">
        <ele>127.8</ele>
        <time>2025-07-20T09:30:33Z</time>
      </trkpt>
      <trkpt lat="46.20076167" lon="18.82496">
        <ele>125.1</ele>
        <time>2025-07-20T09:30:35Z</time>
      </trkpt>
      <trkpt lat="46.20066333" lon="18.82505333">
        <ele>122.7</ele>
        <time>2025-07-20T09:30:38Z</time>
      </trkpt>
      <trkpt lat="46.20057667" lon="18.82514167">
        <ele>121.8</ele>
        <time>2025-07-20T09:30:41Z</time>
      </trkpt>
      <trkpt lat="46.20049167" lon="18.82525167">
        <ele>122.3</ele>
        <time>2025-07-20T09:30:45Z</time>
      </trkpt>
      <trkpt lat="46.20043167" lon="18.82536667">
        <ele>122.1</ele>
        <time>2025-07-20T09:30:50Z</time>
      </trkpt>
      <trkpt lat="46.20037167" lon="18.82549333">
        <ele>122</ele>
        <time>2025-07-20T09:30:56Z</time>
      </trkpt>
      <trkpt lat="46.20031667" lon="18.8256">
        <ele>120.2</ele>
        <time>2025-07-20T09:31:05Z</time>
      </trkpt>
    </trkseg>
  </trk>
</gpx>