<?xml version='1.0' encoding='UTF-8' standalone='yes' ?>
<gpx xmlns="http://www.topografix.com/GPX/1/1" xmlns:geotracker="http://ilyabogdanovich.com/gpx/extensions/geotracker" xmlns:xsi="http://www.w3.org/2001/XMLSchema-instance" xsi:schemaLocation="http://www.topografix.com/GPX/1/1 http://www.topografix.com/GPX/1/1/gpx.xsd" version="1.1" creator="Aufgezeichnet mit Geo Tracker für Android von Ilya Bogdanovich">
  <metadata>
    <name>l_0713_01</name>
    <author>
      <name>Aufgezeichnet mit Geo Tracker für Android von Ilya Bogdanovich</name>
      <link href="https://play.google.com/store/apps/details?id=com.ilyabogdanovich.geotracker" />
    </author>
    <link href="https://play.google.com/store/apps/details?id=com.ilyabogdanovich.geotracker" />
    <time>2025-07-13T06:27:42Z</time>
  </metadata>
  <trk>
    <name>l_0713_01</name>
    <src>Aufgezeichnet mit Geo Tracker für Android von Ilya Bogdanovich</src>
    <link href="https://play.google.com/store/apps/details?id=com.ilyabogdanovich.geotracker" />
    <extensions>
      <geotracker:meta>
        <geotracker:length>2413.45</geotracker:length>
        <geotracker:duration>760711</geotracker:duration>
        <geotracker:creationtime>2025-07-13T06:27:42Z</geotracker:creationtime>
        <geotracker:activity>0</geotracker:activity>
      </geotracker:meta>
    </extensions>
    <trkseg>
      <trkpt lat="47.3287341" lon="17.46718456">
        <ele>192</ele>
        <time>2025-07-13T06:27:49Z</time>
      </trkpt>
      <trkpt lat="47.32883112" lon="17.46717853">
        <ele>190</ele>
        <time>2025-07-13T06:27:53Z</time>
      </trkpt>
      <trkpt lat="47.32891909" lon="17.46713695">
        <ele>190</ele>
        <time>2025-07-13T06:27:56Z</time>
      </trkpt>
      <trkpt lat="47.32899926" lon="17.46705933">
        <ele>190</ele>
        <time>2025-07-13T06:27:59Z</time>
      </trkpt>
      <trkpt lat="47.32907872" lon="17.46697686">
        <ele>190</ele>
        <time>2025-07-13T06:28:02Z</time>
      </trkpt>
      <trkpt lat="47.32918136" lon="17.4668958">
        <ele>193</ele>
        <time>2025-07-13T06:28:06Z</time>
      </trkpt>
      <trkpt lat="47.32928366" lon="17.46681291">
        <ele>195</ele>
        <time>2025-07-13T06:28:10Z</time>
      </trkpt>
      <trkpt lat="47.32939329" lon="17.46674895">
        <ele>196</ele>
        <time>2025-07-13T06:28:15Z</time>
      </trkpt>
      <trkpt lat="47.32946735" lon="17.46687703">
        <ele>197</ele>
        <time>2025-07-13T06:28:19Z</time>
      </trkpt>
      <trkpt lat="47.32952363" lon="17.46699412">
        <ele>197</ele>
        <time>2025-07-13T06:28:22Z</time>
      </trkpt>
      <trkpt lat="47.32957183" lon="17.46712572">
        <ele>195</ele>
        <time>2025-07-13T06:28:25Z</time>
      </trkpt>
      <trkpt lat="47.32960443" lon="17.46726486">
        <ele>195</ele>
        <time>2025-07-13T06:28:28Z</time>
      </trkpt>
      <trkpt lat="47.32962593" lon="17.46740199">
        <ele>194</ele>
        <time>2025-07-13T06:28:31Z</time>
      </trkpt>
      <trkpt lat="47.32969597" lon="17.46754649">
        <ele>193</ele>
        <time>2025-07-13T06:28:35Z</time>
      </trkpt>
      <trkpt lat="47.32979311" lon="17.46765135">
        <ele>193</ele>
        <time>2025-07-13T06:28:39Z</time>
      </trkpt>
      <trkpt lat="47.32986411" lon="17.46773978">
        <ele>190</ele>
        <time>2025-07-13T06:28:42Z</time>
      </trkpt>
      <trkpt lat="47.3299755" lon="17.46772209">
        <ele>189</ele>
        <time>2025-07-13T06:28:48Z</time>
      </trkpt>
      <trkpt lat="47.33005676" lon="17.4676459">
        <ele>188</ele>
        <time>2025-07-13T06:28:53Z</time>
      </trkpt>
      <trkpt lat="47.33014947" lon="17.46754498">
        <ele>187</ele>
        <time>2025-07-13T06:28:57Z</time>
      </trkpt>
      <trkpt lat="47.33021602" lon="17.46744574">
        <ele>187</ele>
        <time>2025-07-13T06:29:00Z</time>
      </trkpt>
      <trkpt lat="47.33027298" lon="17.46734088">
        <ele>188</ele>
        <time>2025-07-13T06:29:03Z</time>
      </trkpt>
      <trkpt lat="47.3303301" lon="17.46723125">
        <ele>188</ele>
        <time>2025-07-13T06:29:07Z</time>
      </trkpt>
      <trkpt lat="47.33041421" lon="17.46712698">
        <ele>190</ele>
        <time>2025-07-13T06:29:11Z</time>
      </trkpt>
      <trkpt lat="47.33049325" lon="17.46699932">
        <ele>189</ele>
        <time>2025-07-13T06:29:15Z</time>
      </trkpt>
      <trkpt lat="47.33055997" lon="17.46690972">
        <ele>188</ele>
        <time>2025-07-13T06:29:18Z</time>
      </trkpt>
      <trkpt lat="47.3306287" lon="17.46680897">
        <ele>190</ele>
        <time>2025-07-13T06:29:21Z</time>
      </trkpt>
      <trkpt lat="47.33071399" lon="17.46674946">
        <ele>194</ele>
        <time>2025-07-13T06:29:26Z</time>
      </trkpt>
      <trkpt lat="47.33077975" lon="17.46665541">
        <ele>194</ele>
        <time>2025-07-13T06:29:31Z</time>
      </trkpt>
      <trkpt lat="47.3308331" lon="17.46653622">
        <ele>194</ele>
        <time>2025-07-13T06:29:34Z</time>
      </trkpt>
      <trkpt lat="47.33090656" lon="17.46642005">
        <ele>194</ele>
        <time>2025-07-13T06:29:37Z</time>
      </trkpt>
      <trkpt lat="47.33100304" lon="17.46630999">
        <ele>193</ele>
        <time>2025-07-13T06:29:41Z</time>
      </trkpt>
      <trkpt lat="47.33110006" lon="17.46622031">
        <ele>194</ele>
        <time>2025-07-13T06:29:45Z</time>
      </trkpt>
      <trkpt lat="47.33120286" lon="17.46614495">
        <ele>194</ele>
        <time>2025-07-13T06:29:49Z</time>
      </trkpt>
      <trkpt lat="47.33130152" lon="17.46606356">
        <ele>195</ele>
        <time>2025-07-13T06:29:53Z</time>
      </trkpt>
      <trkpt lat="47.33138798" lon="17.46599081">
        <ele>196</ele>
        <time>2025-07-13T06:29:56Z</time>
      </trkpt>
      <trkpt lat="47.33146777" lon="17.46592702">
        <ele>196</ele>
        <time>2025-07-13T06:29:59Z</time>
      </trkpt>
      <trkpt lat="47.3315461" lon="17.46584622">
        <ele>195</ele>
        <time>2025-07-13T06:30:02Z</time>
      </trkpt>
      <trkpt lat="47.33162263" lon="17.46577447">
        <ele>196</ele>
        <time>2025-07-13T06:30:05Z</time>
      </trkpt>
      <trkpt lat="47.33170511" lon="17.46570666">
        <ele>195</ele>
        <time>2025-07-13T06:30:08Z</time>
      </trkpt>
      <trkpt lat="47.33178792" lon="17.46563919">
        <ele>194</ele>
        <time>2025-07-13T06:30:11Z</time>
      </trkpt>
      <trkpt lat="47.33190791" lon="17.46560063">
        <ele>193</ele>
        <time>2025-07-13T06:30:15Z</time>
      </trkpt>
      <trkpt lat="47.33201675" lon="17.46567582">
        <ele>193</ele>
        <time>2025-07-13T06:30:19Z</time>
      </trkpt>
      <trkpt lat="47.33209252" lon="17.46575209">
        <ele>189</ele>
        <time>2025-07-13T06:30:25Z</time>
      </trkpt>
      <trkpt lat="47.3321698" lon="17.46584354">
        <ele>189</ele>
        <time>2025-07-13T06:30:29Z</time>
      </trkpt>
      <trkpt lat="47.33224394" lon="17.46596659">
        <ele>189</ele>
        <time>2025-07-13T06:30:32Z</time>
      </trkpt>
      <trkpt lat="47.33229398" lon="17.46611528">
        <ele>188</ele>
        <time>2025-07-13T06:30:35Z</time>
      </trkpt>
      <trkpt lat="47.3323405" lon="17.46624897">
        <ele>188</ele>
        <time>2025-07-13T06:30:38Z</time>
      </trkpt>
      <trkpt lat="47.33239272" lon="17.46638216">
        <ele>188</ele>
        <time>2025-07-13T06:30:41Z</time>
      </trkpt>
      <trkpt lat="47.33243567" lon="17.46650814">
        <ele>188</ele>
        <time>2025-07-13T06:30:44Z</time>
      </trkpt>
      <trkpt lat="47.33249133" lon="17.46664426">
        <ele>189</ele>
        <time>2025-07-13T06:30:48Z</time>
      </trkpt>
      <trkpt lat="47.33252691" lon="17.46677971">
        <ele>189</ele>
        <time>2025-07-13T06:30:51Z</time>
      </trkpt>
      <trkpt lat="47.33259476" lon="17.46666656">
        <ele>185</ele>
        <time>2025-07-13T06:30:59Z</time>
      </trkpt>
      <trkpt lat="47.33268336" lon="17.46659942">
        <ele>185</ele>
        <time>2025-07-13T06:31:02Z</time>
      </trkpt>
      <trkpt lat="47.33277963" lon="17.46653211">
        <ele>185</ele>
        <time>2025-07-13T06:31:05Z</time>
      </trkpt>
      <trkpt lat="47.33286864" lon="17.46645735">
        <ele>184</ele>
        <time>2025-07-13T06:31:08Z</time>
      </trkpt>
      <trkpt lat="47.33295669" lon="17.4663882">
        <ele>185</ele>
        <time>2025-07-13T06:31:11Z</time>
      </trkpt>
      <trkpt lat="47.33305841" lon="17.4663198">
        <ele>186</ele>
        <time>2025-07-13T06:31:15Z</time>
      </trkpt>
      <trkpt lat="47.33316285" lon="17.46625333">
        <ele>186</ele>
        <time>2025-07-13T06:31:20Z</time>
      </trkpt>
      <trkpt lat="47.3332672" lon="17.46625258">
        <ele>186</ele>
        <time>2025-07-13T06:31:23Z</time>
      </trkpt>
      <trkpt lat="47.33336938" lon="17.46630882">
        <ele>186</ele>
        <time>2025-07-13T06:31:26Z</time>
      </trkpt>
      <trkpt lat="47.33343559" lon="17.46641334">
        <ele>187</ele>
        <time>2025-07-13T06:31:29Z</time>
      </trkpt>
      <trkpt lat="47.33348542" lon="17.46652499">
        <ele>184</ele>
        <time>2025-07-13T06:31:39Z</time>
      </trkpt>
      <trkpt lat="47.33352415" lon="17.4666705">
        <ele>183</ele>
        <time>2025-07-13T06:31:43Z</time>
      </trkpt>
      <trkpt lat="47.33355612" lon="17.46683319">
        <ele>184</ele>
        <time>2025-07-13T06:31:47Z</time>
      </trkpt>
      <trkpt lat="47.33357674" lon="17.46697954">
        <ele>184</ele>
        <time>2025-07-13T06:31:50Z</time>
      </trkpt>
      <trkpt lat="47.33361295" lon="17.46715313">
        <ele>183</ele>
        <time>2025-07-13T06:31:54Z</time>
      </trkpt>
      <trkpt lat="47.33363395" lon="17.46730828">
        <ele>182</ele>
        <time>2025-07-13T06:31:57Z</time>
      </trkpt>
      <trkpt lat="47.33364506" lon="17.46744524">
        <ele>182</ele>
        <time>2025-07-13T06:32:00Z</time>
      </trkpt>
      <trkpt lat="47.33367012" lon="17.46757281">
        <ele>182</ele>
        <time>2025-07-13T06:32:03Z</time>
      </trkpt>
      <trkpt lat="47.33367729" lon="17.46770692">
        <ele>182</ele>
        <time>2025-07-13T06:32:06Z</time>
      </trkpt>
      <trkpt lat="47.33366962" lon="17.46787313">
        <ele>181</ele>
        <time>2025-07-13T06:32:10Z</time>
      </trkpt>
      <trkpt lat="47.33366501" lon="17.4680448">
        <ele>181</ele>
        <time>2025-07-13T06:32:14Z</time>
      </trkpt>
      <trkpt lat="47.33367473" lon="17.46822626">
        <ele>180</ele>
        <time>2025-07-13T06:32:18Z</time>
      </trkpt>
      <trkpt lat="47.33370784" lon="17.46838577">
        <ele>181</ele>
        <time>2025-07-13T06:32:21Z</time>
      </trkpt>
      <trkpt lat="47.33375176" lon="17.46852256">
        <ele>180</ele>
        <time>2025-07-13T06:32:24Z</time>
      </trkpt>
      <trkpt lat="47.33379304" lon="17.46866531">
        <ele>179</ele>
        <time>2025-07-13T06:32:27Z</time>
      </trkpt>
      <trkpt lat="47.33384656" lon="17.46881073">
        <ele>180</ele>
        <time>2025-07-13T06:32:30Z</time>
      </trkpt>
      <trkpt lat="47.33388859" lon="17.46893638">
        <ele>181</ele>
        <time>2025-07-13T06:32:33Z</time>
      </trkpt>
      <trkpt lat="47.33391822" lon="17.4691041">
        <ele>183</ele>
        <time>2025-07-13T06:32:37Z</time>
      </trkpt>
      <trkpt lat="47.33393792" lon="17.46924441">
        <ele>184</ele>
        <time>2025-07-13T06:32:40Z</time>
      </trkpt>
      <trkpt lat="47.33396143" lon="17.46939696">
        <ele>184</ele>
        <time>2025-07-13T06:32:43Z</time>
      </trkpt>
      <trkpt lat="47.33401306" lon="17.46955572">
        <ele>184</ele>
        <time>2025-07-13T06:32:47Z</time>
      </trkpt>
      <trkpt lat="47.33404529" lon="17.46969377">
        <ele>183</ele>
        <time>2025-07-13T06:32:51Z</time>
      </trkpt>
      <trkpt lat="47.33412974" lon="17.46981665">
        <ele>184</ele>
        <time>2025-07-13T06:32:55Z</time>
      </trkpt>
      <trkpt lat="47.33421888" lon="17.46991555">
        <ele>184</ele>
        <time>2025-07-13T06:32:59Z</time>
      </trkpt>
      <trkpt lat="47.33428036" lon="17.47001831">
        <ele>183</ele>
        <time>2025-07-13T06:33:02Z</time>
      </trkpt>
      <trkpt lat="47.33434482" lon="17.47015779">
        <ele>184</ele>
        <time>2025-07-13T06:33:06Z</time>
      </trkpt>
      <trkpt lat="47.33440404" lon="17.47026365">
        <ele>183</ele>
        <time>2025-07-13T06:33:09Z</time>
      </trkpt>
      <trkpt lat="47.33446468" lon="17.47039609">
        <ele>180</ele>
        <time>2025-07-13T06:33:13Z</time>
      </trkpt>
      <trkpt lat="47.33450659" lon="17.47051561">
        <ele>179</ele>
        <time>2025-07-13T06:33:16Z</time>
      </trkpt>
      <trkpt lat="47.33454779" lon="17.47068241">
        <ele>179</ele>
        <time>2025-07-13T06:33:20Z</time>
      </trkpt>
      <trkpt lat="47.33460361" lon="17.47082046">
        <ele>180</ele>
        <time>2025-07-13T06:33:23Z</time>
      </trkpt>
      <trkpt lat="47.3346283" lon="17.47097075">
        <ele>179</ele>
        <time>2025-07-13T06:33:26Z</time>
      </trkpt>
      <trkpt lat="47.33461388" lon="17.47111182">
        <ele>179</ele>
        <time>2025-07-13T06:33:29Z</time>
      </trkpt>
      <trkpt lat="47.33461903" lon="17.47125121">
        <ele>179</ele>
        <time>2025-07-13T06:33:32Z</time>
      </trkpt>
      <trkpt lat="47.33459142" lon="17.47140066">
        <ele>179</ele>
        <time>2025-07-13T06:33:36Z</time>
      </trkpt>
      <trkpt lat="47.33452176" lon="17.47153611">
        <ele>178</ele>
        <time>2025-07-13T06:33:40Z</time>
      </trkpt>
      <trkpt lat="47.334448" lon="17.47163326">
        <ele>178</ele>
        <time>2025-07-13T06:33:43Z</time>
      </trkpt>
      <trkpt lat="47.33437596" lon="17.47173753">
        <ele>178</ele>
        <time>2025-07-13T06:33:46Z</time>
      </trkpt>
      <trkpt lat="47.33428795" lon="17.47183576">
        <ele>178</ele>
        <time>2025-07-13T06:33:49Z</time>
      </trkpt>
      <trkpt lat="47.33419164" lon="17.47191556">
        <ele>177</ele>
        <time>2025-07-13T06:33:52Z</time>
      </trkpt>
      <trkpt lat="47.3340867" lon="17.47198555">
        <ele>176</ele>
        <time>2025-07-13T06:33:55Z</time>
      </trkpt>
      <trkpt lat="47.33398846" lon="17.47205763">
        <ele>177</ele>
        <time>2025-07-13T06:33:58Z</time>
      </trkpt>
      <trkpt lat="47.33388972" lon="17.47213759">
        <ele>177</ele>
        <time>2025-07-13T06:34:01Z</time>
      </trkpt>
      <trkpt lat="47.3337943" lon="17.47221253">
        <ele>177</ele>
        <time>2025-07-13T06:34:04Z</time>
      </trkpt>
      <trkpt lat="47.33369778" lon="17.47227254">
        <ele>177</ele>
        <time>2025-07-13T06:34:07Z</time>
      </trkpt>
      <trkpt lat="47.33360453" lon="17.47229492">
        <ele>177</ele>
        <time>2025-07-13T06:34:10Z</time>
      </trkpt>
      <trkpt lat="47.33348873" lon="17.47230615">
        <ele>177</ele>
        <time>2025-07-13T06:34:14Z</time>
      </trkpt>
      <trkpt lat="47.33339033" lon="17.47229417">
        <ele>178</ele>
        <time>2025-07-13T06:34:17Z</time>
      </trkpt>
      <trkpt lat="47.33329084" lon="17.4722676">
        <ele>179</ele>
        <time>2025-07-13T06:34:20Z</time>
      </trkpt>
      <trkpt lat="47.33320656" lon="17.47222108">
        <ele>180</ele>
        <time>2025-07-13T06:34:23Z</time>
      </trkpt>
      <trkpt lat="47.33312035" lon="17.4721785">
        <ele>180</ele>
        <time>2025-07-13T06:34:26Z</time>
      </trkpt>
      <trkpt lat="47.33304772" lon="17.47202888">
        <ele>181</ele>
        <time>2025-07-13T06:34:30Z</time>
      </trkpt>
      <trkpt lat="47.33301788" lon="17.47190307">
        <ele>181</ele>
        <time>2025-07-13T06:34:33Z</time>
      </trkpt>
      <trkpt lat="47.3329753" lon="17.47174549">
        <ele>180</ele>
        <time>2025-07-13T06:34:37Z</time>
      </trkpt>
      <trkpt lat="47.33295456" lon="17.47161507">
        <ele>179</ele>
        <time>2025-07-13T06:34:40Z</time>
      </trkpt>
      <trkpt lat="47.33295678" lon="17.47146486">
        <ele>178</ele>
        <time>2025-07-13T06:34:43Z</time>
      </trkpt>
      <trkpt lat="47.33295602" lon="17.47132044">
        <ele>178</ele>
        <time>2025-07-13T06:34:46Z</time>
      </trkpt>
      <trkpt lat="47.33293976" lon="17.47116957">
        <ele>179</ele>
        <time>2025-07-13T06:34:49Z</time>
      </trkpt>
      <trkpt lat="47.33292572" lon="17.47103127">
        <ele>180</ele>
        <time>2025-07-13T06:34:52Z</time>
      </trkpt>
      <trkpt lat="47.33291055" lon="17.47085583">
        <ele>179</ele>
        <time>2025-07-13T06:34:56Z</time>
      </trkpt>
      <trkpt lat="47.33288746" lon="17.47068459">
        <ele>180</ele>
        <time>2025-07-13T06:35:00Z</time>
      </trkpt>
      <trkpt lat="47.33287388" lon="17.47055241">
        <ele>179</ele>
        <time>2025-07-13T06:35:03Z</time>
      </trkpt>
      <trkpt lat="47.33276705" lon="17.4704711">
        <ele>179</ele>
        <time>2025-07-13T06:35:07Z</time>
      </trkpt>
      <trkpt lat="47.33271253" lon="17.47031168">
        <ele>179</ele>
        <time>2025-07-13T06:35:10Z</time>
      </trkpt>
      <trkpt lat="47.33268734" lon="17.47015519">
        <ele>180</ele>
        <time>2025-07-13T06:35:13Z</time>
      </trkpt>
      <trkpt lat="47.33267686" lon="17.47002301">
        <ele>181</ele>
        <time>2025-07-13T06:35:16Z</time>
      </trkpt>
      <trkpt lat="47.33266513" lon="17.46984011">
        <ele>181</ele>
        <time>2025-07-13T06:35:20Z</time>
      </trkpt>
      <trkpt lat="47.33264455" lon="17.46969695">
        <ele>181</ele>
        <time>2025-07-13T06:35:23Z</time>
      </trkpt>
      <trkpt lat="47.33264057" lon="17.46956008">
        <ele>181</ele>
        <time>2025-07-13T06:35:26Z</time>
      </trkpt>
      <trkpt lat="47.33262888" lon="17.46941582">
        <ele>181</ele>
        <time>2025-07-13T06:35:29Z</time>
      </trkpt>
      <trkpt lat="47.33262586" lon="17.46927266">
        <ele>181</ele>
        <time>2025-07-13T06:35:32Z</time>
      </trkpt>
      <trkpt lat="47.33262108" lon="17.46910385">
        <ele>182</ele>
        <time>2025-07-13T06:35:36Z</time>
      </trkpt>
      <trkpt lat="47.33258433" lon="17.46897267">
        <ele>182</ele>
        <time>2025-07-13T06:35:39Z</time>
      </trkpt>
      <trkpt lat="47.33247352" lon="17.46891811">
        <ele>183</ele>
        <time>2025-07-13T06:35:43Z</time>
      </trkpt>
      <trkpt lat="47.33237784" lon="17.46894459">
        <ele>182</ele>
        <time>2025-07-13T06:35:46Z</time>
      </trkpt>
      <trkpt lat="47.33229431" lon="17.46900285">
        <ele>182</ele>
        <time>2025-07-13T06:35:49Z</time>
      </trkpt>
      <trkpt lat="47.33219549" lon="17.46910058">
        <ele>183</ele>
        <time>2025-07-13T06:35:53Z</time>
      </trkpt>
      <trkpt lat="47.3321102" lon="17.46918859">
        <ele>182</ele>
        <time>2025-07-13T06:35:56Z</time>
      </trkpt>
      <trkpt lat="47.33202965" lon="17.46926302">
        <ele>182</ele>
        <time>2025-07-13T06:35:59Z</time>
      </trkpt>
      <trkpt lat="47.33194663" lon="17.46934684">
        <ele>182</ele>
        <time>2025-07-13T06:36:02Z</time>
      </trkpt>
      <trkpt lat="47.33186587" lon="17.46941985">
        <ele>183</ele>
        <time>2025-07-13T06:36:05Z</time>
      </trkpt>
      <trkpt lat="47.33178742" lon="17.46948958">
        <ele>183</ele>
        <time>2025-07-13T06:36:08Z</time>
      </trkpt>
      <trkpt lat="47.33170817" lon="17.46956963">
        <ele>183</ele>
        <time>2025-07-13T06:36:11Z</time>
      </trkpt>
      <trkpt lat="47.33162317" lon="17.46964767">
        <ele>184</ele>
        <time>2025-07-13T06:36:14Z</time>
      </trkpt>
      <trkpt lat="47.33154191" lon="17.46971413">
        <ele>185</ele>
        <time>2025-07-13T06:36:17Z</time>
      </trkpt>
      <trkpt lat="47.33146266" lon="17.46977792">
        <ele>186</ele>
        <time>2025-07-13T06:36:20Z</time>
      </trkpt>
      <trkpt lat="47.33138291" lon="17.46984305">
        <ele>186</ele>
        <time>2025-07-13T06:36:23Z</time>
      </trkpt>
      <trkpt lat="47.33128455" lon="17.46992301">
        <ele>187</ele>
        <time>2025-07-13T06:36:27Z</time>
      </trkpt>
      <trkpt lat="47.33120203" lon="17.46999082">
        <ele>188</ele>
        <time>2025-07-13T06:36:30Z</time>
      </trkpt>
      <trkpt lat="47.33111456" lon="17.47010289">
        <ele>187</ele>
        <time>2025-07-13T06:36:34Z</time>
      </trkpt>
      <trkpt lat="47.33102437" lon="17.47020649">
        <ele>186</ele>
        <time>2025-07-13T06:36:38Z</time>
      </trkpt>
      <trkpt lat="47.33092605" lon="17.47030556">
        <ele>186</ele>
        <time>2025-07-13T06:36:42Z</time>
      </trkpt>
      <trkpt lat="47.33083129" lon="17.47040489">
        <ele>186</ele>
        <time>2025-07-13T06:36:46Z</time>
      </trkpt>
      <trkpt lat="47.33073243" lon="17.47049868">
        <ele>185</ele>
        <time>2025-07-13T06:36:50Z</time>
      </trkpt>
      <trkpt lat="47.33065863" lon="17.47058703">
        <ele>184</ele>
        <time>2025-07-13T06:36:53Z</time>
      </trkpt>
      <trkpt lat="47.33055134" lon="17.4706545">
        <ele>184</ele>
        <time>2025-07-13T06:36:57Z</time>
      </trkpt>
      <trkpt lat="47.33045235" lon="17.47073966">
        <ele>184</ele>
        <time>2025-07-13T06:37:01Z</time>
      </trkpt>
      <trkpt lat="47.33036513" lon="17.47082692">
        <ele>184</ele>
        <time>2025-07-13T06:37:05Z</time>
      </trkpt>
      <trkpt lat="47.33031916" lon="17.47071108">
        <ele>184</ele>
        <time>2025-07-13T06:37:10Z</time>
      </trkpt>
      <trkpt lat="47.330249" lon="17.47060572">
        <ele>183</ele>
        <time>2025-07-13T06:37:13Z</time>
      </trkpt>
      <trkpt lat="47.33014297" lon="17.47054612">
        <ele>184</ele>
        <time>2025-07-13T06:37:17Z</time>
      </trkpt>
      <trkpt lat="47.33005236" lon="17.47054763">
        <ele>184</ele>
        <time>2025-07-13T06:37:20Z</time>
      </trkpt>
      <trkpt lat="47.32996096" lon="17.4705514">
        <ele>184</ele>
        <time>2025-07-13T06:37:23Z</time>
      </trkpt>
      <trkpt lat="47.32987567" lon="17.47048661">
        <ele>183</ele>
        <time>2025-07-13T06:37:26Z</time>
      </trkpt>
      <trkpt lat="47.32978959" lon="17.47037153">
        <ele>184</ele>
        <time>2025-07-13T06:37:30Z</time>
      </trkpt>
      <trkpt lat="47.32973109" lon="17.4702603">
        <ele>183</ele>
        <time>2025-07-13T06:37:36Z</time>
      </trkpt>
      <trkpt lat="47.32968457" lon="17.47011856">
        <ele>184</ele>
        <time>2025-07-13T06:37:41Z</time>
      </trkpt>
      <trkpt lat="47.32963712" lon="17.46997565">
        <ele>185</ele>
        <time>2025-07-13T06:37:45Z</time>
      </trkpt>
      <trkpt lat="47.32956709" lon="17.46984615">
        <ele>185</ele>
        <time>2025-07-13T06:37:49Z</time>
      </trkpt>
      <trkpt lat="47.32949882" lon="17.46970441">
        <ele>185</ele>
        <time>2025-07-13T06:37:53Z</time>
      </trkpt>
      <trkpt lat="47.32942552" lon="17.46961481">
        <ele>185</ele>
        <time>2025-07-13T06:37:56Z</time>
      </trkpt>
      <trkpt lat="47.32933911" lon="17.46946293">
        <ele>186</ele>
        <time>2025-07-13T06:38:00Z</time>
      </trkpt>
      <trkpt lat="47.32928391" lon="17.46932773">
        <ele>186</ele>
        <time>2025-07-13T06:38:04Z</time>
      </trkpt>
      <trkpt lat="47.32933533" lon="17.46921734">
        <ele>189</ele>
        <time>2025-07-13T06:38:10Z</time>
      </trkpt>
      <trkpt lat="47.32942904" lon="17.46913805">
        <ele>191</ele>
        <time>2025-07-13T06:38:14Z</time>
      </trkpt>
      <trkpt lat="47.32952803" lon="17.46911676">
        <ele>190</ele>
        <time>2025-07-13T06:38:17Z</time>
      </trkpt>
      <trkpt lat="47.32963444" lon="17.46909002">
        <ele>190</ele>
        <time>2025-07-13T06:38:20Z</time>
      </trkpt>
      <trkpt lat="47.32972555" lon="17.46906261">
        <ele>190</ele>
        <time>2025-07-13T06:38:23Z</time>
      </trkpt>
      <trkpt lat="47.32981884" lon="17.46900134">
        <ele>190</ele>
        <time>2025-07-13T06:38:26Z</time>
      </trkpt>
      <trkpt lat="47.32990983" lon="17.46891735">
        <ele>191</ele>
        <time>2025-07-13T06:38:29Z</time>
      </trkpt>
      <trkpt lat="47.32999407" lon="17.46885256">
        <ele>190</ele>
        <time>2025-07-13T06:38:32Z</time>
      </trkpt>
      <trkpt lat="47.33007018" lon="17.46876991">
        <ele>190</ele>
        <time>2025-07-13T06:38:35Z</time>
      </trkpt>
      <trkpt lat="47.33004243" lon="17.46861309">
        <ele>191</ele>
        <time>2025-07-13T06:38:39Z</time>
      </trkpt>
      <trkpt lat="47.32998577" lon="17.46849809">
        <ele>191</ele>
        <time>2025-07-13T06:38:42Z</time>
      </trkpt>
      <trkpt lat="47.32994021" lon="17.46837705">
        <ele>191</ele>
        <time>2025-07-13T06:38:45Z</time>
      </trkpt>
      <trkpt lat="47.32989529" lon="17.46823741">
        <ele>193</ele>
        <time>2025-07-13T06:38:49Z</time>
      </trkpt>
      <trkpt lat="47.32988959" lon="17.46807614">
        <ele>192</ele>
        <time>2025-07-13T06:38:54Z</time>
      </trkpt>
      <trkpt lat="47.32983544" lon="17.46819533">
        <ele>192</ele>
        <time>2025-07-13T06:39:04Z</time>
      </trkpt>
      <trkpt lat="47.32974894" lon="17.46829877">
        <ele>204</ele>
        <time>2025-07-13T06:39:14Z</time>
      </trkpt>
      <trkpt lat="47.32966684" lon="17.46838577">
        <ele>204</ele>
        <time>2025-07-13T06:39:18Z</time>
      </trkpt>
      <trkpt lat="47.3295673" lon="17.46844847">
        <ele>203</ele>
        <time>2025-07-13T06:39:22Z</time>
      </trkpt>
      <trkpt lat="47.32948164" lon="17.46850639">
        <ele>202</ele>
        <time>2025-07-13T06:39:25Z</time>
      </trkpt>
      <trkpt lat="47.32939325" lon="17.46858006">
        <ele>202</ele>
        <time>2025-07-13T06:39:28Z</time>
      </trkpt>
      <trkpt lat="47.32931417" lon="17.4686591">
        <ele>203</ele>
        <time>2025-07-13T06:39:31Z</time>
      </trkpt>
      <trkpt lat="47.32922859" lon="17.46873764">
        <ele>201</ele>
        <time>2025-07-13T06:39:34Z</time>
      </trkpt>
      <trkpt lat="47.32914858" lon="17.46882104">
        <ele>200</ele>
        <time>2025-07-13T06:39:37Z</time>
      </trkpt>
      <trkpt lat="47.32904205" lon="17.46885147">
        <ele>198</ele>
        <time>2025-07-13T06:39:41Z</time>
      </trkpt>
      <trkpt lat="47.32894671" lon="17.46876027">
        <ele>198</ele>
        <time>2025-07-13T06:39:45Z</time>
      </trkpt>
      <trkpt lat="47.32889922" lon="17.46863974">
        <ele>196</ele>
        <time>2025-07-13T06:39:48Z</time>
      </trkpt>
      <trkpt lat="47.32882806" lon="17.46852516">
        <ele>196</ele>
        <time>2025-07-13T06:39:51Z</time>
      </trkpt>
      <trkpt lat="47.32876352" lon="17.46840949">
        <ele>194</ele>
        <time>2025-07-13T06:39:54Z</time>
      </trkpt>
      <trkpt lat="47.32870397" lon="17.46827982">
        <ele>194</ele>
        <time>2025-07-13T06:39:58Z</time>
      </trkpt>
      <trkpt lat="47.32865694" lon="17.4681541">
        <ele>194</ele>
        <time>2025-07-13T06:40:02Z</time>
      </trkpt>
      <trkpt lat="47.32860062" lon="17.46799207">
        <ele>193</ele>
        <time>2025-07-13T06:40:06Z</time>
      </trkpt>
      <trkpt lat="47.32855326" lon="17.46786953">
        <ele>193</ele>
        <time>2025-07-13T06:40:09Z</time>
      </trkpt>
      <trkpt lat="47.32851705" lon="17.46773156">
        <ele>193</ele>
        <time>2025-07-13T06:40:12Z</time>
      </trkpt>
      <trkpt lat="47.3284834" lon="17.46756988">
        <ele>193</ele>
        <time>2025-07-13T06:40:16Z</time>
      </trkpt>
      <trkpt lat="47.32854408" lon="17.46744918">
        <ele>191</ele>
        <time>2025-07-13T06:40:21Z</time>
      </trkpt>
    </trkseg>
  </trk>
</gpx>